{
"type": "FeatureCollection",
"name": "West_Zone2",
"crs": { "type": "name", "properties": { "name": "urn:ogc:def:crs:OGC:1.3:CRS84" } },
"features": [
{ "type": "Feature", "properties": { "region_id": "zone_GBA_West_7", "name": "West (Z7)", "parent": "corp_GBA_West", "parent_name": "West" }, "geometry": { "type": "Polygon", "coordinates": [ [ [ 77.539181160994403, 12.9337017109259 ], [ 77.539012322377502, 12.9337993485859 ], [ 77.538887601242095, 12.933876228557001 ], [ 77.538763444224998, 12.9339519736496 ], [ 77.538016579330602, 12.934387263146601 ], [ 77.537613045187598, 12.9346170582472 ], [ 77.537346320683, 12.934769855895 ], [ 77.537104775108006, 12.934907726924401 ], [ 77.537049258689393, 12.9349398885924 ], [ 77.536825431711904, 12.935065164278701 ], [ 77.536547216355402, 12.9352203317367 ], [ 77.536422426119302, 12.9352904435261 ], [ 77.536240390259294, 12.935392717353601 ], [ 77.53621404818, 12.9354065256578 ], [ 77.535719201658395, 12.9356586639711 ], [ 77.535077687891203, 12.935981117342701 ], [ 77.534508359964804, 12.9362689874855 ], [ 77.534248853158502, 12.936509801236999 ], [ 77.534131778019798, 12.9366600124438 ], [ 77.533998524232004, 12.937089328794199 ], [ 77.533889354839701, 12.937395312595701 ], [ 77.533846502202707, 12.937541414417201 ], [ 77.533822998401902, 12.937608274125299 ], [ 77.533626388618501, 12.937920754361899 ], [ 77.533447623217796, 12.938233061135 ], [ 77.533373671726693, 12.9383447933591 ], [ 77.533161258863899, 12.9386649945 ], [ 77.533019099467495, 12.938896762011201 ], [ 77.532872978763507, 12.9391353440415 ], [ 77.532666865975997, 12.939476149888399 ], [ 77.532269343404806, 12.9401316436059 ], [ 77.531877233405694, 12.940753204122201 ], [ 77.531163362709407, 12.9420080639864 ], [ 77.531126595222204, 12.9420727937426 ], [ 77.530870937895401, 12.942524755976599 ], [ 77.530515702927403, 12.9432069422241 ], [ 77.530422845867605, 12.943361434879399 ], [ 77.530209779766906, 12.9435272586952 ], [ 77.530113725076902, 12.943650160632499 ], [ 77.5299842650752, 12.9438287248223 ], [ 77.529839791848403, 12.9441169813451 ], [ 77.529632451999106, 12.9444510219511 ], [ 77.529557582046806, 12.9445624246805 ], [ 77.529505248353701, 12.944625046736 ], [ 77.529444257006205, 12.9446854941244 ], [ 77.529210260442696, 12.9448311923259 ], [ 77.5290337328302, 12.9449097011537 ], [ 77.528915084458106, 12.9449616732152 ], [ 77.528566178344093, 12.9450734762674 ], [ 77.528257949941704, 12.9451656853391 ], [ 77.528107184529901, 12.945172794759101 ], [ 77.527890263973006, 12.9451850632374 ], [ 77.528018816713995, 12.945315949890601 ], [ 77.527966002991903, 12.9454452079214 ], [ 77.527915065444802, 12.945475065115501 ], [ 77.526467409310101, 12.9457872528381 ], [ 77.526387021755696, 12.945808360513601 ], [ 77.5263835791757, 12.9458095232395 ], [ 77.526429452086504, 12.9463624596159 ], [ 77.526451964577404, 12.946425484893799 ], [ 77.526545847128403, 12.9472862679602 ], [ 77.526649935049406, 12.9480170767371 ], [ 77.526646775476493, 12.948160534692301 ], [ 77.526643063018, 12.9483062567066 ], [ 77.526643108554097, 12.948310773660699 ], [ 77.526648863674197, 12.948424782087599 ], [ 77.526662260341595, 12.9486685915252 ], [ 77.526687269962693, 12.949150580929301 ], [ 77.526707359966906, 12.949258803566501 ], [ 77.526790849078907, 12.949716509383199 ], [ 77.526792102890496, 12.9497266613602 ], [ 77.526842814740704, 12.950074008858801 ], [ 77.526863189628699, 12.950210462405099 ], [ 77.5268972689706, 12.9504427704079 ], [ 77.526910807089607, 12.950536382239999 ], [ 77.526938734147905, 12.950679538593601 ], [ 77.526984323693, 12.950918518213699 ], [ 77.527028648139705, 12.9511462165962 ], [ 77.527034125286093, 12.9511755265187 ], [ 77.527034757900296, 12.951181167123501 ], [ 77.527071937443793, 12.9513863496355 ], [ 77.527112794507303, 12.9516118211054 ], [ 77.527145127480196, 12.9517922031325 ], [ 77.527149994826402, 12.9518181309182 ], [ 77.527190255846406, 12.9520424805871 ], [ 77.527207929934406, 12.952139433046799 ], [ 77.527223911190305, 12.9522397899723 ], [ 77.5272957530524, 12.9526840560429 ], [ 77.527297628161307, 12.952698719373 ], [ 77.527334481111495, 12.952927619422701 ], [ 77.527339992545706, 12.9529603170339 ], [ 77.527382323678694, 12.953104462798899 ], [ 77.5274479378959, 12.953330824997 ], [ 77.527506359322203, 12.953529023263499 ], [ 77.527548970663602, 12.953664669933699 ], [ 77.527611050937494, 12.9538622941617 ], [ 77.527915598355904, 12.954716512933601 ], [ 77.527957138091196, 12.9548392085609 ], [ 77.528073470135496, 12.9551847888624 ], [ 77.5280903299888, 12.955237769555501 ], [ 77.528496230226594, 12.9565133136377 ], [ 77.528570567614807, 12.9566910285488 ], [ 77.5286288030115, 12.9568135618031 ], [ 77.528631174153304, 12.9568203148563 ], [ 77.528507088579602, 12.9569615588992 ], [ 77.528406976446107, 12.9570822418593 ], [ 77.528385260010793, 12.9570982636009 ], [ 77.528044602289896, 12.957344381081599 ], [ 77.527751959606704, 12.957556151647299 ], [ 77.527742805610202, 12.9575618872574 ], [ 77.527271892858096, 12.957814281024399 ], [ 77.526884408761902, 12.9580219589409 ], [ 77.526341897817503, 12.9582914913473 ], [ 77.526094407650405, 12.958413603773399 ], [ 77.525803615204893, 12.9585237132837 ], [ 77.525449160014304, 12.958658156416799 ], [ 77.525269053795398, 12.9587254057487 ], [ 77.525179473849903, 12.958748861640499 ], [ 77.524919052726304, 12.958816167887999 ], [ 77.524503006636294, 12.958923695363101 ], [ 77.524178887568993, 12.958976975911501 ], [ 77.524013856034998, 12.9590041047288 ], [ 77.523644603470402, 12.9590415650003 ], [ 77.523396707901895, 12.959066554974999 ], [ 77.523023470447001, 12.959110652947601 ], [ 77.522624425728793, 12.9591578003695 ], [ 77.521715801608806, 12.959265797567801 ], [ 77.521701461623294, 12.959268390329999 ], [ 77.521049145702804, 12.959386318985199 ], [ 77.520702525276704, 12.959441625715399 ], [ 77.520523768613401, 12.9594715903565 ], [ 77.520159301297198, 12.959527069199099 ], [ 77.519782202531502, 12.959586057884 ], [ 77.519524113270606, 12.959628083295099 ], [ 77.519321775408201, 12.959660534092899 ], [ 77.519393778879802, 12.9597784194053 ], [ 77.519848578558396, 12.960117340872101 ], [ 77.5202746928924, 12.960409106222 ], [ 77.520320415600096, 12.9604899769546 ], [ 77.520370259152898, 12.9605798425979 ], [ 77.520368033310604, 12.9608734959267 ], [ 77.520401781383498, 12.960951070115501 ], [ 77.5204688193095, 12.9611051667341 ], [ 77.520512766464407, 12.961295601814699 ], [ 77.520636335787202, 12.961731464714299 ], [ 77.520644445184402, 12.9617935005795 ], [ 77.520879216801504, 12.961779933352901 ], [ 77.521249807844498, 12.961760532916999 ], [ 77.521496207002002, 12.961758146032199 ], [ 77.521729645010197, 12.9617265213398 ], [ 77.521847178542799, 12.9617344174137 ], [ 77.521968753338598, 12.961743403627599 ], [ 77.522118189183601, 12.9617747068438 ], [ 77.522137899450797, 12.961790171374201 ], [ 77.522260373006205, 12.961886264194399 ], [ 77.522382259578706, 12.9619833365809 ], [ 77.522596205814907, 12.9621314668202 ], [ 77.522965604537106, 12.9621651549127 ], [ 77.523101229179602, 12.962202875985801 ], [ 77.523157870018395, 12.9622186293052 ], [ 77.523162070627805, 12.962235528843699 ], [ 77.523280724371105, 12.961726170778199 ], [ 77.523951002578798, 12.961679015379 ], [ 77.524174082169495, 12.9617050858451 ], [ 77.524397726082, 12.9617300212884 ], [ 77.524833539245094, 12.96184098775 ], [ 77.525047128190494, 12.961896512567501 ], [ 77.525752510264397, 12.9620760110224 ], [ 77.526299741565893, 12.962216385962501 ], [ 77.526312406917896, 12.962216263027999 ], [ 77.526304228240704, 12.962033388001 ], [ 77.526302791971801, 12.962005168235899 ], [ 77.526714335719404, 12.9619932679486 ], [ 77.526665850818901, 12.962323508222299 ], [ 77.526602449148996, 12.962601943306201 ], [ 77.526572044910907, 12.9627840634856 ], [ 77.526575185534497, 12.9628100080003 ], [ 77.526589971058499, 12.962905859040401 ], [ 77.526627174688599, 12.9629981043961 ], [ 77.526710063566895, 12.963224298601 ], [ 77.526732812018494, 12.963367504915199 ], [ 77.526738887990803, 12.9635131317897 ], [ 77.526731385994296, 12.963605891554099 ], [ 77.526728650587799, 12.9636397181361 ], [ 77.526691543389404, 12.963728167535701 ], [ 77.526656129079299, 12.9638132124546 ], [ 77.526622464650501, 12.963900499078999 ], [ 77.526597116583801, 12.963956083221399 ], [ 77.5265406803926, 12.9641260333226 ], [ 77.526473117619801, 12.964334489275201 ], [ 77.526428868063107, 12.9644568884479 ], [ 77.526433747009406, 12.9645980095755 ], [ 77.526501149878897, 12.9646018725768 ], [ 77.526709714012796, 12.9646156584595 ], [ 77.5267076391834, 12.964638265559801 ], [ 77.526858678611404, 12.964657127241599 ], [ 77.526859841734407, 12.964657273963301 ], [ 77.526821491558294, 12.96530799256 ], [ 77.526693913104197, 12.965331818333 ], [ 77.526638854266494, 12.965344645674101 ], [ 77.526355010904297, 12.965410775174099 ], [ 77.526155212575304, 12.965466923603699 ], [ 77.525910315355603, 12.965504310759099 ], [ 77.525583302641195, 12.9656204197634 ], [ 77.525658034978704, 12.965894126084899 ], [ 77.525160503760205, 12.966058193049699 ], [ 77.524928522193207, 12.966117594723199 ], [ 77.524740846485997, 12.9661797176439 ], [ 77.524715544262605, 12.966125754391401 ], [ 77.524685779229301, 12.9660289191656 ], [ 77.524537035529804, 12.966066501529699 ], [ 77.5243109688098, 12.966085617860699 ], [ 77.5238605978615, 12.966150565017299 ], [ 77.523625659147996, 12.9661937623552 ], [ 77.523478051957696, 12.966229251515401 ], [ 77.523498426832603, 12.966358913820599 ], [ 77.523536591644302, 12.9666036126499 ], [ 77.523577336871099, 12.9667556697873 ], [ 77.523603598995095, 12.966853678459399 ], [ 77.523638920967102, 12.966987728510899 ], [ 77.523656015120906, 12.967027089955799 ], [ 77.523758546012701, 12.9672598708605 ], [ 77.523776227309597, 12.967300355944801 ], [ 77.523818623728502, 12.967393680723699 ], [ 77.523874569040899, 12.9675173665002 ], [ 77.523943476193196, 12.967670289603101 ], [ 77.523949347202205, 12.967681526144901 ], [ 77.524099884436197, 12.9679928955532 ], [ 77.524103021603807, 12.967999348962699 ], [ 77.523260332863799, 12.9682240803102 ], [ 77.523260447669401, 12.9682246496658 ], [ 77.522289481668395, 12.968464342452 ], [ 77.522140476334201, 12.968498552429599 ], [ 77.5217835933624, 12.968554847893 ], [ 77.521567240377905, 12.968563577448 ], [ 77.521475017405706, 12.9685706014271 ], [ 77.521178198959902, 12.968598323819201 ], [ 77.521249976976804, 12.9690934136132 ], [ 77.521251602978793, 12.969105849634699 ], [ 77.521012638642702, 12.9691386290867 ], [ 77.520901124460806, 12.969154312698199 ], [ 77.520760263300104, 12.9691772139523 ], [ 77.520759291488702, 12.969309357563301 ], [ 77.520601049046107, 12.969318796342201 ], [ 77.520409990716402, 12.969328552969399 ], [ 77.520239703650404, 12.9693426256378 ], [ 77.520052834485298, 12.969368152359801 ], [ 77.519845152740999, 12.9694424427255 ], [ 77.519463255828398, 12.969541007358799 ], [ 77.519498226412495, 12.969754115485101 ], [ 77.519519690120106, 12.9698849134534 ], [ 77.519239770004603, 12.969932798620899 ], [ 77.519080004434301, 12.9699625796611 ], [ 77.518950706437295, 12.9699875481658 ], [ 77.518681512702699, 12.9700714682174 ], [ 77.518660290664201, 12.9700795791743 ], [ 77.518504520801002, 12.9701059331385 ], [ 77.518356428472501, 12.970151411703 ], [ 77.518247833418002, 12.9701739207462 ], [ 77.518197329204895, 12.9701902206232 ], [ 77.518332237428893, 12.970322178344899 ], [ 77.518459983728107, 12.970543424262299 ], [ 77.518541748139398, 12.970715423731001 ], [ 77.518535022136902, 12.9709052202805 ], [ 77.518472219749697, 12.971015375672 ], [ 77.518392036118698, 12.9711393428422 ], [ 77.518365632371101, 12.9711801639711 ], [ 77.518254306681996, 12.9713890429265 ], [ 77.518194912945702, 12.971494647872399 ], [ 77.518024635904396, 12.9716815104382 ], [ 77.517906976797093, 12.9718904506414 ], [ 77.517879274320705, 12.972055604528199 ], [ 77.517884293245501, 12.972153809751701 ], [ 77.517907667171599, 12.9722450611547 ], [ 77.517991480857802, 12.9723345980637 ], [ 77.518049641064707, 12.9725068261461 ], [ 77.518140049335997, 12.972622274273901 ], [ 77.518167965067093, 12.9727643025766 ], [ 77.518102060237595, 12.9729094979858 ], [ 77.517792630990797, 12.9731722452194 ], [ 77.517626575548206, 12.9732066040585 ], [ 77.517521497735402, 12.9731782580402 ], [ 77.517512373117796, 12.973129784130199 ], [ 77.517394799826207, 12.9731184993264 ], [ 77.517311777876102, 12.9732220741975 ], [ 77.517296490997097, 12.973362262125701 ], [ 77.517312702550797, 12.973542801926399 ], [ 77.5173153350446, 12.973575527725099 ], [ 77.517337921232198, 12.973702926152299 ], [ 77.517397804786299, 12.9738175406327 ], [ 77.517483895650599, 12.974018861672199 ], [ 77.517544234027994, 12.974178645859499 ], [ 77.517583475108196, 12.974358962642199 ], [ 77.517604031331501, 12.974448583430499 ], [ 77.517623212428504, 12.9745313691235 ], [ 77.517747101434693, 12.974769592726 ], [ 77.517806516147402, 12.974951972807499 ], [ 77.517777244817907, 12.9749612910578 ], [ 77.517821531448604, 12.9751280066437 ], [ 77.517932246482701, 12.9752014719587 ], [ 77.5180358099133, 12.975193692994001 ], [ 77.518132912133495, 12.9752876183948 ], [ 77.518177641422596, 12.9753267126121 ], [ 77.518209003820999, 12.9753535133787 ], [ 77.518340036029599, 12.9753861249933 ], [ 77.518519497951601, 12.9754250435911 ], [ 77.518581510641397, 12.975465099676301 ], [ 77.518602714626795, 12.9755123271374 ], [ 77.518590318624703, 12.975653616372799 ], [ 77.518564339599806, 12.9757611565738 ], [ 77.518555594743503, 12.975802571995199 ], [ 77.518531365054102, 12.975917326728499 ], [ 77.518522237203001, 12.9759829176362 ], [ 77.518467300894002, 12.976073798015101 ], [ 77.518459301749601, 12.9761371192845 ], [ 77.518457276015596, 12.9762218404113 ], [ 77.518455905627306, 12.976314460664 ], [ 77.518436831069806, 12.9763643369688 ], [ 77.518434452791595, 12.9764140515548 ], [ 77.518435635542303, 12.9765314928531 ], [ 77.518473032713601, 12.9766429366043 ], [ 77.518571031502802, 12.9769401366115 ], [ 77.518682791371802, 12.9772315564603 ], [ 77.518711727892196, 12.977334128586 ], [ 77.518752056428298, 12.977477084424001 ], [ 77.518848458390394, 12.9778443195521 ], [ 77.5190144746866, 12.978434491933101 ], [ 77.5190633576929, 12.9786000331307 ], [ 77.5193117856208, 12.978911585788399 ], [ 77.519492615766097, 12.979086012266499 ], [ 77.519569171023093, 12.979140608556399 ], [ 77.519684713251294, 12.9794071451514 ], [ 77.519720755278797, 12.9794982733272 ], [ 77.519729714762903, 12.9795874053045 ], [ 77.519724999728695, 12.9796337544471 ], [ 77.519666472336397, 12.9797111177056 ], [ 77.519624755214906, 12.9797996115401 ], [ 77.519551001400103, 12.9799087442362 ], [ 77.519456354775201, 12.980058736108401 ], [ 77.5194459733207, 12.980114174995199 ], [ 77.519441497231995, 12.980184238225601 ], [ 77.519434051388401, 12.980245295421399 ], [ 77.519400030345906, 12.980297575375999 ], [ 77.519309882395106, 12.9803797624824 ], [ 77.519269796623405, 12.9804016086901 ], [ 77.519168647962502, 12.9804206586362 ], [ 77.519098903419703, 12.9804134290909 ], [ 77.518958749882003, 12.980561603172101 ], [ 77.518944338109705, 12.980617081117099 ], [ 77.518884290304399, 12.980730499615699 ], [ 77.518884290304399, 12.980730499615699 ], [ 77.518878227753902, 12.9807419505764 ], [ 77.518831756356207, 12.9808158088419 ], [ 77.518804716864395, 12.9809323942068 ], [ 77.518806093648493, 12.981069032553901 ], [ 77.518776100321901, 12.981235338069 ], [ 77.518695775905101, 12.9814924795478 ], [ 77.518649349862599, 12.9815708547829 ], [ 77.518543159992305, 12.9816611026615 ], [ 77.518496301525204, 12.981696566658499 ], [ 77.518453716700705, 12.9818133026567 ], [ 77.518427958160402, 12.9819998955 ], [ 77.518389669698607, 12.9822001619942 ], [ 77.518374283806594, 12.9822161220224 ], [ 77.518291569597295, 12.982236122490599 ], [ 77.518256146304694, 12.9822635701951 ], [ 77.518229136156194, 12.9823259463273 ], [ 77.518225121778201, 12.982384711587899 ], [ 77.518239183129893, 12.9824658887698 ], [ 77.518297467833406, 12.982592940919901 ], [ 77.518325536100903, 12.982635584361899 ], [ 77.518430376888801, 12.9827542798665 ], [ 77.518519702129694, 12.982818916729199 ], [ 77.518586459420504, 12.982872478731601 ], [ 77.518626099645502, 12.982920656745801 ], [ 77.518692427026096, 12.983102969091499 ], [ 77.518764762388201, 12.983310068931001 ], [ 77.518828502502203, 12.9834641724627 ], [ 77.518966446213895, 12.983610780605 ], [ 77.519162534271999, 12.983813292625401 ], [ 77.519250822414094, 12.983889232709201 ], [ 77.519314872151696, 12.983959760974299 ], [ 77.519384983336195, 12.984288852088801 ], [ 77.519461955080601, 12.9844416977104 ], [ 77.519510537786402, 12.984634345865899 ], [ 77.519579847695795, 12.984826793023 ], [ 77.519647500334102, 12.984911967783599 ], [ 77.5197008958244, 12.9850108329886 ], [ 77.519762693503395, 12.985143497250901 ], [ 77.519796461512399, 12.9852945029282 ], [ 77.519812483683197, 12.9854558448489 ], [ 77.519824365336902, 12.9857775948545 ], [ 77.519817243530696, 12.985927867692 ], [ 77.519786549915295, 12.9860817571815 ], [ 77.519793885326806, 12.9861810689903 ], [ 77.5198062317411, 12.986263391925601 ], [ 77.519896150861499, 12.9863867485422 ], [ 77.520019754989406, 12.9864815446142 ], [ 77.520164142231593, 12.986695850264301 ], [ 77.520243515831396, 12.9868012393685 ], [ 77.520296062953093, 12.986873008128301 ], [ 77.5203078970316, 12.986904515167 ], [ 77.520377854647705, 12.9868756027592 ], [ 77.521073941036803, 12.9865831236046 ], [ 77.521847382270593, 12.9861961560132 ], [ 77.521876597613101, 12.9861811909007 ], [ 77.5221249990242, 12.986089561165899 ], [ 77.522235868890405, 12.986063639248 ], [ 77.522333832752196, 12.986014126230501 ], [ 77.522349286927707, 12.9860049414093 ], [ 77.522755136726701, 12.985767225915801 ], [ 77.522794624308005, 12.985743126188799 ], [ 77.523042990540105, 12.9855340437351 ], [ 77.523062406514995, 12.9855180443168 ], [ 77.523380272871805, 12.985234879084199 ], [ 77.5235482351857, 12.9850846815535 ], [ 77.523557746650894, 12.9850761760749 ], [ 77.523704511829294, 12.9850126365187 ], [ 77.523719497260799, 12.9850115107019 ], [ 77.523773556379496, 12.9850074485398 ], [ 77.523786787256498, 12.985006190686301 ], [ 77.523990403851002, 12.985041481474299 ], [ 77.524363970402007, 12.985199349414501 ], [ 77.524588588010303, 12.985261540017699 ], [ 77.524949471017806, 12.9853608041415 ], [ 77.525391672161504, 12.985472829559599 ], [ 77.525465996069798, 12.985534221291401 ], [ 77.5257133436331, 12.9857373582762 ], [ 77.525944017591897, 12.985942915738701 ], [ 77.526063796949799, 12.985944009971 ], [ 77.526072997574204, 12.985942791176001 ], [ 77.526259980124806, 12.985927421107901 ], [ 77.526408711799306, 12.9858875772121 ], [ 77.526490496324797, 12.9858325733603 ], [ 77.526615188172102, 12.985750047951299 ], [ 77.526679722887096, 12.985697470482499 ], [ 77.5271046789004, 12.985356792700999 ], [ 77.527444223893099, 12.985054213601201 ], [ 77.527736414921307, 12.9847950099667 ], [ 77.528043202406806, 12.9844419284419 ], [ 77.528220516766595, 12.9842109463039 ], [ 77.528381762493694, 12.9840422344173 ], [ 77.528473648627397, 12.9839510659718 ], [ 77.528522002426598, 12.9839030898223 ], [ 77.528665909290893, 12.9838418342914 ], [ 77.528738327664797, 12.983828706820599 ], [ 77.528738937688701, 12.983832088919 ], [ 77.528904741126496, 12.984569066860599 ], [ 77.5290250991508, 12.984968812814 ], [ 77.529090148600304, 12.9852516451515 ], [ 77.529117831638104, 12.9855404878702 ], [ 77.529116218678197, 12.985551797013599 ], [ 77.529086006737003, 12.985809581599201 ], [ 77.529079607748997, 12.9859169316001 ], [ 77.529084998096195, 12.986051271112901 ], [ 77.529106372355699, 12.986171902907 ], [ 77.529262246956606, 12.986382702314099 ], [ 77.529437178826996, 12.986598962769699 ], [ 77.529517154379405, 12.986706601185199 ], [ 77.529623991913397, 12.986851246377199 ], [ 77.529693367066201, 12.9869462103752 ], [ 77.529693367066201, 12.9869462103752 ], [ 77.529843539249697, 12.9871517728171 ], [ 77.529904379242794, 12.987229053602199 ], [ 77.529948535581198, 12.9872851422978 ], [ 77.530046073526094, 12.987534906729 ], [ 77.530106359671194, 12.9876314431681 ], [ 77.530177745310297, 12.9877436822935 ], [ 77.530206174034603, 12.9877805472675 ], [ 77.530224423244306, 12.9878042122309 ], [ 77.530301368198707, 12.987953665487201 ], [ 77.5303795716043, 12.988056803374301 ], [ 77.530383636203695, 12.9880601518144 ], [ 77.530502786957499, 12.988169666874199 ], [ 77.5306013308535, 12.988306535613701 ], [ 77.530623096928394, 12.9883367670609 ], [ 77.530766826326797, 12.988712567443701 ], [ 77.5307948303182, 12.9887906077763 ], [ 77.530893630474694, 12.9890659457072 ], [ 77.530991551596301, 12.989296506910801 ], [ 77.5310997601716, 12.989462595278701 ], [ 77.531217921152702, 12.989758460974199 ], [ 77.531312041181195, 12.989965005631699 ], [ 77.531320391805295, 12.9899833308989 ], [ 77.531329222730193, 12.9900024436606 ], [ 77.531347388088307, 12.9900903553369 ], [ 77.531374679794894, 12.9903531701059 ], [ 77.531387631891306, 12.9904818449125 ], [ 77.531456774920002, 12.990940813324499 ], [ 77.531469274392506, 12.9910378149258 ], [ 77.5315227875235, 12.991448391047401 ], [ 77.531539840644896, 12.9915803406869 ], [ 77.531603601271797, 12.9921330967733 ], [ 77.531652227637494, 12.992556125991401 ], [ 77.531654725296306, 12.992575300456 ], [ 77.532525517563698, 12.992476463109799 ], [ 77.533223806304093, 12.9923977762099 ], [ 77.5332496491027, 12.992394864313599 ], [ 77.533402584720406, 12.992371915042201 ], [ 77.534187877081195, 12.9922520486591 ], [ 77.534248307274595, 12.992242824513699 ], [ 77.534780707622403, 12.9921630924601 ], [ 77.5355398637154, 12.9920512733403 ], [ 77.5359467261502, 12.9919913435614 ], [ 77.536277330576397, 12.991942941711001 ], [ 77.5365228367735, 12.991906663960499 ], [ 77.536571120464401, 12.9918982870305 ], [ 77.537389635881894, 12.9917591800676 ], [ 77.537847233555397, 12.991681410596501 ], [ 77.538446810468002, 12.991582945614001 ], [ 77.538901641751394, 12.992833205023199 ], [ 77.539044513128403, 12.993225933860099 ], [ 77.539066151864503, 12.993283279581799 ], [ 77.539272935245805, 12.993831283122301 ], [ 77.539277091907095, 12.9938436651705 ], [ 77.539592910858303, 12.994662733018 ], [ 77.539859599623199, 12.995350148443199 ], [ 77.539973962236104, 12.9956675022583 ], [ 77.540145195966304, 12.996141277144099 ], [ 77.540403688574798, 12.996871686311399 ], [ 77.540439856267497, 12.996974101865399 ], [ 77.540590973452694, 12.9975079276822 ], [ 77.540621878959399, 12.997602489332399 ], [ 77.540680109004697, 12.9977792249747 ], [ 77.540818653503393, 12.998265741466399 ], [ 77.540929217711707, 12.998662184922599 ], [ 77.541119385946899, 12.9992419304505 ], [ 77.541157695634297, 12.999384980829699 ], [ 77.541805439761603, 12.9989866084361 ], [ 77.5419376722962, 12.998905282731201 ], [ 77.542084680545997, 12.9988089791654 ], [ 77.542414740443604, 12.9985934321809 ], [ 77.542457071713599, 12.998565913602 ], [ 77.542807259346404, 12.9984043770661 ], [ 77.542995814621605, 12.998316700787999 ], [ 77.543434947253601, 12.9981260291044 ], [ 77.543711287582695, 12.9980060411526 ], [ 77.544020290785497, 12.9978718704131 ], [ 77.544806070687898, 12.9975671548761 ], [ 77.545060423420296, 12.997494642983501 ], [ 77.545172482604798, 12.9974810232968 ], [ 77.545386493856398, 12.9974530489818 ], [ 77.545468805989103, 12.9974499832791 ], [ 77.545798618704396, 12.997436585347099 ], [ 77.545888991582899, 12.9974334404682 ], [ 77.546393920525105, 12.997422332232 ], [ 77.546618399930097, 12.997417251926001 ], [ 77.547186984087304, 12.9974410364997 ], [ 77.548434144806805, 12.9974897500895 ], [ 77.548960676505203, 12.9975117155644 ], [ 77.549257923124301, 12.9975234781919 ], [ 77.549355285703697, 12.9975281687622 ], [ 77.549595554241193, 12.9975427491602 ], [ 77.550094538935099, 12.997573986720701 ], [ 77.550469088374101, 12.997599669844 ], [ 77.551038710221803, 12.9977250749803 ], [ 77.5511068169873, 12.997740189017801 ], [ 77.551106816790096, 12.9977401900888 ], [ 77.552378819767796, 12.9980224682695 ], [ 77.552462513109205, 12.9980419732454 ], [ 77.553054741277506, 12.998181832534099 ], [ 77.553054741654705, 12.998181831682301 ], [ 77.553078382427401, 12.9981849871024 ], [ 77.552984427950705, 12.998420216136701 ], [ 77.552844257267907, 12.9987711504094 ], [ 77.5527346529678, 12.9991460347473 ], [ 77.552703406213496, 12.9993563964311 ], [ 77.552748681028703, 12.9996168251987 ], [ 77.552861724330299, 13.0002537818488 ], [ 77.552888041840504, 13.0004059818191 ], [ 77.553054723943504, 13.0009949790118 ], [ 77.553161014354998, 13.001421947351 ], [ 77.553228635782901, 13.0018402613999 ], [ 77.553235408343099, 13.001883109090301 ], [ 77.553299552391096, 13.002299198627799 ], [ 77.553434689163694, 13.003012731112401 ], [ 77.553625034783906, 13.0037754103159 ], [ 77.553783490110106, 13.004404013500301 ], [ 77.553793636708605, 13.004438922669101 ], [ 77.554257678739404, 13.006061709820999 ], [ 77.554287531723105, 13.0061653136414 ], [ 77.554373994718105, 13.0067923659487 ], [ 77.554397784890597, 13.0070349361342 ], [ 77.5544273401933, 13.0074468479638 ], [ 77.554454125190205, 13.007700681853301 ], [ 77.554493064565904, 13.0080729749284 ], [ 77.554493080993396, 13.0081870363608 ], [ 77.5544926099207, 13.0084784062563 ], [ 77.554491609380406, 13.008774298651501 ], [ 77.554464979607403, 13.009856534206699 ], [ 77.554463146894307, 13.0099310053336 ], [ 77.554461859016499, 13.009973932276299 ], [ 77.554461105026405, 13.0111371419504 ], [ 77.554455245642004, 13.0121953748416 ], [ 77.554457466721502, 13.012412182875201 ], [ 77.554394660759698, 13.0124647503413 ], [ 77.554394200638697, 13.0124760480983 ], [ 77.554366000872307, 13.0130398577835 ], [ 77.554340335317207, 13.0131202924872 ], [ 77.554294001304299, 13.013263043513099 ], [ 77.554228237728196, 13.0133642009824 ], [ 77.554121437867707, 13.01361935051 ], [ 77.554094690004106, 13.013706571807001 ], [ 77.554067128568505, 13.013883017607199 ], [ 77.554074804293506, 13.0140139434313 ], [ 77.554066813859805, 13.014301999405999 ], [ 77.554019704863705, 13.014875029996601 ], [ 77.554128655952596, 13.015054648405 ], [ 77.554198646320401, 13.015197382901601 ], [ 77.5543402282009, 13.015245678327901 ], [ 77.554575504730707, 13.015277240048301 ], [ 77.554858862603695, 13.0153365608226 ], [ 77.555040163763707, 13.0153833351243 ], [ 77.555214291982693, 13.015460671660501 ], [ 77.555599287629207, 13.015660155052 ], [ 77.555807701413499, 13.0157676448469 ], [ 77.555861092537896, 13.015807774093499 ], [ 77.555861092547104, 13.0158077749968 ], [ 77.555694108818699, 13.01603415596 ], [ 77.555116192312198, 13.016901524440099 ], [ 77.555066708802997, 13.016993095083199 ], [ 77.553941238457398, 13.0190757543059 ], [ 77.553888280903607, 13.019190336705201 ], [ 77.553888280460001, 13.019190336741699 ], [ 77.553888280720699, 13.019190337101 ], [ 77.553888280469195, 13.019190337645 ], [ 77.553888281078898, 13.0191903375949 ], [ 77.554342148356696, 13.0198160262774 ], [ 77.554373621573404, 13.0197965176402 ], [ 77.554593662068399, 13.019804663848699 ], [ 77.554638625099699, 13.0198063284674 ], [ 77.5548390252834, 13.0198058764934 ], [ 77.554935770189402, 13.019805658305801 ], [ 77.555173145972802, 13.0198168702274 ], [ 77.555374855789296, 13.0198318215157 ], [ 77.555486104359105, 13.019842017928999 ], [ 77.555561910306906, 13.0200073810086 ], [ 77.555576230967105, 13.020038760517 ], [ 77.555832444670202, 13.0205952479988 ], [ 77.556050950039804, 13.021068537178101 ], [ 77.5560744962104, 13.0211009296745 ], [ 77.556085997336695, 13.021116752314001 ], [ 77.556185222321005, 13.021302111572099 ], [ 77.556293860976197, 13.0215630423761 ], [ 77.556387861063996, 13.0218004017614 ], [ 77.556434776032106, 13.021938845371 ], [ 77.556488577759097, 13.022074962386 ], [ 77.556490704012802, 13.0220815727792 ], [ 77.556496905756006, 13.0221008545966 ], [ 77.556765154284705, 13.0227633776943 ], [ 77.556905955140195, 13.0231278880897 ], [ 77.556916869756407, 13.0231547792678 ], [ 77.556916869765701, 13.0231547801712 ], [ 77.556931365522502, 13.023190880172301 ], [ 77.557017536415202, 13.023450902736 ], [ 77.557110557474005, 13.023734671635999 ], [ 77.5571105569, 13.023734671829301 ], [ 77.5572214659163, 13.0240745324234 ], [ 77.557317763731106, 13.0243672050832 ], [ 77.557355223263002, 13.024482025943801 ], [ 77.557424568302395, 13.024707311071699 ], [ 77.557480332146199, 13.024888475353199 ], [ 77.5575613461573, 13.025150807044501 ], [ 77.557577045494099, 13.025206016718201 ], [ 77.557721465755606, 13.0257138859315 ], [ 77.55773367754, 13.0257419902184 ], [ 77.557886617657104, 13.0260939652497 ], [ 77.557890729647497, 13.0261018298838 ], [ 77.558459165728493, 13.0273384672363 ], [ 77.558819817509303, 13.028193186805501 ], [ 77.559101428028498, 13.028859793029 ], [ 77.559450531596795, 13.029687171295199 ], [ 77.559743587851202, 13.0303817111886 ], [ 77.559973496006094, 13.0309256460481 ], [ 77.559975558595099, 13.0309305250885 ], [ 77.5597975725846, 13.031151371785 ], [ 77.559363245258794, 13.031814056176399 ], [ 77.559235481431102, 13.031990441566499 ], [ 77.558915865806696, 13.0324316901649 ], [ 77.5586199225, 13.0328389163789 ], [ 77.558332571197099, 13.0332336287064 ], [ 77.558096661984706, 13.033586037966 ], [ 77.557818121337505, 13.0340021299419 ], [ 77.557772737991499, 13.0340692080231 ], [ 77.557716587527494, 13.034153332232099 ], [ 77.557446415681198, 13.0345760991883 ], [ 77.557381044548407, 13.0346783916637 ], [ 77.557397848642793, 13.0346883895565 ], [ 77.557394941990097, 13.034715257198799 ], [ 77.557387329400697, 13.0347856148516 ], [ 77.557375163818406, 13.034890761638099 ], [ 77.557373842339501, 13.034930300839999 ], [ 77.557371717224498, 13.035003727536299 ], [ 77.557392251843694, 13.0351525947579 ], [ 77.557503244382701, 13.0356416226169 ], [ 77.557535040992093, 13.0357655335453 ], [ 77.557574049590997, 13.0359187354958 ], [ 77.557576010680407, 13.036109570919299 ], [ 77.557564058457203, 13.036291509241099 ], [ 77.557507868444802, 13.0367641193921 ], [ 77.557484359849596, 13.037020180178599 ], [ 77.557450895179002, 13.0373846779937 ], [ 77.557406091792899, 13.0379565556901 ], [ 77.557389339857096, 13.0381758089438 ], [ 77.557330318081696, 13.038372893435501 ], [ 77.557310724440796, 13.038483760207599 ], [ 77.557297291173697, 13.0385776263442 ], [ 77.557421688523206, 13.0385775266616 ], [ 77.558734646223201, 13.0386763538742 ], [ 77.558765777473496, 13.0386794340907 ], [ 77.559442192792204, 13.0389313602508 ], [ 77.5600826669383, 13.0392163900428 ], [ 77.560483031681798, 13.0395060519774 ], [ 77.560770516891296, 13.0397957006266 ], [ 77.560857872358, 13.0398896988407 ], [ 77.560962689708205, 13.040001593281501 ], [ 77.561055862058296, 13.0401011804222 ], [ 77.561529637757999, 13.040942705664801 ], [ 77.562111822016703, 13.041975555196601 ], [ 77.562245603551901, 13.0418240318812 ], [ 77.562802552865193, 13.041100273458399 ], [ 77.563030779159703, 13.0407898977454 ], [ 77.563645907482595, 13.0399533544759 ], [ 77.563910078609695, 13.0395940934682 ], [ 77.564158878011, 13.0393149471725 ], [ 77.564286816930604, 13.039155575934 ], [ 77.564349922544807, 13.0390758988593 ], [ 77.564655259194694, 13.038694554018599 ], [ 77.564870174517296, 13.038424777537999 ], [ 77.565024147972196, 13.038221104945 ], [ 77.565082669572604, 13.038143731817 ], [ 77.565193090187705, 13.037997126199301 ], [ 77.565440028078498, 13.0376692673594 ], [ 77.565986024893505, 13.0370020792621 ], [ 77.566019627598905, 13.036965608224699 ], [ 77.5663368731025, 13.036622800086599 ], [ 77.566642162971704, 13.036293143385899 ], [ 77.567104523404296, 13.035807457436899 ], [ 77.567236967652804, 13.035668383629201 ], [ 77.567349088462706, 13.035550951044099 ], [ 77.5675776790209, 13.0353115308324 ], [ 77.5678657610122, 13.0349890790245 ], [ 77.567870321187897, 13.034984516557101 ], [ 77.568075533894202, 13.034723869229399 ], [ 77.568321682753904, 13.034411996818299 ], [ 77.568563270878897, 13.0341046867557 ], [ 77.5685726289922, 13.034091016008601 ], [ 77.569034171080602, 13.033416782935101 ], [ 77.569476640309901, 13.032875970965801 ], [ 77.569852750920703, 13.032266929245001 ], [ 77.569989318144906, 13.031995669207699 ], [ 77.570047748292097, 13.031853925768001 ], [ 77.570110104341396, 13.031701979587 ], [ 77.570181491863707, 13.031476538714999 ], [ 77.570297465787306, 13.0311072331686 ], [ 77.570329262640001, 13.031007538454899 ], [ 77.570390048655895, 13.030842241352699 ], [ 77.570681048212194, 13.0300509107783 ], [ 77.570894460106004, 13.0294694574792 ], [ 77.571251475968495, 13.028461958934701 ], [ 77.571443169126695, 13.028454409537 ], [ 77.571530532060805, 13.0284377319666 ], [ 77.572008771221803, 13.0283505444767 ], [ 77.573455772920596, 13.0279962518996 ], [ 77.573463235349394, 13.0279939191523 ], [ 77.574022488959699, 13.0278889837739 ], [ 77.574559907133406, 13.0277887815013 ], [ 77.574627156087004, 13.0277767658774 ], [ 77.575819935690106, 13.027565075698099 ], [ 77.575830288880894, 13.0275638434493 ], [ 77.575886614723402, 13.027553119640899 ], [ 77.576717175968497, 13.027399179464799 ], [ 77.576935109961099, 13.027367649782899 ], [ 77.576958107914606, 13.027364033101399 ], [ 77.577684358035896, 13.0272585583633 ], [ 77.577687731173199, 13.027250619679799 ], [ 77.577707262458006, 13.027245908126799 ], [ 77.577719451419597, 13.0271994854263 ], [ 77.577724672987301, 13.026925012879801 ], [ 77.577726590611505, 13.0268877268051 ], [ 77.577780060400997, 13.0268792896485 ], [ 77.578286864827405, 13.0268317501796 ], [ 77.578506694134305, 13.026811076062801 ], [ 77.578623410860899, 13.026792974812199 ], [ 77.578729786130296, 13.026777235054199 ], [ 77.578945392333097, 13.026743468382699 ], [ 77.579023587301606, 13.0267313969422 ], [ 77.579103509725897, 13.0267193082819 ], [ 77.579241990635495, 13.02668969708 ], [ 77.579499059575497, 13.026635773369801 ], [ 77.579999357079004, 13.026530829408101 ], [ 77.5801045336095, 13.0265105838527 ], [ 77.580085248104098, 13.026539008442001 ], [ 77.580267522389306, 13.026345211965101 ], [ 77.580467237383203, 13.026111716170499 ], [ 77.580638263751496, 13.0259440054776 ], [ 77.5806570786268, 13.025925749258199 ], [ 77.580839501614307, 13.0258019676741 ], [ 77.580950672413906, 13.0257489124188 ], [ 77.581015777606396, 13.025696316033301 ], [ 77.581088966369606, 13.0254380603859 ], [ 77.581096334465798, 13.025412059153901 ], [ 77.581140522861006, 13.0253416023273 ], [ 77.581140523791603, 13.025341603221401 ], [ 77.581155261052402, 13.0253188704009 ], [ 77.581279147892801, 13.0252148698673 ], [ 77.581432096512003, 13.0251365536453 ], [ 77.581696930633797, 13.025018726333901 ], [ 77.581847174514706, 13.0249573763552 ], [ 77.582144593379098, 13.0248719736399 ], [ 77.5823493279823, 13.0247897529712 ], [ 77.582576534992597, 13.0246531018176 ], [ 77.582609721611107, 13.0246324436514 ], [ 77.5827372964674, 13.0245509918021 ], [ 77.5836852727641, 13.023670851839499 ], [ 77.584623813962395, 13.022936483032 ], [ 77.584655236659302, 13.022912454372101 ], [ 77.584590072718996, 13.022681598302499 ], [ 77.5844490275053, 13.0221861139885 ], [ 77.5842057594853, 13.0213291441518 ], [ 77.584204572736098, 13.021325768091099 ], [ 77.584165246082904, 13.0211985495409 ], [ 77.584073374798393, 13.0208911671737 ], [ 77.584025061955103, 13.020674823610401 ], [ 77.583971416809206, 13.020388516688399 ], [ 77.583961363840501, 13.0202519718188 ], [ 77.583918104676599, 13.0196900125067 ], [ 77.583928437957198, 13.0192980429567 ], [ 77.583933556279504, 13.0191252092791 ], [ 77.583946950034402, 13.017973191362399 ], [ 77.5839649451881, 13.0172649418418 ], [ 77.5839743011894, 13.0168899214811 ], [ 77.583968723770894, 13.015907487323201 ], [ 77.583944597623997, 13.0148021443921 ], [ 77.583972694243599, 13.01451276393 ], [ 77.583994993660198, 13.0145124658161 ], [ 77.584641741232204, 13.014503837105201 ], [ 77.585250835251699, 13.014488730532401 ], [ 77.585507905681695, 13.014456339405699 ], [ 77.586019743980003, 13.014391848609201 ], [ 77.586522352617607, 13.0143258534433 ], [ 77.586666605678104, 13.0142984406325 ], [ 77.586853222974696, 13.0142468898828 ], [ 77.587175481242795, 13.0141149349452 ], [ 77.587583003421699, 13.0139313105163 ], [ 77.587795192241899, 13.013791418928101 ], [ 77.588119826082604, 13.013500208642 ], [ 77.588287150129901, 13.0133099462529 ], [ 77.588741613240302, 13.0127114005897 ], [ 77.589112101041195, 13.0122333981232 ], [ 77.589802487943203, 13.0112304671239 ], [ 77.590662540166505, 13.0099310949737 ], [ 77.590667640986794, 13.0099231389712 ], [ 77.591152093910907, 13.0092192672605 ], [ 77.5917006086367, 13.008418765168701 ], [ 77.592281307917105, 13.007446288439001 ], [ 77.592310731733505, 13.0073963055513 ], [ 77.592679375171201, 13.0067974846067 ], [ 77.592964833419003, 13.0063395270271 ], [ 77.593117991865299, 13.006005984444901 ], [ 77.593142680125197, 13.005943626637899 ], [ 77.593170481041597, 13.0059038235575 ], [ 77.593238213210896, 13.0057168134259 ], [ 77.593262901423998, 13.0056544556173 ], [ 77.593438835300205, 13.0049638291616 ], [ 77.593554522727302, 13.004460138035601 ], [ 77.593776176195803, 13.0037363051781 ], [ 77.5940428331714, 13.002910386247599 ], [ 77.594194861553305, 13.002413107651201 ], [ 77.594289512463305, 13.0021016063902 ], [ 77.594382706476594, 13.0017607581244 ], [ 77.594659042163102, 13.000979914086299 ], [ 77.594810953266901, 13.0004713437616 ], [ 77.594978467063996, 12.9999682639081 ], [ 77.595096298908899, 12.9996158764299 ], [ 77.595659011639498, 12.997746920853601 ], [ 77.595821846809301, 12.9970711063597 ], [ 77.595921715298303, 12.996430929482299 ], [ 77.596112445274201, 12.9955583396378 ], [ 77.596231076499393, 12.9950613950756 ], [ 77.596253776924797, 12.9949742127554 ], [ 77.596228514741298, 12.9949812410897 ], [ 77.596197790911205, 12.994850550629099 ], [ 77.596119185777098, 12.994711304568201 ], [ 77.596103416785496, 12.9946900057143 ], [ 77.595008492328205, 12.995212519499001 ], [ 77.594676028301606, 12.995357003451 ], [ 77.594405532835395, 12.995425205313699 ], [ 77.594175599127098, 12.9954625107813 ], [ 77.593950083563499, 12.9954817032463 ], [ 77.593462288645, 12.995473024546 ], [ 77.591746195715302, 12.9953986872986 ], [ 77.5914310884976, 12.9953848930473 ], [ 77.589679485329995, 12.9953289650164 ], [ 77.589550167361594, 12.9956295180887 ], [ 77.589516149599007, 12.9956806756625 ], [ 77.589491027563597, 12.9957012535342 ], [ 77.589124423388199, 12.9958855968835 ], [ 77.589094648481506, 12.995901703941399 ], [ 77.588008778827401, 12.996467014616099 ], [ 77.587996182585002, 12.996473915957701 ], [ 77.587511247776703, 12.9967972111801 ], [ 77.587311244953199, 12.9969448837734 ], [ 77.586818879525893, 12.997329234133799 ], [ 77.586580359874901, 12.9974829365862 ], [ 77.586551794577701, 12.9975046778502 ], [ 77.586485276446297, 12.997531314432599 ], [ 77.586379065583102, 12.997561734343201 ], [ 77.586329046266698, 12.9975690084527 ], [ 77.585902469764505, 12.9976342399767 ], [ 77.585266353957095, 12.997704945512901 ], [ 77.585211151840895, 12.99771227103 ], [ 77.584361287562601, 12.9978268869856 ], [ 77.584305531944693, 12.9980589484429 ], [ 77.5842430618127, 12.998643418215201 ], [ 77.584172336333495, 12.9990981007358 ], [ 77.584163139741094, 12.999266457929901 ], [ 77.584187654727202, 12.999409634918299 ], [ 77.584186407695995, 12.9994627117643 ], [ 77.584186406765397, 12.9994627108701 ], [ 77.583407695560894, 12.9993247951464 ], [ 77.583156738541007, 12.9992787327516 ], [ 77.582998101409899, 12.9992509495628 ], [ 77.582084067763105, 12.9985067993998 ], [ 77.58205790177, 12.998482215036599 ], [ 77.581873588450506, 12.998310135845101 ], [ 77.581670527752394, 12.9981200593535 ], [ 77.581603798519097, 12.9980575968018 ], [ 77.581568867836793, 12.9980206772135 ], [ 77.581270730057994, 12.997699532182001 ], [ 77.580866039338005, 12.9972642571172 ], [ 77.580862549793693, 12.997260903900299 ], [ 77.580838675393693, 12.9972351672839 ], [ 77.580030231133307, 12.997290633561899 ], [ 77.579445447965597, 12.9973312234132 ], [ 77.579440665628994, 12.9973364088087 ], [ 77.579445539695101, 12.9974624358252 ], [ 77.579442945380293, 12.9974625320705 ], [ 77.578316426400804, 12.997504325804799 ], [ 77.578324477325395, 12.9976621813255 ], [ 77.578333762485698, 12.9977806660682 ], [ 77.578341028825704, 12.9978709382499 ], [ 77.578353013589506, 12.998027792523001 ], [ 77.578357062946097, 12.998085346825899 ], [ 77.578366780385906, 12.9982828713402 ], [ 77.5783667803952, 12.9982828722436 ], [ 77.578368725267893, 12.9983223858051 ], [ 77.578370658230597, 12.998398029995 ], [ 77.578373631236104, 12.998497834579799 ], [ 77.5783750640188, 12.998545925097901 ], [ 77.578388422047894, 12.998724222494401 ], [ 77.578400520410199, 12.9987805675378 ], [ 77.578401662705502, 12.998790723508399 ], [ 77.578401661788305, 12.9987907235528 ], [ 77.5784119338159, 12.9988820906492 ], [ 77.578432889242606, 12.999126941515 ], [ 77.578335348416005, 12.999160660207901 ], [ 77.578226774817495, 12.9991854540157 ], [ 77.578129448867003, 12.999190209719 ], [ 77.578081741726706, 12.999192541022801 ], [ 77.577947484774, 12.999183710664701 ], [ 77.577833791901199, 12.999158865751401 ], [ 77.577676843691407, 12.9991113745604 ], [ 77.577523030398694, 12.9990648314682 ], [ 77.577215311084899, 12.9989865768386 ], [ 77.577031711001496, 12.998940386073 ], [ 77.576999394120307, 12.9989322551789 ], [ 77.576907144368803, 12.9989207486097 ], [ 77.576852435557996, 12.9989201623989 ], [ 77.576598525581304, 12.9989226828136 ], [ 77.576395212479596, 12.998917924968801 ], [ 77.576303643370494, 12.9989165751765 ], [ 77.575954651331401, 12.9989121334677 ], [ 77.575790536440394, 12.9989115033859 ], [ 77.575147883279897, 12.998907715745901 ], [ 77.575136943834707, 12.9989078242684 ], [ 77.574623894732198, 12.998908396119701 ], [ 77.574403930905405, 12.9989083190776 ], [ 77.573979513752903, 12.998904622710301 ], [ 77.573974919310601, 12.998905797575601 ], [ 77.573941129056394, 12.999370278139899 ], [ 77.573940082331504, 12.999380452289399 ], [ 77.573890408827296, 12.999812340432999 ], [ 77.573879989439604, 13.0000304001587 ], [ 77.573854846055895, 13.0003841228275 ], [ 77.573853638946304, 13.000602091200101 ], [ 77.573832088612903, 13.0008575284633 ], [ 77.573798602394106, 13.0009606275412 ], [ 77.573775931854101, 13.000995861799799 ], [ 77.573771240554294, 13.0009956887836 ], [ 77.573727545155904, 13.000994082103 ], [ 77.573295790641893, 13.0010051390072 ], [ 77.573207710091296, 13.001007141589 ], [ 77.572579444473504, 13.0010032058759 ], [ 77.572558327710595, 13.0018594312209 ], [ 77.572277352770897, 13.001862216209901 ], [ 77.572256545852099, 13.0021899220315 ], [ 77.572213361529506, 13.0028046941234 ], [ 77.572213408088203, 13.0028092108977 ], [ 77.572174380608303, 13.0032748739184 ], [ 77.572166233773899, 13.003372074334701 ], [ 77.572102253251103, 13.0033659326463 ], [ 77.571774819050006, 13.003330781363299 ], [ 77.5712950496102, 13.0033208546196 ], [ 77.571301712912103, 13.0028498664716 ], [ 77.571334691571906, 13.0018591351235 ], [ 77.571339902118893, 13.0016942042813 ], [ 77.571351148252703, 13.000997308754799 ], [ 77.571357038908204, 13.000618931624301 ], [ 77.571365461623202, 13.0001569577684 ], [ 77.571381690160507, 12.999266903570399 ], [ 77.571411989729995, 12.9982953969403 ], [ 77.571433118305706, 12.9976074379216 ], [ 77.571456474596104, 12.996856215470499 ], [ 77.571016997326595, 12.9968436283001 ], [ 77.570425461821301, 12.996826899338201 ], [ 77.569523167940702, 12.996827925863 ], [ 77.569439075587596, 12.996820670841 ], [ 77.569429226405504, 12.996819821106399 ], [ 77.568728349213998, 12.9967533512963 ], [ 77.568532661107994, 12.9967620632397 ], [ 77.568492957017199, 12.9967647146649 ], [ 77.568142447902105, 12.9967806044982 ], [ 77.567964032428307, 12.9967891451612 ], [ 77.567775206804697, 12.9967932714122 ], [ 77.567637047925103, 12.996796896445 ], [ 77.567112466659594, 12.9968517737355 ], [ 77.566916190814595, 12.9968593609781 ], [ 77.566787185898704, 12.996857248491001 ], [ 77.566596180017896, 12.9968173522096 ], [ 77.566407635086506, 12.9967367761455 ], [ 77.566334717981604, 12.9967013588754 ], [ 77.566305779126793, 12.9966869638442 ], [ 77.566135844348807, 12.996624272620901 ], [ 77.566109830731804, 12.9966143659083 ], [ 77.566099985892293, 12.996608817270401 ], [ 77.566261901970194, 12.9963395696993 ], [ 77.566426155753902, 12.9960736866443 ], [ 77.566789225384696, 12.9954873716649 ], [ 77.566897982810602, 12.995312382193299 ], [ 77.567019762818305, 12.9951158069975 ], [ 77.567178770587105, 12.9947878633486 ], [ 77.567496244772499, 12.994415438952 ], [ 77.567499864799601, 12.994410894965901 ], [ 77.567499865741794, 12.9944108949305 ], [ 77.567780207905102, 12.9940591624069 ], [ 77.567780502603696, 12.9940587926919 ], [ 77.567780502614795, 12.9940587924456 ], [ 77.568329625777096, 12.9933693591205 ], [ 77.567810931506699, 12.9933801351032 ], [ 77.567810931497405, 12.9933801341998 ], [ 77.567820887864201, 12.9930604401374 ], [ 77.567841393239902, 12.9923894307985 ], [ 77.567843291598294, 12.9923272943839 ], [ 77.567870373227805, 12.9916889755175 ], [ 77.5678901224763, 12.9912257510057 ], [ 77.567891327290496, 12.9911749199997 ], [ 77.567894413149801, 12.990983468191001 ], [ 77.567902280097698, 12.9904994796954 ], [ 77.567903676516906, 12.9904204157696 ], [ 77.567909764286796, 12.9900692051135 ], [ 77.567914734164404, 12.989755141842201 ], [ 77.567933204219102, 12.9889192674071 ], [ 77.567937610532397, 12.988731757836 ], [ 77.567935874064602, 12.9886188436673 ], [ 77.567932115599504, 12.988421250983301 ], [ 77.567933011723895, 12.988396397231099 ], [ 77.567721290511599, 12.9884131710945 ], [ 77.567427814212095, 12.9884307527982 ], [ 77.567392129958805, 12.9884322347813 ], [ 77.567234400490705, 12.9884360521994 ], [ 77.566808631458997, 12.9884673630043 ], [ 77.566563458759802, 12.988478796407399 ], [ 77.566255553983098, 12.9884931549068 ], [ 77.565781271445502, 12.9885102622099 ], [ 77.565110730606094, 12.9885360825291 ], [ 77.565110429152398, 12.9885067232998 ], [ 77.565104288815206, 12.9883012484873 ], [ 77.563989601349306, 12.988363071816201 ], [ 77.563961497848396, 12.988261711636399 ], [ 77.563956080700194, 12.9881827129428 ], [ 77.563702928609104, 12.9882021510718 ], [ 77.563665506377902, 12.9882025203742 ], [ 77.563665505447503, 12.98820251948 ], [ 77.563537103652095, 12.9882026572591 ], [ 77.563230925325101, 12.9882169716067 ], [ 77.563172234613702, 12.9882209503856 ], [ 77.562899495368299, 12.988239439941999 ], [ 77.562650925703593, 12.988256573223801 ], [ 77.562344148152803, 12.988268633818899 ], [ 77.562280851323194, 12.9882726460875 ], [ 77.562132943625798, 12.9882797514743 ], [ 77.561963146136407, 12.9882859433371 ], [ 77.561963146136193, 12.9882859443548 ], [ 77.561953946778303, 12.9882871642822 ], [ 77.561918837187605, 12.988288639845999 ], [ 77.5616574156452, 12.9882878298428 ], [ 77.561626325581202, 12.9882881364132 ], [ 77.561450067493297, 12.988281969144399 ], [ 77.561450067484003, 12.988281968240999 ], [ 77.561483103764203, 12.9880783651664 ], [ 77.561484738368094, 12.988069314501001 ], [ 77.561556528229403, 12.9877704665645 ], [ 77.561631932380706, 12.987655661903901 ], [ 77.561765876711505, 12.9875222109004 ], [ 77.561849638912406, 12.9873802201505 ], [ 77.561857808676194, 12.9872785009431 ], [ 77.561847832666203, 12.987204064306599 ], [ 77.561815981750001, 12.9871863092852 ], [ 77.561536606119702, 12.987119046198901 ], [ 77.561265762493207, 12.9870415348037 ], [ 77.561031155828701, 12.9869602779376 ], [ 77.560881353578793, 12.9868386587773 ], [ 77.560835141073298, 12.9867679671729 ], [ 77.560785393152401, 12.9866894051671 ], [ 77.560806365592597, 12.986544645600899 ], [ 77.560923740715296, 12.9861990463674 ], [ 77.561038413456203, 12.985926879505101 ], [ 77.561044682810405, 12.9858082392104 ], [ 77.5610356200376, 12.985768307278599 ], [ 77.560995837675506, 12.9855930207095 ], [ 77.560976491123697, 12.9851098628064 ], [ 77.561006440906098, 12.9848859624342 ], [ 77.561038655990203, 12.9848269203305 ], [ 77.561100794755603, 12.984709988022001 ], [ 77.561230598006105, 12.9844534825449 ], [ 77.561351093783301, 12.9841315682899 ], [ 77.5613726734789, 12.983933724776501 ], [ 77.561385845735003, 12.9837020845656 ], [ 77.561397935983905, 12.9834772309333 ], [ 77.561458318080994, 12.983020390944599 ], [ 77.561576521866797, 12.982699628639001 ], [ 77.561584188590203, 12.9826611562314 ], [ 77.5616521185989, 12.982322820350401 ], [ 77.561729129919101, 12.981915506521601 ], [ 77.5614788129798, 12.981873930224101 ], [ 77.561263522873602, 12.981822973940099 ], [ 77.561182249976895, 12.9817582743327 ], [ 77.561135468906599, 12.9815757856049 ], [ 77.560988321664695, 12.9810385502015 ], [ 77.560981696750702, 12.980953916520001 ], [ 77.560842008140199, 12.980582617380399 ], [ 77.560759581703095, 12.980461462927799 ], [ 77.560630729901106, 12.9803610935398 ], [ 77.560529237941694, 12.980289816870799 ], [ 77.560354134332101, 12.980227170480999 ], [ 77.560098085000703, 12.980187907610899 ], [ 77.559815908429997, 12.9801274446863 ], [ 77.559604661600602, 12.9800775761959 ], [ 77.559249250356004, 12.979950074491899 ], [ 77.559253141702598, 12.979936484328601 ], [ 77.559211065361495, 12.9798759152633 ], [ 77.559181490873499, 12.979742946563 ], [ 77.559194642597205, 12.979509047644701 ], [ 77.559111621171297, 12.9791609047851 ], [ 77.559019475965101, 12.978990155083499 ], [ 77.558955924812494, 12.9789128575147 ], [ 77.558939020849905, 12.978892696130901 ], [ 77.558908875664201, 12.978883052131399 ], [ 77.558843127473097, 12.9788620190605 ], [ 77.5586995647961, 12.978843104363801 ], [ 77.558568277172199, 12.9788421379145 ], [ 77.558559054071196, 12.9788410993685 ], [ 77.558436862428195, 12.9788287501119 ], [ 77.558415707451303, 12.978830514065301 ], [ 77.558283260297699, 12.978841554989099 ], [ 77.558118994740994, 12.978825102343199 ], [ 77.5580126229097, 12.9787832348359 ], [ 77.557961609454196, 12.9787635761486 ], [ 77.557882307197602, 12.9787330155105 ], [ 77.557861171529296, 12.978724871007801 ], [ 77.557758610471893, 12.978674940470301 ], [ 77.557636072196402, 12.9786152828501 ], [ 77.557487462120406, 12.9785656570676 ], [ 77.557353551050795, 12.978520940535301 ], [ 77.557236915136201, 12.9784655856244 ], [ 77.557034170647398, 12.978369364964401 ], [ 77.556891931192794, 12.9783109098758 ], [ 77.5568680781426, 12.9783013473766 ], [ 77.556655468218807, 12.978216113687401 ], [ 77.556356595088303, 12.978042878316799 ], [ 77.556239359756802, 12.977965980376901 ], [ 77.555918360481101, 12.9777546923314 ], [ 77.5554457567264, 12.9774837831071 ], [ 77.555205776659605, 12.977101042232 ], [ 77.5551624695741, 12.9770325790671 ], [ 77.555066400484094, 12.976815563584699 ], [ 77.554822411467995, 12.9762657214699 ], [ 77.554493491511195, 12.9755744183737 ], [ 77.554472178488695, 12.975573498431499 ], [ 77.555475594422106, 12.9756144583957 ], [ 77.556096902891895, 12.9756318856217 ], [ 77.556361341461098, 12.9756393016869 ], [ 77.556757632962601, 12.9756504162276 ], [ 77.556846943340304, 12.9756552984758 ], [ 77.557563013555395, 12.9756944445207 ], [ 77.557563014485794, 12.975694445415 ], [ 77.557755993494496, 12.9757038404026 ], [ 77.558126915429298, 12.975716001936799 ], [ 77.558712107032605, 12.9757362183816 ], [ 77.558703257461502, 12.975546579434599 ], [ 77.558668672178101, 12.9753176674686 ], [ 77.558479649770604, 12.9748508588403 ], [ 77.558451240665804, 12.9747190076978 ], [ 77.558412998308299, 12.974639202099899 ], [ 77.558412998299005, 12.974639201196499 ], [ 77.558360651032402, 12.974531301309099 ], [ 77.558175771361903, 12.974215123826999 ], [ 77.557897109676105, 12.973738559798599 ], [ 77.557949878684198, 12.9737188422759 ], [ 77.557979000072294, 12.973019505293999 ], [ 77.557951031182498, 12.972987030040301 ], [ 77.557942497810998, 12.9729408117531 ], [ 77.557923115038506, 12.9727908025109 ], [ 77.557910884945301, 12.972720904807399 ], [ 77.557790940018506, 12.9722522862953 ], [ 77.557709387976402, 12.9719346193229 ], [ 77.557699000602597, 12.971875996693299 ], [ 77.557543075449601, 12.970985364968101 ], [ 77.557538860817701, 12.970967337243399 ], [ 77.557375457557498, 12.970246177150599 ], [ 77.557355929848001, 12.9702508864299 ], [ 77.557185868192207, 12.970286438028699 ], [ 77.557175528630395, 12.9702887983217 ], [ 77.557157755770902, 12.970014547498 ], [ 77.557113308065396, 12.9693836927171 ], [ 77.556863534812393, 12.9693940531177 ], [ 77.556534291711102, 12.9694029356536 ], [ 77.556112911072006, 12.9692975320855 ], [ 77.555945171811302, 12.9692604615857 ], [ 77.555945171820596, 12.969260462489 ], [ 77.555662803309801, 12.9691980575183 ], [ 77.5555802483577, 12.9691762820525 ], [ 77.555553879907194, 12.9691692826971 ], [ 77.554501230376601, 12.968889867385 ], [ 77.554501230367293, 12.9688898664816 ], [ 77.554485651868404, 12.9688866314784 ], [ 77.554418098930498, 12.9688680962705 ], [ 77.553508754343795, 12.968625445069399 ], [ 77.553491483393898, 12.9686208361871 ], [ 77.552858586936097, 12.968441775659301 ], [ 77.552777786301107, 12.9684189150104 ], [ 77.552698615447397, 12.968397061963801 ], [ 77.552370317932102, 12.9683064423311 ], [ 77.552149593067398, 12.9682455153955 ], [ 77.552072806132998, 12.9682248114456 ], [ 77.551865910893, 12.968148917344999 ], [ 77.551591981240193, 12.9680488353115 ], [ 77.551565214431506, 12.9680313014326 ], [ 77.551301555778295, 12.967858595577299 ], [ 77.551225076403597, 12.967808498691699 ], [ 77.551103505070202, 12.967686872303 ], [ 77.551018573416897, 12.967601597879501 ], [ 77.550943905481901, 12.9675063370945 ], [ 77.550796925783501, 12.9673203792086 ], [ 77.550063127679806, 12.9663890304071 ], [ 77.548814787504995, 12.9653611489352 ], [ 77.548506908816805, 12.965149591691199 ], [ 77.548502975445402, 12.965146712927501 ], [ 77.548494727247004, 12.965140676351499 ], [ 77.547788712879694, 12.9647873333428 ], [ 77.547253414562505, 12.9646035372617 ], [ 77.54637202104, 12.964300905896501 ], [ 77.546000619598203, 12.964240167850599 ], [ 77.545690412555899, 12.9642522372546 ], [ 77.544769600585894, 12.9642906060174 ], [ 77.544715059081597, 12.964281376502401 ], [ 77.544634626869197, 12.9642677659246 ], [ 77.544498212677894, 12.9642446821262 ], [ 77.544353191642898, 12.964220141653399 ], [ 77.543904421455196, 12.964024636832001 ], [ 77.543864953936094, 12.9639934020857 ], [ 77.543930885128404, 12.963909186957499 ], [ 77.544208829027696, 12.9635552469449 ], [ 77.544208829018501, 12.9635552460415 ], [ 77.544423674727099, 12.9632809761329 ], [ 77.544423674736294, 12.9632809770363 ], [ 77.544550085105996, 12.963312491793401 ], [ 77.544601427619995, 12.9632092204305 ], [ 77.544748854125203, 12.963099362910601 ], [ 77.544951592774794, 12.9629934817912 ], [ 77.545145949363501, 12.9629125278459 ], [ 77.545354467518493, 12.9628088486135 ], [ 77.5454304363939, 12.9627493803028 ], [ 77.545527706694102, 12.962689703635199 ], [ 77.545546372408097, 12.9626567704154 ], [ 77.545523853178693, 12.962593748020099 ], [ 77.545443960840203, 12.962494018756599 ], [ 77.545396260566406, 12.9624459239459 ], [ 77.545349159884196, 12.9624000819255 ], [ 77.545266654211602, 12.962326352804901 ], [ 77.545171334176004, 12.9622380676277 ], [ 77.545171333245705, 12.9622380667334 ], [ 77.545212761593305, 12.9621789362737 ], [ 77.545472131601301, 12.961810495826199 ], [ 77.545769729066805, 12.9613513347257 ], [ 77.545820092565094, 12.9612650128366 ], [ 77.545962343911597, 12.9610220671318 ], [ 77.546066831767405, 12.960843616996501 ], [ 77.546174509999801, 12.9606601367582 ], [ 77.546235480775593, 12.9605562461745 ], [ 77.546257495624005, 12.9605131171539 ], [ 77.546257496127794, 12.960513117088301 ], [ 77.546290254254899, 12.960450683358999 ], [ 77.546290254245704, 12.960450682455599 ], [ 77.546622279420603, 12.959810490953 ], [ 77.546626793009807, 12.959801412138701 ], [ 77.546869914850703, 12.959364240726501 ], [ 77.547098896610905, 12.958952052876 ], [ 77.547237757394797, 12.9586796545589 ], [ 77.547243975015306, 12.958668300404 ], [ 77.547591070690402, 12.958040383635501 ], [ 77.547727899931999, 12.957792850398 ], [ 77.547913897446406, 12.9574567481119 ], [ 77.548068806753307, 12.9571774165883 ], [ 77.548375780549506, 12.956622169268799 ], [ 77.548405175641307, 12.956568803004201 ], [ 77.548467350901205, 12.9564552613529 ], [ 77.548969194594207, 12.955587540364199 ], [ 77.549307377566706, 12.955044409726399 ], [ 77.549567275560705, 12.9547290407434 ], [ 77.549581483424404, 12.954710832354399 ], [ 77.549346218185903, 12.9547312049318 ], [ 77.549294990020201, 12.954392907267399 ], [ 77.549288186501499, 12.954346671315101 ], [ 77.549274342581995, 12.9540046196616 ], [ 77.549264273414806, 12.9537506188345 ], [ 77.549263628801498, 12.953743849160499 ], [ 77.549242921919202, 12.953462848515899 ], [ 77.549237558209498, 12.9533883651927 ], [ 77.5492294033332, 12.9533093494036 ], [ 77.549215203731407, 12.953171752507901 ], [ 77.549187703978006, 12.952902111626999 ], [ 77.549187093842605, 12.9528987296066 ], [ 77.549171689155799, 12.952766716158299 ], [ 77.549156819282302, 12.9526392798434 ], [ 77.549123344819904, 12.9523482401157 ], [ 77.549131438595793, 12.952351548892601 ], [ 77.549502663118602, 12.9522835435218 ], [ 77.550483954308604, 12.9521395459407 ], [ 77.550718323275206, 12.9521328292742 ], [ 77.550723384456802, 12.952132683941899 ], [ 77.550824817073703, 12.9520865173904 ], [ 77.550898226086503, 12.9520586945369 ], [ 77.550990108621207, 12.9520790757218 ], [ 77.551093260224704, 12.9521019575051 ], [ 77.551160865803595, 12.9521261405696 ], [ 77.551211593179502, 12.952132419671001 ], [ 77.551296643340294, 12.952112524411 ], [ 77.551322443258002, 12.952106488620601 ], [ 77.551368911007401, 12.9520902228347 ], [ 77.551463044510001, 12.9520057303705 ], [ 77.551469825975801, 12.951993241320199 ], [ 77.551477194603294, 12.9519818758471 ], [ 77.551583460911402, 12.952071181154301 ], [ 77.551674428503503, 12.951958486420599 ], [ 77.551762423849894, 12.951850533250999 ], [ 77.552091213542298, 12.9514462051075 ], [ 77.552255981467198, 12.9512311475874 ], [ 77.552699447791994, 12.950650847293799 ], [ 77.552726405040403, 12.950615571236 ], [ 77.552766747679499, 12.950563226789599 ], [ 77.552766747688693, 12.950563227692999 ], [ 77.552945582165094, 12.950655209279599 ], [ 77.553128478664306, 12.9508070052779 ], [ 77.553197178674196, 12.9508255304755 ], [ 77.553238577995899, 12.950827629081401 ], [ 77.553290492126607, 12.950830261553699 ], [ 77.553358938079796, 12.9508239439885 ], [ 77.553426796859597, 12.950816502834099 ], [ 77.553534894254099, 12.9508030205659 ], [ 77.553623396196002, 12.950787471703 ], [ 77.5537555101224, 12.9507579433203 ], [ 77.553948125751404, 12.950733468322399 ], [ 77.554253605391494, 12.950541875439599 ], [ 77.554403380854097, 12.950211772652301 ], [ 77.554536335116595, 12.949982344873501 ], [ 77.554603998058994, 12.9498427741581 ], [ 77.554795737823596, 12.949788944768599 ], [ 77.554853476004794, 12.9500201578618 ], [ 77.554989008877001, 12.950562896442401 ], [ 77.555482220893694, 12.9504327031263 ], [ 77.555511430323094, 12.9504242068236 ], [ 77.555518383682099, 12.9504221844226 ], [ 77.5555757536671, 12.950402423051999 ], [ 77.555697021619693, 12.9503820347689 ], [ 77.555733218936993, 12.9503749036766 ], [ 77.555819981962003, 12.950358241850701 ], [ 77.556036739840394, 12.9503301405428 ], [ 77.556060276946994, 12.9503268938362 ], [ 77.556168968201902, 12.9503119031552 ], [ 77.556353730746395, 12.9502513651275 ], [ 77.556527192190003, 12.950160178692601 ], [ 77.556563890826894, 12.9501408874224 ], [ 77.556687909647906, 12.9500515828906 ], [ 77.556720905994197, 12.9500128619911 ], [ 77.556755709946799, 12.949982028622401 ], [ 77.5567642410969, 12.9499717809655 ], [ 77.556766520678707, 12.9499694999417 ], [ 77.556943237863393, 12.950018140530799 ], [ 77.556996300044105, 12.950032745410599 ], [ 77.557173890175804, 12.950059235268 ], [ 77.557391269731795, 12.950092110318201 ], [ 77.5575024981095, 12.9501034408881 ], [ 77.557828699721398, 12.950137505782999 ], [ 77.557837910216193, 12.9501374153439 ], [ 77.557903468632006, 12.9501386625476 ], [ 77.558072846973502, 12.950141884301001 ], [ 77.558078939244695, 12.9502875072544 ], [ 77.558064237313204, 12.950313626079 ], [ 77.557972742550703, 12.950317912527 ], [ 77.557844555616299, 12.9503372404504 ], [ 77.557745070792095, 12.950348381222099 ], [ 77.557665147372205, 12.950414666776901 ], [ 77.557647533151794, 12.950493892419001 ], [ 77.557641259807696, 12.950612533056001 ], [ 77.557626938161206, 12.950675915831599 ], [ 77.557613077539699, 12.9507844670491 ], [ 77.557587495669694, 12.9508163393081 ], [ 77.557496265765707, 12.9508465974803 ], [ 77.557430468503, 12.9508867698442 ], [ 77.557372442890696, 12.9509550990034 ], [ 77.557277955430806, 12.951061053833399 ], [ 77.557139856127606, 12.951180988686801 ], [ 77.557044584879904, 12.9512101570828 ], [ 77.556993316680504, 12.9512072723966 ], [ 77.556912724451394, 12.9512080635308 ], [ 77.556802278614498, 12.951217052956499 ], [ 77.556718670257993, 12.951260787982999 ], [ 77.556652757517398, 12.9512896680742 ], [ 77.556568354535102, 12.9513119536856 ], [ 77.556436793554795, 12.9513392194144 ], [ 77.556308168432693, 12.951372102894601 ], [ 77.556187948097005, 12.951438783594099 ], [ 77.556078619149304, 12.951500840066499 ], [ 77.555826135078107, 12.951582370450099 ], [ 77.555792297830095, 12.951595125055499 ], [ 77.555650156048898, 12.9516575033457 ], [ 77.555789801484096, 12.9520276812513 ], [ 77.555968673076507, 12.9524053793329 ], [ 77.556313947671399, 12.9529542307084 ], [ 77.556533542754195, 12.953260380927899 ], [ 77.557597310400396, 12.953187823626299 ], [ 77.557898220721199, 12.9531690578651 ], [ 77.558482195488295, 12.9531317006342 ], [ 77.558478109120699, 12.9531825603285 ], [ 77.558477579585499, 12.953187082824 ], [ 77.558616337337796, 12.9531879783099 ], [ 77.558807791765304, 12.9532188477035 ], [ 77.559131432679095, 12.953396359363699 ], [ 77.559346721295, 12.953506046698401 ], [ 77.559504074580502, 12.953580164896 ], [ 77.559660771518494, 12.9536463841758 ], [ 77.559811377280496, 12.9536799128726 ], [ 77.5601084771356, 12.9536826390471 ], [ 77.560257976411194, 12.9536642295402 ], [ 77.560356909645407, 12.9536553516613 ], [ 77.560480814248095, 12.953611219260299 ], [ 77.560762608998601, 12.953468412701101 ], [ 77.561024083580804, 12.9533653319597 ], [ 77.561201743751795, 12.9533421277433 ], [ 77.5616919435668, 12.9533677981472 ], [ 77.561762033906604, 12.952508824942401 ], [ 77.561783257469401, 12.952275976109901 ], [ 77.561791037958102, 12.9521923298449 ], [ 77.561793555274804, 12.951650231103899 ], [ 77.561820091635795, 12.9515991506704 ], [ 77.561896868559799, 12.9514504545033 ], [ 77.562292740210594, 12.950809623799801 ], [ 77.562272003234199, 12.9503580995818 ], [ 77.562214129381999, 12.9500469763639 ], [ 77.562120604707104, 12.9499089898056 ], [ 77.561970044298903, 12.9497670468512 ], [ 77.561934146002898, 12.949747072125501 ], [ 77.5619039926993, 12.9497259115739 ], [ 77.561877868972104, 12.949704711389501 ], [ 77.561858699261506, 12.9496879600976 ], [ 77.561738081039906, 12.949592187281199 ], [ 77.561735069343499, 12.949589795633299 ], [ 77.561603494332402, 12.9494465363733 ], [ 77.561495488038403, 12.9493561233745 ], [ 77.561495059551802, 12.9492578775452 ], [ 77.561495059557103, 12.949257877545501 ], [ 77.561634182714798, 12.9492384404295 ], [ 77.562190077095195, 12.948875705389501 ], [ 77.562191208077294, 12.9488749678872 ], [ 77.562354211296096, 12.9489388652923 ], [ 77.562400494298004, 12.948960996474201 ], [ 77.562520266951694, 12.9490196723614 ], [ 77.562600604855305, 12.949050503085999 ], [ 77.562679309117698, 12.9490903844145 ], [ 77.5627716327283, 12.949110933292401 ], [ 77.562826274334398, 12.949105878475001 ], [ 77.562967295583206, 12.949046895803299 ], [ 77.563205403603305, 12.948911293419 ], [ 77.563440828517599, 12.948794915696901 ], [ 77.563658203859703, 12.9487148536415 ], [ 77.563757962657704, 12.948674345762999 ], [ 77.563792822243599, 12.9486491576845 ], [ 77.563823803367498, 12.948638688922999 ], [ 77.563992377241306, 12.9486279953612 ], [ 77.564111200759896, 12.9485940756473 ], [ 77.564239395270903, 12.948519408162801 ], [ 77.564238681900704, 12.948505863355299 ], [ 77.564237122189894, 12.948353420630699 ], [ 77.564226529616207, 12.947712071628199 ], [ 77.564203452241202, 12.9472007171673 ], [ 77.564202081458603, 12.9471792735932 ], [ 77.564221295141706, 12.946806409166101 ], [ 77.564228726491095, 12.946632420873501 ], [ 77.564234730340303, 12.946487808928699 ], [ 77.5642386808927, 12.946198664328801 ], [ 77.564238680883406, 12.946198663425401 ], [ 77.564244986093101, 12.945745744358 ], [ 77.564247926007894, 12.945526627489301 ], [ 77.564248883031695, 12.945226219141899 ], [ 77.564249822972599, 12.944755283740101 ], [ 77.564249238048106, 12.9444729596615 ], [ 77.564256101849793, 12.9441871743271 ], [ 77.564263183308796, 12.943866377948099 ], [ 77.564263643454296, 12.943855080226699 ], [ 77.564281430014105, 12.9431174596556 ], [ 77.564282551016206, 12.9428893261029 ], [ 77.564284567489096, 12.942579872736999 ], [ 77.564285428281806, 12.9424951653092 ], [ 77.564289217938594, 12.942190211769701 ], [ 77.564295535913104, 12.941738421818 ], [ 77.564345639141905, 12.941740187534601 ], [ 77.565098717964901, 12.9417474586281 ], [ 77.564978880931605, 12.941006675364299 ], [ 77.564401849300694, 12.940030974157899 ], [ 77.564289377139204, 12.939841225532 ], [ 77.564203834361905, 12.9396952554123 ], [ 77.564044492593894, 12.939425785923699 ], [ 77.563973019173702, 12.939304522334901 ], [ 77.564029983285096, 12.939301703442499 ], [ 77.564338519992802, 12.9392986687104 ], [ 77.564477868172304, 12.939301815256 ], [ 77.565907026714299, 12.939331796102399 ], [ 77.565922894663203, 12.9397573929388 ], [ 77.565949781993695, 12.939909586259899 ], [ 77.5659875580657, 12.9400006892033 ], [ 77.566028959193204, 12.940052230314601 ], [ 77.566075748973205, 12.9401240460991 ], [ 77.566169601735197, 12.940181846762201 ], [ 77.566324526895798, 12.9401882268376 ], [ 77.566494913142904, 12.9401865493743 ], [ 77.566647938040006, 12.9401760081979 ], [ 77.566671755279003, 12.9407031650533 ], [ 77.566721240566807, 12.941094551008 ], [ 77.566727540098199, 12.9411475669041 ], [ 77.566771997677705, 12.9413289492541 ], [ 77.566848887240099, 12.9415292106021 ], [ 77.566998445362998, 12.941742308051101 ], [ 77.567492603025002, 12.942269349179 ], [ 77.567648045723601, 12.942494810585099 ], [ 77.567781267694102, 12.9426866112684 ], [ 77.567844638896702, 12.942803435846599 ], [ 77.567834958945198, 12.943600828713301 ], [ 77.570344239622898, 12.943640463737101 ], [ 77.570363822801298, 12.9436413999093 ], [ 77.570390093646694, 12.943620813145699 ], [ 77.570711931618703, 12.9436232852989 ], [ 77.571061411579194, 12.9436266136693 ], [ 77.571071900386201, 12.9436389326465 ], [ 77.571111630781701, 12.9436396700003 ], [ 77.571543449610203, 12.9436444440113 ], [ 77.571843424811306, 12.9436482597928 ], [ 77.572374862953694, 12.9436554372539 ], [ 77.572712829859398, 12.943658877029399 ], [ 77.572843498842502, 12.9436575870666 ], [ 77.572866744381798, 12.9436788145176 ], [ 77.572886315947599, 12.9436786212996 ], [ 77.573780391580001, 12.943681086194999 ], [ 77.573771269673202, 12.9432972102731 ], [ 77.573778512174897, 12.9421520165474 ], [ 77.573787737608299, 12.940695113073399 ], [ 77.573842997801904, 12.940694567441399 ], [ 77.573844732425499, 12.9406392140294 ], [ 77.573844616531005, 12.9406279220545 ], [ 77.575335531018197, 12.9406160180689 ], [ 77.576828144821206, 12.9406040923693 ], [ 77.576894341744904, 12.9406034379791 ], [ 77.577260451053306, 12.940600947808701 ], [ 77.577756639904095, 12.9405960414984 ], [ 77.577756129196601, 12.940546356962001 ], [ 77.577757635538902, 12.9405248851988 ], [ 77.577702962228997, 12.939966417968099 ], [ 77.577675930976099, 12.9396888752685 ], [ 77.578102837859404, 12.9391606544834 ], [ 77.5788145250106, 12.938281767949 ], [ 77.5794247792916, 12.9375281401792 ], [ 77.580035029143801, 12.9367745116405 ], [ 77.580089136971097, 12.936773976239399 ], [ 77.580842245809905, 12.936751871683899 ], [ 77.580842245809905, 12.936751871683899 ], [ 77.581138295661106, 12.9367431817079 ], [ 77.581200775213105, 12.9367413476976 ], [ 77.581830598564395, 12.936722859174401 ], [ 77.582746790103798, 12.936695716708901 ], [ 77.584009427272093, 12.936659331517999 ], [ 77.584908938616394, 12.936632506725999 ], [ 77.584901228810494, 12.935604917111799 ], [ 77.584901980020803, 12.9346721050453 ], [ 77.584876388451804, 12.9339202425859 ], [ 77.584861267982205, 12.932899502029199 ], [ 77.583935260141004, 12.9329222294672 ], [ 77.583901311097407, 12.932923695109601 ], [ 77.582676034220199, 12.932953900032199 ], [ 77.582593170307106, 12.9329569791811 ], [ 77.581769851067094, 12.9329800832004 ], [ 77.581287365153798, 12.9329936215358 ], [ 77.580917977657606, 12.933003742579301 ], [ 77.580706683121605, 12.9330095317155 ], [ 77.580652587745107, 12.9330111962838 ], [ 77.580198411077006, 12.933013431200701 ], [ 77.580137984003798, 12.9330151583016 ], [ 77.580136053119901, 12.933051315239901 ], [ 77.580108450980205, 12.933050987506901 ], [ 77.579617290489395, 12.9330451527122 ], [ 77.579611741442093, 12.9326149422157 ], [ 77.579606730203295, 12.9321824668662 ], [ 77.579606638819996, 12.9321745626149 ], [ 77.579613370784003, 12.931916858444801 ], [ 77.579620271183998, 12.9316526875454 ], [ 77.579639169674707, 12.9309150625743 ], [ 77.579640188485897, 12.930846164714501 ], [ 77.579648554666804, 12.9299799027673 ], [ 77.579652894626804, 12.9295620158875 ], [ 77.579659660109797, 12.928819993603099 ], [ 77.579663533795198, 12.928748808892299 ], [ 77.579686142397705, 12.928307015045201 ], [ 77.579689899982796, 12.9282335837076 ], [ 77.579692385797401, 12.928083361153201 ], [ 77.579703139303305, 12.927393247573599 ], [ 77.579709651909596, 12.9273547867068 ], [ 77.579708507745394, 12.9272994619207 ], [ 77.579697161589294, 12.926643446055101 ], [ 77.579668419280395, 12.9255268443539 ], [ 77.579690476221501, 12.9243679559809 ], [ 77.579696038620199, 12.923956832754399 ], [ 77.5797022606978, 12.9234418066274 ], [ 77.579702202698599, 12.9234361606586 ], [ 77.578435915518597, 12.923448673828799 ], [ 77.577937999282497, 12.9234502045155 ], [ 77.577687607923394, 12.9234515483123 ], [ 77.576457317804099, 12.9234941877534 ], [ 77.576246701615901, 12.923502964998701 ], [ 77.576208745547802, 12.9235045466679 ], [ 77.575972824548103, 12.9235136511702 ], [ 77.575561268439202, 12.9235165835724 ], [ 77.574575116201899, 12.9235376065536 ], [ 77.573588962149103, 12.9235586258441 ], [ 77.573583581065506, 12.923033548207 ], [ 77.573579557081999, 12.9226970525028 ], [ 77.573575969927006, 12.9223470007217 ], [ 77.573567178999198, 12.921545274859101 ], [ 77.573561281096204, 12.921025848804099 ], [ 77.574402092707999, 12.920837997205799 ], [ 77.574292481765099, 12.9202529647467 ], [ 77.574247762041793, 12.919877344496699 ], [ 77.574232582658695, 12.919744235236401 ], [ 77.574096814837503, 12.919302883186701 ], [ 77.573913607362996, 12.918838283088 ], [ 77.573731856604397, 12.9184082723404 ], [ 77.573649317026707, 12.918212990155901 ], [ 77.573536695726105, 12.917895633798601 ], [ 77.573512955584704, 12.9178258503417 ], [ 77.573515663260196, 12.9177179250989 ], [ 77.573534210559103, 12.9169786555094 ], [ 77.573326550607703, 12.9168801931699 ], [ 77.573103602116205, 12.916750260494601 ], [ 77.572893443613694, 12.9166326240213 ], [ 77.572814439892994, 12.9166187213655 ], [ 77.572748743713007, 12.9166114634564 ], [ 77.572556765959703, 12.916582863386701 ], [ 77.572028388063401, 12.9165316026391 ], [ 77.571969667335793, 12.9165309758184 ], [ 77.571643249127106, 12.9165274907128 ], [ 77.5714102461978, 12.916539949150501 ], [ 77.571237655246094, 12.9165495538921 ], [ 77.571102867196501, 12.916540717251801 ], [ 77.57106419982, 12.916530934137899 ], [ 77.571001300612096, 12.9165157430241 ], [ 77.570707294209299, 12.9164169991699 ], [ 77.570648999618498, 12.9164017626307 ], [ 77.570403676516904, 12.916335289295899 ], [ 77.570366585731804, 12.916310809435499 ], [ 77.570292115409302, 12.916233619625601 ], [ 77.570235164462702, 12.9161246364859 ], [ 77.570188781803694, 12.9160294868799 ], [ 77.570129586202299, 12.9159080518127 ], [ 77.570126979387993, 12.9159027037292 ], [ 77.570090524524403, 12.915827920500799 ], [ 77.569975312145104, 12.9156506223419 ], [ 77.569934675686397, 12.9156171427533 ], [ 77.569897608150995, 12.9155949212028 ], [ 77.569774561091805, 12.915552088723301 ], [ 77.569723208225795, 12.9155401715708 ], [ 77.569566824267199, 12.915502184293899 ], [ 77.569351355135097, 12.915934574225901 ], [ 77.569249404925998, 12.9161535355517 ], [ 77.569111414526802, 12.9164507743525 ], [ 77.568858890512701, 12.916967092792699 ], [ 77.568858890512701, 12.916967092792699 ], [ 77.568775217115501, 12.917183713197 ], [ 77.568666800081701, 12.917539919458299 ], [ 77.568654971559695, 12.9178367545546 ], [ 77.568657228718195, 12.917956540303599 ], [ 77.568675542182206, 12.9180894082082 ], [ 77.568698767849298, 12.9181501601508 ], [ 77.566026917418498, 12.9187645066112 ], [ 77.565745147065599, 12.9179793257988 ], [ 77.5654674754132, 12.917404383489799 ], [ 77.565394881964707, 12.9172998531159 ], [ 77.564898413288105, 12.9167785085356 ], [ 77.564855054369701, 12.916751043392599 ], [ 77.564850876766499, 12.916761435761099 ], [ 77.564686405466404, 12.917171865392699 ], [ 77.564614610368807, 12.9173566498777 ], [ 77.564497910020194, 12.917653678188501 ], [ 77.564458425279398, 12.917736442285401 ], [ 77.564278677770503, 12.918113206415899 ], [ 77.564153825806002, 12.918344814121699 ], [ 77.564101840534903, 12.918440187647301 ], [ 77.563888856523405, 12.918778817020099 ], [ 77.563577022841002, 12.919246030309299 ], [ 77.563433198037799, 12.9194236167295 ], [ 77.563358488028996, 12.919492109599499 ], [ 77.563252811700707, 12.919572199713601 ], [ 77.563026804241204, 12.919706549316601 ], [ 77.562797941635594, 12.919843185438101 ], [ 77.5624313995676, 12.9200828118539 ], [ 77.562275865599204, 12.9201848481738 ], [ 77.562202824188702, 12.920247677814499 ], [ 77.562182517768207, 12.9202885327334 ], [ 77.562123014559901, 12.9204370580114 ], [ 77.561942696919203, 12.9208182801743 ], [ 77.561845239851607, 12.921083498177399 ], [ 77.561845239851607, 12.921083498177399 ], [ 77.561845239851607, 12.921083498177399 ], [ 77.561694158225393, 12.9215158690702 ], [ 77.561612293975998, 12.921609517261899 ], [ 77.560309309752299, 12.9218466758639 ], [ 77.559116740482693, 12.922082747667201 ], [ 77.558751026086895, 12.9221869142961 ], [ 77.556281300055602, 12.922978109771799 ], [ 77.556169292081904, 12.9225810402836 ], [ 77.555971975068999, 12.9220100232032 ], [ 77.555645699301607, 12.920998816862101 ], [ 77.555119431515806, 12.921021567139899 ], [ 77.554897051767497, 12.9209623371832 ], [ 77.554736294560001, 12.9209786830321 ], [ 77.554616693768097, 12.9210105079969 ], [ 77.554386243533997, 12.9210169886352 ], [ 77.554154988741601, 12.9209595704728 ], [ 77.554041549428305, 12.9209008928015 ], [ 77.553506415760296, 12.920619737234301 ], [ 77.553233765169793, 12.9204369611685 ], [ 77.553026209130195, 12.9202595655957 ], [ 77.552881946831207, 12.9200925742963 ], [ 77.552682126956697, 12.9197313428604 ], [ 77.552639254282099, 12.9196601507754 ], [ 77.552581177170794, 12.9196342733267 ], [ 77.552517690393103, 12.919640348273299 ], [ 77.5524262852135, 12.919700624854499 ], [ 77.552319318497197, 12.9197483300599 ], [ 77.552173255073001, 12.9197695032327 ], [ 77.552153451729097, 12.919662964236201 ], [ 77.552123031808193, 12.919668218925199 ], [ 77.551955743259896, 12.9188855664601 ], [ 77.551955743259896, 12.91888556646 ], [ 77.551955743259896, 12.9188855664601 ], [ 77.5509022720546, 12.9191081759058 ], [ 77.550726520508903, 12.9191471610074 ], [ 77.5502344426326, 12.9192573059729 ], [ 77.550273548981195, 12.919481440606701 ], [ 77.550264329332094, 12.919549201159001 ], [ 77.550266389757894, 12.9203758521945 ], [ 77.550256822538898, 12.920397402968799 ], [ 77.550210474803507, 12.9204249597128 ], [ 77.550248665485498, 12.920557847823501 ], [ 77.550132496797303, 12.9206256132727 ], [ 77.550838523185305, 12.9219569733017 ], [ 77.551392793849203, 12.9230255500413 ], [ 77.5517448163788, 12.923734716398901 ], [ 77.552057881459902, 12.9243626610545 ], [ 77.551715700557807, 12.924495040661499 ], [ 77.551443898832602, 12.9245993378654 ], [ 77.550496212109906, 12.9250942139203 ], [ 77.550398864466501, 12.9251448559074 ], [ 77.549968030731307, 12.925389780972701 ], [ 77.549950138301497, 12.925399952632899 ], [ 77.549445323022198, 12.925687218028701 ], [ 77.549271394303702, 12.925792815799699 ], [ 77.548711419936794, 12.9261472495488 ], [ 77.548152085661201, 12.926564918784701 ], [ 77.547828249455804, 12.9268176636986 ], [ 77.546232509342801, 12.928066473775701 ], [ 77.546053176333899, 12.928207132034199 ], [ 77.545550322741704, 12.928632151374 ], [ 77.544492111646306, 12.929527873544201 ], [ 77.543601606776804, 12.9303858187325 ], [ 77.543441288796004, 12.930528548986 ], [ 77.543085859942195, 12.930845969923499 ], [ 77.542868482905305, 12.931038947028 ], [ 77.542483947645906, 12.931381496555099 ], [ 77.541587261233104, 12.932028311121201 ], [ 77.541078628224994, 12.932395784443701 ], [ 77.540433219768801, 12.932843643001901 ], [ 77.539664952273597, 12.933381914554399 ], [ 77.539427149037607, 12.933547984348801 ], [ 77.5392515288233, 12.933658110901 ], [ 77.539181160994403, 12.9337017109259 ] ] ] } }
]
}
