{
"type": "FeatureCollection",
"name": "East_Zone2",
"crs": { "type": "name", "properties": { "name": "urn:ogc:def:crs:OGC:1.3:CRS84" } },
"features": [
{ "type": "Feature", "properties": { "region_id": "zone_GBA_East_2", "name": "East (Z2)", "parent": "corp_GBA_East", "parent_name": "East" }, "geometry": { "type": "Polygon", "coordinates": [ [ [ 77.662879100847704, 12.9590575561145 ], [ 77.662152784135301, 12.9591865217586 ], [ 77.661488292916204, 12.9592271937193 ], [ 77.661439964078298, 12.9592299463215 ], [ 77.661144198697698, 12.9592431332469 ], [ 77.660888703278502, 12.959253649724699 ], [ 77.660850064116204, 12.9592472692536 ], [ 77.660386849899297, 12.9591594060653 ], [ 77.659775159428705, 12.9590764468235 ], [ 77.659664470653297, 12.9590617684037 ], [ 77.659666017690299, 12.959099017539399 ], [ 77.659669495557793, 12.9592096475901 ], [ 77.659728930058606, 12.9597104231466 ], [ 77.659747338445598, 12.9598175129039 ], [ 77.659754222131397, 12.959869387631199 ], [ 77.659764607588997, 12.959925743537999 ], [ 77.659807612623595, 12.9601805124511 ], [ 77.659790727499697, 12.9602168206874 ], [ 77.659836574285507, 12.9602513586523 ], [ 77.659853303604095, 12.960254575421301 ], [ 77.659899941804596, 12.960255228073001 ], [ 77.660163811663793, 12.960870225834499 ], [ 77.659773412627203, 12.9610255337992 ], [ 77.659864663607294, 12.9613238499839 ], [ 77.659967559769001, 12.9616886722497 ], [ 77.659998620086398, 12.9616860963232 ], [ 77.660820446715604, 12.961606553564399 ], [ 77.660850356978301, 12.961766599786399 ], [ 77.660884188734599, 12.9619164427481 ], [ 77.660914986346697, 12.962051636605599 ], [ 77.660947199323004, 12.9622116592476 ], [ 77.661351259274596, 12.9621499364697 ], [ 77.661446682771, 12.962136539031 ], [ 77.661538944719396, 12.9625296998935 ], [ 77.661680386437993, 12.962783461301701 ], [ 77.6617075507463, 12.9629017535391 ], [ 77.661790975743997, 12.9642503403983 ], [ 77.661791203892506, 12.964271793597 ], [ 77.661780854371301, 12.9642730287023 ], [ 77.661608341618205, 12.9642375284223 ], [ 77.661341867423701, 12.9641905673869 ], [ 77.661087014127503, 12.9641536503723 ], [ 77.661059804686602, 12.964301858955199 ], [ 77.660935816028498, 12.9644984852709 ], [ 77.660795662828704, 12.964853370362601 ], [ 77.660534213660597, 12.9649000840902 ], [ 77.660545811024804, 12.9649620736842 ], [ 77.660719837304896, 12.9651940467822 ], [ 77.661000031407397, 12.965177630575999 ], [ 77.661068584058199, 12.9654524638302 ], [ 77.661140491475194, 12.965447211449099 ], [ 77.661274664429698, 12.965450356113299 ], [ 77.661393247674795, 12.9655033466746 ], [ 77.661507896789701, 12.9655112078665 ], [ 77.661558781565901, 12.965532142896601 ], [ 77.661630366256304, 12.965604811142001 ], [ 77.661646208845895, 12.965632880044 ], [ 77.661652469640799, 12.965680244018699 ], [ 77.661683639241005, 12.9657420332824 ], [ 77.661706306296296, 12.965816331143801 ], [ 77.661771021024506, 12.9660008642135 ], [ 77.661786230412602, 12.966185903719101 ], [ 77.6617868661057, 12.9661915434077 ], [ 77.661956858180801, 12.966300907735 ], [ 77.6619648261604, 12.9663060342591 ], [ 77.661645422379095, 12.9668039084592 ], [ 77.661547298288895, 12.9667800690465 ], [ 77.659929864666907, 12.9670258461771 ], [ 77.659704199150397, 12.9670812275725 ], [ 77.659584991642205, 12.967023725736301 ], [ 77.658988944504003, 12.967114511311101 ], [ 77.658461266921506, 12.9671921753172 ], [ 77.658492040824299, 12.9674335184444 ], [ 77.658336663997105, 12.9676564374347 ], [ 77.657951734615494, 12.968165141439 ], [ 77.657273809037804, 12.968244338574699 ], [ 77.657375255235294, 12.9689061673221 ], [ 77.657446624238901, 12.9691211234279 ], [ 77.657526376487994, 12.969529094179199 ], [ 77.657629119699394, 12.9701502566085 ], [ 77.657657662996698, 12.9703441945181 ], [ 77.657688724911395, 12.9705584330265 ], [ 77.657702445090607, 12.970711869679199 ], [ 77.657752647367303, 12.970776852704899 ], [ 77.658103739202105, 12.970984432973101 ], [ 77.658361286409701, 12.971057459884101 ], [ 77.658734709680999, 12.971253518470499 ], [ 77.658637232913406, 12.971453261271501 ], [ 77.659041969220794, 12.971507844123 ], [ 77.659288147448194, 12.9715403335522 ], [ 77.659596065193398, 12.9715857422692 ], [ 77.660156612191599, 12.971566458594801 ], [ 77.660802752541898, 12.9715835629416 ], [ 77.661023889183198, 12.9715892051307 ], [ 77.661518187800894, 12.9716202828309 ], [ 77.661573740265993, 12.971701019481401 ], [ 77.661566333885702, 12.971978887880599 ], [ 77.661983994069402, 12.971787159742499 ], [ 77.662630237404599, 12.9715976079156 ], [ 77.663057361427406, 12.971537902153701 ], [ 77.663902931549501, 12.971630873940899 ], [ 77.664234151998301, 12.9717020107175 ], [ 77.664505935613406, 12.9717602051509 ], [ 77.664794016393898, 12.971780967518001 ], [ 77.664917902792794, 12.9717909904736 ], [ 77.665335291469503, 12.971844304263399 ], [ 77.665406237863905, 12.9717487214252 ], [ 77.665531077406001, 12.9715780567259 ], [ 77.665716988157996, 12.9715196895337 ], [ 77.666053768558001, 12.9714642926634 ], [ 77.666141699361305, 12.9714498404691 ], [ 77.666157781596596, 12.9714462879033 ], [ 77.666158179152305, 12.971446770753699 ], [ 77.6663152664363, 12.971637772506799 ], [ 77.6664560093689, 12.9718249116811 ], [ 77.666487612333896, 12.9718731447326 ], [ 77.666512295405497, 12.971920319493099 ], [ 77.666522454686898, 12.971955221587599 ], [ 77.666528032797103, 12.9719924291204 ], [ 77.666546375855305, 12.972146946115901 ], [ 77.666550383489195, 12.972198849791701 ], [ 77.666558194139199, 12.972283462260901 ], [ 77.666568116959496, 12.972404188560599 ], [ 77.6665726400837, 12.9724504407779 ], [ 77.666709072956706, 12.972503245045001 ], [ 77.666885491071397, 12.9725804823322 ], [ 77.666964765435793, 12.9726180633168 ], [ 77.666846379258402, 12.972799954770901 ], [ 77.666660917791006, 12.9730085064003 ], [ 77.666731959070404, 12.9731918430283 ], [ 77.666796324489994, 12.9731810198658 ], [ 77.666815417536696, 12.9731898579366 ], [ 77.6668420565654, 12.973258468009501 ], [ 77.666845741490604, 12.973334088880801 ], [ 77.666791761977706, 12.973347064021899 ], [ 77.6668049923165, 12.9734000023308 ], [ 77.666913625714699, 12.9743011459428 ], [ 77.666902391708405, 12.974381436749001 ], [ 77.666610964789797, 12.9744250779575 ], [ 77.666515861925404, 12.9753328280696 ], [ 77.666560992452602, 12.975353820673501 ], [ 77.666598027573102, 12.975371508592 ], [ 77.666646708417801, 12.975401498637099 ], [ 77.666886810692503, 12.975457756175 ], [ 77.666984962545001, 12.975483851016699 ], [ 77.667314090495097, 12.975574201168801 ], [ 77.667633680266704, 12.9755799562506 ], [ 77.667928203233302, 12.9755566080999 ], [ 77.668022000248499, 12.9755522579262 ], [ 77.668134782099898, 12.975546583667301 ], [ 77.668525437936196, 12.9754680451888 ], [ 77.668742041146501, 12.975426298910101 ], [ 77.668846570777504, 12.975402641345401 ], [ 77.669026066296595, 12.975336432638199 ], [ 77.669213500452599, 12.975258850010899 ], [ 77.669259936262307, 12.9752403055996 ], [ 77.669442897530701, 12.9751751902969 ], [ 77.669818593904495, 12.9750437297673 ], [ 77.6701008910387, 12.9749538802096 ], [ 77.670192897346496, 12.974889698451999 ], [ 77.670213464412697, 12.974874807240599 ], [ 77.670294701892999, 12.974826545276599 ], [ 77.670522000379705, 12.9747621032165 ], [ 77.670749753790204, 12.9746863640017 ], [ 77.671122835427497, 12.974579771757901 ], [ 77.671617510138404, 12.974430148256999 ], [ 77.671651917008901, 12.974417373216101 ], [ 77.671848068657795, 12.9743476039943 ], [ 77.672345463670695, 12.9741832713362 ], [ 77.672524526092801, 12.974130615731299 ], [ 77.672685706822406, 12.974074756124301 ], [ 77.672701776977803, 12.974070074034399 ], [ 77.672954137218895, 12.9739805294554 ], [ 77.6732736077537, 12.9738677101814 ], [ 77.673456027022795, 12.973805985674201 ], [ 77.673620661172706, 12.973750090056701 ], [ 77.673956945716398, 12.973648389451199 ], [ 77.674207159187006, 12.9735735458449 ], [ 77.674490651830396, 12.9734881967091 ], [ 77.674862026283094, 12.9733838757101 ], [ 77.675142390497598, 12.973329047245301 ], [ 77.675396886298699, 12.9732778723195 ], [ 77.675769676871894, 12.9731983785559 ], [ 77.675773694373405, 12.9731972079913 ], [ 77.676248697309603, 12.9730929481037 ], [ 77.676717186241206, 12.972971816083801 ], [ 77.677192799934204, 12.9728709360051 ], [ 77.677949904294707, 12.972738155394399 ], [ 77.678116241843995, 12.9727089824357 ], [ 77.678239771131203, 12.973169563006399 ], [ 77.678360265573303, 12.973615494766101 ], [ 77.678370462808203, 12.973653783356401 ], [ 77.678442366087907, 12.973863078425 ], [ 77.6785385969484, 12.9741398762923 ], [ 77.678695431622501, 12.974592208676301 ], [ 77.678702229106904, 12.974613564993399 ], [ 77.678916462870504, 12.975286662504301 ], [ 77.679061290184094, 12.9756928199348 ], [ 77.679152701046405, 12.9758734571266 ], [ 77.679298913195794, 12.9761623866398 ], [ 77.679377523743895, 12.976513894129001 ], [ 77.679344968333893, 12.9766994222301 ], [ 77.679314236678294, 12.9768939653234 ], [ 77.679333694097195, 12.9775814616518 ], [ 77.679337916978, 12.9779755169696 ], [ 77.679371234451494, 12.978237153304001 ], [ 77.679505418159707, 12.979046552219801 ], [ 77.679622624208406, 12.9793818361091 ], [ 77.6796533096649, 12.979469615400999 ], [ 77.679751238264004, 12.9800117618759 ], [ 77.679750981177307, 12.9802026031353 ], [ 77.679751295885794, 12.9802319596764 ], [ 77.6798226329459, 12.980495462231801 ], [ 77.679848564685699, 12.980590217572299 ], [ 77.679898133057094, 12.9807713432564 ], [ 77.679962871828394, 12.9810100708536 ], [ 77.679972997192095, 12.9810415846701 ], [ 77.680061665543306, 12.981310554456 ], [ 77.680139045267396, 12.9815468931456 ], [ 77.680143208147896, 12.981559271658901 ], [ 77.680185084625705, 12.98175984133 ], [ 77.680214764203896, 12.981843097677199 ], [ 77.680268077071702, 12.981991336851999 ], [ 77.680294877393607, 12.9820658574011 ], [ 77.680297264843404, 12.982073737331699 ], [ 77.680380522981906, 12.9823213074437 ], [ 77.680381722764594, 12.982325811956599 ], [ 77.680416376751197, 12.9824970962488 ], [ 77.680438722751504, 12.9827554575549 ], [ 77.680247438500601, 12.983064578869 ], [ 77.680240075816698, 12.983075947027499 ], [ 77.680201956266401, 12.983132884400799 ], [ 77.680013977608596, 12.9834136578854 ], [ 77.679841758009701, 12.983567879006101 ], [ 77.679799363787595, 12.9835875129881 ], [ 77.679713436074493, 12.9836279219057 ], [ 77.679704104176906, 12.983616725916701 ], [ 77.679067873556406, 12.983989154405499 ], [ 77.678954313014302, 12.9840298480174 ], [ 77.678814616946795, 12.9840493557887 ], [ 77.678590992867996, 12.9840810209013 ], [ 77.678472097317695, 12.9842685683521 ], [ 77.678356754172, 12.9843578367249 ], [ 77.678241901909004, 12.984439195436799 ], [ 77.678026704990501, 12.9845588527239 ], [ 77.677872130607895, 12.984640620708101 ], [ 77.677809538807495, 12.9846559456874 ], [ 77.677719157070598, 12.984656877133199 ], [ 77.677660193790999, 12.984742176571199 ], [ 77.677608709250606, 12.9847731961805 ], [ 77.677496911346694, 12.984817258769001 ], [ 77.6773673640824, 12.984870538005501 ], [ 77.676925459530594, 12.9851641726413 ], [ 77.676456690297698, 12.9854761510489 ], [ 77.675798427916902, 12.985816406777101 ], [ 77.675790211203903, 12.985820654177299 ], [ 77.674924392102199, 12.9863682106279 ], [ 77.673367211089499, 12.9863887556123 ], [ 77.6729328901597, 12.9863695106345 ], [ 77.672138942898101, 12.985993740130199 ], [ 77.671712231390302, 12.985878430245799 ], [ 77.671353385312202, 12.9860255322063 ], [ 77.671282950980597, 12.985899782731099 ], [ 77.670814961844599, 12.9860163877257 ], [ 77.670451671118897, 12.986070937409799 ], [ 77.669795645044104, 12.986155596473001 ], [ 77.669479770393195, 12.986121577620199 ], [ 77.668884044977801, 12.985976380937499 ], [ 77.668712197592598, 12.985896841514499 ], [ 77.668353954173497, 12.9857232316715 ], [ 77.668264180132098, 12.9856733382257 ], [ 77.668195215240502, 12.9856311356654 ], [ 77.667973208172, 12.985491132247599 ], [ 77.667950614731694, 12.9855320166008 ], [ 77.667816666430895, 12.9858744201089 ], [ 77.667526007480703, 12.985937253815701 ], [ 77.667492483427395, 12.987219276681 ], [ 77.667366090011598, 12.9879997447725 ], [ 77.667410107796798, 12.9886711859847 ], [ 77.667628812383299, 12.9895260271811 ], [ 77.667885190574495, 12.9897571449764 ], [ 77.667889232508102, 12.989758232691999 ], [ 77.668055684290593, 12.9898175014575 ], [ 77.668163616902604, 12.989842365069901 ], [ 77.6682547161153, 12.9899622570028 ], [ 77.668212609089693, 12.9900089880528 ], [ 77.668360216288704, 12.9901905815024 ], [ 77.668358500328196, 12.9901915549127 ], [ 77.668362035793706, 12.9901958512259 ], [ 77.668362034862895, 12.9901958503321 ], [ 77.667871572060903, 12.990476605483799 ], [ 77.666906997227898, 12.991053386368399 ], [ 77.666259722490196, 12.9915817377802 ], [ 77.665686561713997, 12.992212756067399 ], [ 77.665531872427195, 12.9923830603844 ], [ 77.664997081311299, 12.9931473942667 ], [ 77.664164289015503, 12.994474885631501 ], [ 77.664160331338195, 12.9944817016464 ], [ 77.664135421805099, 12.994521480438101 ], [ 77.663540351445604, 12.995519053760701 ], [ 77.663535830072504, 12.995527004789601 ], [ 77.663205771593496, 12.9961616330902 ], [ 77.662833703816403, 12.996690544012401 ], [ 77.662790684155198, 12.9967598686271 ], [ 77.663844942605294, 12.9973543228705 ], [ 77.664070305814903, 12.9974841306665 ], [ 77.663866542351997, 12.9978136996976 ], [ 77.663592042652496, 12.9982591764372 ], [ 77.663297277298099, 13.002255175344301 ], [ 77.663303767227603, 13.0028632278236 ], [ 77.6633037681584, 13.0028632287175 ], [ 77.663304292126796, 13.002912318850001 ], [ 77.663270793453705, 13.0033866282293 ], [ 77.663246269260796, 13.0037338679768 ], [ 77.663188833418104, 13.0045565403294 ], [ 77.663127647337902, 13.004973855946 ], [ 77.663036673239503, 13.005513434675599 ], [ 77.662956012121398, 13.005994187365101 ], [ 77.662725171847399, 13.007294047572 ], [ 77.6626648937292, 13.0076345659835 ], [ 77.6626025638529, 13.007998819397301 ], [ 77.6625689410983, 13.0081933929202 ], [ 77.662562246513005, 13.008375268459099 ], [ 77.662532027965796, 13.009212341708499 ], [ 77.662521440681999, 13.0095150853363 ], [ 77.662504492739799, 13.009977116372999 ], [ 77.662474854841605, 13.0102213353506 ], [ 77.662450982635704, 13.0104124211047 ], [ 77.662339861744897, 13.0117076650192 ], [ 77.662297616993001, 13.012389027342101 ], [ 77.662327773062799, 13.0124090439726 ], [ 77.662310610850696, 13.012689270410201 ], [ 77.662289845200505, 13.0130632603357 ], [ 77.662282630701299, 13.0131965841157 ], [ 77.662282666862495, 13.0131999705455 ], [ 77.662255657455802, 13.0136903357643 ], [ 77.662159738394706, 13.015061082435 ], [ 77.662094858942496, 13.015725738678899 ], [ 77.662054492604994, 13.0158819875679 ], [ 77.662016908565704, 13.0160291740109 ], [ 77.661935856138896, 13.0162039084213 ], [ 77.661797920893704, 13.016336315940499 ], [ 77.661707122542694, 13.0164072607612 ], [ 77.661523638698299, 13.016480286359901 ], [ 77.660535220760707, 13.016883406138399 ], [ 77.660370736245895, 13.016956236053 ], [ 77.658565969117404, 13.0177539248345 ], [ 77.658416489254193, 13.0178203971463 ], [ 77.656473524973904, 13.018684407671101 ], [ 77.655633922535301, 13.0190577618296 ], [ 77.655600981730203, 13.019070950075299 ], [ 77.654675792529702, 13.0194413553139 ], [ 77.653110586487202, 13.020030518021599 ], [ 77.652745270580695, 13.020168026462001 ], [ 77.651270544311103, 13.020816621971701 ], [ 77.648141159917301, 13.0221981766746 ], [ 77.647913605066904, 13.0222986352272 ], [ 77.646656433195005, 13.0228465352328 ], [ 77.646411847363197, 13.0229531299527 ], [ 77.645421015984397, 13.0233795648219 ], [ 77.645182525936505, 13.023482206297 ], [ 77.644487524621098, 13.0237813176392 ], [ 77.643231651033503, 13.024344599692199 ], [ 77.643119485015205, 13.024394907855299 ], [ 77.642020149023296, 13.024868600545201 ], [ 77.640837470799298, 13.0253781971142 ], [ 77.640555990444497, 13.025499481251501 ], [ 77.6401153610027, 13.025707237177601 ], [ 77.639936983744406, 13.0257745514986 ], [ 77.639649648517903, 13.025884758228299 ], [ 77.639413688857303, 13.025924747406901 ], [ 77.639011595044494, 13.025992891206 ], [ 77.638470306647207, 13.0260880644355 ], [ 77.637150438482195, 13.0263201294976 ], [ 77.636986143659996, 13.0263579380255 ], [ 77.635815444890497, 13.0266318390414 ], [ 77.634973907541394, 13.026884319273901 ], [ 77.633887227945905, 13.0272623786874 ], [ 77.632762007758799, 13.027753751638601 ], [ 77.632715570857599, 13.0277734209852 ], [ 77.633003033889807, 13.028110405885799 ], [ 77.633496335020993, 13.028689217298 ], [ 77.633744451148601, 13.0285726395916 ], [ 77.634276893417905, 13.0284418777171 ], [ 77.634876608023802, 13.0283013965026 ], [ 77.634911660177394, 13.028294264409 ], [ 77.635039633577406, 13.0282523093809 ], [ 77.635666953847903, 13.027999749347501 ], [ 77.636010566917605, 13.027874293295801 ], [ 77.636354141668605, 13.0277996537231 ], [ 77.636580167570798, 13.027772509653399 ], [ 77.636654037158706, 13.027787567347501 ], [ 77.636728757519293, 13.0278285892217 ], [ 77.636944967051605, 13.0279076946986 ], [ 77.636948433800498, 13.0279087886626 ], [ 77.637030292874698, 13.027916989378101 ], [ 77.637136851508302, 13.0279192923403 ], [ 77.637328196030097, 13.027934283096499 ], [ 77.637605153391505, 13.027985667367499 ], [ 77.637744437411996, 13.0295008372151 ], [ 77.637822282143802, 13.0297823579003 ], [ 77.637873380197107, 13.029930898989999 ], [ 77.637916311011097, 13.0300151557764 ], [ 77.637992985381899, 13.0301318172172 ], [ 77.638022617649796, 13.030162565356701 ], [ 77.638188045007496, 13.0303342252643 ], [ 77.638524606301203, 13.0306300488243 ], [ 77.639122590560603, 13.031141153698901 ], [ 77.639134075616198, 13.031151319183 ], [ 77.639397555974696, 13.0313845285434 ], [ 77.639599535890497, 13.031750606173601 ], [ 77.639656007127797, 13.032025568107001 ], [ 77.639648653333197, 13.0320380648404 ], [ 77.639806367862704, 13.032465572957999 ], [ 77.639851902454893, 13.032578033968701 ], [ 77.639892040337898, 13.0326160193506 ], [ 77.639917711179194, 13.032647376700099 ], [ 77.640114885255002, 13.0328847823228 ], [ 77.640166790739499, 13.0329474767496 ], [ 77.640445523759396, 13.0333285801701 ], [ 77.640768883403297, 13.0336821259644 ], [ 77.6408801426427, 13.0339644332551 ], [ 77.641032416595394, 13.034258743852799 ], [ 77.641099269920105, 13.034317912222701 ], [ 77.641176536510798, 13.0343272873101 ], [ 77.641176536510798, 13.0343272873101 ], [ 77.641278937392997, 13.034284254465801 ], [ 77.641715605187997, 13.034143508990701 ], [ 77.6421853718698, 13.033997051687001 ], [ 77.642303350299301, 13.034001224788801 ], [ 77.642376177276503, 13.0340301094864 ], [ 77.642548655141994, 13.0340520517512 ], [ 77.643098720387897, 13.0340612502862 ], [ 77.643267934464006, 13.0340671222796 ], [ 77.643249788514694, 13.0341539760401 ], [ 77.643157672359607, 13.035325443524 ], [ 77.643177111378293, 13.035334806798399 ], [ 77.643176611801394, 13.035363854378501 ], [ 77.643176155904101, 13.0353751515237 ], [ 77.6432313241001, 13.035906464579099 ], [ 77.644883430032607, 13.0358444215542 ], [ 77.644939679932804, 13.035881112055799 ], [ 77.644929231478699, 13.0359275179541 ], [ 77.644907218936197, 13.036023728891999 ], [ 77.6448322793145, 13.036070793654901 ], [ 77.644762473990795, 13.0361132889582 ], [ 77.644687186333798, 13.0361276090581 ], [ 77.6444627268761, 13.036194269106099 ], [ 77.644421028368399, 13.0362263139922 ], [ 77.644393797290505, 13.0363191904872 ], [ 77.644339419078193, 13.0365128473571 ], [ 77.644287056205599, 13.0367335855967 ], [ 77.644267298666605, 13.036825256506701 ], [ 77.644245561798499, 13.0369474373342 ], [ 77.644232390095198, 13.0370085512752 ], [ 77.644192779064596, 13.0372370640049 ], [ 77.644154631767506, 13.0376033300595 ], [ 77.644137621376899, 13.0377367550957 ], [ 77.644110474121106, 13.0378375354823 ], [ 77.644071378636994, 13.037951988894701 ], [ 77.644028288387702, 13.0380698708562 ], [ 77.643981611214699, 13.038175367725101 ], [ 77.643932102902994, 13.038285410503301 ], [ 77.643919986770996, 13.038337479682101 ], [ 77.643836972941202, 13.0384919053741 ], [ 77.643819590484895, 13.038590327526 ], [ 77.643813484545504, 13.0387202534518 ], [ 77.643806502848904, 13.0388219571145 ], [ 77.643793259039199, 13.0388762963102 ], [ 77.643768294911695, 13.038965761919 ], [ 77.643765403808302, 13.0389646622009 ], [ 77.643709261218604, 13.0389381336848 ], [ 77.643574998919505, 13.0389304710122 ], [ 77.642959637854503, 13.038954823218001 ], [ 77.642368436912193, 13.0389766688339 ], [ 77.642167486791493, 13.0390340534501 ], [ 77.641977596130502, 13.0392652295098 ], [ 77.641868717021595, 13.039370231860699 ], [ 77.641808351182405, 13.0394340860138 ], [ 77.641737788691003, 13.0394596497332 ], [ 77.641648247989295, 13.039487665635701 ], [ 77.641458454039693, 13.0395110584313 ], [ 77.6414719225574, 13.0399660088024 ], [ 77.6414615577159, 13.039966114586299 ], [ 77.641464722258902, 13.0403184083415 ], [ 77.641454691961798, 13.040512741740599 ], [ 77.641444889830098, 13.040674324556701 ], [ 77.641400452740001, 13.0410451721551 ], [ 77.641394645445303, 13.0412033264498 ], [ 77.641393505427899, 13.041258671343 ], [ 77.641354433076202, 13.041266974890799 ], [ 77.641335550654205, 13.0412784601164 ], [ 77.641318023695206, 13.0413091287601 ], [ 77.641303339904994, 13.0413363806341 ], [ 77.641299728717598, 13.0413759412491 ], [ 77.641315899492298, 13.041434497213601 ], [ 77.641347509384602, 13.041536936350401 ], [ 77.641375052882793, 13.0415818252261 ], [ 77.641409986244796, 13.0416176046676 ], [ 77.641459950787805, 13.0417130809296 ], [ 77.641470603148093, 13.0417942782016 ], [ 77.641468335186005, 13.0419060971064 ], [ 77.641455965785994, 13.042097066624301 ], [ 77.641429452443703, 13.042311894769799 ], [ 77.641390811278001, 13.0424150509574 ], [ 77.641326485836302, 13.042485721060499 ], [ 77.641214510291405, 13.0425704285226 ], [ 77.641118334224103, 13.0426244849328 ], [ 77.641075326744897, 13.042641862645 ], [ 77.641010341772301, 13.0426504306564 ], [ 77.640934871950407, 13.042647813155799 ], [ 77.640794321232306, 13.042644730565801 ], [ 77.640722498186506, 13.042660143795301 ], [ 77.640647771547293, 13.042727532167699 ], [ 77.640551546846595, 13.042831275927901 ], [ 77.640462568151904, 13.042912360709799 ], [ 77.640391080605596, 13.042959389464899 ], [ 77.640086512283602, 13.0430754222263 ], [ 77.6397583105054, 13.0431894372801 ], [ 77.639381030729695, 13.043291530820801 ], [ 77.639262636732397, 13.0433141942412 ], [ 77.639065125893893, 13.0433162087645 ], [ 77.638636286519599, 13.0432810583882 ], [ 77.638586716923101, 13.043277046859799 ], [ 77.638470866578103, 13.043268064922501 ], [ 77.638383915706996, 13.0432689515322 ], [ 77.638309933531801, 13.0432437330727 ], [ 77.638202588950705, 13.043222242504701 ], [ 77.638071874720495, 13.043223575203999 ], [ 77.638007885330396, 13.043217452068101 ], [ 77.637906731230999, 13.0431823472235 ], [ 77.637829798088305, 13.043150383178901 ], [ 77.637745031870395, 13.04308575062 ], [ 77.637650464553403, 13.0430200886795 ], [ 77.637556052936006, 13.042969105399401 ], [ 77.637343393171193, 13.042845925847599 ], [ 77.637290190316804, 13.042810270554099 ], [ 77.637277494427096, 13.042931291497 ], [ 77.637177853775796, 13.043364811097399 ], [ 77.637117664135602, 13.0434998057058 ], [ 77.637089254507202, 13.044133606468099 ], [ 77.637101407396898, 13.0446822997857 ], [ 77.6372308695328, 13.045540341967101 ], [ 77.637314440666998, 13.046035232205901 ], [ 77.637557744183098, 13.0467667661809 ], [ 77.637593093373994, 13.0468637717546 ], [ 77.637780776942606, 13.0473788055561 ], [ 77.637876080521707, 13.048056514524101 ], [ 77.638003706575205, 13.048578056844899 ], [ 77.638090134507905, 13.049233270971101 ], [ 77.638159496296595, 13.049528427581899 ], [ 77.638259809694304, 13.0498639214871 ], [ 77.638333923870206, 13.0500641723194 ], [ 77.638135567376906, 13.050095556284999 ], [ 77.638362453105003, 13.051070044818401 ], [ 77.638428059178906, 13.051553824555199 ], [ 77.637796263280904, 13.0516607732679 ], [ 77.637779981557799, 13.051808871410699 ], [ 77.637794195457005, 13.0520086040941 ], [ 77.637807918098403, 13.052162042435 ], [ 77.637885016973101, 13.0526434466771 ], [ 77.638031504505093, 13.053368061364999 ], [ 77.638066602035707, 13.0535406017068 ], [ 77.638120218213103, 13.0538041767721 ], [ 77.638182001830302, 13.0539277640897 ], [ 77.638312958163098, 13.054328441488501 ], [ 77.638339338012301, 13.0545348253717 ], [ 77.638153250443906, 13.0546372276574 ], [ 77.638185964712704, 13.0548435469338 ], [ 77.638296767101906, 13.055190225805701 ], [ 77.638308641104203, 13.055603410761201 ], [ 77.638336192163493, 13.0565166941792 ], [ 77.638342940689498, 13.0568117041677 ], [ 77.638358764825895, 13.057503429669699 ], [ 77.638354192946494, 13.0576694763083 ], [ 77.638171563611905, 13.058965462679399 ], [ 77.638157427374097, 13.0596408994087 ], [ 77.638156406270298, 13.0599243519681 ], [ 77.638172792202994, 13.060491068956001 ], [ 77.638182088864696, 13.060824103233999 ], [ 77.638195379536, 13.061533137442799 ], [ 77.638218037040303, 13.061800380607499 ], [ 77.638234885723406, 13.0619991149226 ], [ 77.638282778733398, 13.0623328843295 ], [ 77.638345152721001, 13.062782818712501 ], [ 77.638361312340294, 13.0636533063394 ], [ 77.638526242600406, 13.0648113628529 ], [ 77.638567598787105, 13.065288613596699 ], [ 77.638695556109099, 13.0665441627125 ], [ 77.638727411031297, 13.0666449802359 ], [ 77.639022760857699, 13.0675797305363 ], [ 77.639362568686593, 13.068879413084201 ], [ 77.639527268762606, 13.069689660557 ], [ 77.639503845539096, 13.0706283064627 ], [ 77.639481046777703, 13.071571462960501 ], [ 77.639440391325195, 13.0732183244554 ], [ 77.639490911574399, 13.074935396447801 ], [ 77.638308528775696, 13.075159781252699 ], [ 77.6390155607004, 13.076001750673401 ], [ 77.639558880393096, 13.076668099197599 ], [ 77.640237295359896, 13.0769310517272 ], [ 77.640973693717498, 13.0769596546274 ], [ 77.6414199220673, 13.0772159450828 ], [ 77.641515309478706, 13.0772958836264 ], [ 77.641690161605894, 13.0774424168261 ], [ 77.642146389175295, 13.077826208302399 ], [ 77.642298510722398, 13.078156649696099 ], [ 77.642528445735294, 13.0786545520173 ], [ 77.642809194671102, 13.0791643553453 ], [ 77.643286763799395, 13.080036888833 ], [ 77.6438005251741, 13.080954219817301 ], [ 77.644460992342701, 13.082125254953301 ], [ 77.644551167483002, 13.0823174316465 ], [ 77.645122016708299, 13.082969929893199 ], [ 77.645519913693306, 13.0833915754943 ], [ 77.646101400513601, 13.084338694051601 ], [ 77.646495235124902, 13.085026880416001 ], [ 77.646602555720605, 13.0851522546656 ], [ 77.646831821167794, 13.0848845305407 ], [ 77.646979645047495, 13.0847034643276 ], [ 77.647117810612897, 13.0845349188318 ], [ 77.647368562212904, 13.0842297089737 ], [ 77.647481000779806, 13.084025291606199 ], [ 77.6476596491122, 13.0838721399227 ], [ 77.648006029962403, 13.083406725233299 ], [ 77.648348691717004, 13.0829707087528 ], [ 77.648416810259903, 13.082823208176899 ], [ 77.648645411418599, 13.0825475852692 ], [ 77.648920432349001, 13.082250030135601 ], [ 77.649285524589899, 13.081757320653599 ], [ 77.649548422366394, 13.0814034275599 ], [ 77.649646828543197, 13.0813414381602 ], [ 77.649671622755307, 13.081236164200099 ], [ 77.649858343519398, 13.0812997428514 ], [ 77.650132265773294, 13.0813308070997 ], [ 77.650417190789398, 13.081367404236 ], [ 77.650827246554002, 13.081417395782699 ], [ 77.651156493020807, 13.081451278287499 ], [ 77.651552630268995, 13.0814923777092 ], [ 77.651890096553203, 13.0815408548804 ], [ 77.652227538730102, 13.081587073355699 ], [ 77.652608629767002, 13.0816215502959 ], [ 77.653224017731006, 13.0817518613981 ], [ 77.653310260122097, 13.0817374237847 ], [ 77.653535112973103, 13.081811899808301 ], [ 77.654763062527493, 13.081969784208299 ], [ 77.654856920321393, 13.081913485988199 ], [ 77.654917397158698, 13.0815368280978 ], [ 77.655000599535498, 13.081023298825301 ], [ 77.655028709513104, 13.0808513657145 ], [ 77.655078651441102, 13.0806204877083 ], [ 77.655168676468904, 13.080206261057601 ], [ 77.6552691600683, 13.079746757372799 ], [ 77.655362470948702, 13.0793166876374 ], [ 77.6554206643127, 13.0790495892095 ], [ 77.655513089038493, 13.0786443718046 ], [ 77.655521340805805, 13.0786081513544 ], [ 77.655583516969003, 13.078336495018601 ], [ 77.655681860958197, 13.0778386193908 ], [ 77.655811902656197, 13.077181195402 ], [ 77.655983555077896, 13.0766983748544 ], [ 77.656275398865802, 13.075875546925801 ], [ 77.6563437990431, 13.0754321828003 ], [ 77.656431013644294, 13.074863279962599 ], [ 77.656531662863202, 13.074849822728099 ], [ 77.6572452305344, 13.073769706165701 ], [ 77.657800151971401, 13.0730424136227 ], [ 77.658426531282601, 13.0715126286219 ], [ 77.658665872642402, 13.0709511937924 ], [ 77.658855454401305, 13.070476092992701 ], [ 77.658873386835893, 13.0704296097826 ], [ 77.659141857326205, 13.069738013093501 ], [ 77.6597272971824, 13.068043781066001 ], [ 77.660154692363903, 13.067725452983 ], [ 77.660731300462302, 13.067679990906599 ], [ 77.661526545050705, 13.0674527270079 ], [ 77.661802164954594, 13.067355412710601 ], [ 77.662623592012807, 13.0670653870585 ], [ 77.663595412575901, 13.066977451060099 ], [ 77.665794695479505, 13.0662049562959 ], [ 77.667022232240299, 13.065903203718699 ], [ 77.667146345216295, 13.0639461007273 ], [ 77.668714341376599, 13.065046714042101 ], [ 77.670051640879194, 13.0659554730934 ], [ 77.670993424901894, 13.065818595100099 ], [ 77.672410435273207, 13.0656126415894 ], [ 77.673095060097296, 13.065437304366 ], [ 77.673447192173995, 13.0653523565739 ], [ 77.673438509978496, 13.0652948560986 ], [ 77.673433526148699, 13.065259901790601 ], [ 77.6740847641355, 13.0651933129962 ], [ 77.674523303920694, 13.065056654506099 ], [ 77.675092852831497, 13.0648384641846 ], [ 77.675277937052797, 13.0648580028596 ], [ 77.675904706650996, 13.064926040294999 ], [ 77.675984346540005, 13.0649410244772 ], [ 77.676061682969305, 13.064956032493001 ], [ 77.676330028851794, 13.0650593993889 ], [ 77.676537243313206, 13.0650482189274 ], [ 77.676723183429601, 13.0650937196902 ], [ 77.676925559618496, 13.065061133879899 ], [ 77.677173813872301, 13.0649569317125 ], [ 77.677092850734496, 13.0647658034598 ], [ 77.676959479355006, 13.064467942372501 ], [ 77.676830442884594, 13.064037917584599 ], [ 77.676668327239895, 13.0635845217222 ], [ 77.676855510741703, 13.0635317676307 ], [ 77.676840460019207, 13.063257523268 ], [ 77.676836747887407, 13.0629131498284 ], [ 77.676942033083293, 13.0629030253184 ], [ 77.677327239047699, 13.0628414440508 ], [ 77.677610038960196, 13.0627899572159 ], [ 77.677645657083701, 13.0627816835822 ], [ 77.677695574315706, 13.0627642280131 ], [ 77.677800981093895, 13.062765394095299 ], [ 77.678202748821604, 13.0627442918151 ], [ 77.678235548487393, 13.0627416934088 ], [ 77.678803922150493, 13.062735801531799 ], [ 77.678968026586702, 13.062786044168201 ], [ 77.6789775813928, 13.062817563196001 ], [ 77.6789895370853, 13.062858091070799 ], [ 77.679178828972894, 13.0625738240494 ], [ 77.679504950906903, 13.061947114526401 ], [ 77.679485414980803, 13.0612573653744 ], [ 77.679329792416496, 13.060978933041699 ], [ 77.6792954909549, 13.0605219556126 ], [ 77.679295113387496, 13.0604869537857 ], [ 77.679294735821202, 13.0604519519586 ], [ 77.679292799288604, 13.0602724264571 ], [ 77.679306805546702, 13.059862375301901 ], [ 77.679333108373697, 13.0595244665869 ], [ 77.679443892273, 13.0585826799418 ], [ 77.679397425886904, 13.0584928242407 ], [ 77.679332755053906, 13.058370409925599 ], [ 77.679178359863798, 13.058098739673399 ], [ 77.679111114435301, 13.058004582392099 ], [ 77.679001898011094, 13.058023781883801 ], [ 77.678957681628304, 13.057822110157201 ], [ 77.679069661200202, 13.0575250944706 ], [ 77.679172344693598, 13.057540968454701 ], [ 77.679213143140899, 13.057372292136501 ], [ 77.679359526015801, 13.0565272492603 ], [ 77.679373094169094, 13.056450321826 ], [ 77.6794262035977, 13.0557677238853 ], [ 77.679403834533701, 13.055722787022299 ], [ 77.679382053497505, 13.055678973279001 ], [ 77.679308478194699, 13.0555318082979 ], [ 77.679246927527899, 13.0554850190489 ], [ 77.678898512554596, 13.0552187465362 ], [ 77.678803938704604, 13.0548866071231 ], [ 77.678757423146706, 13.0544715367531 ], [ 77.678751226574704, 13.054430949096099 ], [ 77.678745030006098, 13.054390361438401 ], [ 77.678700441586102, 13.0541006142866 ], [ 77.678659386028002, 13.0538325160187 ], [ 77.678452724977902, 13.052704078738399 ], [ 77.678370562238101, 13.0524011699613 ], [ 77.678375160642105, 13.0523469207284 ], [ 77.678375160728095, 13.0523469207318 ], [ 77.678554441275594, 13.0523631311833 ], [ 77.678662686230595, 13.0523608806664 ], [ 77.678755407028405, 13.0523610493638 ], [ 77.678861864529395, 13.0523531711889 ], [ 77.678892382895697, 13.0523528550208 ], [ 77.678920611931503, 13.0523536917851 ], [ 77.679397252978404, 13.0523882759252 ], [ 77.679939431475205, 13.052412016973999 ], [ 77.680191045646495, 13.052246801813 ], [ 77.680580460399, 13.0519898206596 ], [ 77.680874256550794, 13.0518377183172 ], [ 77.680967568436799, 13.051785936159799 ], [ 77.681030368817702, 13.0517519104047 ], [ 77.681063185454505, 13.051734130076101 ], [ 77.681658613340204, 13.051249168401601 ], [ 77.681690604105498, 13.051225123120901 ], [ 77.681722582682596, 13.0511999487477 ], [ 77.682660299033998, 13.050467525035399 ], [ 77.683338300339798, 13.049950086025399 ], [ 77.683605696582902, 13.049220097326501 ], [ 77.684191857993397, 13.0475043843888 ], [ 77.684453469767604, 13.046719124178701 ], [ 77.684756938867395, 13.0458103452646 ], [ 77.684944598586, 13.0452697627225 ], [ 77.684950963593707, 13.045165808997099 ], [ 77.684927119290407, 13.0447708316186 ], [ 77.684856224253195, 13.0440183816571 ], [ 77.684871681718107, 13.043423125503599 ], [ 77.684875901444698, 13.0429070309262 ], [ 77.684841628963795, 13.042773010071199 ], [ 77.684784118653297, 13.042406612206101 ], [ 77.684679150774002, 13.0417516278108 ], [ 77.684661086604294, 13.041625343220501 ], [ 77.684601056545802, 13.0413989939098 ], [ 77.684635109649506, 13.0410858482749 ], [ 77.6846158087113, 13.040951671992801 ], [ 77.684643154984499, 13.0409242871646 ], [ 77.684585994872606, 13.0408571272638 ], [ 77.684541874344006, 13.0407175623575 ], [ 77.684474149011194, 13.0405251692034 ], [ 77.684459330614501, 13.040432727322001 ], [ 77.684479938287296, 13.040207799875899 ], [ 77.684493834804101, 13.040161357937 ], [ 77.684385121889406, 13.039692732277899 ], [ 77.684292691878298, 13.039398965895399 ], [ 77.684261303362703, 13.0389886475152 ], [ 77.684243752337593, 13.038759208672801 ], [ 77.684153493411998, 13.0382395766312 ], [ 77.684046446899202, 13.037704310377601 ], [ 77.684029319325703, 13.037618666787401 ], [ 77.683913332873601, 13.037329661124399 ], [ 77.683913332863895, 13.0373296602212 ], [ 77.683930300461498, 13.0371409053603 ], [ 77.683933311527198, 13.036992946951401 ], [ 77.683995530424994, 13.036674992391101 ], [ 77.683883533485599, 13.0362752821498 ], [ 77.683857648786699, 13.036064387243499 ], [ 77.683821893925796, 13.0357926170173 ], [ 77.683809953761497, 13.035539796552699 ], [ 77.683793963868894, 13.035392035094301 ], [ 77.683740011705794, 13.0351949816736 ], [ 77.683737576665905, 13.0349691638186 ], [ 77.683619002006296, 13.0347603588243 ], [ 77.683614335699204, 13.0343809907429 ], [ 77.683654177171405, 13.0341773189735 ], [ 77.683631207442204, 13.0338094327528 ], [ 77.683600912082198, 13.0336166508683 ], [ 77.683594759782807, 13.0334733042381 ], [ 77.683573656499902, 13.0332250954944 ], [ 77.683539128691194, 13.0331204362703 ], [ 77.683690922708294, 13.033205812672101 ], [ 77.685105942158202, 13.0333797217596 ], [ 77.686321154308004, 13.0335014935257 ], [ 77.686569319115904, 13.033498918742399 ], [ 77.686689166919294, 13.033490298176901 ], [ 77.686881189168005, 13.0334764860407 ], [ 77.687031533735805, 13.033427498937399 ], [ 77.687924344906904, 13.0332364290933 ], [ 77.688082332750596, 13.0332020418541 ], [ 77.688208161826196, 13.033175892879401 ], [ 77.688591348321296, 13.0330386674376 ], [ 77.688856373669594, 13.0329444493571 ], [ 77.689258545526997, 13.0328589696145 ], [ 77.690347657445301, 13.0326624656739 ], [ 77.690855001114301, 13.032557823539699 ], [ 77.691485024844496, 13.031443521547001 ], [ 77.691931893413397, 13.030752317727201 ], [ 77.693118109786994, 13.0288869545931 ], [ 77.693846316757003, 13.0277479160053 ], [ 77.694403596618599, 13.0267247043005 ], [ 77.694536892430307, 13.026750418818001 ], [ 77.695025449874507, 13.0267735667508 ], [ 77.695654861392399, 13.0268291242435 ], [ 77.696090300014205, 13.0268923450604 ], [ 77.696406801456902, 13.0269179946101 ], [ 77.696584222586907, 13.0269323722052 ], [ 77.696615350758194, 13.0269354357862 ], [ 77.696998664648504, 13.0269709674706 ], [ 77.697747614835507, 13.0270580220299 ], [ 77.698473068732795, 13.0271554819161 ], [ 77.699570995099506, 13.027297613952401 ], [ 77.699791268884994, 13.027325806754799 ], [ 77.700492026428407, 13.0274291640764 ], [ 77.700626817285297, 13.0274334048407 ], [ 77.701698491873898, 13.027438038548199 ], [ 77.7016842937402, 13.0274031814014 ], [ 77.701687981135393, 13.0273715253161 ], [ 77.701520728974501, 13.026445066318599 ], [ 77.7013305593225, 13.025316718841101 ], [ 77.701269174881006, 13.024966177220399 ], [ 77.701696609906406, 13.0251412632854 ], [ 77.701885165600601, 13.025218341011501 ], [ 77.702345419763304, 13.0253930835669 ], [ 77.702683134996093, 13.0255250647499 ], [ 77.703275239840707, 13.025751502284599 ], [ 77.703842231929301, 13.025892381218201 ], [ 77.7040985446978, 13.0259518119221 ], [ 77.704403809618796, 13.0260118605317 ], [ 77.704460932714397, 13.026022556194301 ], [ 77.705179816542, 13.026151683445899 ], [ 77.705446370715904, 13.0261997137787 ], [ 77.705936149817305, 13.0262826757829 ], [ 77.705963259722097, 13.0262869093999 ], [ 77.707011841301707, 13.0260749574214 ], [ 77.707686826459707, 13.025926753912501 ], [ 77.707996960735798, 13.025876405829299 ], [ 77.708021366761699, 13.025872443337301 ], [ 77.708231737783095, 13.025784425368199 ], [ 77.709244191549203, 13.0252690893501 ], [ 77.709901425652504, 13.025659691946 ], [ 77.710708815609706, 13.026143573600899 ], [ 77.711968281299903, 13.0282182685163 ], [ 77.712067368483304, 13.0283809639098 ], [ 77.712221332269806, 13.0285637325696 ], [ 77.714657575636195, 13.0314557145426 ], [ 77.715076212014296, 13.0319312311731 ], [ 77.715083210465806, 13.031992134020699 ], [ 77.715882716111693, 13.0318561516975 ], [ 77.716010655604705, 13.0318325630238 ], [ 77.716048217744401, 13.031825056972901 ], [ 77.716083278146598, 13.031819043295201 ], [ 77.716090605728795, 13.031646200594199 ], [ 77.716142952226903, 13.031643394978399 ], [ 77.717391595204603, 13.0315568962423 ], [ 77.717340802349, 13.0317042236059 ], [ 77.717371312403202, 13.0329166507187 ], [ 77.717404768825304, 13.0329219455455 ], [ 77.717460153899296, 13.0329315269802 ], [ 77.718110281997596, 13.0330376218505 ], [ 77.7181974455317, 13.033057032202599 ], [ 77.719582887804293, 13.033371077400799 ], [ 77.720721663269799, 13.0337712662486 ], [ 77.721179114970496, 13.033845501791401 ], [ 77.721520081038307, 13.034115180520701 ], [ 77.721518480590703, 13.0340214750904 ], [ 77.721510953028996, 13.033807009294801 ], [ 77.721625119847005, 13.0337154745477 ], [ 77.7222397140456, 13.0335735115088 ], [ 77.723181997724495, 13.0333298620516 ], [ 77.723427196962703, 13.033267436453 ], [ 77.723958054525099, 13.033366866164 ], [ 77.724065780350401, 13.033318307204199 ], [ 77.724229142471998, 13.0323025834304 ], [ 77.724723771094503, 13.0322488244048 ], [ 77.724722868947794, 13.0321664036711 ], [ 77.724845420811207, 13.0321572098406 ], [ 77.724875115687794, 13.0320292999051 ], [ 77.724899699218, 13.0314870343047 ], [ 77.724830443400805, 13.031051899115599 ], [ 77.724918759042396, 13.030440082865701 ], [ 77.724752244528801, 13.029957416072 ], [ 77.724636509077996, 13.029221278201 ], [ 77.724750682609198, 13.0289727863723 ], [ 77.724824365012196, 13.028812796652 ], [ 77.724860891860004, 13.0287170859902 ], [ 77.725003492616906, 13.028343431114299 ], [ 77.725105673361597, 13.0278409996703 ], [ 77.725116521294197, 13.0277799097616 ], [ 77.725250417700494, 13.027018562205701 ], [ 77.725184732374601, 13.026488538097199 ], [ 77.725181366865002, 13.0263914639202 ], [ 77.725167823619103, 13.0257852360781 ], [ 77.725676516514994, 13.025755042516099 ], [ 77.725609309208906, 13.0257173574613 ], [ 77.727355300006494, 13.023308509183 ], [ 77.729321403590603, 13.0203711879174 ], [ 77.729437895326797, 13.020197148976701 ], [ 77.729898124995501, 13.019686430046301 ], [ 77.730056400358094, 13.018733995406601 ], [ 77.7297692350635, 13.017592033592599 ], [ 77.729462205713602, 13.0165812647079 ], [ 77.729384108672704, 13.016322999278101 ], [ 77.729376773190396, 13.0162987404587 ], [ 77.729159363342106, 13.0156370723875 ], [ 77.729141547617004, 13.0155875760785 ], [ 77.729097571707698, 13.015462700184701 ], [ 77.729059748675198, 13.015373893222501 ], [ 77.728800219315701, 13.0147567058275 ], [ 77.728660386221904, 13.014448782485699 ], [ 77.728415332801504, 13.013260077234101 ], [ 77.728280158704706, 13.0117992121236 ], [ 77.7280112265165, 13.0104797718123 ], [ 77.728694931629207, 13.010608080683401 ], [ 77.7295705343588, 13.010710301082 ], [ 77.729570534544493, 13.0107103020057 ], [ 77.729582194042806, 13.010711662578499 ], [ 77.730249428301406, 13.0107554520763 ], [ 77.730481774284698, 13.010783493719501 ], [ 77.730493033149401, 13.0107839388653 ], [ 77.730493033052397, 13.010783938004799 ], [ 77.730932806253804, 13.010801327261101 ], [ 77.731409194310402, 13.010821152207701 ], [ 77.7321277667114, 13.010768416044099 ], [ 77.732440775312995, 13.0108012519784 ], [ 77.732842339008897, 13.010771049701599 ], [ 77.733065177892499, 13.0106670756089 ], [ 77.733893518977197, 13.010123115987399 ], [ 77.734729229615496, 13.010514032879 ], [ 77.735670619928698, 13.0109331903132 ], [ 77.736231858010399, 13.0107624101426 ], [ 77.736232287872596, 13.010276861278999 ], [ 77.736243408649599, 13.0097686161544 ], [ 77.736248327855606, 13.009429812385299 ], [ 77.736244908823195, 13.009118196726901 ], [ 77.736160678036399, 13.008368185240601 ], [ 77.736131093026302, 13.0081381460098 ], [ 77.736101481544694, 13.007485796280699 ], [ 77.736522682618599, 13.0078291384332 ], [ 77.737203159262805, 13.007768887659401 ], [ 77.737772777772506, 13.007680446753501 ], [ 77.738143016193703, 13.0075771717745 ], [ 77.738476137119207, 13.0076202529632 ], [ 77.738506267366603, 13.007624149845499 ], [ 77.738567315350707, 13.0076449185605 ], [ 77.738895791800601, 13.007756666949 ], [ 77.739229143768597, 13.0078073471367 ], [ 77.739849711961, 13.007954360258299 ], [ 77.740325220684298, 13.008052091648301 ], [ 77.740774061124, 13.008133166342001 ], [ 77.740831055827798, 13.0078705968811 ], [ 77.740940600716101, 13.0073601841372 ], [ 77.740990081323702, 13.0071473775277 ], [ 77.743146673776096, 13.0070737686681 ], [ 77.743273558097101, 13.007072426879599 ], [ 77.743366015538001, 13.0070714491128 ], [ 77.7438912606884, 13.007137031345801 ], [ 77.744251594853907, 13.007180644616399 ], [ 77.744574761242802, 13.0071952922939 ], [ 77.745153716283596, 13.0071710995076 ], [ 77.745561940864604, 13.0071193542255 ], [ 77.746188271861598, 13.007005453739501 ], [ 77.746828799267803, 13.00682139335 ], [ 77.747167892652001, 13.006713919511199 ], [ 77.7471695312463, 13.006729788137999 ], [ 77.747189868632702, 13.0067227200968 ], [ 77.747189857810696, 13.006722650369101 ], [ 77.747190084313004, 13.0067227304594 ], [ 77.747666396435207, 13.0066292910778 ], [ 77.748058639686505, 13.0064970062 ], [ 77.7483394445686, 13.006415822206799 ], [ 77.748959874698102, 13.0062202564812 ], [ 77.748959992762195, 13.006220687006101 ], [ 77.749002357816394, 13.006198784000899 ], [ 77.749250087589203, 13.006108084151601 ], [ 77.7494746086292, 13.0061057046962 ], [ 77.749624161629995, 13.0061447694597 ], [ 77.749827636954194, 13.0062702080071 ], [ 77.750031812631704, 13.0064069305438 ], [ 77.750152966961195, 13.0064812999943 ], [ 77.750360438340707, 13.006551366762301 ], [ 77.750743029746104, 13.006472785596999 ], [ 77.750938392535204, 13.006436839172199 ], [ 77.750982521820802, 13.006418304641899 ], [ 77.751149840222396, 13.0063453931708 ], [ 77.751528870212795, 13.006152803549099 ], [ 77.751811796095694, 13.005964620379 ], [ 77.751954060126195, 13.005864874410999 ], [ 77.752001331974796, 13.0058180774117 ], [ 77.752161921058899, 13.005657162352501 ], [ 77.752635325777007, 13.005199347030199 ], [ 77.752810956767107, 13.005045047077999 ], [ 77.7529432212919, 13.004926211131 ], [ 77.753162753853502, 13.0047849950836 ], [ 77.753329422379295, 13.0046533731698 ], [ 77.753535399590604, 13.0045360130677 ], [ 77.753603106619906, 13.0045149696439 ], [ 77.753642704559297, 13.0045032578009 ], [ 77.753884344441801, 13.0044871432117 ], [ 77.754018103706997, 13.0045037899657 ], [ 77.754195802302604, 13.0045369075869 ], [ 77.754364950548705, 13.004629961209099 ], [ 77.754747961935806, 13.0048505971609 ], [ 77.754886210329701, 13.004960915807599 ], [ 77.755108050101796, 13.005289403159599 ], [ 77.755124082145301, 13.005281328807801 ], [ 77.755189812683, 13.005237722805701 ], [ 77.755297871992298, 13.005116884586901 ], [ 77.755353865608697, 13.0050778985905 ], [ 77.755499606461697, 13.004980372418901 ], [ 77.755727859800402, 13.004846965934201 ], [ 77.755777632946504, 13.004818208349 ], [ 77.756032205478206, 13.0046698430652 ], [ 77.756127158567907, 13.0046135057457 ], [ 77.756322170952302, 13.004494001843399 ], [ 77.756446284377802, 13.004419288148499 ], [ 77.757011493506795, 13.004142285439301 ], [ 77.757015787084399, 13.0041140109282 ], [ 77.757051711269995, 13.003926189386499 ], [ 77.757142648038396, 13.003454365267199 ], [ 77.757172125548706, 13.003308390989501 ], [ 77.757228726110895, 13.003063891984899 ], [ 77.757229652033203, 13.0030594007541 ], [ 77.757376813679898, 13.0023453047561 ], [ 77.757562150657705, 13.0014546901656 ], [ 77.757683426069207, 13.0008271503423 ], [ 77.757684484402802, 13.000827556432199 ], [ 77.757725058684898, 13.0006185134239 ], [ 77.757838923262199, 13.0000854714397 ], [ 77.757912948362602, 12.9996985138163 ], [ 77.757958081923107, 12.9995231940535 ], [ 77.758008254279304, 12.9993204484655 ], [ 77.758008254279304, 12.9993204484655 ], [ 77.758239259091397, 12.9982992651203 ], [ 77.758312937638493, 12.9979135039555 ], [ 77.7583474414119, 12.9976030641758 ], [ 77.758496454248103, 12.997005521887999 ], [ 77.7585115863277, 12.9967168295424 ], [ 77.758517760041002, 12.996598202694599 ], [ 77.758510620965097, 12.9965229305111 ], [ 77.757447445262102, 12.996684555950599 ], [ 77.756583411830704, 12.996815905165599 ], [ 77.754728009919006, 12.997097949124701 ], [ 77.7547220209362, 12.9970905692693 ], [ 77.753358561590105, 12.9973029507 ], [ 77.751071962473205, 12.997659037097 ], [ 77.750359796140899, 12.9977698857709 ], [ 77.7481012874713, 12.9980626705507 ], [ 77.747824150303501, 12.998098595898201 ], [ 77.747751372292498, 12.998108030158299 ], [ 77.7458103674238, 12.9985113567904 ], [ 77.743532236490594, 12.998608079378499 ], [ 77.742870824113893, 12.9986361569312 ], [ 77.741240386505595, 12.998486263919601 ], [ 77.738495741323007, 12.9979043531612 ], [ 77.738183754099893, 12.9978483447701 ], [ 77.736626118210395, 12.997568711544099 ], [ 77.734669850577106, 12.997217498534599 ], [ 77.734074918988895, 12.997111569368 ], [ 77.731418596335303, 12.996638584930199 ], [ 77.730757506212996, 12.996521330130101 ], [ 77.727153256520594, 12.9957778241588 ], [ 77.726986114644603, 12.995746457771199 ], [ 77.725615329189694, 12.995489205461601 ], [ 77.725432200545995, 12.995454837793501 ], [ 77.724305549362398, 12.9954034741735 ], [ 77.723312801316098, 12.9953976435197 ], [ 77.722779513699706, 12.995428516090501 ], [ 77.721701436880593, 12.995490402971701 ], [ 77.7216724639446, 12.9954920662385 ], [ 77.720233693942006, 12.9957589537616 ], [ 77.719969198298301, 12.995834690331099 ], [ 77.719357339166294, 12.9960098900453 ], [ 77.719070901852504, 12.996091908073399 ], [ 77.716273305585204, 12.9967633327078 ], [ 77.71603591937, 12.996820303941201 ], [ 77.715544344173793, 12.996945643032101 ], [ 77.714400376258894, 12.9972533578105 ], [ 77.7137387533854, 12.997431586307901 ], [ 77.713328707452206, 12.997542051952401 ], [ 77.712461851924999, 12.9977418311727 ], [ 77.710696381746402, 12.998169898036601 ], [ 77.709378743853094, 12.998492197854601 ], [ 77.709042795895101, 12.998619892370099 ], [ 77.709012174510903, 12.998626679089201 ], [ 77.708742917987806, 12.9986874096381 ], [ 77.708694657424303, 12.9986969468358 ], [ 77.708504714140602, 12.9987553887555 ], [ 77.708330816776396, 12.9988068879446 ], [ 77.708173602313394, 12.9988570837721 ], [ 77.708088362957795, 12.9988729914292 ], [ 77.708006968348002, 12.9988881814299 ], [ 77.707596929010094, 12.998974129814799 ], [ 77.706362869122401, 12.9992327965992 ], [ 77.705874283076895, 12.999307900881799 ], [ 77.705040771758206, 12.999437096189499 ], [ 77.704585581173106, 12.9995076504169 ], [ 77.704237502024895, 12.9995316028281 ], [ 77.704237502024895, 12.9995316028281 ], [ 77.704153567253698, 12.999011915753901 ], [ 77.704129990330102, 12.9988552024647 ], [ 77.704074238641994, 12.9984921805871 ], [ 77.704047036448898, 12.998319696219401 ], [ 77.703984482642696, 12.9982322701683 ], [ 77.703818354709895, 12.9979912224017 ], [ 77.703754588533897, 12.9978981628849 ], [ 77.703515790608094, 12.9975393055739 ], [ 77.703461479412496, 12.997521803970599 ], [ 77.703457939632699, 12.9975139364246 ], [ 77.7034513868593, 12.9974936790402 ], [ 77.703449574171898, 12.997485793507501 ], [ 77.703441258612699, 12.997409094405199 ], [ 77.703206634086399, 12.997276033510699 ], [ 77.703175903226807, 12.9972278464844 ], [ 77.703143818806197, 12.9971901660752 ], [ 77.703031245067905, 12.997057957702699 ], [ 77.703006604547198, 12.9970290194575 ], [ 77.702904348243706, 12.9964363065359 ], [ 77.702904076691098, 12.996434732517001 ], [ 77.702762760538704, 12.9963381513253 ], [ 77.702723843328599, 12.996204764294699 ], [ 77.702609455830697, 12.9958127049825 ], [ 77.702755065711301, 12.995730376509201 ], [ 77.7028282461103, 12.9956889999397 ], [ 77.702732461108297, 12.9952288152713 ], [ 77.7027694827391, 12.995194115449801 ], [ 77.702607354972102, 12.9947590209149 ], [ 77.702492945611397, 12.9944519847185 ], [ 77.702292058011295, 12.9939128675144 ], [ 77.7022622690193, 12.9938329232405 ], [ 77.702248831396204, 12.993797841108499 ], [ 77.702200319874095, 12.993810202203401 ], [ 77.701712643598896, 12.993934465594201 ], [ 77.701700590761803, 12.9939379786122 ], [ 77.7012963310722, 12.9940370376596 ], [ 77.701122348824995, 12.994080628139701 ], [ 77.699849816676206, 12.994389714478199 ], [ 77.699097806301495, 12.994649345629499 ], [ 77.698745612322895, 12.9947715731617 ], [ 77.698067485379795, 12.994995428372199 ], [ 77.698009547697495, 12.995015226938801 ], [ 77.697056227114601, 12.995187737358499 ], [ 77.695982818409504, 12.9953298736927 ], [ 77.694966627375607, 12.995599012474599 ], [ 77.694664377668701, 12.9957613681557 ], [ 77.694588236428402, 12.995801680737101 ], [ 77.6941168771354, 12.995979341502901 ], [ 77.693868601401206, 12.9960734713799 ], [ 77.693675919416293, 12.996146523212801 ], [ 77.693061315747599, 12.996388904288199 ], [ 77.692641279671307, 12.996520861934799 ], [ 77.692305015249701, 12.9966259783781 ], [ 77.691628455407695, 12.996836251903 ], [ 77.690671536590798, 12.997263980161801 ], [ 77.690603803929903, 12.9968559073295 ], [ 77.690406412668395, 12.9963306108181 ], [ 77.690184867916898, 12.995968170896299 ], [ 77.689876697107493, 12.9954745102365 ], [ 77.689622489175406, 12.9949125371744 ], [ 77.689594579979996, 12.994833781352501 ], [ 77.689291070944194, 12.9939708183466 ], [ 77.689231439011394, 12.9937862530356 ], [ 77.689124894871995, 12.9934564886847 ], [ 77.689058893493396, 12.993208745136901 ], [ 77.688984504310596, 12.9929305996243 ], [ 77.688806228260603, 12.9924152655577 ], [ 77.688603285909707, 12.9921757148797 ], [ 77.6885086137912, 12.992045706135301 ], [ 77.688517788393995, 12.9920422235112 ], [ 77.688684500240399, 12.9919648401999 ], [ 77.688773294796107, 12.9919232691666 ], [ 77.688967894928894, 12.991869310455 ], [ 77.689373729096999, 12.991755574315301 ], [ 77.689496549961504, 12.991719296769199 ], [ 77.689680762931104, 12.991663186722599 ], [ 77.689824661186194, 12.991659437929099 ], [ 77.689837314211104, 12.991658177663499 ], [ 77.689921344715302, 12.991653971163901 ], [ 77.690036417890894, 12.991648210896599 ], [ 77.690222341465599, 12.9916440265759 ], [ 77.690515943348998, 12.991640985022 ], [ 77.690612022736005, 12.991634343556999 ], [ 77.6907595857367, 12.9915966799046 ], [ 77.690893932148896, 12.991561411544 ], [ 77.691159430042504, 12.991461548223601 ], [ 77.691401997463998, 12.9913709560005 ], [ 77.692133573702705, 12.9910313853168 ], [ 77.692702727392103, 12.990739794583799 ], [ 77.693115679103897, 12.990539030211799 ], [ 77.693247048564999, 12.9904947579788 ], [ 77.693493765522604, 12.9904154131789 ], [ 77.693497807498304, 12.9904165004715 ], [ 77.693620785042299, 12.9903948993067 ], [ 77.694094909545598, 12.9903143246397 ], [ 77.694288744906402, 12.990296505010299 ], [ 77.694411338227297, 12.9903460476825 ], [ 77.694522332619599, 12.990387806154899 ], [ 77.694782460121502, 12.990324130022801 ], [ 77.695001232519999, 12.9903229892689 ], [ 77.695144574946895, 12.9903745746818 ], [ 77.695319290682804, 12.990345660599701 ], [ 77.695563262058698, 12.9902787637629 ], [ 77.695555116185204, 12.9889904212198 ], [ 77.695715106690898, 12.9887708236166 ], [ 77.695577141587293, 12.9876701476422 ], [ 77.695593133690394, 12.986697732924601 ], [ 77.695819939364, 12.9839728572576 ], [ 77.695849326068299, 12.9839217379796 ], [ 77.695841678226202, 12.983799862772999 ], [ 77.695827189689297, 12.9835775589466 ], [ 77.695815214168604, 12.9833213527747 ], [ 77.695785319953302, 12.983058557228899 ], [ 77.695752239790494, 12.9828206373108 ], [ 77.695700635363394, 12.9824666010022 ], [ 77.695672888183694, 12.982349451086201 ], [ 77.695618550814402, 12.9822224140931 ], [ 77.695560329980907, 12.982108967868101 ], [ 77.695542694696201, 12.982075274512001 ], [ 77.695477480720797, 12.9819539963241 ], [ 77.695374961560802, 12.9817901950644 ], [ 77.695302490093994, 12.9815831721557 ], [ 77.695254805431802, 12.981432352621001 ], [ 77.695210785241599, 12.9812476187778 ], [ 77.695182941135698, 12.9811214360617 ], [ 77.6951158407077, 12.981198918150801 ], [ 77.695056324737493, 12.981232282404299 ], [ 77.694970867353106, 12.9812625280183 ], [ 77.6946008214004, 12.981329600702701 ], [ 77.694498925242996, 12.9813837300283 ], [ 77.694438501226301, 12.9814396877804 ], [ 77.694414651947397, 12.981470423713001 ], [ 77.694371923834893, 12.981565720350099 ], [ 77.694358634857295, 12.9815613412811 ], [ 77.694326912433297, 12.9815560241054 ], [ 77.694239865327205, 12.9815456344244 ], [ 77.694162592355298, 12.981534014178299 ], [ 77.694094003040107, 12.9815268207324 ], [ 77.694007641131194, 12.9815265867612 ], [ 77.693926508879201, 12.9815308153948 ], [ 77.693860956082801, 12.981538270148301 ], [ 77.693770649680005, 12.9815459814601 ], [ 77.693748810911799, 12.981549595451799 ], [ 77.693625322770203, 12.981576847224799 ], [ 77.693586814037999, 12.981582892401301 ], [ 77.693538506824694, 12.9815879099152 ], [ 77.693520649032294, 12.9815869657855 ], [ 77.693501027741107, 12.981582652298799 ], [ 77.693316463382004, 12.981872513893499 ], [ 77.692348671009498, 12.981873508174999 ], [ 77.692264514232306, 12.9818642171041 ], [ 77.692229925590297, 12.981860058575 ], [ 77.692127716402794, 12.9818317578637 ], [ 77.692051902762302, 12.9817952792023 ], [ 77.691614060277502, 12.981554775169201 ], [ 77.691604091568493, 12.981537940224801 ], [ 77.690177936662494, 12.9817988751842 ], [ 77.689693146280902, 12.9806219644236 ], [ 77.688821793942395, 12.9785065682713 ], [ 77.687187452118394, 12.979430229123 ], [ 77.687047486215405, 12.9793706983815 ], [ 77.686807139569197, 12.979506430435199 ], [ 77.686447859261605, 12.979075395426101 ], [ 77.686015666374203, 12.9787704562277 ], [ 77.685606555067693, 12.9784167212815 ], [ 77.6856332594311, 12.978383698075101 ], [ 77.6849876892026, 12.978076179527401 ], [ 77.684900064186195, 12.978034438951999 ], [ 77.684558378295407, 12.9770431260885 ], [ 77.684294133864199, 12.9765220749699 ], [ 77.684004302593394, 12.975948987488399 ], [ 77.684171333928902, 12.9759020943559 ], [ 77.684272600896904, 12.975789256180001 ], [ 77.684270952546598, 12.975635699406 ], [ 77.684302298391898, 12.975498740282699 ], [ 77.684538771442902, 12.975377730821799 ], [ 77.684938155222596, 12.975119373741601 ], [ 77.6852870362288, 12.9749329965019 ], [ 77.685425538445699, 12.974910110940799 ], [ 77.685509086771802, 12.974862950099 ], [ 77.685559155930093, 12.9747540280335 ], [ 77.685639019873904, 12.974685450075601 ], [ 77.685741134485895, 12.974651648029701 ], [ 77.6857807026405, 12.974583486254099 ], [ 77.685832516622796, 12.974324838959401 ], [ 77.685832612796204, 12.9743243591777 ], [ 77.685823831853199, 12.9742036235663 ], [ 77.685843924138595, 12.9740374210082 ], [ 77.685901682652101, 12.973947616208999 ], [ 77.686108103897098, 12.973762550718099 ], [ 77.686822469181394, 12.9732176631739 ], [ 77.686824280050899, 12.9731182733595 ], [ 77.686843070270001, 12.9730988825268 ], [ 77.686682534745302, 12.972088762492399 ], [ 77.686472747508802, 12.9715850402378 ], [ 77.686363300140897, 12.9712157069865 ], [ 77.686332965911006, 12.971113341898301 ], [ 77.686093391257302, 12.9703016501935 ], [ 77.686412672680405, 12.970226082798501 ], [ 77.686460305514302, 12.9702120402152 ], [ 77.686390343328995, 12.9701303299216 ], [ 77.686369868491099, 12.970100052511199 ], [ 77.686355822716607, 12.9700787424404 ], [ 77.686329239869593, 12.970015780794601 ], [ 77.686315036493497, 12.969979792517201 ], [ 77.686308534697005, 12.969964050617801 ], [ 77.686307777197399, 12.969947120174901 ], [ 77.686305862114594, 12.969875999235301 ], [ 77.686308425106006, 12.969846613104099 ], [ 77.686311048716107, 12.9698228724356 ], [ 77.686315314384998, 12.9697912102844 ], [ 77.686329929477395, 12.9697583120302 ], [ 77.686351452263807, 12.969725342435201 ], [ 77.686372447899302, 12.969696895154501 ], [ 77.686390159417797, 12.969684290838501 ], [ 77.686430860213207, 12.9696680614366 ], [ 77.686442888058806, 12.9696622911246 ], [ 77.686477893055496, 12.9696517666309 ], [ 77.686536414463902, 12.969633094724699 ], [ 77.686597299049495, 12.9696200444862 ], [ 77.686600752895899, 12.9696200088128 ], [ 77.686680021608893, 12.9696033810208 ], [ 77.686735125512996, 12.9695881320258 ], [ 77.686781534166997, 12.9695673267492 ], [ 77.686808468030193, 12.969555756367299 ], [ 77.686821635014596, 12.9695488450563 ], [ 77.686836528920495, 12.969541915906699 ], [ 77.6868942684779, 12.969504055311599 ], [ 77.686910840796003, 12.9694925919521 ], [ 77.686948590551793, 12.9694696176606 ], [ 77.687000167798203, 12.969447629744201 ], [ 77.687046109896301, 12.969436992203001 ], [ 77.687116216758298, 12.969424975805399 ], [ 77.687120234114005, 12.969423805087199 ], [ 77.687128856592594, 12.969422586795799 ], [ 77.6871662368345, 12.969418812985399 ], [ 77.6871829061498, 12.9694163823462 ], [ 77.687250795324104, 12.9694122933437 ], [ 77.687262308129803, 12.9694121744051 ], [ 77.687268985136498, 12.9694116374773 ], [ 77.687310625528994, 12.969408287582599 ], [ 77.687337656364605, 12.9694057498868 ], [ 77.687358343028606, 12.9694021485154 ], [ 77.687370407216903, 12.9693997654418 ], [ 77.687399607200007, 12.9693847839439 ], [ 77.687428722280899, 12.9693618988026 ], [ 77.687449214884197, 12.969340231960601 ], [ 77.687471288862298, 12.969304998177501 ], [ 77.687484813136507, 12.969277757244701 ], [ 77.687502257730003, 12.9692403128567 ], [ 77.687523768182601, 12.969206214110899 ], [ 77.6875609300577, 12.9691821166055 ], [ 77.687593608097401, 12.9691693575906 ], [ 77.687629188588701, 12.9691588270168 ], [ 77.687697459233107, 12.969136666503999 ], [ 77.687721526924705, 12.969126254874601 ], [ 77.687738159819901, 12.9691204369307 ], [ 77.687770765060904, 12.9691009033493 ], [ 77.687785598256895, 12.9690883286993 ], [ 77.687805539426193, 12.9690689259696 ], [ 77.6878054059991, 12.969056505966201 ], [ 77.687788626521495, 12.9689414992552 ], [ 77.687781209415704, 12.9688941487974 ], [ 77.687770108024395, 12.968825381291399 ], [ 77.687746470450094, 12.968822237876299 ], [ 77.687746189501993, 12.968581717638401 ], [ 77.687746302307801, 12.968324255078899 ], [ 77.687743252429598, 12.968093926391999 ], [ 77.687770319498, 12.968094775953601 ], [ 77.687777563010897, 12.9676972168524 ], [ 77.687793749977104, 12.9672747225798 ], [ 77.688297987081, 12.967057926363401 ], [ 77.688404623207205, 12.9670120785755 ], [ 77.688430023163804, 12.9667537227875 ], [ 77.688433259906404, 12.966720800245101 ], [ 77.688865481644399, 12.9623244572531 ], [ 77.689347955248195, 12.9621681570211 ], [ 77.689568389711994, 12.9617345186918 ], [ 77.689546714524596, 12.9615924615221 ], [ 77.689608946592202, 12.9614371158785 ], [ 77.689602024728501, 12.961221507236701 ], [ 77.689593777463202, 12.961150451881601 ], [ 77.689548830567901, 12.9611463994899 ], [ 77.689498621576305, 12.960866872841301 ], [ 77.689262593317693, 12.960170327034399 ], [ 77.689237125340796, 12.959996690907399 ], [ 77.689374535043996, 12.957728934848801 ], [ 77.689518728539497, 12.9558247163591 ], [ 77.689635277593595, 12.955420382341901 ], [ 77.688483990017005, 12.955210945811199 ], [ 77.687534232330506, 12.9550592723647 ], [ 77.687953189992299, 12.9546179406645 ], [ 77.688352508978596, 12.954224238417201 ], [ 77.688653150150898, 12.9539693190845 ], [ 77.6890217722719, 12.9536120680505 ], [ 77.689202644402101, 12.953408070550401 ], [ 77.689251000930994, 12.9533544980165 ], [ 77.6893403218494, 12.953202260618299 ], [ 77.689389817064196, 12.9530402715469 ], [ 77.689433264670399, 12.9526366926458 ], [ 77.689482261108793, 12.951784757583299 ], [ 77.689486852398602, 12.9511399276485 ], [ 77.6894586170758, 12.9506546561582 ], [ 77.689414483621505, 12.950297150240599 ], [ 77.6893290954348, 12.950011210866201 ], [ 77.689117658485401, 12.949673499536299 ], [ 77.688878423851904, 12.949427541435 ], [ 77.688725401024897, 12.9493297498488 ], [ 77.688670907574306, 12.949294177361701 ], [ 77.688590621464201, 12.9492690340271 ], [ 77.688194347202895, 12.9491410052904 ], [ 77.687512591100102, 12.9490170505207 ], [ 77.686853434226094, 12.948960613863999 ], [ 77.686367712552297, 12.9489193252954 ], [ 77.686129174710899, 12.9488992006924 ], [ 77.685995491740499, 12.9488870284898 ], [ 77.685463625720104, 12.948837180203 ], [ 77.684693379075398, 12.948781883066401 ], [ 77.684360310700399, 12.9487503095579 ], [ 77.683974814871704, 12.9487147588888 ], [ 77.683227531375707, 12.948653574572701 ], [ 77.682842611112804, 12.9486180162364 ], [ 77.682340136579299, 12.948571246302601 ], [ 77.682228362431104, 12.948562234173 ], [ 77.681762810537094, 12.948522987476199 ], [ 77.681479315776102, 12.9484976751445 ], [ 77.680700241500205, 12.9484243890847 ], [ 77.680685827465197, 12.9484222789602 ], [ 77.680471629490498, 12.948363504904799 ], [ 77.680330016945504, 12.9483096299744 ], [ 77.680185981315105, 12.9482444876411 ], [ 77.680045137661196, 12.9482086722119 ], [ 77.680021538266203, 12.948208914990699 ], [ 77.679779800411794, 12.948212530970601 ], [ 77.679730886898, 12.948214163341 ], [ 77.679460643010898, 12.9481898416234 ], [ 77.679421502534794, 12.9481902441914 ], [ 77.679155529217596, 12.9481884627263 ], [ 77.678990333334994, 12.948190161566799 ], [ 77.678673192266501, 12.948194551912399 ], [ 77.678590318563593, 12.948196533253901 ], [ 77.678195029076704, 12.9482141480105 ], [ 77.677704266321101, 12.9482937217466 ], [ 77.677384524241504, 12.948324109494401 ], [ 77.677364378363293, 12.948324316540999 ], [ 77.677267702267002, 12.948327568548301 ], [ 77.676755617437394, 12.9484051012584 ], [ 77.676401089013396, 12.948466334413901 ], [ 77.676036751047704, 12.9485254094291 ], [ 77.675631114419303, 12.9485984588776 ], [ 77.675420722787294, 12.9486265919471 ], [ 77.675317787145602, 12.9486366829106 ], [ 77.675228846646604, 12.948663568540701 ], [ 77.675030898152002, 12.948617044441299 ], [ 77.674821904871706, 12.9485604705232 ], [ 77.674328274150398, 12.9484255141001 ], [ 77.673954226293105, 12.9483299815079 ], [ 77.673561759480094, 12.9482346373513 ], [ 77.673269639620599, 12.9481563305416 ], [ 77.672977724608003, 12.9480972181833 ], [ 77.672956208268204, 12.9480229097419 ], [ 77.672947976426201, 12.9478987788595 ], [ 77.670896985881697, 12.9478531893291 ], [ 77.670875901824601, 12.9471171461275 ], [ 77.669366777316299, 12.946979036791999 ], [ 77.669295020062904, 12.946997839713401 ], [ 77.669255676620807, 12.9470332490361 ], [ 77.6692343089628, 12.9470808957599 ], [ 77.669138014259602, 12.947011869812 ], [ 77.669032367310393, 12.9469835920391 ], [ 77.668706914296095, 12.946964341197299 ], [ 77.668308310881997, 12.9468871189337 ], [ 77.668393525593103, 12.946510211188199 ], [ 77.666547606907798, 12.946368758150999 ], [ 77.666557977703107, 12.9462613746106 ], [ 77.666559440229406, 12.9462365164548 ], [ 77.666555588303893, 12.946090884454801 ], [ 77.666481216237898, 12.9460803532188 ], [ 77.666030774567602, 12.946000269856301 ], [ 77.665544898195407, 12.945944262133001 ], [ 77.664947835648405, 12.9458803567769 ], [ 77.6647496983027, 12.945869961599399 ], [ 77.664695244103996, 12.945837770613901 ], [ 77.664599130367407, 12.9457314759714 ], [ 77.664564257977602, 12.945646010535301 ], [ 77.664544614655597, 12.945531029181501 ], [ 77.664315424255307, 12.944657084278401 ], [ 77.664241806971603, 12.9445008729036 ], [ 77.664238269408699, 12.944493004406899 ], [ 77.664157745871904, 12.944445270439999 ], [ 77.663862993789493, 12.944443766779299 ], [ 77.6634396324514, 12.9444740667634 ], [ 77.663072319295594, 12.944469916128501 ], [ 77.662741688189499, 12.9444507100387 ], [ 77.662611519870595, 12.9444441354264 ], [ 77.662535973103004, 12.944485559948401 ], [ 77.662507673051707, 12.9445310186747 ], [ 77.662492515794497, 12.944675716173601 ], [ 77.6625545730586, 12.9454779711848 ], [ 77.6625610860103, 12.946307895417201 ], [ 77.662572418568999, 12.9465076549341 ], [ 77.662484699918096, 12.946649706224701 ], [ 77.662266943455506, 12.9467433997516 ], [ 77.661870642751495, 12.946882957661799 ], [ 77.661031643746597, 12.947184001368999 ], [ 77.660395722416595, 12.947418602358301 ], [ 77.659959102926805, 12.947556310964799 ], [ 77.659789443833503, 12.947571594 ], [ 77.659247429818905, 12.947542120476299 ], [ 77.658435182191397, 12.947489430815001 ], [ 77.657231439958295, 12.9474328271034 ], [ 77.656396779183794, 12.947383747250701 ], [ 77.656111627694798, 12.9473651988648 ], [ 77.655771973231694, 12.947364144415699 ], [ 77.655575487353602, 12.947401153833701 ], [ 77.655381483250594, 12.947455076493901 ], [ 77.654822590183997, 12.947625642072101 ], [ 77.654679286785907, 12.947683564595801 ], [ 77.654649474885204, 12.9476951608228 ], [ 77.654541213157401, 12.947691746955201 ], [ 77.653911836700999, 12.9476755740668 ], [ 77.652861970455902, 12.9475812466404 ], [ 77.651889331020001, 12.9474951627432 ], [ 77.650796341918394, 12.9474057826127 ], [ 77.650516921772706, 12.9473849111993 ], [ 77.649815775148895, 12.9473321930941 ], [ 77.649477857862706, 12.94733224198 ], [ 77.649374389068996, 12.947401049173701 ], [ 77.649324669275899, 12.9474354322726 ], [ 77.649317281860505, 12.9474445413944 ], [ 77.649282492046396, 12.9474753849163 ], [ 77.649191060435797, 12.947593756658 ], [ 77.649089062162105, 12.9477472425824 ], [ 77.649063911667, 12.947818641079699 ], [ 77.649050980229504, 12.947902337084001 ], [ 77.649039206469993, 12.948095558587699 ], [ 77.649052792636198, 12.9483461139809 ], [ 77.649079310301403, 12.948512973356699 ], [ 77.649184687925796, 12.948896976043899 ], [ 77.649255047773096, 12.949072423510801 ], [ 77.649375283030395, 12.9492281664429 ], [ 77.649543757279503, 12.949481663372699 ], [ 77.650380258234506, 12.950465763637901 ], [ 77.650542118331202, 12.9506380209504 ], [ 77.650882593980896, 12.9509338069323 ], [ 77.651343106992101, 12.9513119347907 ], [ 77.651517741440102, 12.951440020557101 ], [ 77.651758079937593, 12.951575341964499 ], [ 77.651974220821799, 12.951654447109901 ], [ 77.651965825609906, 12.951677117541999 ], [ 77.652141398576802, 12.9517306628968 ], [ 77.652239827063994, 12.9517838644663 ], [ 77.652297962441594, 12.95183747632 ], [ 77.652321477181403, 12.951883535992501 ], [ 77.652365015286605, 12.9520265070056 ], [ 77.652462608210996, 12.9523270220835 ], [ 77.6525209314714, 12.952507107608 ], [ 77.652523976927995, 12.952522886048699 ], [ 77.652896676618994, 12.952545062545701 ], [ 77.653338486255194, 12.952569922146701 ], [ 77.653692754135704, 12.9525911560126 ], [ 77.653834511513097, 12.9526043917416 ], [ 77.654311660978195, 12.952650345199 ], [ 77.655266776058696, 12.952710622211599 ], [ 77.655276573515096, 12.9527116515653 ], [ 77.655433848593702, 12.9527224696904 ], [ 77.655525455464499, 12.952729440340301 ], [ 77.655859600511903, 12.9527531348454 ], [ 77.656167830812606, 12.952775963973099 ], [ 77.657330442811798, 12.9528600894382 ], [ 77.658021625513101, 12.952894817916601 ], [ 77.658405237407493, 12.952914616454001 ], [ 77.658413883629095, 12.952915657437099 ], [ 77.658728997181001, 12.952936154696401 ], [ 77.659026494683204, 12.9529240834213 ], [ 77.6592066144499, 12.9529177273337 ], [ 77.659478221087895, 12.9529070491576 ], [ 77.659777445192901, 12.9528949594027 ], [ 77.660015102356198, 12.952885756640301 ], [ 77.660074390717497, 12.952885151063599 ], [ 77.660983214715202, 12.9528690911244 ], [ 77.660989930693802, 12.953230379296301 ], [ 77.660997594228206, 12.9536266642122 ], [ 77.661001108204601, 12.9537948850543 ], [ 77.661011170015101, 12.954037568817499 ], [ 77.661012033500896, 12.9540646617513 ], [ 77.660991803537399, 12.9543279813709 ], [ 77.661998822667499, 12.954288328691 ], [ 77.662367864984205, 12.954237127817001 ], [ 77.662394610007496, 12.9545869183781 ], [ 77.662395893257397, 12.9545993268835 ], [ 77.662400163956207, 12.9547844783648 ], [ 77.662386626053106, 12.954918996188599 ], [ 77.661776206393, 12.954954596983001 ], [ 77.661817713709297, 12.955393446710101 ], [ 77.661674624275605, 12.955417494223299 ], [ 77.660847385775099, 12.9554191736816 ], [ 77.660856463904594, 12.955460862789 ], [ 77.660891193387201, 12.9555869827508 ], [ 77.660910932604097, 12.9556567939005 ], [ 77.660913331053493, 12.9556658033086 ], [ 77.660970029824696, 12.9556923256266 ], [ 77.661812043658898, 12.955726630216301 ], [ 77.661895388678502, 12.955714485778699 ], [ 77.661909766812201, 12.9556590060737 ], [ 77.662179481281598, 12.955686738010501 ], [ 77.662354505933493, 12.955688336153299 ], [ 77.6623821117131, 12.9556857954046 ], [ 77.663369792711507, 12.955721993111601 ], [ 77.663048092853003, 12.9567065914407 ], [ 77.663029230728796, 12.9568276128402 ], [ 77.663040635809395, 12.9568715364663 ], [ 77.663119907909802, 12.957180136813101 ], [ 77.663189945534, 12.957432369666 ], [ 77.663373699224493, 12.9580922231707 ], [ 77.663380307314199, 12.958118128031201 ], [ 77.663581968611496, 12.9588918509397 ], [ 77.663587977110694, 12.958915503446001 ], [ 77.663587977120301, 12.958915504349299 ], [ 77.663581968621102, 12.958891851842999 ], [ 77.663476869948795, 12.958915511952799 ], [ 77.663077325990798, 12.959022360311399 ], [ 77.662879081676195, 12.9590571362289 ], [ 77.662879100847704, 12.9590575561145 ] ] ] } }
]
}
