{
"type": "FeatureCollection",
"name": "Central_Zone1",
"crs": { "type": "name", "properties": { "name": "urn:ogc:def:crs:OGC:1.3:CRS84" } },
"features": [
{ "type": "Feature", "properties": { "region_id": "zone_GBA_Central_6", "name": "Central (Z6)", "parent": "corp_GBA_Central", "parent_name": "Central" }, "geometry": { "type": "Polygon", "coordinates": [ [ [ 77.6170045073724, 12.949147710767599 ], [ 77.616951363213005, 12.949185510766 ], [ 77.6169173908728, 12.949200472105399 ], [ 77.616901507719703, 12.949207467848799 ], [ 77.616888386215194, 12.949218892426201 ], [ 77.616858160978396, 12.9492462986889 ], [ 77.616693696733407, 12.949263760619299 ], [ 77.616376009512393, 12.949272597908401 ], [ 77.6160091424711, 12.9492708147943 ], [ 77.615769779624102, 12.9492696516928 ], [ 77.6156662871348, 12.949270054855299 ], [ 77.615133675743493, 12.9492726503493 ], [ 77.615042532130701, 12.9492737333414 ], [ 77.614651690139496, 12.9492783774232 ], [ 77.614521219412694, 12.949279927227799 ], [ 77.614421635751498, 12.9492809266742 ], [ 77.614335296558195, 12.9492814805807 ], [ 77.614167973996601, 12.9492825535335 ], [ 77.6137982067754, 12.9492849241395 ], [ 77.613610232306598, 12.9492868101444 ], [ 77.613127880383303, 12.949291649107201 ], [ 77.612662885712098, 12.9492964169903 ], [ 77.611664937702798, 12.9493074491944 ], [ 77.611614921995098, 12.949244715412901 ], [ 77.611436278678596, 12.949020645584399 ], [ 77.611036756019402, 12.948965927623201 ], [ 77.610296556464206, 12.9490994157788 ], [ 77.609929482369907, 12.949165613400501 ], [ 77.609444254836106, 12.949236292503199 ], [ 77.608979904997597, 12.9493061220298 ], [ 77.6057916560964, 12.949797652549201 ], [ 77.605735348825903, 12.9499743843443 ], [ 77.605690190189804, 12.950115996766201 ], [ 77.605689261850003, 12.950116118250699 ], [ 77.604802525945303, 12.950232156839199 ], [ 77.603909561555696, 12.9503924092001 ], [ 77.603443306875704, 12.950508869122199 ], [ 77.603455841046198, 12.950551656765599 ], [ 77.603439688039799, 12.950548430349301 ], [ 77.602772986742494, 12.950377794808199 ], [ 77.602488424147296, 12.950306105003101 ], [ 77.602400105573494, 12.950283272319201 ], [ 77.602188789589405, 12.950224401825899 ], [ 77.601912227497706, 12.9501469849616 ], [ 77.601594090789504, 12.9500575608158 ], [ 77.601553091693702, 12.9500455481048 ], [ 77.601295025946698, 12.949975774018499 ], [ 77.601025425067306, 12.9499028805434 ], [ 77.600818162413901, 12.9498462269241 ], [ 77.600709626489106, 12.949816819722701 ], [ 77.600628849996198, 12.9497995575258 ], [ 77.600604097662398, 12.9497998046373 ], [ 77.600536115508902, 12.9497395016678 ], [ 77.600483051574997, 12.949729867791801 ], [ 77.600277325530598, 12.949765800131599 ], [ 77.600236549125896, 12.949775241479999 ], [ 77.600142319064801, 12.949848456622099 ], [ 77.6000252392367, 12.9499388391607 ], [ 77.599879377493707, 12.950029508926299 ], [ 77.5998316609315, 12.9500732686059 ], [ 77.599650523782799, 12.9502393836349 ], [ 77.599614201621705, 12.950272694305401 ], [ 77.599411092030607, 12.9503944260374 ], [ 77.599213830597904, 12.9505804688645 ], [ 77.598995999882703, 12.9507260623554 ], [ 77.598900662872296, 12.9508591406414 ], [ 77.5988316478076, 12.9509157697946 ], [ 77.598818461843095, 12.9509265889654 ], [ 77.598796774939601, 12.9509448739979 ], [ 77.598369227708901, 12.9512969611279 ], [ 77.598092854197802, 12.95151541273 ], [ 77.597985289392497, 12.951579725990999 ], [ 77.597869549201405, 12.9516786499857 ], [ 77.597700538137602, 12.951823105275601 ], [ 77.597522436362894, 12.951969430915501 ], [ 77.597461816317306, 12.952008431405201 ], [ 77.597309114828704, 12.9521059440639 ], [ 77.597139307798798, 12.9522194373186 ], [ 77.597005459684496, 12.9523585456612 ], [ 77.596859876173696, 12.952476314413699 ], [ 77.596782796296594, 12.952538064754901 ], [ 77.596619519744095, 12.952670690625499 ], [ 77.596567534031095, 12.952709604875301 ], [ 77.596248089205005, 12.9529386481132 ], [ 77.595938593540595, 12.9531834019943 ], [ 77.595711452118294, 12.9533753872934 ], [ 77.595577733648497, 12.953471580696901 ], [ 77.595452027328193, 12.953563177024201 ], [ 77.595392923729193, 12.9536083216602 ], [ 77.595134447587895, 12.9538057521964 ], [ 77.594765456541595, 12.954087235350601 ], [ 77.594564994570803, 12.9542428166893 ], [ 77.594497547528206, 12.954289789742599 ], [ 77.594133125096405, 12.954567838843699 ], [ 77.593604177191395, 12.954969490164901 ], [ 77.592948519867093, 12.955477426972999 ], [ 77.592753753631101, 12.9556273041047 ], [ 77.592382653025595, 12.955928003838199 ], [ 77.592311245615406, 12.9559817916791 ], [ 77.592232977073294, 12.956040164996701 ], [ 77.592225552005999, 12.9560458853979 ], [ 77.592428070763503, 12.9565893190421 ], [ 77.592663739132902, 12.9572205073096 ], [ 77.592954488415003, 12.9580002135305 ], [ 77.593126456013906, 12.9584332920123 ], [ 77.593733015941297, 12.9599608189825 ], [ 77.593792126201905, 12.9601092968689 ], [ 77.594057211346694, 12.9608090853717 ], [ 77.594516053747796, 12.962021881867299 ], [ 77.594535261388998, 12.962042017680499 ], [ 77.594543402639104, 12.9620498415788 ], [ 77.594723790343295, 12.96223437672 ], [ 77.594818642301206, 12.9623316796044 ], [ 77.594827899791497, 12.9623361044808 ], [ 77.594926127408101, 12.9624037680983 ], [ 77.594945614653994, 12.962417369248501 ], [ 77.595182783301297, 12.962581010534601 ], [ 77.595198466796603, 12.9625944056628 ], [ 77.595725786005801, 12.963034088218199 ], [ 77.5959507710905, 12.9632441511152 ], [ 77.595985075138998, 12.9632765584119 ], [ 77.596262583497804, 12.9636103191655 ], [ 77.596377323812803, 12.9637932490583 ], [ 77.596486202192494, 12.9639660737278 ], [ 77.5966238391443, 12.964191688085201 ], [ 77.596861094508995, 12.964696372560001 ], [ 77.596908443703995, 12.9648259203503 ], [ 77.596908495551702, 12.9648257680561 ], [ 77.5969084964822, 12.9648257689503 ], [ 77.596908444634394, 12.964825921244501 ], [ 77.596900727537601, 12.9648485172396 ], [ 77.596900726616596, 12.9648485172488 ], [ 77.596398518727, 12.9648929681219 ], [ 77.596263540273299, 12.964923676492401 ], [ 77.596248607929596, 12.9649272133554 ], [ 77.596107107862096, 12.9649952533663 ], [ 77.595942696111294, 12.9651301501427 ], [ 77.595878406305999, 12.9652041955252 ], [ 77.595859067645705, 12.9652269743003 ], [ 77.595810697557297, 12.9652816628831 ], [ 77.595764159869503, 12.965346496813799 ], [ 77.595666596143602, 12.9654875023627 ], [ 77.595592318776497, 12.9655977847017 ], [ 77.595565131411604, 12.965640969026801 ], [ 77.595421193561293, 12.9658626169066 ], [ 77.595373045754499, 12.9659387597916 ], [ 77.595325438467, 12.966011509402501 ], [ 77.595221176937599, 12.9661729089507 ], [ 77.595159540658898, 12.966280806559 ], [ 77.595065801173902, 12.966568581953 ], [ 77.594960764651404, 12.967043932677299 ], [ 77.594973082302005, 12.967232401766299 ], [ 77.594977133551794, 12.967289955305199 ], [ 77.594962655791093, 12.967392865379001 ], [ 77.594947120344798, 12.967504820347701 ], [ 77.594778034839294, 12.968188599879699 ], [ 77.594432758801901, 12.969759502690501 ], [ 77.593953038540405, 12.9720240035087 ], [ 77.594066911622093, 12.972172973443399 ], [ 77.594511609820998, 12.9727547310187 ], [ 77.595052480298506, 12.973443849518199 ], [ 77.595682756393003, 12.9739265427615 ], [ 77.596631925697395, 12.9747173566036 ], [ 77.596636391651899, 12.974721077515699 ], [ 77.597532125030995, 12.9753727661925 ], [ 77.599320609125797, 12.9766648686015 ], [ 77.599317225364501, 12.9766716781646 ], [ 77.598562805691202, 12.978316689202201 ], [ 77.598000763172195, 12.979526129666199 ], [ 77.597512150958394, 12.980543985947801 ], [ 77.597760125555794, 12.980748167761 ], [ 77.598419031185401, 12.980548472982001 ], [ 77.599296622153403, 12.980283349747101 ], [ 77.600915026043097, 12.979722843935599 ], [ 77.602320587603401, 12.9792367344685 ], [ 77.602447982160896, 12.9791959340692 ], [ 77.602478499520004, 12.979185944688201 ], [ 77.603415993387401, 12.9788790753929 ], [ 77.6051907646427, 12.978297782285599 ], [ 77.605481126966694, 12.978204529577599 ], [ 77.606681039293804, 12.9778209666714 ], [ 77.607614096229796, 12.9775213839069 ], [ 77.608773831219395, 12.9771506375369 ], [ 77.608921889199806, 12.9771039805794 ], [ 77.614387116524497, 12.9753032182045 ], [ 77.613853039201601, 12.973726470197599 ], [ 77.615107615659994, 12.973442339038 ], [ 77.617526775594897, 12.9728944399378 ], [ 77.619301049769703, 12.972492691614301 ], [ 77.619322783689796, 12.9724789214432 ], [ 77.619322783699204, 12.9724789223466 ], [ 77.619684408087394, 12.972704522284999 ], [ 77.619897248672203, 12.972741902746399 ], [ 77.620019127134896, 12.972724865094699 ], [ 77.620276688449593, 12.9726895212707 ], [ 77.620822841332, 12.9726682081428 ], [ 77.621032026652301, 12.972686426867501 ], [ 77.621633997140094, 12.972827164515699 ], [ 77.621909807525299, 12.972994903869401 ], [ 77.622275370347595, 12.9732114257574 ], [ 77.622289126523796, 12.9732196093175 ], [ 77.622611395549598, 12.973411305848201 ], [ 77.622935259983095, 12.973604532442801 ], [ 77.623109089012601, 12.973710059707299 ], [ 77.623776033173996, 12.9741166438333 ], [ 77.623971880886202, 12.9742354994448 ], [ 77.624573934649504, 12.9746032114077 ], [ 77.624746074360303, 12.9747121421732 ], [ 77.624923441830902, 12.9748255370957 ], [ 77.624923441957705, 12.974825536877599 ], [ 77.625274698482599, 12.975050102165699 ], [ 77.625317067045501, 12.975082423159 ], [ 77.625349554187295, 12.9751058097713 ], [ 77.625458659694999, 12.975188273949099 ], [ 77.625545135823799, 12.975254027556799 ], [ 77.625610470142902, 12.975300076142499 ], [ 77.625973202764897, 12.9755557361862 ], [ 77.626122036148303, 12.9756931328641 ], [ 77.626385969815303, 12.9759355178833 ], [ 77.626580946864607, 12.976135687028799 ], [ 77.626635654208499, 12.976191597691299 ], [ 77.626825749982203, 12.976470837446 ], [ 77.626837984304203, 12.976488809203801 ], [ 77.626851426708797, 12.9765078709188 ], [ 77.626983588627198, 12.9768667715574 ], [ 77.6270887237105, 12.977173998911001 ], [ 77.627142517325396, 12.9772525039589 ], [ 77.627212091803003, 12.9773534348385 ], [ 77.627322011884601, 12.9774584750211 ], [ 77.627504011601999, 12.9775740793115 ], [ 77.627569384627606, 12.977603908766101 ], [ 77.627829161666298, 12.977724372992601 ], [ 77.628043430000304, 12.9777877044317 ], [ 77.628285456027399, 12.977917381692601 ], [ 77.628493807579403, 12.9781298355147 ], [ 77.628495558384799, 12.9781320763423 ], [ 77.628406920277996, 12.9781894358094 ], [ 77.628144465779201, 12.978307274357601 ], [ 77.627772677571201, 12.978430734969001 ], [ 77.627472411009705, 12.978511689385201 ], [ 77.627073653806207, 12.9785891217812 ], [ 77.626702434451701, 12.978657241220001 ], [ 77.6264257054805, 12.978676976292901 ], [ 77.626294353232197, 12.978669269241401 ], [ 77.626382057480697, 12.979016197306301 ], [ 77.626397285673093, 12.979150426184599 ], [ 77.626439701886994, 12.9792968022852 ], [ 77.6264469241993, 12.9793814243094 ], [ 77.626441463851094, 12.9794097111473 ], [ 77.626440359918604, 12.979414239368101 ], [ 77.626309571108607, 12.9794053974351 ], [ 77.626276062360006, 12.9793944433231 ], [ 77.626250037607505, 12.9793834135931 ], [ 77.626225235411098, 12.979379147109301 ], [ 77.625694315943306, 12.979481627550699 ], [ 77.625879296633002, 12.9802645995643 ], [ 77.625501622980906, 12.980321490316699 ], [ 77.625574815278497, 12.9807668115567 ], [ 77.625330672995602, 12.980764760630301 ], [ 77.625120508566198, 12.9807634955677 ], [ 77.625004770042494, 12.980762405962301 ], [ 77.624312443633997, 12.980901521598399 ], [ 77.624353311399304, 12.9809553138311 ], [ 77.624432358328804, 12.981317026110901 ], [ 77.624553505904501, 12.981871387286199 ], [ 77.624557749212002, 12.981891671259101 ], [ 77.623818215241201, 12.981812184795601 ], [ 77.622928483200297, 12.981739858358599 ], [ 77.622790777060303, 12.982443653680599 ], [ 77.622515268793407, 12.983842211247801 ], [ 77.622493369202303, 12.984114586225299 ], [ 77.622497859626193, 12.9855848497926 ], [ 77.622508311572702, 12.985922395856001 ], [ 77.622525472942002, 12.986718352123299 ], [ 77.622536367132298, 12.9872235820445 ], [ 77.622546457975602, 12.987691575848 ], [ 77.621156715048002, 12.9874887817555 ], [ 77.620076514245497, 12.987374329145499 ], [ 77.620019521472003, 12.987265364608 ], [ 77.619306630488097, 12.9872025382851 ], [ 77.619430012922507, 12.9879872674697 ], [ 77.619475035509893, 12.988272519241701 ], [ 77.619495995097196, 12.9884044326819 ], [ 77.619512686498794, 12.9887882167389 ], [ 77.619547801464606, 12.9896111016341 ], [ 77.619554424767003, 12.989858345311699 ], [ 77.619550760922394, 12.989908852569799 ], [ 77.619510155966907, 12.9904685984122 ], [ 77.619478850124807, 12.990832539585 ], [ 77.619397273328502, 12.9913991273867 ], [ 77.619358312715306, 12.991692001669801 ], [ 77.619202548367397, 12.992102368966499 ], [ 77.618876316633006, 12.9927380575323 ], [ 77.618861173792993, 12.992767564986799 ], [ 77.618751403739793, 12.992969696813599 ], [ 77.618706396826497, 12.993052573074101 ], [ 77.618272506679901, 12.9939005145648 ], [ 77.617990064212705, 12.9944205691202 ], [ 77.617634826737799, 12.995027182176299 ], [ 77.617598630967905, 12.995089657082399 ], [ 77.617427817102794, 12.995273191997599 ], [ 77.617345259149502, 12.9953621075275 ], [ 77.616996180631702, 12.995567766108 ], [ 77.616911670353403, 12.995635245028501 ], [ 77.616780435073196, 12.9957494950668 ], [ 77.6168315138748, 12.9957885048247 ], [ 77.617009638814906, 12.996247452935201 ], [ 77.617211445050003, 12.996768272077199 ], [ 77.617371214785706, 12.997178845972799 ], [ 77.617394307816696, 12.9972395938809 ], [ 77.617509133843399, 12.9974823590751 ], [ 77.617542927372199, 12.997554244816 ], [ 77.617750597475805, 12.9979960018832 ], [ 77.617752947794699, 12.9980004952725 ], [ 77.617816157770307, 12.998098104554099 ], [ 77.617936150014401, 12.9982843536872 ], [ 77.618001997448005, 12.9983040165124 ], [ 77.618386017504506, 12.9984650170106 ], [ 77.618397003931307, 12.9984694232802 ], [ 77.618854077000805, 12.998678244773 ], [ 77.618976529549798, 12.998769609606599 ], [ 77.619119410407905, 12.9989420757797 ], [ 77.619227711493906, 12.9991115029528 ], [ 77.619340398411694, 12.999314763927099 ], [ 77.619412797525598, 12.9994100213677 ], [ 77.619427297703695, 12.9994200384787 ], [ 77.619897191766896, 12.999752948028499 ], [ 77.6199540411491, 12.9997930279496 ], [ 77.620111757125599, 12.9998975873667 ], [ 77.620182708872306, 12.999964627356601 ], [ 77.620268527262894, 12.9998880845547 ], [ 77.621741201074499, 12.998574569465699 ], [ 77.622291870873099, 12.998089380581799 ], [ 77.623163498874703, 12.99732139356 ], [ 77.624153282568898, 12.9964441131995 ], [ 77.624616681629306, 12.996049831830501 ], [ 77.625034927747805, 12.995799494643601 ], [ 77.625050402529695, 12.995790232682101 ], [ 77.6254255761406, 12.9955481639882 ], [ 77.626231897833605, 12.9951854198993 ], [ 77.626951929888094, 12.9949398610507 ], [ 77.627136658498202, 12.9948901256497 ], [ 77.627675373535595, 12.994745082832701 ], [ 77.629154605735906, 12.994474895353999 ], [ 77.629151334764103, 12.9944376627819 ], [ 77.629133682556699, 12.9944017050878 ], [ 77.6290801689604, 12.9943503008052 ], [ 77.628891886526702, 12.9941862053576 ], [ 77.629097795604906, 12.994274461682201 ], [ 77.630339183862702, 12.994055234526201 ], [ 77.630602437063601, 12.9940119142725 ], [ 77.631607159134703, 12.993845895717101 ], [ 77.631874969821396, 12.993798011016001 ], [ 77.631912896093695, 12.993790851046199 ], [ 77.632579150631301, 12.9936339056426 ], [ 77.632957741594794, 12.9935532774906 ], [ 77.634115377847294, 12.993310038940701 ], [ 77.634468655609197, 12.993286128479699 ], [ 77.634542720978502, 12.9932661796659 ], [ 77.634818304045893, 12.9931911110667 ], [ 77.636326455951902, 12.992881068198299 ], [ 77.637340031059196, 12.9926821905701 ], [ 77.637369609230802, 12.9928659590349 ], [ 77.637405021520195, 12.9931659816761 ], [ 77.637413892505194, 12.9932426810356 ], [ 77.637439801901294, 12.993406160106201 ], [ 77.637471390451907, 12.9936712145809 ], [ 77.637889604486304, 12.993635347292701 ], [ 77.637954094921497, 12.993796870515901 ], [ 77.637962350348104, 12.9938175477995 ], [ 77.638056806138295, 12.9942016645499 ], [ 77.637901131808903, 12.9942359945207 ], [ 77.637919523541996, 12.994777850655799 ], [ 77.637939055568097, 12.995100619481001 ], [ 77.638195318973501, 12.9950734811075 ], [ 77.638705717894695, 12.995019427617001 ], [ 77.638878410630397, 12.995015414027399 ], [ 77.639027835774399, 12.9949890517094 ], [ 77.639034934769896, 12.9949880752482 ], [ 77.639196295491601, 12.994965883599299 ], [ 77.639372299216106, 12.9949482849739 ], [ 77.639407037794996, 12.9949479318469 ], [ 77.639471899044906, 12.9949472725025 ], [ 77.639541525537993, 12.9949431769346 ], [ 77.639722208220405, 12.994925839477 ], [ 77.639883769380106, 12.9949103368909 ], [ 77.639886294994298, 12.9949104675014 ], [ 77.640047957376098, 12.9949188308054 ], [ 77.640315179456493, 12.9948867511948 ], [ 77.640448769292703, 12.994870714216599 ], [ 77.640659469450696, 12.9956838927733 ], [ 77.6411775360843, 12.995398568299001 ], [ 77.641231546427207, 12.995387855592901 ], [ 77.641324340653, 12.9957776332616 ], [ 77.642369384222505, 12.9957771628542 ], [ 77.642718617031406, 12.9958029237361 ], [ 77.642718617040899, 12.995802924639399 ], [ 77.642719159158204, 12.995802964291499 ], [ 77.6427066605997, 12.995818901041099 ], [ 77.642682922487893, 12.9958609249943 ], [ 77.642149797639703, 12.996627467186901 ], [ 77.642102728605707, 12.996695701367599 ], [ 77.641310940122494, 12.9978307529161 ], [ 77.640962041335399, 12.998323269396399 ], [ 77.6407495944121, 12.9986517849915 ], [ 77.640696347858807, 12.9987347621897 ], [ 77.640652925439099, 12.998821027203601 ], [ 77.640579682636002, 12.998918888109101 ], [ 77.6405277546706, 12.999017661430599 ], [ 77.640492979140404, 12.9991049677273 ], [ 77.6404691911779, 12.9991966792675 ], [ 77.640431559926299, 12.9992862731209 ], [ 77.640078727775801, 12.999951604936699 ], [ 77.640065172952902, 12.999976586399599 ], [ 77.639654112372497, 13.0007441431493 ], [ 77.639469118263307, 13.001055440297799 ], [ 77.639244494382694, 13.001376174442299 ], [ 77.639192879466293, 13.001450100883501 ], [ 77.639049992573803, 13.0016051325471 ], [ 77.638959466232507, 13.0017020397386 ], [ 77.638908294645205, 13.001763539837301 ], [ 77.638868335752306, 13.0018508987801 ], [ 77.638801867313902, 13.0019904730026 ], [ 77.638747370842196, 13.002118632939499 ], [ 77.638675695838899, 13.0022560015833 ], [ 77.638605851083696, 13.002511923396201 ], [ 77.638593793737499, 13.002569638002001 ], [ 77.638565675375901, 13.002633162187401 ], [ 77.638526439775305, 13.0026798605804 ], [ 77.638445749043299, 13.0027269804594 ], [ 77.637702365285193, 13.0031060627486 ], [ 77.637436629683805, 13.003242015941501 ], [ 77.637214411463702, 13.003354941525499 ], [ 77.636737802263994, 13.0036420990011 ], [ 77.636586184008394, 13.003733980137699 ], [ 77.6365060572207, 13.003779964550001 ], [ 77.636439676655499, 13.003819033736001 ], [ 77.636423076466301, 13.0038282364533 ], [ 77.636339025861602, 13.003884424003401 ], [ 77.636350741411405, 13.0039577066684 ], [ 77.636650748561706, 13.004231326259299 ], [ 77.636706566028593, 13.0042782474661 ], [ 77.636832590439994, 13.004384186549 ], [ 77.637140754525703, 13.004666756530099 ], [ 77.637254036494099, 13.004815796200999 ], [ 77.637330474617201, 13.004911006015501 ], [ 77.637412692289104, 13.005008415559301 ], [ 77.637448171800003, 13.005041932585399 ], [ 77.637452260783107, 13.005047537299699 ], [ 77.637458089861795, 13.005054253581401 ], [ 77.637593492979093, 13.0051714490048 ], [ 77.638007082839806, 13.0054043878485 ], [ 77.638067893479402, 13.005437647207099 ], [ 77.638311220149106, 13.0054148464049 ], [ 77.638463157427594, 13.005407655078001 ], [ 77.638541458896299, 13.005406858795199 ], [ 77.638634176974605, 13.0054081743826 ], [ 77.638819937427698, 13.0054412920361 ], [ 77.639200346365101, 13.005531150847199 ], [ 77.639700337018894, 13.0057123912504 ], [ 77.640110574622, 13.0058459859907 ], [ 77.640674008911006, 13.005982537783201 ], [ 77.6410177753216, 13.006037759764199 ], [ 77.641094493959201, 13.006050529820101 ], [ 77.641637935878293, 13.006093554905499 ], [ 77.641945180194995, 13.006125433161101 ], [ 77.642277204597605, 13.0061593171677 ], [ 77.642302573303795, 13.006162446552599 ], [ 77.642711795520697, 13.0062000607419 ], [ 77.642852528736, 13.0062223414348 ], [ 77.643157611822602, 13.006267791221701 ], [ 77.643177799742105, 13.006270973298699 ], [ 77.643363477062806, 13.006296183550599 ], [ 77.643463716667299, 13.0063008084581 ], [ 77.643541477328796, 13.006303403875901 ], [ 77.644145373420898, 13.0063458075042 ], [ 77.644233535232104, 13.006351684452699 ], [ 77.6443887106592, 13.0063695510255 ], [ 77.644444186049, 13.0063759383217 ], [ 77.644444185826202, 13.006375937509301 ], [ 77.644548886058203, 13.0063879929683 ], [ 77.644764358523005, 13.0063993474567 ], [ 77.644861107699697, 13.0064006196438 ], [ 77.644971686731296, 13.006402880047 ], [ 77.645112780257406, 13.006404829288 ], [ 77.645193948370306, 13.0064028724608 ], [ 77.645474864130307, 13.006395491093899 ], [ 77.645527784781606, 13.0063904344557 ], [ 77.645792570650102, 13.0069252566987 ], [ 77.645845142332803, 13.0069958632072 ], [ 77.646070074588806, 13.007301853914001 ], [ 77.646096342543103, 13.007335463436499 ], [ 77.646178109813405, 13.007389962561801 ], [ 77.6462417893772, 13.0074220611949 ], [ 77.646288664475094, 13.007444167996301 ], [ 77.646350448373795, 13.00751468038 ], [ 77.646378419671393, 13.007546013989399 ], [ 77.646485002705504, 13.0077143139093 ], [ 77.646548237743104, 13.007813042622701 ], [ 77.646624583250102, 13.0078992158207 ], [ 77.646704443208094, 13.0079909993685 ], [ 77.647495199017698, 13.0076928941826 ], [ 77.647849752889101, 13.007559231324599 ], [ 77.647981287217206, 13.007528528284499 ], [ 77.647981994441295, 13.007595146640201 ], [ 77.6483969153565, 13.007581465927601 ], [ 77.648568536323594, 13.0075756078128 ], [ 77.648615147801294, 13.0075728734178 ], [ 77.648857956862997, 13.0075557140061 ], [ 77.648969015920699, 13.007548933728501 ], [ 77.649071378812906, 13.0075365959772 ], [ 77.649303704368407, 13.0075082507547 ], [ 77.6495090057618, 13.0074835690816 ], [ 77.649573441307496, 13.007478393981501 ], [ 77.649678155054005, 13.0074705489724 ], [ 77.649736773154999, 13.0074597870247 ], [ 77.649953961082304, 13.0073615826485 ], [ 77.650042625787606, 13.0073064731399 ], [ 77.6502268280165, 13.007192796103899 ], [ 77.650384114041998, 13.007092944899201 ], [ 77.650461335638994, 13.007044727659199 ], [ 77.650634334523602, 13.006960525229401 ], [ 77.650740990950297, 13.006918782642099 ], [ 77.650844768615201, 13.006877069432999 ], [ 77.650864271906102, 13.0068700946763 ], [ 77.6509698847496, 13.0068385258735 ], [ 77.651088355917295, 13.0068248935452 ], [ 77.6511056042212, 13.006822458794099 ], [ 77.651188343269297, 13.0068058038377 ], [ 77.651264185382402, 13.006790348586 ], [ 77.651323918671906, 13.0067761871898 ], [ 77.651388809637794, 13.006759714580101 ], [ 77.651465695183106, 13.0067340854121 ], [ 77.651568297107502, 13.006690125476499 ], [ 77.651473697854996, 13.0065014841069 ], [ 77.651261806677297, 13.006078948923101 ], [ 77.651831430328897, 13.0059850461769 ], [ 77.652876434320603, 13.0058151394751 ], [ 77.653174910668298, 13.0060514867995 ], [ 77.6533508733242, 13.006191971828001 ], [ 77.6534646793787, 13.0062811472778 ], [ 77.653525096936093, 13.0063313452439 ], [ 77.6536728253527, 13.0064517427131 ], [ 77.653855600628802, 13.006601241230999 ], [ 77.654085612598607, 13.0067886008668 ], [ 77.654217903938303, 13.0069374365888 ], [ 77.654621172189394, 13.007389523942701 ], [ 77.654973163516402, 13.007784543899399 ], [ 77.655013358580106, 13.007828172916399 ], [ 77.655587126313605, 13.008447899151699 ], [ 77.655852651898201, 13.008720679202799 ], [ 77.656079065937902, 13.008953278995101 ], [ 77.656101184786195, 13.0089756373042 ], [ 77.656202950485394, 13.0090694513764 ], [ 77.657495698809697, 13.009993478231101 ], [ 77.657592384772101, 13.0100629412253 ], [ 77.658131076941601, 13.0104499550635 ], [ 77.658454176255603, 13.010672491082399 ], [ 77.6589053091474, 13.010914040271899 ], [ 77.659360426120003, 13.011140607394999 ], [ 77.6595142968132, 13.011217207081501 ], [ 77.660024468714496, 13.011433305281001 ], [ 77.660858996084997, 13.011719474868499 ], [ 77.661684864536795, 13.0120034718085 ], [ 77.661797642123801, 13.0120497421438 ], [ 77.662297616062105, 13.012389026448201 ], [ 77.6623398608141, 13.0117076641253 ], [ 77.662450982626098, 13.0104124202014 ], [ 77.6624596128147, 13.010343339874 ], [ 77.662474853910794, 13.0102213344568 ], [ 77.662504491809003, 13.009977115479201 ], [ 77.662521439751202, 13.0095150844425 ], [ 77.662532027034899, 13.009212340814701 ], [ 77.662562245582194, 13.008375267565199 ], [ 77.662568941088594, 13.008193392016899 ], [ 77.662602563843294, 13.007998818494 ], [ 77.662664892798404, 13.007634565089701 ], [ 77.662725171837707, 13.0072940466688 ], [ 77.662956011190602, 13.0059941864713 ], [ 77.663036673229797, 13.0055134337723 ], [ 77.663127647328196, 13.004973855042801 ], [ 77.663188833408498, 13.004556539426099 ], [ 77.663246268329999, 13.003733867083 ], [ 77.663304291195999, 13.0029123179562 ], [ 77.663297277298099, 13.002255175344301 ], [ 77.663322582302001, 13.001912123344299 ], [ 77.663592042652496, 12.9982591764372 ], [ 77.663866542351997, 12.9978136996976 ], [ 77.664070305814903, 12.9974841306665 ], [ 77.663844942605294, 12.9973543228705 ], [ 77.6632551458557, 12.997021760974601 ], [ 77.662790684155198, 12.9967598686271 ], [ 77.662793847687794, 12.996754770880401 ], [ 77.662833703816403, 12.996690544012401 ], [ 77.663205771593496, 12.9961616330902 ], [ 77.663535830072504, 12.995527004789601 ], [ 77.663540351445604, 12.995519053760701 ], [ 77.664135421805099, 12.994521480438101 ], [ 77.664160331338195, 12.9944817016464 ], [ 77.664164289015503, 12.994474885631501 ], [ 77.664997081311299, 12.9931473942667 ], [ 77.665531872427195, 12.9923830603844 ], [ 77.666259722490196, 12.9915817377802 ], [ 77.666906997227898, 12.991053386368399 ], [ 77.667871572060903, 12.990476605483799 ], [ 77.668363716857897, 12.990194888111301 ], [ 77.668212609089693, 12.9900089880528 ], [ 77.6682547161153, 12.9899622570028 ], [ 77.668163616902604, 12.989842365069901 ], [ 77.668055684290593, 12.9898175014575 ], [ 77.667961703610104, 12.9897840376166 ], [ 77.667889232508102, 12.989758232691999 ], [ 77.667885190574495, 12.9897571449764 ], [ 77.667628812383299, 12.9895260271811 ], [ 77.667609527841805, 12.9894506507064 ], [ 77.667410107796798, 12.9886711859847 ], [ 77.667366090011598, 12.9879997447725 ], [ 77.667379616946803, 12.987916218845999 ], [ 77.667492483427395, 12.987219276681 ], [ 77.667526007480703, 12.985937253815701 ], [ 77.667816666430895, 12.9858744201089 ], [ 77.667950614731694, 12.9855320166008 ], [ 77.667973208172, 12.985491132247599 ], [ 77.668195215240502, 12.9856311356654 ], [ 77.668264180132098, 12.9856733382257 ], [ 77.668353954173497, 12.9857232316715 ], [ 77.668712197592598, 12.985896841514499 ], [ 77.668884044977801, 12.985976380937499 ], [ 77.669479770393195, 12.986121577620199 ], [ 77.669795645044104, 12.986155596473001 ], [ 77.670451671118897, 12.986070937409799 ], [ 77.670814961844599, 12.9860163877257 ], [ 77.671282950980597, 12.985899782731099 ], [ 77.671353385312202, 12.9860255322063 ], [ 77.671712231390302, 12.985878430245799 ], [ 77.672138942898101, 12.985993740130199 ], [ 77.6729328901597, 12.9863695106345 ], [ 77.673367211089499, 12.9863887556123 ], [ 77.674538094431796, 12.9863733078551 ], [ 77.674924392102199, 12.9863682106279 ], [ 77.675330263143096, 12.986096404944799 ], [ 77.675790211203903, 12.985820654177299 ], [ 77.676456690297698, 12.9854761510489 ], [ 77.676461838073806, 12.985472724799701 ], [ 77.676925459530594, 12.9851641726413 ], [ 77.6773673640824, 12.984870538005501 ], [ 77.677496911346694, 12.984817258769001 ], [ 77.677608709250606, 12.9847731961805 ], [ 77.677660193790999, 12.984742176571199 ], [ 77.677719157070598, 12.984656877133199 ], [ 77.677809538807495, 12.9846559456874 ], [ 77.677872130607895, 12.984640620708101 ], [ 77.678026704990501, 12.9845588527239 ], [ 77.678241901909004, 12.984439195436799 ], [ 77.678356754172, 12.9843578367249 ], [ 77.678472097317695, 12.9842685683521 ], [ 77.678590992867996, 12.9840810209013 ], [ 77.678814616946795, 12.9840493557887 ], [ 77.678954313014302, 12.9840298480174 ], [ 77.679067873556406, 12.983989154405499 ], [ 77.679144530760595, 12.9839442818944 ], [ 77.679704104176906, 12.983616725916701 ], [ 77.679713436074493, 12.9836279219057 ], [ 77.679799363787595, 12.9835875129881 ], [ 77.679841758009701, 12.983567879006101 ], [ 77.680013977608596, 12.9834136578854 ], [ 77.680240075816698, 12.983075947027499 ], [ 77.680247438500601, 12.983064578869 ], [ 77.680438722751504, 12.9827554575549 ], [ 77.680416376751197, 12.9824970962488 ], [ 77.680381722764594, 12.982325811956599 ], [ 77.680380522981906, 12.9823213074437 ], [ 77.680297264843404, 12.982073737331699 ], [ 77.680294877393607, 12.9820658574011 ], [ 77.680214718616895, 12.981842969867699 ], [ 77.680185084625705, 12.98175984133 ], [ 77.680143208147896, 12.981559271658901 ], [ 77.680139045267396, 12.9815468931456 ], [ 77.680061665543306, 12.981310554456 ], [ 77.679972997192095, 12.9810415846701 ], [ 77.679962871828394, 12.9810100708536 ], [ 77.679898133057094, 12.9807713432564 ], [ 77.6798226329459, 12.980495462231801 ], [ 77.679751295885794, 12.9802319596764 ], [ 77.679750981177307, 12.9802026031353 ], [ 77.679751238264004, 12.9800117618759 ], [ 77.6796533096649, 12.979469615400999 ], [ 77.679505418159707, 12.979046552219801 ], [ 77.679487370991893, 12.978937692366699 ], [ 77.679419314923706, 12.978527178783001 ], [ 77.679371234451494, 12.978237153304001 ], [ 77.679337997072096, 12.977976145936401 ], [ 77.679337916978, 12.9779755169696 ], [ 77.679333694097195, 12.9775814616518 ], [ 77.679314236678294, 12.9768939653234 ], [ 77.679344968333893, 12.9766994222301 ], [ 77.679353849471198, 12.976648811970399 ], [ 77.679377523743895, 12.976513894129001 ], [ 77.679298913195794, 12.9761623866398 ], [ 77.679061290184094, 12.9756928199348 ], [ 77.679003180639896, 12.975529855642399 ], [ 77.678916462870504, 12.975286662504301 ], [ 77.678720469204706, 12.974670874449499 ], [ 77.678695431622501, 12.974592208676301 ], [ 77.6785385969484, 12.9741398762923 ], [ 77.678442366087907, 12.973863078425 ], [ 77.678370462808203, 12.973653783356401 ], [ 77.678360265573303, 12.973615494766101 ], [ 77.6782398334947, 12.973169795436 ], [ 77.678116241843995, 12.9727089824357 ], [ 77.677192799934204, 12.9728709360051 ], [ 77.676717186241206, 12.972971816083801 ], [ 77.676248697309603, 12.9730929481037 ], [ 77.6757740298019, 12.9731971340761 ], [ 77.675769676871894, 12.9731983785559 ], [ 77.675396886298699, 12.9732778723195 ], [ 77.675366436931498, 12.9732839952008 ], [ 77.675142390497598, 12.973329047245301 ], [ 77.674862026283094, 12.9733838757101 ], [ 77.674490651830396, 12.9734881967091 ], [ 77.674483351267696, 12.9734903947415 ], [ 77.674206611931595, 12.9735737095647 ], [ 77.673956945716398, 12.973648389451199 ], [ 77.673620661172706, 12.973750090056701 ], [ 77.673456094939198, 12.973805962391401 ], [ 77.6732736077537, 12.9738677101814 ], [ 77.6729545079628, 12.9739803982675 ], [ 77.672701776977803, 12.974070074034399 ], [ 77.672685706822406, 12.974074756124301 ], [ 77.672524526092801, 12.974130615731299 ], [ 77.672345463670695, 12.9741832713362 ], [ 77.671848068657795, 12.9743476039943 ], [ 77.671652010609094, 12.9744173397326 ], [ 77.671617510138404, 12.974430148256999 ], [ 77.671122835427497, 12.974579771757901 ], [ 77.670749753790204, 12.9746863640017 ], [ 77.670522000379705, 12.9747621032165 ], [ 77.670294701892999, 12.974826545276599 ], [ 77.670213464412697, 12.974874807240599 ], [ 77.670192897346496, 12.974889698451999 ], [ 77.6701008910387, 12.9749538802096 ], [ 77.669818593904495, 12.9750437297673 ], [ 77.669442897530701, 12.9751751902969 ], [ 77.669259936262307, 12.9752403055996 ], [ 77.669213500452599, 12.975258850010899 ], [ 77.669026066296595, 12.975336432638199 ], [ 77.668846570777504, 12.975402641345401 ], [ 77.668742041146501, 12.975426298910101 ], [ 77.668525437936196, 12.9754680451888 ], [ 77.668134782099898, 12.975546583667301 ], [ 77.668033265549099, 12.975551691538 ], [ 77.667928203233302, 12.9755566080999 ], [ 77.667633680266704, 12.9755799562506 ], [ 77.667314090495097, 12.975574201168801 ], [ 77.666984962545001, 12.975483851016699 ], [ 77.666886810692503, 12.975457756175 ], [ 77.666646708417801, 12.975401498637099 ], [ 77.666598027573102, 12.975371508592 ], [ 77.666560992452602, 12.975353820673501 ], [ 77.666515861925404, 12.9753328280696 ], [ 77.666516613522205, 12.9753256510815 ], [ 77.666610964789797, 12.9744250779575 ], [ 77.666902391708405, 12.974381436749001 ], [ 77.666913625714699, 12.9743011459428 ], [ 77.666847193463695, 12.9737500755657 ], [ 77.6668049923165, 12.9734000023308 ], [ 77.666791761977706, 12.973347064021899 ], [ 77.666845741490604, 12.973334088880801 ], [ 77.6668420565654, 12.973258468009501 ], [ 77.666815417536696, 12.9731898579366 ], [ 77.666796324489994, 12.9731810198658 ], [ 77.666731959070404, 12.9731918430283 ], [ 77.666660917791006, 12.9730085064003 ], [ 77.666698261333707, 12.972966513454301 ], [ 77.666846379258402, 12.972799954770901 ], [ 77.666964765435793, 12.9726180633168 ], [ 77.666885491071397, 12.9725804823322 ], [ 77.666709072956706, 12.972503245045001 ], [ 77.6665726400837, 12.9724504407779 ], [ 77.666568116959496, 12.972404188560599 ], [ 77.666558194139199, 12.972283462260901 ], [ 77.666550383489195, 12.972198849791701 ], [ 77.666546375855305, 12.972146946115901 ], [ 77.666528032797103, 12.9719924291204 ], [ 77.666522454686898, 12.971955221587599 ], [ 77.666512295405497, 12.971920319493099 ], [ 77.666487612333896, 12.9718731447326 ], [ 77.6664560093689, 12.9718249116811 ], [ 77.6663152664363, 12.971637772506799 ], [ 77.666166163050704, 12.971456478919601 ], [ 77.666157781596596, 12.9714462879033 ], [ 77.666141699361305, 12.9714498404691 ], [ 77.665716988157996, 12.9715196895337 ], [ 77.665531077406001, 12.9715780567259 ], [ 77.665406237863905, 12.9717487214252 ], [ 77.665335291469503, 12.971844304263399 ], [ 77.664917902792794, 12.9717909904736 ], [ 77.664794016393898, 12.971780967518001 ], [ 77.664505935613406, 12.9717602051509 ], [ 77.664234151998301, 12.9717020107175 ], [ 77.663902931549501, 12.971630873940899 ], [ 77.663057361427406, 12.971537902153701 ], [ 77.662630237404599, 12.9715976079156 ], [ 77.661983994069402, 12.971787159742499 ], [ 77.661566333885702, 12.971978887880599 ], [ 77.661573740265993, 12.971701019481401 ], [ 77.661518187800894, 12.9716202828309 ], [ 77.661023889183198, 12.9715892051307 ], [ 77.660802752541898, 12.9715835629416 ], [ 77.660156612191599, 12.971566458594801 ], [ 77.659596065193398, 12.9715857422692 ], [ 77.659288147448194, 12.9715403335522 ], [ 77.659041969220794, 12.971507844123 ], [ 77.658637232913406, 12.971453261271501 ], [ 77.658734709680999, 12.971253518470499 ], [ 77.658361286409701, 12.971057459884101 ], [ 77.658103739202105, 12.970984432973101 ], [ 77.657885019359099, 12.970855116978401 ], [ 77.657752647367303, 12.970776852704899 ], [ 77.657702445090607, 12.970711869679199 ], [ 77.657688724911395, 12.9705584330265 ], [ 77.657657662996698, 12.9703441945181 ], [ 77.657629119699394, 12.9701502566085 ], [ 77.657526376487994, 12.969529094179199 ], [ 77.657446624238901, 12.9691211234279 ], [ 77.657375255235294, 12.9689061673221 ], [ 77.657273809037804, 12.968244338574699 ], [ 77.657951734615494, 12.968165141439 ], [ 77.658336663997105, 12.9676564374347 ], [ 77.658492040824299, 12.9674335184444 ], [ 77.658461266921506, 12.9671921753172 ], [ 77.658988944504003, 12.967114511311101 ], [ 77.659584991642205, 12.967023725736301 ], [ 77.659704199150397, 12.9670812275725 ], [ 77.659929864666907, 12.9670258461771 ], [ 77.660535678882297, 12.966933790574201 ], [ 77.661547298288895, 12.9667800690465 ], [ 77.661645422379095, 12.9668039084592 ], [ 77.6619648261604, 12.9663060342591 ], [ 77.6617868661057, 12.9661915434077 ], [ 77.661786230412602, 12.966185903719101 ], [ 77.661771021024506, 12.9660008642135 ], [ 77.661706306296296, 12.965816331143801 ], [ 77.661683639241005, 12.9657420332824 ], [ 77.661652469640799, 12.965680244018699 ], [ 77.661652037919296, 12.965676979966901 ], [ 77.661646208845895, 12.965632880044 ], [ 77.661630366256304, 12.965604811142001 ], [ 77.661558781565901, 12.965532142896601 ], [ 77.661507896789701, 12.9655112078665 ], [ 77.661393247674795, 12.9655033466746 ], [ 77.661274664429698, 12.965450356113299 ], [ 77.661140491475194, 12.965447211449099 ], [ 77.661068584058199, 12.9654524638302 ], [ 77.661000031407397, 12.965177630575999 ], [ 77.660719837304896, 12.9651940467822 ], [ 77.660545811024804, 12.9649620736842 ], [ 77.660534213660597, 12.9649000840902 ], [ 77.660795662828704, 12.964853370362601 ], [ 77.660935816028498, 12.9644984852709 ], [ 77.661059804686602, 12.964301858955199 ], [ 77.661087014127503, 12.9641536503723 ], [ 77.661088039076404, 12.9641537988877 ], [ 77.661341867423701, 12.9641905673869 ], [ 77.661608341618205, 12.9642375284223 ], [ 77.661619371352501, 12.9642397978471 ], [ 77.661780854371301, 12.9642730287023 ], [ 77.661791203892506, 12.964271793597 ], [ 77.661790975743997, 12.9642503403983 ], [ 77.661747169541101, 12.9635422066202 ], [ 77.6617075507463, 12.9629017535391 ], [ 77.661680386437993, 12.962783461301701 ], [ 77.661538944719396, 12.9625296998935 ], [ 77.661446682771, 12.962136539031 ], [ 77.661351259274596, 12.9621499364697 ], [ 77.660971802960404, 12.9622079007232 ], [ 77.660947199323004, 12.9622116592476 ], [ 77.660914986346697, 12.962051636605599 ], [ 77.660884314342695, 12.9619169943395 ], [ 77.660850356978301, 12.961766599786399 ], [ 77.660820446715604, 12.961606553564399 ], [ 77.659998620086398, 12.9616860963232 ], [ 77.659967559769001, 12.9616886722497 ], [ 77.659864663607294, 12.9613238499839 ], [ 77.659773412627203, 12.9610255337992 ], [ 77.660163811663793, 12.960870225834499 ], [ 77.659899941804596, 12.960255228073001 ], [ 77.659853303604095, 12.960254575421301 ], [ 77.659836574285507, 12.9602513586523 ], [ 77.6598198976627, 12.9602387957496 ], [ 77.659795079573996, 12.960220098892901 ], [ 77.659790727499697, 12.9602168206874 ], [ 77.659807612623595, 12.9601805124511 ], [ 77.659764607588997, 12.959925743537999 ], [ 77.659754222131397, 12.959869387631199 ], [ 77.659747338445598, 12.9598175129039 ], [ 77.659728930058606, 12.9597104231466 ], [ 77.659669495557793, 12.9592096475901 ], [ 77.659666017690299, 12.959099017539399 ], [ 77.659664470653297, 12.9590617684037 ], [ 77.659775159428705, 12.9590764468235 ], [ 77.660386849899297, 12.9591594060653 ], [ 77.660478136890802, 12.9591767216136 ], [ 77.660850064116204, 12.9592472692536 ], [ 77.660888703278502, 12.959253649724699 ], [ 77.661144198697698, 12.9592431332469 ], [ 77.661439964078298, 12.9592299463215 ], [ 77.661488292916204, 12.9592271937193 ], [ 77.662152784135301, 12.9591865217586 ], [ 77.662199901860504, 12.959178155094399 ], [ 77.6630773250602, 12.959022359417499 ], [ 77.663476869018197, 12.958915511058899 ], [ 77.663581968611496, 12.9588918509397 ], [ 77.663502970956898, 12.958588757937999 ], [ 77.663380307314199, 12.958118128031201 ], [ 77.663373699224493, 12.9580922231707 ], [ 77.663189945534, 12.957432369666 ], [ 77.663119907909802, 12.957180136813101 ], [ 77.663040635809395, 12.9568715364663 ], [ 77.663029230728796, 12.9568276128402 ], [ 77.663048092853003, 12.9567065914407 ], [ 77.663369792711507, 12.955721993111601 ], [ 77.6623821117131, 12.9556857954046 ], [ 77.662354505933493, 12.955688336153299 ], [ 77.662179481281598, 12.955686738010501 ], [ 77.661909766812201, 12.9556590060737 ], [ 77.661895388678502, 12.955714485778699 ], [ 77.661812043658898, 12.955726630216301 ], [ 77.661211228697795, 12.9557021529836 ], [ 77.660970029824696, 12.9556923256266 ], [ 77.660913331053493, 12.9556658033086 ], [ 77.660910932604097, 12.9556567939005 ], [ 77.660891193387201, 12.9555869827508 ], [ 77.660856463904594, 12.955460862789 ], [ 77.660847385775099, 12.9554191736816 ], [ 77.661674624275605, 12.955417494223299 ], [ 77.661817713709297, 12.955393446710101 ], [ 77.661776206393, 12.954954596983001 ], [ 77.662386626053106, 12.954918996188599 ], [ 77.662400163956207, 12.9547844783648 ], [ 77.662395893257397, 12.9545993268835 ], [ 77.662394610007496, 12.9545869183781 ], [ 77.662367864984205, 12.954237127817001 ], [ 77.661998822667499, 12.954288328691 ], [ 77.660991803537399, 12.9543279813709 ], [ 77.661012033500896, 12.9540646617513 ], [ 77.661011170015101, 12.954037568817499 ], [ 77.661001108204601, 12.9537948850543 ], [ 77.660997594228206, 12.9536266642122 ], [ 77.660989930693802, 12.953230379296301 ], [ 77.660983214715202, 12.9528690911244 ], [ 77.660074390717497, 12.952885151063599 ], [ 77.660015102356198, 12.952885756640301 ], [ 77.659777445192901, 12.9528949594027 ], [ 77.659478221087895, 12.9529070491576 ], [ 77.6592066144499, 12.9529177273337 ], [ 77.659026494683204, 12.9529240834213 ], [ 77.658728997181001, 12.952936154696401 ], [ 77.658413883629095, 12.952915657437099 ], [ 77.658405237407493, 12.952914616454001 ], [ 77.658021625513101, 12.952894817916601 ], [ 77.657328097772506, 12.952859920039799 ], [ 77.656496220677894, 12.952799726271101 ], [ 77.656167830812606, 12.952775963973099 ], [ 77.655859600511903, 12.9527531348454 ], [ 77.655525455464499, 12.952729440340301 ], [ 77.655433848593702, 12.9527224696904 ], [ 77.655276573515096, 12.9527116515653 ], [ 77.655266776058696, 12.952710622211599 ], [ 77.654311660978195, 12.952650345199 ], [ 77.653834511513097, 12.9526043917416 ], [ 77.653692754135704, 12.9525911560126 ], [ 77.653338486255194, 12.952569922146701 ], [ 77.652896676618994, 12.952545062545701 ], [ 77.652563247377401, 12.9525252224712 ], [ 77.652523976927995, 12.952522886048699 ], [ 77.6525209314714, 12.952507107608 ], [ 77.652462608210996, 12.9523270220835 ], [ 77.652365015286605, 12.9520265070056 ], [ 77.652339343773093, 12.951942205892699 ], [ 77.652321477181403, 12.951883535992501 ], [ 77.652297962441594, 12.95183747632 ], [ 77.652239827063994, 12.9517838644663 ], [ 77.652141398576802, 12.9517306628968 ], [ 77.651965825609906, 12.951677117541999 ], [ 77.651974220821799, 12.951654447109901 ], [ 77.651758079937593, 12.951575341964499 ], [ 77.651517741440102, 12.951440020557101 ], [ 77.651343106992101, 12.9513119347907 ], [ 77.650882593980896, 12.9509338069323 ], [ 77.650542118331202, 12.9506380209504 ], [ 77.650380258234506, 12.950465763637901 ], [ 77.649543757279503, 12.949481663372699 ], [ 77.649375283030395, 12.9492281664429 ], [ 77.649255047773096, 12.949072423510801 ], [ 77.649184687925796, 12.948896976043899 ], [ 77.649079310301403, 12.948512973356699 ], [ 77.649052792636198, 12.9483461139809 ], [ 77.649039206469993, 12.948095558587699 ], [ 77.649050980229504, 12.947902337084001 ], [ 77.649063911667, 12.947818641079699 ], [ 77.649089062162105, 12.9477472425824 ], [ 77.649191060435797, 12.947593756658 ], [ 77.649282492046396, 12.9474753849163 ], [ 77.649317281860505, 12.9474445413944 ], [ 77.649324669275899, 12.9474354322726 ], [ 77.649374389068996, 12.947401049173701 ], [ 77.649301506086701, 12.9470957635516 ], [ 77.649201677269204, 12.946800915107501 ], [ 77.649146534782204, 12.9466490270093 ], [ 77.6490715795846, 12.9463110140283 ], [ 77.6490252588777, 12.946013362879 ], [ 77.648802589606703, 12.946133068650701 ], [ 77.648292878016704, 12.9466001134777 ], [ 77.648195102502996, 12.946717420133 ], [ 77.648110974452806, 12.946818778543101 ], [ 77.647777283041805, 12.947164333043 ], [ 77.647773289572399, 12.9471677613815 ], [ 77.647684714472504, 12.9472296411058 ], [ 77.647475631349195, 12.9473277521968 ], [ 77.647138410725304, 12.947502824990201 ], [ 77.646762071974706, 12.947680553346499 ], [ 77.646532620461002, 12.947866952417 ], [ 77.646386861958604, 12.948019752881599 ], [ 77.646208036413398, 12.948257583114399 ], [ 77.646163782549394, 12.9483190122581 ], [ 77.645732612004096, 12.9489196369952 ], [ 77.645657199874904, 12.949028811164 ], [ 77.645402647298894, 12.949400662036799 ], [ 77.645248583308003, 12.9496393697284 ], [ 77.645041087059596, 12.9499971915511 ], [ 77.644916193012506, 12.9503270724903 ], [ 77.644498587063595, 12.9517225531702 ], [ 77.6443602346137, 12.952631877935501 ], [ 77.644279882565399, 12.9532549126302 ], [ 77.644261038388905, 12.953323988449799 ], [ 77.644253662547797, 12.953334226626099 ], [ 77.644228478128895, 12.9533480333856 ], [ 77.644141833069398, 12.9533748859706 ], [ 77.643802580793206, 12.9534675413569 ], [ 77.643031070398607, 12.9537317134692 ], [ 77.642525572525301, 12.953945755629499 ], [ 77.642513591583494, 12.953956040502501 ], [ 77.6420730591107, 12.953943571581 ], [ 77.641666667773194, 12.9536202102001 ], [ 77.640772639739296, 12.9532938884198 ], [ 77.640537053497098, 12.9528445744732 ], [ 77.640241532001994, 12.952389092208801 ], [ 77.639739158095907, 12.9515336914209 ], [ 77.639739158361607, 12.951533691182799 ], [ 77.639759642809494, 12.951510898419199 ], [ 77.639797780252707, 12.9514698586168 ], [ 77.6397819300892, 12.9514406585632 ], [ 77.639885015715393, 12.9512803884459 ], [ 77.640005031237493, 12.951142531862599 ], [ 77.640159874836996, 12.9509772200469 ], [ 77.6402939007437, 12.9508030851387 ], [ 77.640531228543594, 12.9505985423172 ], [ 77.6405334953227, 12.9505951315668 ], [ 77.640614932745606, 12.9504565366385 ], [ 77.640775742409502, 12.950365695071801 ], [ 77.640821268277605, 12.9503155462188 ], [ 77.641001301808203, 12.950191761201101 ], [ 77.641128451584294, 12.9500752878391 ], [ 77.641337155113106, 12.949995252953901 ], [ 77.6415662983744, 12.949833704199101 ], [ 77.641643844255796, 12.9497629039258 ], [ 77.641652396103098, 12.949754912407601 ], [ 77.641915025017099, 12.949547853601899 ], [ 77.641965274471801, 12.9495089492679 ], [ 77.642065713808094, 12.949425494904 ], [ 77.6421649304136, 12.949335277380101 ], [ 77.642236877817695, 12.949225009819401 ], [ 77.642279418876797, 12.949164727771899 ], [ 77.642294935747699, 12.949162311871399 ], [ 77.643022315705693, 12.948426563399 ], [ 77.6450694163604, 12.9466814166168 ], [ 77.646911445756402, 12.9452534032346 ], [ 77.647147056348103, 12.945105336288201 ], [ 77.647455299921205, 12.9449666945102 ], [ 77.647514854848893, 12.9448825248072 ], [ 77.647574029976496, 12.9447622229037 ], [ 77.647541528382007, 12.944628172175401 ], [ 77.647535945732102, 12.9445356302568 ], [ 77.647551909852396, 12.9444665837102 ], [ 77.647328935225104, 12.9442847809608 ], [ 77.647821150562095, 12.9437964604864 ], [ 77.649156743585294, 12.9429303027656 ], [ 77.649349032712493, 12.942877531822001 ], [ 77.649820568111096, 12.942611881199801 ], [ 77.649926551300496, 12.9425633751253 ], [ 77.650080888182003, 12.9424601733628 ], [ 77.650147720637804, 12.942410936055399 ], [ 77.650184451353994, 12.9424003993142 ], [ 77.650228520671007, 12.942376236949301 ], [ 77.650386851574297, 12.9422696066857 ], [ 77.650516267695096, 12.942205052630699 ], [ 77.650653463965099, 12.94216865063 ], [ 77.650731362898199, 12.942131722400299 ], [ 77.650923628672501, 12.942022488246099 ], [ 77.650949998579904, 12.9420120567931 ], [ 77.651105149905007, 12.9419314312527 ], [ 77.651332022591603, 12.941828620334601 ], [ 77.651657061302103, 12.941645763167701 ], [ 77.651728243814901, 12.941626970999501 ], [ 77.651784651949001, 12.941626397104001 ], [ 77.651849082560503, 12.9416223538281 ], [ 77.651898213381301, 12.941586847253101 ], [ 77.652023562746905, 12.9415189462129 ], [ 77.652115935548494, 12.9414897751067 ], [ 77.652246551054304, 12.9413755212257 ], [ 77.652307734291796, 12.9413365042065 ], [ 77.652560697607598, 12.9412514948704 ], [ 77.6526232708283, 12.941235048599699 ], [ 77.652658285455601, 12.941225658271 ], [ 77.652704730143796, 12.9412082468774 ], [ 77.652743078862898, 12.9411875301302 ], [ 77.652755586595504, 12.941172722614199 ], [ 77.652937058568, 12.941077148082501 ], [ 77.653072552931803, 12.9409888169235 ], [ 77.653278115804198, 12.9408850922583 ], [ 77.653342080181304, 12.940837012758699 ], [ 77.653576638523404, 12.940699115332301 ], [ 77.653724687856197, 12.9406004928756 ], [ 77.653792813553494, 12.9405647926424 ], [ 77.653841522677993, 12.9405439702872 ], [ 77.653878781588503, 12.940528910736701 ], [ 77.6539068053184, 12.9405116867157 ], [ 77.653945215397897, 12.940496615436601 ], [ 77.654002642905397, 12.9404836090154 ], [ 77.6540330645783, 12.940475394540799 ], [ 77.654051411740994, 12.9404684322518 ], [ 77.654227749160995, 12.940377426264 ], [ 77.654274097929601, 12.940350981643199 ], [ 77.654399651880894, 12.9402480709643 ], [ 77.655879757635105, 12.940095226751801 ], [ 77.656000559307003, 12.9400872204412 ], [ 77.656447490359994, 12.940108638830599 ], [ 77.656775022619399, 12.940107559266201 ], [ 77.657139537780694, 12.9401196532332 ], [ 77.657280543757196, 12.9401170865978 ], [ 77.657427822269099, 12.9401088097209 ], [ 77.657514545387102, 12.9400898576936 ], [ 77.657584455888198, 12.940059784612201 ], [ 77.657717166653399, 12.9399263100631 ], [ 77.657778216840597, 12.939874871651099 ], [ 77.657801695295504, 12.939863339832399 ], [ 77.657881547144299, 12.939847845492199 ], [ 77.657920663075004, 12.939845188168 ], [ 77.658011256569694, 12.9398657200516 ], [ 77.658055996716001, 12.9398505836817 ], [ 77.658073577519204, 12.9398255610592 ], [ 77.658077859080805, 12.939795027831501 ], [ 77.658096631964895, 12.9394481587154 ], [ 77.658103751441502, 12.9390878575049 ], [ 77.658108470835202, 12.9387727504956 ], [ 77.658113764959097, 12.938457637622401 ], [ 77.658126219270699, 12.938166165851801 ], [ 77.658138899135807, 12.937896147405199 ], [ 77.658168829381594, 12.937895842241399 ], [ 77.658594843497099, 12.937899403002399 ], [ 77.658882167252102, 12.9379066360372 ], [ 77.658887947004501, 12.937908835577099 ], [ 77.658908163247702, 12.937915404854101 ], [ 77.6589175161849, 12.937928860378401 ], [ 77.658921149218301, 12.937945761966599 ], [ 77.658921508309504, 12.937979635585901 ], [ 77.658909906708701, 12.938297071111499 ], [ 77.658930064977, 12.938297994758599 ], [ 77.659056164435398, 12.9383012255966 ], [ 77.659664771057905, 12.938315343703801 ], [ 77.660058600739902, 12.938323747238201 ], [ 77.660290595164696, 12.938324767713601 ], [ 77.6603624599515, 12.938316129679601 ], [ 77.660408314849207, 12.938297593880201 ], [ 77.660434492177998, 12.9382690957089 ], [ 77.660455777405403, 12.938213545665199 ], [ 77.660456892637498, 12.938210146560101 ], [ 77.660564348694507, 12.938029500584999 ], [ 77.660543543945195, 12.938021808210999 ], [ 77.659336018339502, 12.937549683354799 ], [ 77.657162654196199, 12.9360530093496 ], [ 77.655020728552898, 12.9349681670263 ], [ 77.658031793109203, 12.9308835068107 ], [ 77.659124346940004, 12.929417906074599 ], [ 77.660543952325995, 12.929700422325199 ], [ 77.660747146624004, 12.929809015560499 ], [ 77.661084653306602, 12.929827028410701 ], [ 77.661329941920002, 12.9296709492522 ], [ 77.661816875991093, 12.928961334777799 ], [ 77.663024190493701, 12.928332448334601 ], [ 77.663285578432195, 12.928229277744901 ], [ 77.663265427829998, 12.927632115600099 ], [ 77.663099237385296, 12.927430548814399 ], [ 77.662471959905801, 12.926141711882799 ], [ 77.661601016131897, 12.9230429250202 ], [ 77.661327754808596, 12.922351227962301 ], [ 77.661160481176594, 12.9216121508186 ], [ 77.661556672389295, 12.9215200303322 ], [ 77.661593423348606, 12.9215117508933 ], [ 77.662037275479094, 12.921408980561701 ], [ 77.662407459615906, 12.921306960962101 ], [ 77.662694979043195, 12.9212261105005 ], [ 77.662789656972294, 12.9211980428956 ], [ 77.662216167342393, 12.918790704202101 ], [ 77.661995281391498, 12.918261083833301 ], [ 77.660354104711502, 12.916344548497101 ], [ 77.654663986570895, 12.9204496833754 ], [ 77.654419031817497, 12.9204736300691 ], [ 77.654381129475397, 12.920481920218499 ], [ 77.654185313415198, 12.920471489591501 ], [ 77.654138587921594, 12.9204618014533 ], [ 77.654088995722503, 12.920453271701 ], [ 77.654018143283693, 12.9204483458398 ], [ 77.653956020364305, 12.9204523651907 ], [ 77.653611797496595, 12.9204513476617 ], [ 77.653599270764801, 12.920627637739001 ], [ 77.653599565134598, 12.920710069872101 ], [ 77.653599923213903, 12.9209618885995 ], [ 77.652325311463798, 12.9211047067888 ], [ 77.651817172545194, 12.921170849058599 ], [ 77.651592852517894, 12.9211866788854 ], [ 77.651585945960605, 12.921186749045001 ], [ 77.651501303949402, 12.921184221106801 ], [ 77.6514882855096, 12.921532162347299 ], [ 77.651479891091796, 12.921936519111799 ], [ 77.651486821099596, 12.922320393694401 ], [ 77.651482293509403, 12.9224367524324 ], [ 77.651478724951403, 12.922752978662601 ], [ 77.651492846845599, 12.923000140922101 ], [ 77.651517907568305, 12.923192988045299 ], [ 77.651559636427805, 12.9233834073114 ], [ 77.651622832248606, 12.923698955167801 ], [ 77.651685909066899, 12.924003211686401 ], [ 77.651737707973894, 12.924220630535199 ], [ 77.651637128304401, 12.924235203520199 ], [ 77.651072337650803, 12.9243335401486 ], [ 77.650890724861796, 12.9243602285433 ], [ 77.650687601028906, 12.9243668088045 ], [ 77.650454430987295, 12.924362401564601 ], [ 77.650264724510706, 12.9243857839881 ], [ 77.649756928029305, 12.924594205715501 ], [ 77.649630782508197, 12.9246406566005 ], [ 77.649489949258097, 12.9246590252705 ], [ 77.649192733499106, 12.924694790994099 ], [ 77.648862233512801, 12.924685724170301 ], [ 77.6483437687764, 12.924646945481999 ], [ 77.648136988466106, 12.924634363620299 ], [ 77.6479060128177, 12.924619768590601 ], [ 77.647469946837901, 12.9245891860408 ], [ 77.646924815924606, 12.9245326069189 ], [ 77.646687412969996, 12.9245090419384 ], [ 77.646391267561796, 12.9244826846765 ], [ 77.646095276837698, 12.9244710058026 ], [ 77.645856421775406, 12.924473427614499 ], [ 77.645760903163904, 12.9244766545498 ], [ 77.645581293770306, 12.9244750876815 ], [ 77.645365999828499, 12.924473882422401 ], [ 77.645166114125502, 12.924460099 ], [ 77.644893388941199, 12.9244165637728 ], [ 77.644727045770196, 12.9243629161043 ], [ 77.644543281348703, 12.9242947645355 ], [ 77.644436398094399, 12.9242574529374 ], [ 77.644014707795094, 12.9241160516435 ], [ 77.6438651639738, 12.9240723964549 ], [ 77.643533617572501, 12.9239639587132 ], [ 77.643091386259499, 12.923839702655201 ], [ 77.642852979333398, 12.923775490905101 ], [ 77.642341634184604, 12.923647416303 ], [ 77.641835387144098, 12.923511384187901 ], [ 77.641548372599004, 12.923422819479301 ], [ 77.641374644122394, 12.923378278227601 ], [ 77.641242722054997, 12.9233683207678 ], [ 77.641087032232207, 12.9233969985494 ], [ 77.640861058588698, 12.9234749455669 ], [ 77.640325084686594, 12.923687022889499 ], [ 77.639924770025999, 12.923826583689401 ], [ 77.639885774533894, 12.9238405292606 ], [ 77.639290564529901, 12.9240577209807 ], [ 77.639277581891093, 12.924136900469501 ], [ 77.639265655421497, 12.9242070351983 ], [ 77.639297341296299, 12.9245929216147 ], [ 77.639316454714901, 12.924823097307501 ], [ 77.639213238991601, 12.925134687671999 ], [ 77.639195730163195, 12.925385560443299 ], [ 77.639115828321593, 12.92566981279 ], [ 77.639166003435193, 12.9258432113428 ], [ 77.639236732502695, 12.9258910541423 ], [ 77.639313015434595, 12.9259196433262 ], [ 77.639356431014093, 12.925942918638899 ], [ 77.639478196243203, 12.925972176973699 ], [ 77.639560655161901, 12.925986023228599 ], [ 77.6396403677781, 12.9260123190915 ], [ 77.639737852550795, 12.92603165958 ], [ 77.639871898453805, 12.9260246571805 ], [ 77.640145427071602, 12.9259801071747 ], [ 77.640380066655993, 12.925959664849699 ], [ 77.640550243164199, 12.925939874662101 ], [ 77.6410956460915, 12.9259671033762 ], [ 77.6413204784957, 12.9261635770323 ], [ 77.641333604169702, 12.9262074852297 ], [ 77.641400514435304, 12.926439435053 ], [ 77.641593432111407, 12.9271037441501 ], [ 77.641706700060496, 12.927583661125 ], [ 77.641823670017899, 12.9279777168996 ], [ 77.641869872982198, 12.928211005347899 ], [ 77.641845711048703, 12.928212379273299 ], [ 77.641875667978894, 12.928925766626 ], [ 77.641901009919906, 12.9292552531489 ], [ 77.641768767349006, 12.9293243477982 ], [ 77.641500617053794, 12.9293880430388 ], [ 77.641245107192205, 12.929449351531 ], [ 77.641003972299998, 12.9293998469717 ], [ 77.639936260693901, 12.9295721380812 ], [ 77.639579052056803, 12.9296863659163 ], [ 77.6395889911106, 12.9298287146256 ], [ 77.639515098814698, 12.930147546640599 ], [ 77.6394772358437, 12.9302198771266 ], [ 77.639465971125205, 12.9302502859738 ], [ 77.639474251406796, 12.930303215945299 ], [ 77.639490256364297, 12.9303560695593 ], [ 77.6395457949383, 12.9304956152227 ], [ 77.639523261802907, 12.9305564311541 ], [ 77.639469634600601, 12.930598628107701 ], [ 77.639050639443894, 12.9307884183841 ], [ 77.638812398552204, 12.930904430354101 ], [ 77.638521720884498, 12.931283315031999 ], [ 77.638093550171405, 12.9318443929211 ], [ 77.638005524002395, 12.93205164157 ], [ 77.637873095384094, 12.9323256711528 ], [ 77.637168729325197, 12.9332540434105 ], [ 77.635680075411003, 12.934947551590801 ], [ 77.635663572309198, 12.934965786586901 ], [ 77.635319269931401, 12.935343052180301 ], [ 77.635237885279096, 12.9354319571323 ], [ 77.635154798451296, 12.9355231377957 ], [ 77.635048374331802, 12.9356393980538 ], [ 77.634974223992998, 12.935704515335001 ], [ 77.634899497106204, 12.9357696384278 ], [ 77.634809224806006, 12.9358891231998 ], [ 77.634756417606894, 12.935958541825901 ], [ 77.634719515233201, 12.9360074730065 ], [ 77.634637892988195, 12.9360737949883 ], [ 77.634576815854601, 12.9361229704213 ], [ 77.634598550478401, 12.9361645335419 ], [ 77.634567076453905, 12.9362371243841 ], [ 77.634491881362806, 12.936312415503499 ], [ 77.634269310632305, 12.9364964755855 ], [ 77.633849292595897, 12.936845144082501 ], [ 77.633484352324899, 12.937176316839601 ], [ 77.633302446481096, 12.9373407681261 ], [ 77.633113945762901, 12.937589980733801 ], [ 77.632924404445802, 12.937904701100001 ], [ 77.632856358639501, 12.9380578389497 ], [ 77.632653861869997, 12.9385093310564 ], [ 77.632644652350606, 12.9385094240569 ], [ 77.632394243390195, 12.939003182714901 ], [ 77.632130878341698, 12.9395241744679 ], [ 77.632051930036496, 12.9396808101388 ], [ 77.631950984539898, 12.9398805799634 ], [ 77.631692560457196, 12.940488475096499 ], [ 77.631437867426996, 12.941068100882299 ], [ 77.631276918433201, 12.941419797934801 ], [ 77.631263423889806, 12.9414504243266 ], [ 77.631171912036507, 12.941671554877599 ], [ 77.630759844770907, 12.942669468113699 ], [ 77.630440316686006, 12.943379613681101 ], [ 77.630014752209107, 12.944298614287099 ], [ 77.630009138262096, 12.944312222138601 ], [ 77.629670004242598, 12.945074511587899 ], [ 77.629642919752996, 12.9451267311659 ], [ 77.629546445426001, 12.9453140336866 ], [ 77.629425127794505, 12.945547886817501 ], [ 77.629106326470904, 12.9461631662365 ], [ 77.628931160886196, 12.946422406487899 ], [ 77.628925487637105, 12.946430368597699 ], [ 77.6288302527947, 12.9465713585759 ], [ 77.6288285505549, 12.946573634284499 ], [ 77.628652786063896, 12.946830621954801 ], [ 77.628437604331296, 12.947171572999499 ], [ 77.6284138783911, 12.9472147245102 ], [ 77.628200860102396, 12.9475974365368 ], [ 77.628051140210999, 12.9478677125022 ], [ 77.627651107944303, 12.948587703267799 ], [ 77.627508265398106, 12.9488003170892 ], [ 77.627283101344801, 12.949067965989499 ], [ 77.627012837052305, 12.949316872034901 ], [ 77.626803227906507, 12.9494759540588 ], [ 77.626773544663095, 12.949499967543 ], [ 77.626773544064505, 12.949499967116299 ], [ 77.626619463263694, 12.949629128120099 ], [ 77.6264921999108, 12.949735433294 ], [ 77.626467649288898, 12.9497548783987 ], [ 77.626307236299297, 12.949884103118499 ], [ 77.626194221276904, 12.9499767133102 ], [ 77.626186797330305, 12.949982434501299 ], [ 77.625918580743203, 12.950152270290999 ], [ 77.625653261421704, 12.950269001007401 ], [ 77.625485687582994, 12.950319248674299 ], [ 77.625420843033893, 12.9503390998375 ], [ 77.624255969209401, 12.9505891141785 ], [ 77.624216897554405, 12.9505962834376 ], [ 77.624174959588203, 12.9506046108385 ], [ 77.623582749335696, 12.9507303170572 ], [ 77.623549426127298, 12.9507373903795 ], [ 77.623326263694395, 12.9508119113743 ], [ 77.623298199804594, 12.9508257452694 ], [ 77.623149821513294, 12.9508949958665 ], [ 77.623113734274298, 12.950912298360301 ], [ 77.622425247504296, 12.951244531725401 ], [ 77.622310674403295, 12.9512998198371 ], [ 77.622031619163806, 12.951424590566701 ], [ 77.621498729115601, 12.9516637139787 ], [ 77.621343230483703, 12.9513276264799 ], [ 77.621296116942105, 12.9512264660833 ], [ 77.621197187288701, 12.950959824011701 ], [ 77.621169928762399, 12.9508855663099 ], [ 77.621035859382403, 12.9505616848054 ], [ 77.621008813660495, 12.950504766947599 ], [ 77.620903414084793, 12.950282957748099 ], [ 77.620789263917601, 12.9500877111923 ], [ 77.620590983705497, 12.949748566984701 ], [ 77.620504070005097, 12.9496035238333 ], [ 77.620254669198303, 12.9491873175176 ], [ 77.620254669029194, 12.949187317772999 ], [ 77.620218344537193, 12.949126698738199 ], [ 77.620218048549404, 12.9491261460832 ], [ 77.620171336613595, 12.949039067412 ], [ 77.620047681015507, 12.9488080429829 ], [ 77.620046897513603, 12.9488065800585 ], [ 77.619623946199098, 12.9480187433591 ], [ 77.619443907253498, 12.947683381087399 ], [ 77.619333552732499, 12.947477820686199 ], [ 77.619326522046805, 12.947464905615099 ], [ 77.619318878986803, 12.9474508665221 ], [ 77.619318878628306, 12.9474508658666 ], [ 77.619291449743798, 12.9474703390483 ], [ 77.619244003545603, 12.947502435734799 ], [ 77.619019940875006, 12.947656011045099 ], [ 77.618890183120101, 12.9477442695843 ], [ 77.618776542705206, 12.9478323660678 ], [ 77.618648916227997, 12.9479352637963 ], [ 77.618513938699095, 12.948043921491999 ], [ 77.618388209907295, 12.948132139351999 ], [ 77.6182635850829, 12.9482158289699 ], [ 77.618146971722993, 12.948294920927999 ], [ 77.618002353211807, 12.9483934919629 ], [ 77.617880594437395, 12.9484760233651 ], [ 77.617752645236493, 12.948572168238201 ], [ 77.617630405008398, 12.948663738598301 ], [ 77.617492176900797, 12.9487678915914 ], [ 77.617383645352703, 12.9488491606444 ], [ 77.617186445935602, 12.948984396460901 ], [ 77.617170465485401, 12.948994597629 ], [ 77.617161283475298, 12.949000459122001 ], [ 77.617102852607701, 12.949028148767001 ], [ 77.617041696886204, 12.949070546368199 ], [ 77.616975971504502, 12.9491163776937 ], [ 77.6170045073724, 12.949147710767599 ] ] ] } }
]
}
