{
"type": "FeatureCollection",
"name": "South_Zone1",
"crs": { "type": "name", "properties": { "name": "urn:ogc:def:crs:OGC:1.3:CRS84" } },
"features": [
{ "type": "Feature", "properties": { "region_id": "zone_GBA_South_10", "name": "South (Z10)", "parent": "corp_GBA_South", "parent_name": "South" }, "geometry": { "type": "Polygon", "coordinates": [ [ [ 77.560504114601997, 12.8400403588233 ], [ 77.559982125420305, 12.8403198757048 ], [ 77.558245361177498, 12.8411137829913 ], [ 77.557278808020001, 12.8415342759069 ], [ 77.557293247432099, 12.8431321399549 ], [ 77.557277845044197, 12.8432415162676 ], [ 77.5571804999542, 12.843932805281799 ], [ 77.556465400831598, 12.8449776270903 ], [ 77.555922704894002, 12.845999311746599 ], [ 77.555476026708405, 12.8467851597775 ], [ 77.554951540854702, 12.8476734050403 ], [ 77.554482497911295, 12.8480122539371 ], [ 77.554127870092998, 12.8479422990196 ], [ 77.553246209235397, 12.8477690557117 ], [ 77.553262340520902, 12.8475430318062 ], [ 77.553034370310101, 12.8471364304228 ], [ 77.552023355637004, 12.847488452485299 ], [ 77.551931362488602, 12.8475537192005 ], [ 77.551426866339497, 12.847915494788699 ], [ 77.551397747723101, 12.847938364618701 ], [ 77.551369204526495, 12.847961228852 ], [ 77.550422817436498, 12.8479320307818 ], [ 77.550016395911399, 12.8479190402981 ], [ 77.549485061290099, 12.847902745398599 ], [ 77.548911031066794, 12.847875570727 ], [ 77.548097498049302, 12.8478382976738 ], [ 77.545712839099096, 12.847738343180501 ], [ 77.545006323221799, 12.847698892860301 ], [ 77.544865198913598, 12.847691174797401 ], [ 77.544872757054804, 12.847596869995799 ], [ 77.544683287978003, 12.8476161072567 ], [ 77.544650736089395, 12.8474001828813 ], [ 77.544357900910995, 12.8469902820027 ], [ 77.544495080792501, 12.8467285547085 ], [ 77.544576125819304, 12.8463123121116 ], [ 77.544388828151995, 12.8452793868768 ], [ 77.544314063938501, 12.8443685816575 ], [ 77.543724176682701, 12.844054903450401 ], [ 77.543274588824701, 12.843730514339599 ], [ 77.542774926789903, 12.8433707304964 ], [ 77.542253039546395, 12.8432865452972 ], [ 77.541676535944603, 12.843324980758201 ], [ 77.541485582662105, 12.8435332492882 ], [ 77.541264994690593, 12.844273129626499 ], [ 77.541262245070797, 12.8442755802712 ], [ 77.541272495716299, 12.8442872574179 ], [ 77.541262245070797, 12.8442755802712 ], [ 77.540491615778294, 12.844961510560401 ], [ 77.539044503745998, 12.8453189316145 ], [ 77.538333874716201, 12.845303950675699 ], [ 77.538346208760302, 12.8448911924611 ], [ 77.538162009612293, 12.844231783484901 ], [ 77.537931154104996, 12.843410459455001 ], [ 77.537876830964905, 12.8424682190286 ], [ 77.537574510710897, 12.841737318393101 ], [ 77.536779848475405, 12.8414856534219 ], [ 77.535783760672103, 12.841169340288801 ], [ 77.535108063583905, 12.840954117117899 ], [ 77.534525736217105, 12.8404514899375 ], [ 77.533913931681894, 12.8399239962114 ], [ 77.533612481529602, 12.839908533687201 ], [ 77.533434160091105, 12.8397015013737 ], [ 77.531280543930393, 12.840051437476999 ], [ 77.530969608742495, 12.8400907204164 ], [ 77.529089705485404, 12.8403214093009 ], [ 77.5260566191956, 12.8406418359518 ], [ 77.524462376600894, 12.840212209788 ], [ 77.524206093039197, 12.8401406320049 ], [ 77.523518466331595, 12.8399450337806 ], [ 77.523244761336002, 12.8412324193357 ], [ 77.523123586549303, 12.8417988027694 ], [ 77.522955448154505, 12.842527781902801 ], [ 77.522868182383704, 12.8429052889276 ], [ 77.522772111726198, 12.843400200221099 ], [ 77.522704784165796, 12.843764710532399 ], [ 77.522542010888898, 12.8444106022736 ], [ 77.522503210166306, 12.8445645589817 ], [ 77.522416853953899, 12.8448560597532 ], [ 77.522393643475397, 12.8449343405085 ], [ 77.522287510666402, 12.8452922732289 ], [ 77.522262790589707, 12.845408893531999 ], [ 77.521700300774995, 12.848077335949201 ], [ 77.521681444201207, 12.8481674078593 ], [ 77.521674453619696, 12.8482009031791 ], [ 77.521641153649895, 12.848359905442701 ], [ 77.5216282874066, 12.848541832513099 ], [ 77.521600443980901, 12.8489301761016 ], [ 77.521494755788197, 12.849106529770999 ], [ 77.5212600304354, 12.8496341706867 ], [ 77.521032359844398, 12.8501460754735 ], [ 77.520995414846595, 12.850242606754801 ], [ 77.520857083485694, 12.8506029485975 ], [ 77.520174614137701, 12.8523733430075 ], [ 77.519682404877997, 12.853640835645701 ], [ 77.519507605566503, 12.854089607878 ], [ 77.519210036471307, 12.854855647567501 ], [ 77.519148014056398, 12.854999650451401 ], [ 77.519086633177395, 12.8555444023901 ], [ 77.518974840286504, 12.856546331470099 ], [ 77.518838933660106, 12.8577699590656 ], [ 77.518746543395295, 12.8584244223577 ], [ 77.518637988824693, 12.8592650503744 ], [ 77.518580028949998, 12.8597205165856 ], [ 77.518539941774904, 12.8600372059593 ], [ 77.518521337303696, 12.8601844157768 ], [ 77.518496317575298, 12.8603860049851 ], [ 77.518458835091906, 12.860687620835 ], [ 77.5184182500155, 12.861075589460601 ], [ 77.518408738561902, 12.861166480582201 ], [ 77.518908929927093, 12.861653560910099 ], [ 77.519448188383805, 12.862043164768 ], [ 77.519551106966006, 12.8621183948498 ], [ 77.519571491130606, 12.8623054848526 ], [ 77.519591535061807, 12.8624891123351 ], [ 77.519728306251594, 12.863734025147799 ], [ 77.519753809423094, 12.863964776621399 ], [ 77.520220496551403, 12.866343057486899 ], [ 77.522919009263404, 12.8705587742165 ], [ 77.5229824490129, 12.8705663820345 ], [ 77.522039413579193, 12.8711261653375 ], [ 77.520874760518794, 12.8718174922892 ], [ 77.520267033611006, 12.872178230241801 ], [ 77.519436663297299, 12.8717898121968 ], [ 77.518576699490794, 12.8709160504834 ], [ 77.517289856976504, 12.8695980298907 ], [ 77.516368339265597, 12.868804103237 ], [ 77.516351000309001, 12.8685149999672 ], [ 77.516717000100101, 12.868486000428501 ], [ 77.516794000053693, 12.8666369996977 ], [ 77.515571000311994, 12.862605999966901 ], [ 77.516098000333102, 12.8623990003135 ], [ 77.515925000449101, 12.8616790003855 ], [ 77.515475000381599, 12.8609849998578 ], [ 77.515843000264894, 12.8605969999515 ], [ 77.515827000426398, 12.859325999795001 ], [ 77.516534999800996, 12.858488999867401 ], [ 77.516545000262198, 12.8578490000312 ], [ 77.503841999918805, 12.8578649998698 ], [ 77.504294000078403, 12.860014000046 ], [ 77.505068999844895, 12.8601530001608 ], [ 77.506029000048699, 12.861270999556901 ], [ 77.506898999699501, 12.863467000101901 ], [ 77.506782999746093, 12.864300999891199 ], [ 77.508769999646205, 12.8651579998418 ], [ 77.499119999798395, 12.871792000000699 ], [ 77.497995000079399, 12.872784999927701 ], [ 77.497577578546, 12.8721488486295 ], [ 77.497022000175406, 12.870629000328099 ], [ 77.496612000153902, 12.8687530001508 ], [ 77.496221000109301, 12.8687180003354 ], [ 77.495318999882102, 12.868516000013299 ], [ 77.491878000379501, 12.8684339998292 ], [ 77.491569905839697, 12.8685329269164 ], [ 77.490963000452197, 12.8688639998736 ], [ 77.489864000133593, 12.8685099997367 ], [ 77.490106999648404, 12.865362000256001 ], [ 77.487775000026303, 12.864788999912401 ], [ 77.487061000374894, 12.8647580002814 ], [ 77.486763000122394, 12.8642520003295 ], [ 77.485564999734905, 12.862776999758699 ], [ 77.485355999989395, 12.862354000037 ], [ 77.485377000058506, 12.861828000062101 ], [ 77.4853250003585, 12.8616010003858 ], [ 77.485318000035704, 12.861309000409999 ], [ 77.485392187760496, 12.8607356177908 ], [ 77.485569999965506, 12.8601900000684 ], [ 77.485528999873395, 12.860191000114501 ], [ 77.483009999721602, 12.8608029995587 ], [ 77.482987999606394, 12.860727999697399 ], [ 77.482907000367703, 12.8607489997665 ], [ 77.482926000344605, 12.860823999627801 ], [ 77.482847000298705, 12.860842999604699 ], [ 77.482904000229397, 12.861076999603799 ], [ 77.480969000029205, 12.8615430004091 ], [ 77.480568000422807, 12.8615170001094 ], [ 77.480225999939805, 12.8609859999039 ], [ 77.478365000454204, 12.8621060002916 ], [ 77.478234999855204, 12.861890000223299 ], [ 77.477753000110596, 12.862141000107 ], [ 77.478306999578194, 12.862887000334799 ], [ 77.479210999897603, 12.8637990001237 ], [ 77.481010000121302, 12.862776999758699 ], [ 77.482246999609202, 12.864474999821301 ], [ 77.488873442481506, 12.871820764054499 ], [ 77.489018180165999, 12.8717766440524 ], [ 77.489018180165999, 12.8717766440524 ], [ 77.4897949632349, 12.872615077681299 ], [ 77.490151044423598, 12.873003223007 ], [ 77.490609725642798, 12.8735344959111 ], [ 77.492239534160007, 12.875749867040801 ], [ 77.492832752887495, 12.8765329400116 ], [ 77.493253672672395, 12.8772331945944 ], [ 77.493939028849297, 12.877654567884999 ], [ 77.494241445221405, 12.8781720305414 ], [ 77.494609375797694, 12.878569138052301 ], [ 77.495034313882002, 12.8791401508528 ], [ 77.495574871772703, 12.879544090840101 ], [ 77.4957243142359, 12.8800336828997 ], [ 77.496484680267301, 12.879883527910099 ], [ 77.496416838067802, 12.880562019821699 ], [ 77.497045542625997, 12.880866104174499 ], [ 77.497346089833002, 12.881283539911699 ], [ 77.497641370009006, 12.881352618204501 ], [ 77.498048518460706, 12.8816714296893 ], [ 77.499100601900693, 12.8824964502149 ], [ 77.501067072902202, 12.8838272807346 ], [ 77.502032496015303, 12.8843928723396 ], [ 77.503409778937694, 12.885153794061001 ], [ 77.506386086971801, 12.886557021633401 ], [ 77.507590670800994, 12.8871442992629 ], [ 77.508135444525394, 12.8874690354106 ], [ 77.508772397660593, 12.8879091416728 ], [ 77.509430917436703, 12.8884360934379 ], [ 77.509898173725503, 12.8888614874972 ], [ 77.510291278496894, 12.889261922740101 ], [ 77.510633548868597, 12.889681462330399 ], [ 77.510993217118695, 12.8901644401375 ], [ 77.511342526729194, 12.8906546813195 ], [ 77.511661957127302, 12.891127997129299 ], [ 77.5121998563598, 12.891892254620901 ], [ 77.512669773138299, 12.892496341118299 ], [ 77.513111966630106, 12.8930141545626 ], [ 77.514106240670401, 12.8940357930282 ], [ 77.514381723720703, 12.8943184039343 ], [ 77.514381723803993, 12.89431840402 ], [ 77.517832913962295, 12.8978678975382 ], [ 77.518407787782195, 12.898346173332801 ], [ 77.525298084514105, 12.903784272519299 ], [ 77.525520233237401, 12.9040388876143 ], [ 77.525828640295401, 12.904277305123101 ], [ 77.525871108631804, 12.9042912433531 ], [ 77.525870880091006, 12.9042976905475 ], [ 77.526382882928402, 12.904980711593799 ], [ 77.527682979704906, 12.9070927218738 ], [ 77.528428390971101, 12.9083155290959 ], [ 77.529497773784101, 12.9099165568612 ], [ 77.530127725180094, 12.9109967069595 ], [ 77.531085716005904, 12.913104013615801 ], [ 77.531323771432298, 12.914083816259801 ], [ 77.5313757146032, 12.914297607872699 ], [ 77.531782013045202, 12.9177925079565 ], [ 77.533130381131102, 12.9180952404402 ], [ 77.534427356862494, 12.918359680722499 ], [ 77.536429384292603, 12.9192492406215 ], [ 77.537849703388801, 12.918562294088799 ], [ 77.538157226240202, 12.9182329249082 ], [ 77.538361400370704, 12.918101065715501 ], [ 77.5383636342805, 12.9180942679472 ], [ 77.538488052057303, 12.9179880295702 ], [ 77.538698272023694, 12.9178278778602 ], [ 77.538832782646693, 12.9177520334514 ], [ 77.538845377165302, 12.917745134940899 ], [ 77.538890597743503, 12.9177198497262 ], [ 77.538975698263499, 12.9176815389376 ], [ 77.539090588539096, 12.917629816400501 ], [ 77.539127830694596, 12.917612514125199 ], [ 77.539251011854105, 12.917554849171999 ], [ 77.539273334307197, 12.917542209335799 ], [ 77.539293929989299, 12.917529586291099 ], [ 77.539308217010699, 12.9175192832794 ], [ 77.539466738887498, 12.917597924799299 ], [ 77.539628138798406, 12.917676538211801 ], [ 77.539642608442705, 12.917684302859101 ], [ 77.539694087051302, 12.9177086476447 ], [ 77.539853520587101, 12.9177635638656 ], [ 77.539875461493196, 12.9177701264815 ], [ 77.540001545125904, 12.9178287550271 ], [ 77.540106297729395, 12.917884202997399 ], [ 77.540236063346697, 12.917965382395201 ], [ 77.540250544439104, 12.917974276231201 ], [ 77.540351439285104, 12.9180467017172 ], [ 77.540361269991294, 12.9180511234304 ], [ 77.540394791243301, 12.9180643493654 ], [ 77.540448423901296, 12.918073991595101 ], [ 77.540468501047698, 12.918067020206299 ], [ 77.540514376981605, 12.918049633732499 ], [ 77.5405765407166, 12.9180490288672 ], [ 77.540646632477205, 12.918092391101199 ], [ 77.540655323427501, 12.9180979532325 ], [ 77.540821289808306, 12.9182296003166 ], [ 77.540932865309301, 12.918333543102801 ], [ 77.540960779185795, 12.918361504939 ], [ 77.540965429595602, 12.9183659770398 ], [ 77.541011579640895, 12.918375691959 ], [ 77.541090042717698, 12.9183929977613 ], [ 77.541099297855496, 12.9183974250435 ], [ 77.541195337060898, 12.918445051916599 ], [ 77.541313442936499, 12.918511662733501 ], [ 77.541346434382305, 12.9185294110402 ], [ 77.541376029402599, 12.9185528390986 ], [ 77.5415146923105, 12.918659905920199 ], [ 77.541684654330197, 12.918788125391901 ], [ 77.5417435360186, 12.918804492252701 ], [ 77.5417735581687, 12.9188132346878 ], [ 77.541861623640102, 12.9188123773167 ], [ 77.541959394174398, 12.9188035200541 ], [ 77.541986976848705, 12.9187987341483 ], [ 77.541984030336096, 12.9187919868032 ], [ 77.541976319129603, 12.918769475104099 ], [ 77.541932714295498, 12.918442391364101 ], [ 77.541928748140094, 12.9182210795489 ], [ 77.542788685281707, 12.9178151790424 ], [ 77.542814919649402, 12.9178034079179 ], [ 77.5431720508533, 12.9176431739451 ], [ 77.544341317347204, 12.9175425650634 ], [ 77.544343711180701, 12.9175515764334 ], [ 77.544484828959099, 12.9175385049684 ], [ 77.544697975537105, 12.9175187613386 ], [ 77.544708237428907, 12.917793090162499 ], [ 77.544763898935898, 12.918287197152599 ], [ 77.545343992886004, 12.918214911762099 ], [ 77.545909708000906, 12.918143894679099 ], [ 77.546724239855607, 12.918029793541001 ], [ 77.546729683416103, 12.9180557151532 ], [ 77.546788086000404, 12.918195183042799 ], [ 77.546843530589797, 12.9183267744153 ], [ 77.546856757664898, 12.9183255160559 ], [ 77.546864438126093, 12.9182881730807 ], [ 77.546984484122603, 12.9182621566846 ], [ 77.547293703756495, 12.918215095999599 ], [ 77.547588095345205, 12.918181731662701 ], [ 77.547864677948496, 12.918151928796 ], [ 77.547899731499896, 12.918145940058301 ], [ 77.548110605435298, 12.9181077434776 ], [ 77.548294080188896, 12.9180924008306 ], [ 77.548623871269598, 12.9180304565316 ], [ 77.548549334179697, 12.9177759546742 ], [ 77.548534417621795, 12.9177241509187 ], [ 77.548455164565695, 12.917174938902299 ], [ 77.548100996761804, 12.917160325964399 ], [ 77.548087097086494, 12.9170384935197 ], [ 77.548074554735607, 12.916936975840301 ], [ 77.548038723249505, 12.9166391812683 ], [ 77.548035507837795, 12.916492399198299 ], [ 77.548254232414905, 12.916433798128701 ], [ 77.548514295735202, 12.9163646294432 ], [ 77.548829454413706, 12.9162791120875 ], [ 77.548998815898898, 12.9162345442712 ], [ 77.549179067538205, 12.9161853527125 ], [ 77.549238192094094, 12.916168964866401 ], [ 77.549481562824695, 12.916099958265001 ], [ 77.550229827656807, 12.9158894343028 ], [ 77.550604007583502, 12.9157841584633 ], [ 77.550604007683802, 12.9157841589355 ], [ 77.550656879943801, 12.9160331526473 ], [ 77.550676260992105, 12.9161244302092 ], [ 77.550680968805906, 12.916134548213799 ], [ 77.550730672689497, 12.9162108572971 ], [ 77.550803755232195, 12.916321947288999 ], [ 77.550872118552206, 12.9164217900293 ], [ 77.550919222166101, 12.916468761826501 ], [ 77.550919222166002, 12.916468761826501 ], [ 77.550919222166101, 12.916468761826501 ], [ 77.551009392106096, 12.9165732701997 ], [ 77.551531312627603, 12.917051889726499 ], [ 77.551618671912294, 12.917168444063099 ], [ 77.551956231916293, 12.917878987197 ], [ 77.551997869819402, 12.918207322145401 ], [ 77.551954183327794, 12.9182924345104 ], [ 77.551904341574399, 12.9185403942242 ], [ 77.551902697891805, 12.9186127850469 ], [ 77.551915711824904, 12.918722384546699 ], [ 77.551948307862503, 12.918862000886101 ], [ 77.551955743259896, 12.91888556646 ], [ 77.551955743259896, 12.9188855664601 ], [ 77.551955743259896, 12.9188855664601 ], [ 77.551955743259896, 12.91888556646 ], [ 77.551955743259896, 12.9188855664601 ], [ 77.552123031808193, 12.919668218925199 ], [ 77.552153451729097, 12.919662964236201 ], [ 77.552173255073001, 12.9197695032327 ], [ 77.552319318497197, 12.9197483300599 ], [ 77.5524262852135, 12.919700624854499 ], [ 77.552517690393103, 12.919640348273299 ], [ 77.552581177170794, 12.9196342733267 ], [ 77.552639254282099, 12.9196601507754 ], [ 77.552682126956697, 12.9197313428604 ], [ 77.552881946831207, 12.9200925742963 ], [ 77.553026209130195, 12.9202595655957 ], [ 77.553233765169793, 12.9204369611685 ], [ 77.553506415760296, 12.920619737234301 ], [ 77.554041549428305, 12.9209008928015 ], [ 77.554154988741601, 12.9209595704728 ], [ 77.554386243533997, 12.9210169886352 ], [ 77.554616693768097, 12.9210105079969 ], [ 77.554736294560001, 12.9209786830321 ], [ 77.554897051767497, 12.9209623371832 ], [ 77.555119431515806, 12.921021567139899 ], [ 77.555645699301607, 12.920998816862101 ], [ 77.555971975068999, 12.9220100232032 ], [ 77.556169292081904, 12.9225810402836 ], [ 77.556281300055602, 12.922978109771799 ], [ 77.558751026086895, 12.9221869142961 ], [ 77.559116740482693, 12.922082747667201 ], [ 77.560309309752299, 12.9218466758639 ], [ 77.561612293975998, 12.921609517261899 ], [ 77.561694158225393, 12.9215158690702 ], [ 77.561845239851607, 12.921083498177399 ], [ 77.561845239851607, 12.921083498177399 ], [ 77.561942696919203, 12.9208182801743 ], [ 77.562123014559901, 12.9204370580114 ], [ 77.562124602519205, 12.920433095217501 ], [ 77.562182517768207, 12.9202885327334 ], [ 77.562202824188702, 12.920247677814499 ], [ 77.562275865599204, 12.9201848481738 ], [ 77.5624313995676, 12.9200828118539 ], [ 77.562797941635594, 12.919843185438101 ], [ 77.563026804241204, 12.919706549316601 ], [ 77.563252811700707, 12.919572199713601 ], [ 77.563358488028996, 12.919492109599499 ], [ 77.563433198037799, 12.9194236167295 ], [ 77.563577022841002, 12.919246030309299 ], [ 77.563888856523405, 12.918778817020099 ], [ 77.564101840534903, 12.918440187647301 ], [ 77.564153825806002, 12.918344814121699 ], [ 77.564278677770503, 12.918113206415899 ], [ 77.564346557110795, 12.9179709264951 ], [ 77.564497910020194, 12.917653678188501 ], [ 77.564614610368807, 12.9173566498777 ], [ 77.564686405466404, 12.917171865392699 ], [ 77.564728584696994, 12.9170666085642 ], [ 77.564850876766499, 12.916761435761099 ], [ 77.564855054369701, 12.916751043392599 ], [ 77.564898413288105, 12.9167785085356 ], [ 77.565394881964707, 12.9172998531159 ], [ 77.5654674754132, 12.917404383489799 ], [ 77.565745147065599, 12.9179793257988 ], [ 77.566026917418498, 12.9187645066112 ], [ 77.568698767849298, 12.9181501601508 ], [ 77.568675542182206, 12.9180894082082 ], [ 77.568657228718195, 12.917956540303599 ], [ 77.568654971559695, 12.9178367545546 ], [ 77.568666800081701, 12.917539919458299 ], [ 77.568775217115501, 12.917183713197 ], [ 77.568858890512701, 12.916967092792699 ], [ 77.568858890512701, 12.916967092792699 ], [ 77.568858890512701, 12.916967092792699 ], [ 77.569111414526802, 12.9164507743525 ], [ 77.569249404925998, 12.9161535355517 ], [ 77.569351355135097, 12.915934574225901 ], [ 77.569566824267199, 12.915502184293899 ], [ 77.569723208225795, 12.9155401715708 ], [ 77.569774561091805, 12.915552088723301 ], [ 77.569897608150995, 12.9155949212028 ], [ 77.569934675686397, 12.9156171427533 ], [ 77.569975312145104, 12.9156506223419 ], [ 77.570090524524403, 12.915827920500799 ], [ 77.570126979387993, 12.9159027037292 ], [ 77.570129586202299, 12.9159080518127 ], [ 77.570188781803694, 12.9160294868799 ], [ 77.570235164462702, 12.9161246364859 ], [ 77.570292115409302, 12.916233619625601 ], [ 77.570366585731804, 12.916310809435499 ], [ 77.570403676516904, 12.916335289295899 ], [ 77.570648999618498, 12.9164017626307 ], [ 77.570707294209299, 12.9164169991699 ], [ 77.571001300612096, 12.9165157430241 ], [ 77.57106419982, 12.916530934137899 ], [ 77.571102867196501, 12.916540717251801 ], [ 77.571237655246094, 12.9165495538921 ], [ 77.5714102461978, 12.916539949150501 ], [ 77.571643249127106, 12.9165274907128 ], [ 77.571969667335793, 12.9165309758184 ], [ 77.572028388063401, 12.9165316026391 ], [ 77.572556765959703, 12.916582863386701 ], [ 77.572748743713007, 12.9166114634564 ], [ 77.572814439892994, 12.9166187213655 ], [ 77.572893443613694, 12.9166326240213 ], [ 77.573103602116205, 12.916750260494601 ], [ 77.573326550607703, 12.9168801931699 ], [ 77.573534210559103, 12.9169786555094 ], [ 77.573517426972003, 12.9176476294676 ], [ 77.573512955584704, 12.9178258503417 ], [ 77.573536695726105, 12.917895633798601 ], [ 77.573649317026707, 12.918212990155901 ], [ 77.573913607362996, 12.918838283088 ], [ 77.574096814837503, 12.919302883186701 ], [ 77.574232582658695, 12.919744235236401 ], [ 77.574247762041793, 12.919877344496699 ], [ 77.574292481765099, 12.9202529647467 ], [ 77.574402092707999, 12.920837997205799 ], [ 77.573561281096204, 12.921025848804099 ], [ 77.573567178999198, 12.921545274859101 ], [ 77.573575969927006, 12.9223470007217 ], [ 77.573579557081999, 12.9226970525028 ], [ 77.573583581065506, 12.923033548207 ], [ 77.573588962149103, 12.9235586258441 ], [ 77.575295201525705, 12.9235222556577 ], [ 77.575508613486306, 12.923517705786599 ], [ 77.575561268439202, 12.9235165835724 ], [ 77.575972824548103, 12.9235136511702 ], [ 77.576208745547802, 12.9235045466679 ], [ 77.576457317804099, 12.9234941877534 ], [ 77.576760373963097, 12.9234836845974 ], [ 77.577618628851994, 12.923453938897699 ], [ 77.577687607923394, 12.9234515483123 ], [ 77.577937999282497, 12.9234502045155 ], [ 77.578313106482, 12.9234490513848 ], [ 77.578435915518597, 12.923448673828799 ], [ 77.578483998898307, 12.923448198791601 ], [ 77.579242044221701, 12.923440708553301 ], [ 77.579702202698599, 12.9234361606586 ], [ 77.5797022606978, 12.9234418066274 ], [ 77.579696038620199, 12.923956832754399 ], [ 77.579690476221501, 12.9243679559809 ], [ 77.579668419280395, 12.9255268443539 ], [ 77.579697161589294, 12.926643446055101 ], [ 77.5797073774974, 12.927234107837 ], [ 77.579708507745394, 12.9272994619207 ], [ 77.579709651909596, 12.9273547867068 ], [ 77.579703139303305, 12.927393247573599 ], [ 77.579692385797401, 12.928083361153201 ], [ 77.579689899982796, 12.9282335837076 ], [ 77.579666463760802, 12.928691550202 ], [ 77.579663533795198, 12.928748808892299 ], [ 77.579659660109797, 12.928819993603099 ], [ 77.579652894626804, 12.9295620158875 ], [ 77.579648554666804, 12.9299799027673 ], [ 77.579640188485897, 12.930846164714501 ], [ 77.579639169674707, 12.9309150625743 ], [ 77.579620271183998, 12.9316526875454 ], [ 77.579606638819996, 12.9321745626149 ], [ 77.579611741442093, 12.9326149422157 ], [ 77.579617315364899, 12.9330451533696 ], [ 77.580136053119901, 12.933051315239901 ], [ 77.580137984003798, 12.9330151583016 ], [ 77.580198411077006, 12.933013431200701 ], [ 77.580652587745107, 12.9330111962838 ], [ 77.580706683121605, 12.9330095317155 ], [ 77.581287365153798, 12.9329936215358 ], [ 77.582593170307106, 12.9329569791811 ], [ 77.582676034220199, 12.932953900032199 ], [ 77.583901311097407, 12.932923695109601 ], [ 77.583935260141004, 12.9329222294672 ], [ 77.584835387194204, 12.932900137068399 ], [ 77.584861267982205, 12.932899502029199 ], [ 77.584876388451804, 12.9339202425859 ], [ 77.584901980020803, 12.9346721050453 ], [ 77.584901228810494, 12.935604917111799 ], [ 77.584908938616394, 12.936632506725999 ], [ 77.5851080656672, 12.9366271446764 ], [ 77.585267475420494, 12.9366221762742 ], [ 77.585296244405995, 12.936620761726299 ], [ 77.585730703692604, 12.936604031341 ], [ 77.586138543707406, 12.936462211700899 ], [ 77.586272020945401, 12.9363987761917 ], [ 77.586362809735604, 12.9363267296372 ], [ 77.586434818014595, 12.9362198609829 ], [ 77.586559333501995, 12.9360130928985 ], [ 77.586708688066395, 12.9358704485972 ], [ 77.587216643978806, 12.9355006448128 ], [ 77.587553667775893, 12.9352465958845 ], [ 77.587629158914098, 12.9351984161424 ], [ 77.587703132837603, 12.935170578859999 ], [ 77.587796323861895, 12.9351640816596 ], [ 77.587816457729105, 12.9351626784745 ], [ 77.587866041544004, 12.9351700915216 ], [ 77.587937778008595, 12.9352043879358 ], [ 77.588388175578402, 12.93544949314 ], [ 77.588729432014304, 12.9355500011961 ], [ 77.588886883079795, 12.935634264867501 ], [ 77.589061458063298, 12.935760142503799 ], [ 77.589112554470205, 12.9358025485658 ], [ 77.589134520835401, 12.9358113648574 ], [ 77.589148934363806, 12.935813480341601 ], [ 77.589172534325797, 12.935813246009699 ], [ 77.589201233188305, 12.935805055946799 ], [ 77.589244205724995, 12.9357854311504 ], [ 77.589322621244904, 12.935741739108501 ], [ 77.589383698551899, 12.93569144342 ], [ 77.589450520261593, 12.935639961378 ], [ 77.589519010490704, 12.9355828162559 ], [ 77.5895557561674, 12.9355734169517 ], [ 77.589622601117796, 12.935524193245399 ], [ 77.589625479157505, 12.9355241646638 ], [ 77.589936661535404, 12.935499617465799 ], [ 77.590116115883603, 12.936321094130999 ], [ 77.590556236632096, 12.936128128982901 ], [ 77.590624399127904, 12.936206502696001 ], [ 77.591041939196103, 12.9366698835278 ], [ 77.591257394547, 12.9365268096221 ], [ 77.591306086326497, 12.936494475902 ], [ 77.591741410539001, 12.936338823354101 ], [ 77.592700241998301, 12.9362050684956 ], [ 77.592704702695698, 12.936079672169599 ], [ 77.592723517653695, 12.9354493373308 ], [ 77.592727739628899, 12.935287378544 ], [ 77.592728052220494, 12.935275380494099 ], [ 77.592720675366607, 12.9350366933289 ], [ 77.592709467609694, 12.934668028717301 ], [ 77.592704275083193, 12.934579740394801 ], [ 77.592698010942101, 12.934485171184599 ], [ 77.592686347057096, 12.9343034703 ], [ 77.592682701660607, 12.934222195336901 ], [ 77.592658605052506, 12.9336848921241 ], [ 77.592620173794899, 12.932827963658299 ], [ 77.592613043684395, 12.932668976560899 ], [ 77.592593845608505, 12.931972390900301 ], [ 77.592578972469497, 12.931432734552599 ], [ 77.592570490905103, 12.931113227663801 ], [ 77.592550915900901, 12.930556325290899 ], [ 77.592543778465995, 12.930310562601001 ], [ 77.5925417646894, 12.9300598785502 ], [ 77.592537090522498, 12.9298860131716 ], [ 77.592530535000094, 12.9296545732109 ], [ 77.592519739495998, 12.929265071900399 ], [ 77.592511029352906, 12.928938794136499 ], [ 77.592507533437896, 12.9288078276322 ], [ 77.592499320938998, 12.928514291832199 ], [ 77.592498337176394, 12.928474776186899 ], [ 77.592878191842502, 12.9284676134387 ], [ 77.593561347322193, 12.9284540473201 ], [ 77.5941765944699, 12.9284422839598 ], [ 77.594727950856395, 12.928431154583199 ], [ 77.595361028936296, 12.9284180818085 ], [ 77.595432977564201, 12.9284173660643 ], [ 77.596426879209005, 12.928393925177099 ], [ 77.597158922406706, 12.9283764752655 ], [ 77.598027931599106, 12.9283554008473 ], [ 77.598545878570107, 12.9283423375452 ], [ 77.599084546420997, 12.9283290667989 ], [ 77.600496250254196, 12.9282946722321 ], [ 77.600441474088797, 12.926730020359701 ], [ 77.600434513569397, 12.926613772710899 ], [ 77.601111398491298, 12.926607025977299 ], [ 77.601121569636007, 12.9266328296143 ], [ 77.601153434755204, 12.9267195360159 ], [ 77.601229734639901, 12.9268610660205 ], [ 77.601271644598796, 12.926905819835699 ], [ 77.601305285808195, 12.926930328844801 ], [ 77.601526787150405, 12.9270297566189 ], [ 77.601534892117996, 12.927034192970099 ], [ 77.601837794448699, 12.9272118591331 ], [ 77.602301540450597, 12.927468100279601 ], [ 77.602754152165701, 12.9277052535761 ], [ 77.603071904086207, 12.927871476962901 ], [ 77.603291256631195, 12.9279856051488 ], [ 77.603320117823003, 12.9279932221939 ], [ 77.603418835521097, 12.9280204693837 ], [ 77.603487494020797, 12.9280355943104 ], [ 77.603498430125001, 12.928035485181301 ], [ 77.603798567248802, 12.9280573343467 ], [ 77.603975987771904, 12.9280691150951 ], [ 77.604123877782897, 12.9280642511471 ], [ 77.604342907147199, 12.9280567183703 ], [ 77.604586530236702, 12.928048340015801 ], [ 77.604638321075697, 12.928046693695 ], [ 77.604915130044901, 12.9280394129598 ], [ 77.604736163203398, 12.927434772159399 ], [ 77.604435342832303, 12.9275134374201 ], [ 77.604359571359495, 12.927312051173899 ], [ 77.6046039142078, 12.927227174102899 ], [ 77.604546255213705, 12.927051580736901 ], [ 77.604672414563296, 12.927005149848901 ], [ 77.604665848859497, 12.9269826296318 ], [ 77.604618932629904, 12.9268309937144 ], [ 77.604587823551697, 12.926730447985999 ], [ 77.604571156696693, 12.9266775378152 ], [ 77.6045420043653, 12.926586356473999 ], [ 77.604532336638201, 12.926597745856 ], [ 77.6045083848215, 12.9266194414105 ], [ 77.6044978720834, 12.926604865599099 ], [ 77.604457807189107, 12.926516051742199 ], [ 77.6044290063397, 12.926458745514701 ], [ 77.604427373757602, 12.926416078329099 ], [ 77.604423477924598, 12.9263142518028 ], [ 77.604590128278801, 12.926231279648899 ], [ 77.604614543626894, 12.9262169812732 ], [ 77.604699983567897, 12.9261669429542 ], [ 77.604778345937703, 12.926118730629099 ], [ 77.604939850946806, 12.926039197520399 ], [ 77.605011870135598, 12.9259899191755 ], [ 77.605104703865095, 12.925949467316601 ], [ 77.604943235172001, 12.9251447677558 ], [ 77.605084298425595, 12.9251478767361 ], [ 77.605098263452106, 12.9251479288525 ], [ 77.605166617661794, 12.9251481842325 ], [ 77.605275060469197, 12.9251696873627 ], [ 77.605321200364699, 12.925178261018401 ], [ 77.605439028175994, 12.9252166096897 ], [ 77.605493319898699, 12.9252341362218 ], [ 77.605612897916302, 12.925274725904501 ], [ 77.605806866042499, 12.9253281241434 ], [ 77.6058844504321, 12.9253713915926 ], [ 77.605937331899895, 12.925419422853601 ], [ 77.606033437708703, 12.925583338993601 ], [ 77.606072282699003, 12.9256100539409 ], [ 77.606192108340593, 12.925619020802699 ], [ 77.606555944871701, 12.925566827442401 ], [ 77.606926289458599, 12.9254761728514 ], [ 77.606959461887499, 12.9254555143005 ], [ 77.606935447795394, 12.925083089741101 ], [ 77.606881932066798, 12.925029418608201 ], [ 77.606986475861206, 12.9250080470807 ], [ 77.607034706993701, 12.9249962723843 ], [ 77.607226585835093, 12.9249593475389 ], [ 77.607237352749806, 12.924957063607399 ], [ 77.607288043452499, 12.9249463113684 ], [ 77.607340280126607, 12.9249322380281 ], [ 77.607371566774404, 12.924926534671901 ], [ 77.607484629047903, 12.9249059241087 ], [ 77.607517240776005, 12.9248999791801 ], [ 77.607632720344697, 12.9248784981421 ], [ 77.607714346490297, 12.924867518916701 ], [ 77.607755153694995, 12.9248614647107 ], [ 77.607892962456802, 12.924829977204601 ], [ 77.607930880941097, 12.9248213129266 ], [ 77.608086086800995, 12.924800563978099 ], [ 77.608140742958199, 12.9247977591631 ], [ 77.608271269423696, 12.9247840324726 ], [ 77.608324516364604, 12.924756397431301 ], [ 77.6084005274124, 12.924759025547001 ], [ 77.6085272703654, 12.9248243865012 ], [ 77.608731588637397, 12.9238793912389 ], [ 77.608421098655, 12.923746980464999 ], [ 77.608674251261604, 12.9232916069084 ], [ 77.608743627966803, 12.9230989350229 ], [ 77.608865158604303, 12.922884285413099 ], [ 77.608877211167396, 12.922825442127101 ], [ 77.608899636496901, 12.9227122894861 ], [ 77.608847711806305, 12.922313041653901 ], [ 77.608824478736807, 12.922237611782601 ], [ 77.6087461670419, 12.922179671682899 ], [ 77.6087133018342, 12.922119018768599 ], [ 77.608700135841403, 12.922015256132999 ], [ 77.608675636173402, 12.9218178761049 ], [ 77.608674310859001, 12.9216902801359 ], [ 77.608672668013398, 12.9215875316113 ], [ 77.6086724569045, 12.921567206589399 ], [ 77.608660664083104, 12.9215402216042 ], [ 77.608647121107197, 12.921510995538499 ], [ 77.6086227849122, 12.921440947630799 ], [ 77.608622785493296, 12.921440947520001 ], [ 77.608510614035197, 12.9211180883142 ], [ 77.608510614025903, 12.9211180874108 ], [ 77.608478605646297, 12.9210259576531 ], [ 77.608395491538801, 12.920893532516301 ], [ 77.608383205309195, 12.9208744574343 ], [ 77.608370907355294, 12.9208542531831 ], [ 77.608211726972499, 12.9206028837612 ], [ 77.608112054994507, 12.9202617060738 ], [ 77.608085663240203, 12.9201592047548 ], [ 77.608041699769501, 12.920027517550899 ], [ 77.608025043585101, 12.920031071811 ], [ 77.608022218254405, 12.9200164635907 ], [ 77.607998887493906, 12.919895819732901 ], [ 77.608069544245197, 12.919770892418599 ], [ 77.608051796668803, 12.9197247690088 ], [ 77.608014939391097, 12.9196122086455 ], [ 77.607992986129602, 12.9195491879555 ], [ 77.607828658520603, 12.9189681179835 ], [ 77.607695442722999, 12.918556129922999 ], [ 77.607527713738705, 12.917758270489699 ], [ 77.607520349656795, 12.9177323740627 ], [ 77.607412412976203, 12.9173528788567 ], [ 77.607280197988004, 12.9169261995459 ], [ 77.607274208063302, 12.9169036736262 ], [ 77.607232588937293, 12.9165540103563 ], [ 77.607212443541698, 12.916554211505 ], [ 77.606946427715201, 12.9165620098068 ], [ 77.606946426794295, 12.916562009815999 ], [ 77.606590455156294, 12.916572445848001 ], [ 77.605951149747995, 12.916591187621201 ], [ 77.6055338721185, 12.9166025854844 ], [ 77.605392320138506, 12.916607385773199 ], [ 77.605295614785405, 12.916607221380101 ], [ 77.604305056629102, 12.9166148442122 ], [ 77.604080049601507, 12.916620219561 ], [ 77.603022893379503, 12.916644959514599 ], [ 77.602591289586201, 12.9166556462882 ], [ 77.601990512009195, 12.916671865017401 ], [ 77.601792554040102, 12.9166771576824 ], [ 77.601665956852997, 12.9166807372888 ], [ 77.601039299728001, 12.9166984566282 ], [ 77.599993117922807, 12.9167278307459 ], [ 77.599975579737006, 12.916534896360099 ], [ 77.599977521136395, 12.9158324570773 ], [ 77.599998412622298, 12.915069976591001 ], [ 77.600023087986301, 12.9142837432747 ], [ 77.599994711373697, 12.914044615737399 ], [ 77.599971695477606, 12.9139341741843 ], [ 77.599957309772407, 12.9138789820535 ], [ 77.599904768633095, 12.913696559673101 ], [ 77.599898572369298, 12.9135983728846 ], [ 77.599882671336601, 12.9133410524169 ], [ 77.599883912448504, 12.912670615955401 ], [ 77.599883828939696, 12.9126182934871 ], [ 77.599916350152895, 12.911866990029701 ], [ 77.599983492723197, 12.9110125763273 ], [ 77.600026047616794, 12.910619158856599 ], [ 77.600141981268493, 12.909584702023 ], [ 77.600221348749798, 12.9085765828991 ], [ 77.600228305271401, 12.9085256954877 ], [ 77.600279610007505, 12.9081434839115 ], [ 77.600361444966495, 12.9077078917412 ], [ 77.600500506626105, 12.907240109851999 ], [ 77.600555357929593, 12.9072565033351 ], [ 77.600791039162004, 12.9069544252915 ], [ 77.601075706080394, 12.906589558727299 ], [ 77.601391903825302, 12.9062095645019 ], [ 77.601732354379394, 12.9058004223378 ], [ 77.601822652425795, 12.9056267416713 ], [ 77.601851823902095, 12.9054977119723 ], [ 77.6018565196336, 12.9054389447601 ], [ 77.601858958450094, 12.905408426891301 ], [ 77.601860679551905, 12.905296609873201 ], [ 77.601853195238405, 12.9051295492085 ], [ 77.601750460093299, 12.904657398734599 ], [ 77.601727655393006, 12.904567282409699 ], [ 77.601520982730904, 12.903729146467199 ], [ 77.601458873583198, 12.9035118112884 ], [ 77.601433079876998, 12.9035222316516 ], [ 77.601303407316905, 12.903561918226499 ], [ 77.601248603562397, 12.903550041456599 ], [ 77.601120500715496, 12.9034632315692 ], [ 77.601084172307196, 12.9034568173537 ], [ 77.600984605738006, 12.9034578082117 ], [ 77.6009004349512, 12.903500429653599 ], [ 77.600585865469498, 12.9035272749688 ], [ 77.600311135819098, 12.9035661457768 ], [ 77.600150866472703, 12.9035971018751 ], [ 77.600112481705594, 12.903607804577501 ], [ 77.600058462935294, 12.9036228655818 ], [ 77.599989465774499, 12.9036856630985 ], [ 77.599884081764799, 12.9037364003362 ], [ 77.599693563222004, 12.9038012458906 ], [ 77.599552557161402, 12.9038492394599 ], [ 77.5994198312534, 12.903872016142699 ], [ 77.599367940103903, 12.903863497887 ], [ 77.599293133752298, 12.903838220914601 ], [ 77.599273790133594, 12.9038316847255 ], [ 77.599146099782402, 12.903729059552401 ], [ 77.599116061169397, 12.903699972667299 ], [ 77.598986794152694, 12.9035748011483 ], [ 77.598943469829706, 12.903504086423199 ], [ 77.598926977595596, 12.903356312870001 ], [ 77.598928291816804, 12.903204974371 ], [ 77.599072375509706, 12.902498862076101 ], [ 77.599182732400394, 12.9020381420096 ], [ 77.599348510727097, 12.901649145675099 ], [ 77.599454920293297, 12.9013635054445 ], [ 77.599489089809097, 12.9011610220391 ], [ 77.599482245651004, 12.901111401164201 ], [ 77.599470089626607, 12.9011047462806 ], [ 77.599430988953102, 12.901108522977999 ], [ 77.599112747132807, 12.9012810814825 ], [ 77.598916874066205, 12.901375631074901 ], [ 77.598075411092694, 12.901825550007301 ], [ 77.597190523611999, 12.902251053722599 ], [ 77.596642463175002, 12.9024642892396 ], [ 77.596391010810294, 12.9025277690944 ], [ 77.595918709724401, 12.902570787583899 ], [ 77.595384968868601, 12.9025919666964 ], [ 77.594860598006207, 12.9026468619785 ], [ 77.594406963594693, 12.9026400720512 ], [ 77.594039432463603, 12.902666305775099 ], [ 77.593992192366599, 12.9026622574047 ], [ 77.593974010033605, 12.902796824347501 ], [ 77.593924040820497, 12.903365357305599 ], [ 77.593858315883494, 12.903857254358201 ], [ 77.593850667372294, 12.903940657124201 ], [ 77.5937625674119, 12.9048982883953 ], [ 77.593589855579594, 12.9053415581804 ], [ 77.593562280010403, 12.905569950142301 ], [ 77.5934350512685, 12.9055678249096 ], [ 77.593415471344798, 12.9055668899236 ], [ 77.593414604688107, 12.905538666060099 ], [ 77.593408403336497, 12.905272213136 ], [ 77.592936038759305, 12.9052915812447 ], [ 77.592572096154896, 12.905331329605801 ], [ 77.591903036839199, 12.9053661987359 ], [ 77.591461123028694, 12.905436080714001 ], [ 77.591470390705695, 12.9055534360267 ], [ 77.591470315517796, 12.9056019966783 ], [ 77.590233907142405, 12.9057113746239 ], [ 77.590051215056405, 12.9047950634284 ], [ 77.589889227463402, 12.904827159910401 ], [ 77.589890436679894, 12.9048327944344 ], [ 77.5896616866481, 12.9048655523917 ], [ 77.589009322973993, 12.9049567136082 ], [ 77.588913033753897, 12.9049703057514 ], [ 77.588441458106502, 12.9050368726386 ], [ 77.588118435283704, 12.905081856055499 ], [ 77.588152844670205, 12.905237359077001 ], [ 77.588061624434005, 12.905266495045501 ], [ 77.588048379604601, 12.9055455640333 ], [ 77.587217875061697, 12.905553787574799 ], [ 77.586451993104006, 12.9055771791529 ], [ 77.586446813236606, 12.905577230419899 ], [ 77.586436069768595, 12.904644531450099 ], [ 77.585751329443994, 12.9046659881372 ], [ 77.585717959787303, 12.9046674476 ], [ 77.5852989087617, 12.9046659016124 ], [ 77.584969654295193, 12.904664686435201 ], [ 77.584952936945101, 12.9051662634055 ], [ 77.584289338484197, 12.905172826427 ], [ 77.584223982091103, 12.905198317446199 ], [ 77.583876986325905, 12.905319196354601 ], [ 77.582998138620198, 12.905384349662199 ], [ 77.583007356003193, 12.9054971892557 ], [ 77.582974571675507, 12.905498628148999 ], [ 77.582642014201596, 12.905513222454999 ], [ 77.582505633832398, 12.9055168288419 ], [ 77.582425081072202, 12.9055198834821 ], [ 77.582358329731704, 12.905521672410099 ], [ 77.582286386908706, 12.905522383312601 ], [ 77.582217368172607, 12.9055275825325 ], [ 77.582145483310796, 12.905533939362 ], [ 77.5820201193401, 12.905545341801099 ], [ 77.5820063410941, 12.905548865858 ], [ 77.582001265551, 12.9055590797759 ], [ 77.581729678865699, 12.9055685388375 ], [ 77.581712508770494, 12.905465941435001 ], [ 77.581699323003505, 12.904742185233699 ], [ 77.581707044426295, 12.904709359022901 ], [ 77.581747953684399, 12.904545205227899 ], [ 77.5817750504592, 12.9045494547806 ], [ 77.581763310382698, 12.904078649296 ], [ 77.581755692420103, 12.9037851044446 ], [ 77.581754630068502, 12.9037376839982 ], [ 77.581713871130901, 12.903748250386901 ], [ 77.581451545234799, 12.9038185999842 ], [ 77.581232280298494, 12.903878360293801 ], [ 77.581013003636798, 12.9039369912444 ], [ 77.580783977422797, 12.903999106227401 ], [ 77.580544602923794, 12.9040624525136 ], [ 77.580296629913207, 12.904129271419899 ], [ 77.580302458019901, 12.9043607222749 ], [ 77.579667681727699, 12.904539772992999 ], [ 77.579660246016005, 12.904544363626901 ], [ 77.579689033815697, 12.9047134759288 ], [ 77.578688778108202, 12.904951468086299 ], [ 77.5786646284608, 12.9049539649947 ], [ 77.578695928231397, 12.905368113098399 ], [ 77.578331846338003, 12.9053632473323 ], [ 77.577480665153502, 12.9053518690804 ], [ 77.577208811444905, 12.9053353518847 ], [ 77.5769093084361, 12.905316848415399 ], [ 77.5769149537918, 12.905193697752001 ], [ 77.576926354593795, 12.905070490337099 ], [ 77.576921879912007, 12.9046899563438 ], [ 77.576940878492493, 12.904577967133299 ], [ 77.576971752247104, 12.9043890676222 ], [ 77.577235231080806, 12.9038692447737 ], [ 77.577004598106896, 12.9038308636739 ], [ 77.576905677356507, 12.903895080477101 ], [ 77.5768982531647, 12.9039008002364 ], [ 77.5767755645129, 12.904004777263999 ], [ 77.576570691787893, 12.9041773232066 ], [ 77.576373367414703, 12.904300104880701 ], [ 77.576214508888199, 12.9043570071461 ], [ 77.576124565060098, 12.904398548983499 ], [ 77.5759819399847, 12.904523049876399 ], [ 77.575899998549005, 12.9046153318517 ], [ 77.575763232757396, 12.9047499387298 ], [ 77.575616187974006, 12.904892552054999 ], [ 77.575472043873702, 12.905037395366101 ], [ 77.575457794023393, 12.905051087553501 ], [ 77.5754634355105, 12.9053209377806 ], [ 77.575468730138894, 12.9055569120281 ], [ 77.575488295482799, 12.906455652346899 ], [ 77.575082643570894, 12.9064557625766 ], [ 77.574310032900897, 12.906455969471599 ], [ 77.573264424570496, 12.9064797380409 ], [ 77.573268853902206, 12.9064650952102 ], [ 77.573282281330407, 12.906314764123699 ], [ 77.573297056292404, 12.906183618119 ], [ 77.573325122221505, 12.9059450563349 ], [ 77.573342980703202, 12.905777741896999 ], [ 77.5733542099358, 12.9056375962936 ], [ 77.573368888072693, 12.905384485255601 ], [ 77.573371528163904, 12.9051924757526 ], [ 77.5733645342128, 12.905015242204501 ], [ 77.573354468310697, 12.904875306288901 ], [ 77.573312585713694, 12.9047198732443 ], [ 77.573312054134405, 12.904715354895 ], [ 77.573305020613006, 12.904655576787601 ], [ 77.573279852001704, 12.904502237783401 ], [ 77.573223893923398, 12.904096235373601 ], [ 77.573216409764001, 12.9040398433122 ], [ 77.573210145415004, 12.903979534520801 ], [ 77.573197893701504, 12.9038615938468 ], [ 77.5731978664396, 12.9037464039871 ], [ 77.573202847857999, 12.9036706908397 ], [ 77.573212789665305, 12.903573471871599 ], [ 77.573224409416696, 12.903488671497501 ], [ 77.573237427791994, 12.9033936682226 ], [ 77.573243296663094, 12.903348437843499 ], [ 77.573284655996204, 12.903058926023 ], [ 77.573322034785903, 12.9028304364038 ], [ 77.573345546949795, 12.9027093682254 ], [ 77.573390017002097, 12.9024988778364 ], [ 77.573406287650101, 12.9023451308218 ], [ 77.573413582768595, 12.902270524216499 ], [ 77.573424488734901, 12.902098760980101 ], [ 77.573427375926897, 12.9020433961248 ], [ 77.573423040669596, 12.9018446793777 ], [ 77.573400091868507, 12.901626947515 ], [ 77.573355455534795, 12.9013710324271 ], [ 77.573306249699897, 12.901118550237999 ], [ 77.573252337736093, 12.9009124162632 ], [ 77.573246938461295, 12.900891012422999 ], [ 77.573239167744106, 12.9008628560346 ], [ 77.5731425938, 12.900534977136401 ], [ 77.573142592762593, 12.900534977622 ], [ 77.573127064253597, 12.9004822518353 ], [ 77.573002642169897, 12.9000791815459 ], [ 77.572983705409897, 12.9000285487257 ], [ 77.572983705400603, 12.9000285478224 ], [ 77.572910295231793, 12.899829381461 ], [ 77.572842432695296, 12.899609832781699 ], [ 77.572801129246699, 12.899510859472301 ], [ 77.572771262129294, 12.8994399857215 ], [ 77.572745678202594, 12.899379275215299 ], [ 77.572736308028695, 12.8993635570025 ], [ 77.572644263684694, 12.8991995826407 ], [ 77.572493409577504, 12.898969557235599 ], [ 77.572445477095698, 12.8988977526285 ], [ 77.572260742152196, 12.8986444197123 ], [ 77.572186281699402, 12.898542309491299 ], [ 77.571822682193201, 12.8980523749259 ], [ 77.571770655791198, 12.897979507276199 ], [ 77.571639323011397, 12.897795564864801 ], [ 77.571517486350103, 12.8976533588544 ], [ 77.571476213022706, 12.897605185159501 ], [ 77.571290552447394, 12.8973483973569 ], [ 77.571145836876198, 12.897155577828199 ], [ 77.570748144275399, 12.896705429146801 ], [ 77.570722490592203, 12.896676392269899 ], [ 77.570484838042702, 12.896400916325 ], [ 77.570241453828999, 12.8961277550356 ], [ 77.570083019454898, 12.8959441040111 ], [ 77.570064464241497, 12.8959307345509 ], [ 77.570020366790104, 12.8958961590643 ], [ 77.569964412911204, 12.895827820540999 ], [ 77.569841258952707, 12.895660762362301 ], [ 77.569493577575003, 12.8952632706053 ], [ 77.569429543588996, 12.8951927526637 ], [ 77.569410919299798, 12.8951726079073 ], [ 77.569150041258894, 12.894877030648299 ], [ 77.569118041649702, 12.894843465427501 ], [ 77.569096608653894, 12.8948222990883 ], [ 77.569096528266101, 12.8948222197007 ], [ 77.569074439362097, 12.894800979624801 ], [ 77.569054548828603, 12.8947695540814 ], [ 77.568809015554507, 12.8945110931269 ], [ 77.568617122298605, 12.894319864213299 ], [ 77.568453177054195, 12.8941599815932 ], [ 77.568413626702295, 12.8941197144849 ], [ 77.568891907771402, 12.8940043440012 ], [ 77.568903431153203, 12.8940054983676 ], [ 77.570287965775407, 12.894144215633199 ], [ 77.571028180338104, 12.894202440679001 ], [ 77.571441103989599, 12.894231930989401 ], [ 77.571876051990799, 12.894262992891299 ], [ 77.571881362701404, 12.894444760655199 ], [ 77.571881858830395, 12.894493316393699 ], [ 77.572396388526997, 12.8945458513086 ], [ 77.572904316924493, 12.894797209699201 ], [ 77.572965894559502, 12.894683672325201 ], [ 77.572983757201499, 12.8946292894354 ], [ 77.573239440466395, 12.894303789646701 ], [ 77.573250225296505, 12.894289002434901 ], [ 77.573284352518499, 12.8942491406185 ], [ 77.573293380396507, 12.894254279170299 ], [ 77.573321405195898, 12.8942702330553 ], [ 77.5734877555563, 12.8943273206804 ], [ 77.573527075706707, 12.8943450028253 ], [ 77.573509109291706, 12.8943892229114 ], [ 77.573471220711994, 12.894511561789001 ], [ 77.573465627128002, 12.8945274272441 ], [ 77.573447510609796, 12.894556967706199 ], [ 77.573412542332306, 12.8945708635665 ], [ 77.573397014793699, 12.8945721456658 ], [ 77.573484586437104, 12.8945803185118 ], [ 77.574298627768002, 12.894597152120699 ], [ 77.575150298244793, 12.8949727345271 ], [ 77.575480286753901, 12.8951592097931 ], [ 77.5754811302467, 12.895241641389401 ], [ 77.576441513427397, 12.895722303621801 ], [ 77.577259580906201, 12.896132088287301 ], [ 77.577199546739905, 12.896227542174399 ], [ 77.577728871528606, 12.896544178887799 ], [ 77.577914342986503, 12.896631070166301 ], [ 77.5792256644133, 12.8972454028937 ], [ 77.579447025668699, 12.8968852279476 ], [ 77.579851771084094, 12.897120648835401 ], [ 77.579673487670306, 12.8969665629131 ], [ 77.579637284294805, 12.8969161011035 ], [ 77.579552803162201, 12.8968164258815 ], [ 77.579526794035701, 12.8966935876206 ], [ 77.579562331225802, 12.896566754301499 ], [ 77.579596381691402, 12.896407185648901 ], [ 77.579701789310903, 12.8959092493053 ], [ 77.579734680253694, 12.895805028301799 ], [ 77.579853469836607, 12.8954334427125 ], [ 77.5798878832138, 12.895343978971299 ], [ 77.579887884134706, 12.895343978962201 ], [ 77.579892715492804, 12.8953314185444 ], [ 77.580105148202506, 12.894886633294799 ], [ 77.580415500516096, 12.8940557872554 ], [ 77.580539697518603, 12.8936502690007 ], [ 77.580677901557394, 12.893263810814201 ], [ 77.580895125282595, 12.8921075131276 ], [ 77.580895125273301, 12.8921075122242 ], [ 77.581331641596904, 12.892130308407999 ], [ 77.581807466394494, 12.892169655508299 ], [ 77.581855950426601, 12.8912849281375 ], [ 77.582047859214299, 12.891084275675199 ], [ 77.582217921512907, 12.8908860973816 ], [ 77.582446438641298, 12.890607161098901 ], [ 77.582516840385097, 12.8905127335332 ], [ 77.582592838608406, 12.890458905810799 ], [ 77.582674869855893, 12.8904321219122 ], [ 77.583020985951407, 12.890339489463299 ], [ 77.583559131909098, 12.8901704260107 ], [ 77.583689918770702, 12.890127350043899 ], [ 77.584205653608706, 12.889961894661401 ], [ 77.584707366817398, 12.889776249384701 ], [ 77.585074473062505, 12.889654045167299 ], [ 77.585228389683294, 12.8896026405989 ], [ 77.585447310719005, 12.8895295252462 ], [ 77.585461651957402, 12.8895248663005 ], [ 77.585828954411397, 12.889421857410699 ], [ 77.586240041147903, 12.8893229324778 ], [ 77.586480759657903, 12.889279897888599 ], [ 77.587103909285304, 12.889205978507601 ], [ 77.587596465560495, 12.8891378665211 ], [ 77.588029825882799, 12.889078244330401 ], [ 77.588202878001596, 12.889059592949399 ], [ 77.588205442150596, 12.889029076378501 ], [ 77.588832815633793, 12.888923870235301 ], [ 77.589572343220297, 12.8887998542403 ], [ 77.590450261730496, 12.888648088375801 ], [ 77.590708778597502, 12.888603398594199 ], [ 77.5909671494761, 12.888542116510701 ], [ 77.591142618588407, 12.888484411590801 ], [ 77.591377859398904, 12.8884070501829 ], [ 77.591438066049506, 12.888384997166799 ], [ 77.591607821165795, 12.8883257214674 ], [ 77.591681967572796, 12.888315952644501 ], [ 77.591796340787297, 12.888300138833401 ], [ 77.591779141496104, 12.8879152175291 ], [ 77.591758030665403, 12.887429827146001 ], [ 77.591745698968793, 12.8872978282786 ], [ 77.591717103101104, 12.8869762534359 ], [ 77.591689523719793, 12.8864523022337 ], [ 77.591682763296703, 12.8863238574114 ], [ 77.591681833775496, 12.886233522513701 ], [ 77.591627885176706, 12.88585687014 ], [ 77.591551852188999, 12.885517087210401 ], [ 77.591529548829897, 12.8854174163856 ], [ 77.591412384384299, 12.884993959172499 ], [ 77.591303754602905, 12.8845049178243 ], [ 77.591196577271404, 12.8841570246902 ], [ 77.591081348690395, 12.883865676252301 ], [ 77.591042344390004, 12.883766683801101 ], [ 77.591010466649095, 12.883689077529301 ], [ 77.590979096795493, 12.8836204699215 ], [ 77.590727235075903, 12.8830673769827 ], [ 77.590677169107096, 12.882956071582401 ], [ 77.5905691612341, 12.882695142390901 ], [ 77.590560704616493, 12.8826003646784 ], [ 77.590559462292802, 12.8824795416106 ], [ 77.590607187055795, 12.8816354803648 ], [ 77.590615704813601, 12.8815123021018 ], [ 77.590616368170998, 12.8814648648329 ], [ 77.590612649855402, 12.8813271267258 ], [ 77.590611877008797, 12.8813079362314 ], [ 77.590572264812707, 12.8810937607466 ], [ 77.590552194229602, 12.8809889342186 ], [ 77.590380765973507, 12.880157205110701 ], [ 77.590192327498201, 12.8791822224473 ], [ 77.589855919633493, 12.8784255291457 ], [ 77.589658976427103, 12.8779667212149 ], [ 77.589595479170299, 12.8778363499772 ], [ 77.589610418343, 12.877833943627699 ], [ 77.589589708196996, 12.877778812568 ], [ 77.589592321478406, 12.8771119663843 ], [ 77.589593045767202, 12.8769272846536 ], [ 77.589174246026403, 12.8764413078675 ], [ 77.586243995469005, 12.874456709404001 ], [ 77.586083135716294, 12.874035937056 ], [ 77.586784582351399, 12.873631494689 ], [ 77.586901049634307, 12.873529376364001 ], [ 77.5870737722462, 12.8733779326353 ], [ 77.587295176284101, 12.873192798263601 ], [ 77.587558511827197, 12.8730558096885 ], [ 77.587967358707402, 12.872909478175 ], [ 77.588662620062095, 12.872688040308599 ], [ 77.588834266626506, 12.872645689022599 ], [ 77.5888330809168, 12.8726423128274 ], [ 77.588822455905202, 12.8726164438292 ], [ 77.588810622000395, 12.872584940254701 ], [ 77.588804083211599, 12.8725646773942 ], [ 77.588798648979505, 12.8725398863991 ], [ 77.588794917955298, 12.872512819962299 ], [ 77.588793430822903, 12.8724800848267 ], [ 77.588795673726594, 12.8723061497563 ], [ 77.588805532606798, 12.872089225845899 ], [ 77.588807667978301, 12.872016929249501 ], [ 77.588847690780895, 12.871150357106499 ], [ 77.588872880238796, 12.870464620280201 ], [ 77.588878788868598, 12.870367441694601 ], [ 77.588889426929796, 12.8698429209201 ], [ 77.588987872795698, 12.869893185143599 ], [ 77.589527708493193, 12.8701735641126 ], [ 77.590358411599397, 12.870532375887301 ], [ 77.591848500033507, 12.871547562359099 ], [ 77.592658165176204, 12.872098554773199 ], [ 77.592954031980398, 12.872719000628701 ], [ 77.593957939850696, 12.8728502238183 ], [ 77.5941922808545, 12.8729652130041 ], [ 77.594202711311596, 12.8729703306846 ], [ 77.594256219342597, 12.873145405112 ], [ 77.594259096658604, 12.873145376615 ], [ 77.594414192852696, 12.8731167372898 ], [ 77.594600422089698, 12.873093435997299 ], [ 77.594675714767604, 12.873083655790801 ], [ 77.595526516072795, 12.8729893999867 ], [ 77.595601797007504, 12.872978490342501 ], [ 77.595680460957297, 12.8729607713604 ], [ 77.595772197770003, 12.8729271126246 ], [ 77.595848280830396, 12.8728823160007 ], [ 77.595985554614401, 12.8727996460825 ], [ 77.596022140013503, 12.8727755682314 ], [ 77.596058678901201, 12.872746973642601 ], [ 77.596106930431901, 12.8726821254123 ], [ 77.596153153272994, 12.8725879355197 ], [ 77.596237774853293, 12.8723104186867 ], [ 77.596284979886605, 12.872143943949499 ], [ 77.596297901551097, 12.8721133248215 ], [ 77.596347646769303, 12.8720258758035 ], [ 77.596594565954007, 12.871042068172899 ], [ 77.596784940127193, 12.8702835514041 ], [ 77.597572575921006, 12.868862992073399 ], [ 77.597902472633905, 12.867478590555701 ], [ 77.597915713051407, 12.867413060316 ], [ 77.597953873815996, 12.8672241886851 ], [ 77.5979989047419, 12.8670337103914 ], [ 77.598062511111095, 12.866774834762699 ], [ 77.599034240013793, 12.8667276785703 ], [ 77.599271200321297, 12.8665457702218 ], [ 77.599263770501295, 12.8663832252176 ], [ 77.599540483593998, 12.866317239949201 ], [ 77.599637856543794, 12.8663840318287 ], [ 77.599720441390602, 12.866356109486899 ], [ 77.599851950684098, 12.8663288310663 ], [ 77.600566804579401, 12.866336419200699 ], [ 77.600587578583699, 12.866335318651901 ], [ 77.601537148662004, 12.866285004515699 ], [ 77.6015889340201, 12.8664324415876 ], [ 77.601601183095298, 12.866467314569 ], [ 77.601484518542705, 12.866769623982901 ], [ 77.602041514184293, 12.866753171512499 ], [ 77.602380113454302, 12.8667170597476 ], [ 77.602633267149599, 12.8666546931205 ], [ 77.602822776859497, 12.8665037442001 ], [ 77.602925585304106, 12.8663163896521 ], [ 77.6030796941495, 12.866081095217501 ], [ 77.603399251423994, 12.865370983418799 ], [ 77.603538836227301, 12.865234081656601 ], [ 77.603509243168602, 12.8649317250631 ], [ 77.603509841098003, 12.864655042296899 ], [ 77.603857817228501, 12.8648029107596 ], [ 77.604285746192701, 12.864779461072899 ], [ 77.604331568994894, 12.865092949069901 ], [ 77.604467815820897, 12.8651345082923 ], [ 77.604473382570305, 12.865283519565001 ], [ 77.604525870552294, 12.8655178907626 ], [ 77.604586545339998, 12.866043537959101 ], [ 77.604588923567704, 12.866273889932 ], [ 77.604638409893795, 12.8666076685764 ], [ 77.604662370387103, 12.867033173551199 ], [ 77.604864565364394, 12.866996155722701 ], [ 77.605005267278301, 12.8676361948169 ], [ 77.605199592028796, 12.8681187290209 ], [ 77.605325113142499, 12.8682360566316 ], [ 77.605895122009898, 12.869263689746299 ], [ 77.606070143904901, 12.8692145187531 ], [ 77.606143338853599, 12.869280418871501 ], [ 77.606260070193898, 12.8694938229721 ], [ 77.606295064547794, 12.869705781499199 ], [ 77.606417892831104, 12.869896539004699 ], [ 77.606428875036897, 12.869905949218101 ], [ 77.607141688751199, 12.869933379850201 ], [ 77.607986263654198, 12.8696844355413 ], [ 77.608023562748102, 12.8696739006597 ], [ 77.608034248763104, 12.8695710506578 ], [ 77.608047639686305, 12.869442156716 ], [ 77.608075958235801, 12.869175362589999 ], [ 77.608092726190307, 12.869015965911 ], [ 77.608076643587694, 12.8681285046863 ], [ 77.608210728983494, 12.8676268949781 ], [ 77.608304934986606, 12.8672758776728 ], [ 77.608379183807102, 12.866998462808301 ], [ 77.608857683434806, 12.8669677259384 ], [ 77.609073357525602, 12.866954285841601 ], [ 77.609303405931598, 12.8669395731565 ], [ 77.609771558728497, 12.866910066965 ], [ 77.610271337166907, 12.8668779863661 ], [ 77.610306982518793, 12.867263847628999 ], [ 77.610332077227497, 12.8675199459047 ], [ 77.610554493175698, 12.867490627333501 ], [ 77.610803908090702, 12.867456522439401 ], [ 77.610938985158398, 12.867440495875 ], [ 77.611105112708501, 12.867421901275099 ], [ 77.611120443892105, 12.867068281738501 ], [ 77.611139090262498, 12.8666457426721 ], [ 77.611457908459201, 12.866144550421 ], [ 77.611994082878297, 12.8657893776585 ], [ 77.612055970545796, 12.8657483820898 ], [ 77.612800075744502, 12.8654058984733 ], [ 77.612860517712505, 12.8659894093364 ], [ 77.612947867184801, 12.867088462395801 ], [ 77.612950437962198, 12.867114410324801 ], [ 77.612955310504205, 12.867140335302301 ], [ 77.613031931060902, 12.8675924146753 ], [ 77.613065215720297, 12.867805517666399 ], [ 77.613070135091206, 12.8678359593099 ], [ 77.613123120806804, 12.8681730871764 ], [ 77.613230833963001, 12.8681821765419 ], [ 77.613274614436406, 12.8681862570558 ], [ 77.613280606517094, 12.868709056235099 ], [ 77.613292638402399, 12.869148228069299 ], [ 77.613302482565601, 12.8693762454326 ], [ 77.613321948759506, 12.869810825942499 ], [ 77.613335722262306, 12.8698626356602 ], [ 77.613374612317401, 12.8700056669124 ], [ 77.613439886948299, 12.870251199868401 ], [ 77.613544695226807, 12.8710350071529 ], [ 77.613562752486203, 12.871166953301501 ], [ 77.613580246030907, 12.871300034352799 ], [ 77.613868700589407, 12.871256502169601 ], [ 77.614102475564593, 12.871212386028301 ], [ 77.614498234475803, 12.871138421049301 ], [ 77.614534992987799, 12.8711312784952 ], [ 77.614985581391096, 12.8711279104706 ], [ 77.615156100150898, 12.8715880851706 ], [ 77.615277824584098, 12.871616231351499 ], [ 77.615206034217806, 12.872018972853301 ], [ 77.615209278204006, 12.8723317518971 ], [ 77.615247204828705, 12.8725481956052 ], [ 77.615340753800595, 12.8730780246138 ], [ 77.615266907736498, 12.873504501623399 ], [ 77.615131125696806, 12.874285062649401 ], [ 77.615007353066204, 12.875224732727901 ], [ 77.614990261977297, 12.875352512370601 ], [ 77.614968363556798, 12.8756271468189 ], [ 77.614919069189497, 12.876256641585799 ], [ 77.615536713361294, 12.876267420879699 ], [ 77.615628235014796, 12.8762687653428 ], [ 77.615708869783404, 12.8762747356453 ], [ 77.615719228071697, 12.8762746321833 ], [ 77.616018890589501, 12.8762569582094 ], [ 77.616164940298404, 12.8762442063869 ], [ 77.616256943605805, 12.8762365115627 ], [ 77.616513141681494, 12.8761899099316 ], [ 77.616799216628493, 12.876138492400401 ], [ 77.61689005113, 12.876128829638199 ], [ 77.617478729686397, 12.8760662032669 ], [ 77.6175264341705, 12.876060080054801 ], [ 77.6175461522093, 12.8760745636227 ], [ 77.617633067296893, 12.876241957727901 ], [ 77.617682155483706, 12.87636907579 ], [ 77.617687081623799, 12.8763903036954 ], [ 77.6176960125497, 12.876428789159 ], [ 77.617665805452603, 12.8765126578903 ], [ 77.617630807039703, 12.876578506021 ], [ 77.617612356250007, 12.8766306373725 ], [ 77.617600387959698, 12.876697384577399 ], [ 77.617586598594897, 12.876810450501999 ], [ 77.617571693484194, 12.876926915423001 ], [ 77.617564973818304, 12.877055720613299 ], [ 77.617562706279102, 12.8771144658855 ], [ 77.617564115181807, 12.877139295981401 ], [ 77.617570162957605, 12.8771674675494 ], [ 77.617587179687206, 12.8771989173124 ], [ 77.6176179362906, 12.8772787888014 ], [ 77.617644453598999, 12.877338375606699 ], [ 77.617704358625502, 12.877454092677301 ], [ 77.618005531943496, 12.877803417248099 ], [ 77.618037746135698, 12.877801965881799 ], [ 77.618114273541593, 12.878520552314299 ], [ 77.618149470037295, 12.878584569354899 ], [ 77.618194073409299, 12.8786676900875 ], [ 77.618228600639597, 12.8787226795599 ], [ 77.618280661652093, 12.878803467132601 ], [ 77.618298371390196, 12.8788462026814 ], [ 77.6183163509575, 12.8789149089727 ], [ 77.6178835064309, 12.878965537642699 ], [ 77.617917114502902, 12.879264460928701 ], [ 77.617931536349403, 12.879267704566701 ], [ 77.617949434453905, 12.8792731720056 ], [ 77.617983527726295, 12.8792863824679 ], [ 77.617993956501195, 12.8792930538707 ], [ 77.618031725455097, 12.8793276838983 ], [ 77.618085924210504, 12.879392640195199 ], [ 77.618172031745701, 12.8794821215536 ], [ 77.618215731392496, 12.8795336314399 ], [ 77.618233312148405, 12.879563946191899 ], [ 77.6182670640341, 12.8796550803504 ], [ 77.618338607319899, 12.8798937722435 ], [ 77.618374319801006, 12.8800628070847 ], [ 77.618393344881198, 12.8801213393696 ], [ 77.618454471400597, 12.8803544889621 ], [ 77.618466966909807, 12.880393888781899 ], [ 77.618483443770401, 12.880428731659601 ], [ 77.618519779917605, 12.8804916078986 ], [ 77.618580426588807, 12.8805677923246 ], [ 77.618705849891498, 12.8812282956597 ], [ 77.618202757426602, 12.881442244600599 ], [ 77.617943183544597, 12.881552122247401 ], [ 77.617618862615103, 12.8816897498556 ], [ 77.617696560509998, 12.8819114411512 ], [ 77.617718685309498, 12.8820467335534 ], [ 77.617728748677393, 12.882184405127299 ], [ 77.617721195913504, 12.8822883744542 ], [ 77.617698199222801, 12.8824015324697 ], [ 77.617712524993706, 12.8826170817616 ], [ 77.617739815731198, 12.882917197411301 ], [ 77.617782739418104, 12.883115521466101 ], [ 77.617758332006403, 12.8833698536365 ], [ 77.617735956637205, 12.883598192039701 ], [ 77.617734358726494, 12.883665964838899 ], [ 77.617728343656694, 12.883862519769 ], [ 77.617762646698097, 12.884117394020899 ], [ 77.617791876668804, 12.8843271477852 ], [ 77.617849761380498, 12.8847466610233 ], [ 77.618214673570293, 12.884748657090199 ], [ 77.618336577939203, 12.885236415644201 ], [ 77.618406139254503, 12.8854502828155 ], [ 77.618574293618195, 12.8861239094539 ], [ 77.618594763932904, 12.8862106591348 ], [ 77.618656715257799, 12.886467514903799 ], [ 77.618663914548307, 12.886495674844401 ], [ 77.618734803571002, 12.8867818023844 ], [ 77.618769038494193, 12.8869192318434 ], [ 77.618824578104693, 12.8870575773523 ], [ 77.618867727343499, 12.887166685586401 ], [ 77.618949704012195, 12.887356713290099 ], [ 77.6190200185751, 12.887476842374101 ], [ 77.619069885850294, 12.887623149506499 ], [ 77.619158827320604, 12.8879294230911 ], [ 77.619176162306701, 12.887991359903999 ], [ 77.619194495604404, 12.888038606096099 ], [ 77.619259971752598, 12.8881361979132 ], [ 77.619309064219195, 12.888207980307101 ], [ 77.619500372412602, 12.888451118549099 ], [ 77.619558003349695, 12.8885137811588 ], [ 77.619704564790496, 12.888660249226 ], [ 77.619788903174694, 12.8887452299192 ], [ 77.619879113965496, 12.888841444553799 ], [ 77.619903625117004, 12.888873948181001 ], [ 77.620456045498102, 12.8888085642373 ], [ 77.620608373246, 12.8887900993857 ], [ 77.620772140176896, 12.8887647442016 ], [ 77.620964630986407, 12.8887345244478 ], [ 77.621041056539198, 12.8887225257028 ], [ 77.621107648416896, 12.8887060487156 ], [ 77.621272988840602, 12.888665996871101 ], [ 77.621331970062897, 12.8886371740324 ], [ 77.621376505348593, 12.8886028495309 ], [ 77.6214478670815, 12.8887681382617 ], [ 77.621470652440607, 12.888855993565 ], [ 77.622186720745802, 12.888753958766101 ], [ 77.622765106724799, 12.888695085511401 ], [ 77.622772012551394, 12.8886950162854 ], [ 77.623032788968104, 12.8886449724748 ], [ 77.623080483676503, 12.8886377186644 ], [ 77.623327755584995, 12.888595832341 ], [ 77.623412561239107, 12.8885813132861 ], [ 77.623658116837802, 12.888561911936099 ], [ 77.623927443708595, 12.888559211093099 ], [ 77.6240927019373, 12.888566587924201 ], [ 77.624173986469998, 12.888579323983 ], [ 77.624308896981105, 12.888601685616701 ], [ 77.624473110145004, 12.888619236151699 ], [ 77.624811976360206, 12.8886068026502 ], [ 77.625503355225703, 12.8885659875766 ], [ 77.625556276205401, 12.8885631979794 ], [ 77.625537233998202, 12.8883928687534 ], [ 77.626519996252398, 12.888422529753299 ], [ 77.626798434200495, 12.8883553659809 ], [ 77.627051878824503, 12.8882647381627 ], [ 77.627550794928396, 12.8881468011834 ], [ 77.627886862749705, 12.888086962521101 ], [ 77.628288959464797, 12.8880671139753 ], [ 77.628576372232402, 12.8880879414574 ], [ 77.628634262180398, 12.8881201087446 ], [ 77.628634515037604, 12.8889162422902 ], [ 77.628537773449295, 12.889187110016399 ], [ 77.628549412785603, 12.889199415060499 ], [ 77.628548329077105, 12.889426409431501 ], [ 77.628609228267095, 12.890132721205999 ], [ 77.628912854971603, 12.890548629707 ], [ 77.628928428488507, 12.8905518610177 ], [ 77.629083359142399, 12.890727599512401 ], [ 77.629203569805796, 12.8908302842532 ], [ 77.629249375270405, 12.8908625727234 ], [ 77.629277578781895, 12.8909729577521 ], [ 77.629346651331204, 12.891304268966801 ], [ 77.629399806192794, 12.8915442692388 ], [ 77.629428295321006, 12.891737088072601 ], [ 77.629434238908203, 12.8917550966503 ], [ 77.629473891105306, 12.8918043859479 ], [ 77.629675543852997, 12.8919898176255 ], [ 77.629708054360407, 12.892016593269499 ], [ 77.629821086285304, 12.892038042300999 ], [ 77.629856344510998, 12.892052368329701 ], [ 77.629870885101695, 12.8920669026474 ], [ 77.629936661119501, 12.892192719541301 ], [ 77.629955994383295, 12.8922252739802 ], [ 77.630179406221103, 12.892565196281399 ], [ 77.630215448377299, 12.8927647145533 ], [ 77.631580799573996, 12.892613210612501 ], [ 77.632800547066594, 12.892406991150001 ], [ 77.632784977158906, 12.8920921427954 ], [ 77.632751647137994, 12.8914603522921 ], [ 77.6327236632237, 12.8907007733141 ], [ 77.632761128301098, 12.8902196020369 ], [ 77.632761945784594, 12.890209097945799 ], [ 77.632874001958896, 12.889409525723799 ], [ 77.632645972588506, 12.889404406077601 ], [ 77.631474179333395, 12.889255415818999 ], [ 77.631495261586295, 12.8886136310088 ], [ 77.631665737279405, 12.8880050230477 ], [ 77.631809006780401, 12.887647493858699 ], [ 77.6318511337183, 12.8875317293656 ], [ 77.6319106875019, 12.887368075737299 ], [ 77.632053650827999, 12.8870354928889 ], [ 77.632330754646304, 12.886097883736801 ], [ 77.632429608113895, 12.886103559259 ], [ 77.633242812198503, 12.886150248307899 ], [ 77.634095409433897, 12.8862325112609 ], [ 77.634569338756293, 12.8862592360138 ], [ 77.634788187740895, 12.8863281763842 ], [ 77.635195320383005, 12.8863816034254 ], [ 77.635103153078404, 12.886782357615401 ], [ 77.634979345085299, 12.887380986025001 ], [ 77.634945932238907, 12.8877630143757 ], [ 77.635029908171603, 12.8878129856681 ], [ 77.635173872146595, 12.8878205699523 ], [ 77.6353959557688, 12.887758482148 ], [ 77.635715857154096, 12.887309200130099 ], [ 77.636074309760602, 12.886969068268201 ], [ 77.636397010313104, 12.886787393357899 ], [ 77.636554083843393, 12.8866728843172 ], [ 77.636844131475797, 12.886450884454799 ], [ 77.636838723826102, 12.8863741489627 ], [ 77.636981729239807, 12.886290271638201 ], [ 77.637051601792905, 12.886367486761801 ], [ 77.6375460833533, 12.8861569772432 ], [ 77.637507302108403, 12.8859710395701 ], [ 77.638020776979303, 12.885815671845499 ], [ 77.638307464321002, 12.885767611182199 ], [ 77.638211135239004, 12.8854173814108 ], [ 77.638928462576104, 12.885218174361 ], [ 77.638798341017605, 12.8849083248013 ], [ 77.638439823255894, 12.884128320189699 ], [ 77.638254237997899, 12.8836978484229 ], [ 77.638230360427897, 12.883701446180501 ], [ 77.637687581471496, 12.883711468130199 ], [ 77.637555611324004, 12.8837002794928 ], [ 77.637389147429403, 12.883151328621 ], [ 77.637310041693695, 12.8828517413948 ], [ 77.637193865162402, 12.8819246565696 ], [ 77.637136128868093, 12.8813572181758 ], [ 77.637061571159805, 12.8807221932702 ], [ 77.636959184185997, 12.8799575831077 ], [ 77.636967847999799, 12.8799055496635 ], [ 77.636985120061894, 12.8798511709855 ], [ 77.637022367746695, 12.8797807813998 ], [ 77.637358576906493, 12.879240994130599 ], [ 77.637575348931605, 12.8788921262879 ], [ 77.637641948227397, 12.8788767749332 ], [ 77.637699186577393, 12.8788468374328 ], [ 77.637789612266204, 12.8787984973484 ], [ 77.637955671605198, 12.878608237220201 ], [ 77.638064914310107, 12.8784332299163 ], [ 77.638212026784004, 12.878192343722301 ], [ 77.638249498516501, 12.878143407818101 ], [ 77.638402262577799, 12.877947635181901 ], [ 77.638628515143296, 12.8776799783575 ], [ 77.638672233959298, 12.8776230746236 ], [ 77.638851641723804, 12.877388638392 ], [ 77.639061110674504, 12.877112116392601 ], [ 77.639140562537094, 12.877005164907599 ], [ 77.639339795044094, 12.876630500075001 ], [ 77.639448472462405, 12.8764566274657 ], [ 77.639548084442595, 12.876296397366801 ], [ 77.639650841572006, 12.876106774715799 ], [ 77.639697129730607, 12.876020484166499 ], [ 77.639743134073896, 12.875907094168801 ], [ 77.6397796079996, 12.875707976267901 ], [ 77.639819309919105, 12.8754873698401 ], [ 77.639824181511202, 12.8754579599037 ], [ 77.639873326365404, 12.875292577713999 ], [ 77.639972611199298, 12.874958458882199 ], [ 77.640120433532502, 12.874510910069301 ], [ 77.640156645900603, 12.874437990367101 ], [ 77.640138236763903, 12.874342470486599 ], [ 77.640040671459502, 12.8735439359978 ], [ 77.640073202065494, 12.873282889364299 ], [ 77.640100131500503, 12.8730667878333 ], [ 77.640242659954893, 12.872498461406201 ], [ 77.640447939961405, 12.872337912446399 ], [ 77.640593717808002, 12.872223899773401 ], [ 77.640860264343999, 12.8720676330649 ], [ 77.641047065123303, 12.871990089229699 ], [ 77.641299008610005, 12.8719231810742 ], [ 77.6419592410044, 12.8718261822257 ], [ 77.642384370178206, 12.8716457295666 ], [ 77.642462298366695, 12.871613324195099 ], [ 77.642859873771897, 12.871549462658599 ], [ 77.643081285082999, 12.871509262592999 ], [ 77.643709417807699, 12.871395215982201 ], [ 77.644405134268396, 12.871279785124401 ], [ 77.645062177134704, 12.8711534504256 ], [ 77.645555949591795, 12.871043443407601 ], [ 77.645635087111003, 12.871016671275999 ], [ 77.646365979879505, 12.8708534514828 ], [ 77.646665152799699, 12.870790578549499 ], [ 77.647554590501599, 12.870599781009799 ], [ 77.648303863630602, 12.87048831627 ], [ 77.648369344311504, 12.8704763617755 ], [ 77.648539191496994, 12.8704470186252 ], [ 77.648838722283301, 12.8703818893903 ], [ 77.648928654411804, 12.870369934172601 ], [ 77.649146773359604, 12.870415590132099 ], [ 77.649370833612394, 12.8703944910965 ], [ 77.649581426535306, 12.870355969517499 ], [ 77.649586029238705, 12.8704369185582 ], [ 77.650084968637302, 12.870424508372301 ], [ 77.650234584201797, 12.8703788157499 ], [ 77.650628855800207, 12.8704042788438 ], [ 77.650714957635302, 12.870385000848501 ], [ 77.651728791062297, 12.8699025966552 ], [ 77.653190126677302, 12.869535475188201 ], [ 77.653328178328806, 12.869541308873201 ], [ 77.653578178705104, 12.8695518717445 ], [ 77.653727180387804, 12.8696565122377 ], [ 77.653740087558205, 12.869657178302599 ], [ 77.655482799440904, 12.8697471319804 ], [ 77.655447339591504, 12.8690575194945 ], [ 77.655956103553905, 12.8690060634439 ], [ 77.656360004378598, 12.868997451836799 ], [ 77.656644502141603, 12.8690171523081 ], [ 77.656644659115202, 12.869578387591501 ], [ 77.657122969001506, 12.8695859588584 ], [ 77.657151470704605, 12.869068473837901 ], [ 77.657138962965007, 12.868973743781099 ], [ 77.657669635143606, 12.868980783224901 ], [ 77.657671162420002, 12.8690711076061 ], [ 77.657670208515896, 12.8693082594465 ], [ 77.657672632503903, 12.8694290644359 ], [ 77.657672997066896, 12.869518271359899 ], [ 77.657677623307606, 12.869684223942301 ], [ 77.657683142928207, 12.8697711200747 ], [ 77.657684217192696, 12.869982278617799 ], [ 77.657689724943694, 12.870068045619 ], [ 77.657697672092695, 12.8703852837757 ], [ 77.657701529244207, 12.8704236390886 ], [ 77.657579681380895, 12.8704384261389 ], [ 77.657598300723606, 12.870566971575499 ], [ 77.657635802133697, 12.8706851622219 ], [ 77.657656175872503, 12.870761744424 ], [ 77.6576680686657, 12.870907296804999 ], [ 77.657691950297504, 12.871043693568801 ], [ 77.657685366453805, 12.871074250065099 ], [ 77.657668436784903, 12.871106040768 ], [ 77.657632870201397, 12.871128986553799 ], [ 77.657582550801195, 12.8711475650056 ], [ 77.657320749951197, 12.8712066831879 ], [ 77.657168594257399, 12.8712398455315 ], [ 77.657116337234896, 12.8712505388163 ], [ 77.657056071778996, 12.871265830314201 ], [ 77.656975145960999, 12.8713411815353 ], [ 77.656897132935995, 12.8714198909444 ], [ 77.656875650860201, 12.8714398047281 ], [ 77.656751801993593, 12.871554616271 ], [ 77.656677384171999, 12.8716468401652 ], [ 77.656624896580993, 12.8716902839331 ], [ 77.656591854669102, 12.8717222379983 ], [ 77.656480331094997, 12.8718430693866 ], [ 77.656428525917406, 12.871896669451299 ], [ 77.656357862318302, 12.871962882488001 ], [ 77.656207554090599, 12.872116855331701 ], [ 77.656187663749805, 12.8721407712597 ], [ 77.6561717895367, 12.872163517213799 ], [ 77.656144199967201, 12.872221388694101 ], [ 77.656132187252595, 12.872228285999199 ], [ 77.655954611949497, 12.8723068755134 ], [ 77.655968508415896, 12.872424176570901 ], [ 77.655514781244804, 12.872838418013201 ], [ 77.655485706850101, 12.8728649619578 ], [ 77.654988995520796, 12.873187316460101 ], [ 77.654693954156699, 12.873314524474999 ], [ 77.654519159583003, 12.8733840510428 ], [ 77.654429748226804, 12.8734188347005 ], [ 77.654293774067895, 12.8734586071979 ], [ 77.653986807162894, 12.873546411596299 ], [ 77.653986481332396, 12.873570129172199 ], [ 77.654003430037406, 12.873676107042799 ], [ 77.654036619826996, 12.873795471351 ], [ 77.654061199330798, 12.8738889501239 ], [ 77.654095620729393, 12.873987975413799 ], [ 77.654134355517499, 12.874114059007301 ], [ 77.654178530822705, 12.874264930974199 ], [ 77.654256385897398, 12.874499026166699 ], [ 77.654292866690099, 12.874629649549901 ], [ 77.654341847859598, 12.874799670007301 ], [ 77.654405738230594, 12.875019226363699 ], [ 77.654464894440906, 12.875226408908199 ], [ 77.654525004241194, 12.8753601804646 ], [ 77.654585582542893, 12.8754837839905 ], [ 77.654611063708501, 12.875553539233801 ], [ 77.654619440928798, 12.8755839440811 ], [ 77.654642777482195, 12.8757779386082 ], [ 77.654646237351898, 12.8758332368088 ], [ 77.654659204144096, 12.8760262071914 ], [ 77.654665619830496, 12.8761435841995 ], [ 77.654670730058001, 12.876246294184 ], [ 77.654691037639097, 12.8765351764184 ], [ 77.654698830238402, 12.876673995215199 ], [ 77.654716621105095, 12.8768729739629 ], [ 77.654730266301002, 12.8769266285969 ], [ 77.654738805514, 12.8770270453034 ], [ 77.654744831912396, 12.8770998416294 ], [ 77.654771775945505, 12.877425336386199 ], [ 77.654793361178307, 12.8777808313619 ], [ 77.654806953105293, 12.8779681490862 ], [ 77.654815077408301, 12.8781487467406 ], [ 77.654819517302201, 12.8782424294865 ], [ 77.654820818297296, 12.8783113005546 ], [ 77.654816959543396, 12.8784366864463 ], [ 77.654813212361901, 12.878518030451 ], [ 77.654811484380105, 12.878681789241799 ], [ 77.654811225581, 12.878766485625601 ], [ 77.654810184628502, 12.8788861966936 ], [ 77.654812910138602, 12.8789810260671 ], [ 77.654814437180804, 12.879071350591699 ], [ 77.654821761816294, 12.879220337332599 ], [ 77.654826011488296, 12.8792959539962 ], [ 77.654832876716995, 12.8793467006351 ], [ 77.654839658682803, 12.879389543366999 ], [ 77.654852269488003, 12.879548639746501 ], [ 77.654885213575398, 12.8798870580935 ], [ 77.6548967339169, 12.879999888850699 ], [ 77.654911610981401, 12.8801555744772 ], [ 77.654922202613207, 12.8802322560623 ], [ 77.654935754790003, 12.8803168123712 ], [ 77.654930666491097, 12.8803801019686 ], [ 77.655076549577501, 12.8808980773815 ], [ 77.655176321224005, 12.8812844459699 ], [ 77.655357991414505, 12.8819917240354 ], [ 77.655650572633206, 12.8831044540773 ], [ 77.655724119506601, 12.8833114896849 ], [ 77.655760281831903, 12.8834116259253 ], [ 77.656231315933795, 12.884418652805399 ], [ 77.656495234678204, 12.8849410745706 ], [ 77.656905014451198, 12.884887227812699 ], [ 77.657020539171398, 12.884872503986299 ], [ 77.657048234007803, 12.8848688160954 ], [ 77.657341804835198, 12.8848297184414 ], [ 77.657600527464794, 12.884750302473 ], [ 77.657656779616403, 12.884736180273199 ], [ 77.657710409794305, 12.8847240324148 ], [ 77.658058684278203, 12.8846451466283 ], [ 77.658141455172796, 12.8846352719848 ], [ 77.658669670975101, 12.8845700564491 ], [ 77.659140439067599, 12.884460253748401 ], [ 77.659311127159995, 12.8843828599492 ], [ 77.659475508928793, 12.884307788631499 ], [ 77.659526597100907, 12.8843213453136 ], [ 77.659717329377401, 12.8843719567377 ], [ 77.660043331247294, 12.884287337854699 ], [ 77.660161374808496, 12.8842387097611 ], [ 77.660238164217006, 12.8842074396287 ], [ 77.660374232720699, 12.884196717226599 ], [ 77.660534310304698, 12.8841841028971 ], [ 77.660782907978998, 12.8841815756498 ], [ 77.661150899624602, 12.8842038068322 ], [ 77.661410941005101, 12.8843039238547 ], [ 77.661930251398601, 12.884376560307601 ], [ 77.662492312812802, 12.8844645701655 ], [ 77.663116683882606, 12.8844582175463 ], [ 77.663191445546602, 12.8844529398181 ], [ 77.663594566231396, 12.884422864814001 ], [ 77.664651431111693, 12.8843341888499 ], [ 77.665928418920899, 12.8842172940802 ], [ 77.666282937216593, 12.8841697687504 ], [ 77.666282938146907, 12.8841697696443 ], [ 77.666393352541405, 12.884154967414901 ], [ 77.666774775754007, 12.8840325110391 ], [ 77.666893403774694, 12.8839850034456 ], [ 77.667011576750596, 12.883948792839799 ], [ 77.667129689908904, 12.8839069365985 ], [ 77.667511243713093, 12.883796899580901 ], [ 77.668141775713295, 12.883604505824399 ], [ 77.668141775745397, 12.883604505543 ], [ 77.668181279379596, 12.8835924520791 ], [ 77.667820717338699, 12.885575683376301 ], [ 77.667872448055206, 12.8855637976694 ], [ 77.669307117415599, 12.885234176456001 ], [ 77.6706561689371, 12.884966334594701 ], [ 77.6710904859641, 12.884884169090601 ], [ 77.672328141851594, 12.8846500197119 ], [ 77.673753023776698, 12.8843700963612 ], [ 77.674341255921405, 12.8838333464111 ], [ 77.674223939378393, 12.8824320368938 ], [ 77.674152840292706, 12.881209803029501 ], [ 77.674060278644703, 12.8801752970118 ], [ 77.674028779449301, 12.879823241715 ], [ 77.673705884546607, 12.8798739673926 ], [ 77.672943015313294, 12.8800059731276 ], [ 77.671981736742694, 12.8801512942493 ], [ 77.671041220212203, 12.880300917148601 ], [ 77.671291627408394, 12.879981046743399 ], [ 77.671620955061002, 12.8795598688554 ], [ 77.672112223793704, 12.8788886061458 ], [ 77.672473665627095, 12.8784569368086 ], [ 77.672714152514899, 12.878341558521999 ], [ 77.673243391007205, 12.8780493299593 ], [ 77.673433768772895, 12.8776589294626 ], [ 77.673574249244098, 12.8774474574706 ], [ 77.673751534907893, 12.8770707413944 ], [ 77.673857405901401, 12.8767433115926 ], [ 77.6740235295253, 12.8763994572545 ], [ 77.674058189401407, 12.876327444828499 ], [ 77.674078148716504, 12.876285976083 ], [ 77.674259845775495, 12.875782740657 ], [ 77.674427118869204, 12.8754930777583 ], [ 77.674576995729595, 12.8753537805931 ], [ 77.674612937179603, 12.8752156469944 ], [ 77.674746800243398, 12.8747061246332 ], [ 77.674889106211197, 12.8741634186716 ], [ 77.674971355193406, 12.8738490012918 ], [ 77.675214427464297, 12.872917813510901 ], [ 77.675288782742697, 12.872632962420701 ], [ 77.674295219267606, 12.871304965519199 ], [ 77.673691373183601, 12.8705296987076 ], [ 77.672799470872206, 12.8692898650099 ], [ 77.672892636691003, 12.8682522761295 ], [ 77.672444389114702, 12.8682026450142 ], [ 77.6722654348563, 12.8682044701647 ], [ 77.672086278467702, 12.8681328968831 ], [ 77.671144871069103, 12.8678138875222 ], [ 77.670830219113896, 12.8676635186083 ], [ 77.670224243513502, 12.8673919019002 ], [ 77.6699481639006, 12.867226547996999 ], [ 77.669864592381401, 12.867176494335199 ], [ 77.669487603966104, 12.867062894260201 ], [ 77.668838042640701, 12.8668052686628 ], [ 77.667820990664893, 12.866406839930701 ], [ 77.667085926958805, 12.866335275233901 ], [ 77.667045989485999, 12.8662046897593 ], [ 77.666559249182896, 12.866215289173899 ], [ 77.666455736041996, 12.8659920850502 ], [ 77.666436758482405, 12.865951163820499 ], [ 77.665949948575701, 12.865192749078499 ], [ 77.665570711307296, 12.8645935912157 ], [ 77.665323856360402, 12.8642144177907 ], [ 77.665197862247098, 12.864054217339699 ], [ 77.664989542968996, 12.863563985755301 ], [ 77.664925610053501, 12.8633952493658 ], [ 77.6647719556223, 12.863201846390201 ], [ 77.664668409015704, 12.863071512989499 ], [ 77.664621467556799, 12.86282242747 ], [ 77.664506232297995, 12.862373030839899 ], [ 77.664006716917697, 12.8624266652572 ], [ 77.663837350533797, 12.861919097509899 ], [ 77.663744981517695, 12.861018899515001 ], [ 77.663643720675907, 12.860857317249399 ], [ 77.663569912472795, 12.860679646587799 ], [ 77.663345646882604, 12.8605317355127 ], [ 77.663042129615505, 12.8602355689371 ], [ 77.662331763273698, 12.8596668685091 ], [ 77.662196095251105, 12.859571131005399 ], [ 77.661842313855104, 12.859316623377699 ], [ 77.661816865768699, 12.859298316176501 ], [ 77.661677277473302, 12.859212781338799 ], [ 77.661246167806297, 12.858931458152 ], [ 77.661142492724295, 12.858868143368801 ], [ 77.661148984891994, 12.8587743500423 ], [ 77.660537014374299, 12.8585863299128 ], [ 77.660228600326306, 12.858589459129201 ], [ 77.659649950616796, 12.8586145264271 ], [ 77.659307012316802, 12.8586180047546 ], [ 77.659012932413205, 12.8585069331196 ], [ 77.658563784778394, 12.8583703314314 ], [ 77.657660247720301, 12.8581457363066 ], [ 77.657491298679005, 12.858386849472399 ], [ 77.657494427112198, 12.858324206765401 ], [ 77.657550706799299, 12.8571971478856 ], [ 77.656586051524002, 12.856960745708401 ], [ 77.656381578332201, 12.856997823795099 ], [ 77.656443132480902, 12.856503717899599 ], [ 77.656298653719801, 12.8564453310976 ], [ 77.656154578908797, 12.8564253346296 ], [ 77.655949797164197, 12.8564330549183 ], [ 77.655754131975797, 12.856377444678801 ], [ 77.655753502470304, 12.856317600758301 ], [ 77.655795804654304, 12.8559625876062 ], [ 77.655848465225304, 12.855717006896199 ], [ 77.655509229253994, 12.8555250815861 ], [ 77.655284191604196, 12.8562331421106 ], [ 77.654913125718593, 12.856188341055899 ], [ 77.654934141349401, 12.856052618116999 ], [ 77.654445806569996, 12.855855425210001 ], [ 77.653077027552897, 12.855494363666701 ], [ 77.653118319459296, 12.8553166532178 ], [ 77.652945594076996, 12.855198699607501 ], [ 77.652603643578004, 12.8549672735658 ], [ 77.652140095295806, 12.854828546134801 ], [ 77.651815751073997, 12.854739226830199 ], [ 77.651614060275506, 12.8547672388216 ], [ 77.651447267619005, 12.8546661628572 ], [ 77.651335588083398, 12.8546074413235 ], [ 77.650624930366007, 12.8543910316405 ], [ 77.6503435624914, 12.8543938749406 ], [ 77.650393924107703, 12.8538739085397 ], [ 77.649949455939804, 12.853688684334401 ], [ 77.649960211286299, 12.853178152030999 ], [ 77.650008102074807, 12.852971014397299 ], [ 77.650140413177994, 12.8529120856593 ], [ 77.650277780752901, 12.8521834571774 ], [ 77.650077243823105, 12.8521019181672 ], [ 77.649795010282602, 12.8522414091365 ], [ 77.649619215240904, 12.852927514047501 ], [ 77.649215133176895, 12.8527520435448 ], [ 77.649312236251504, 12.852134488836301 ], [ 77.648655349174504, 12.852106115047199 ], [ 77.648205817859704, 12.851986435095901 ], [ 77.647726847240406, 12.8518580173592 ], [ 77.647635494524906, 12.8522011044909 ], [ 77.647594513618102, 12.852353967914301 ], [ 77.646629292474302, 12.852116400225 ], [ 77.646377507799997, 12.852141525511099 ], [ 77.646199885045306, 12.8521049224929 ], [ 77.646170469109094, 12.8520984436626 ], [ 77.646145099215801, 12.8518739770092 ], [ 77.645753678912399, 12.8516983726714 ], [ 77.645595959958897, 12.8519687270354 ], [ 77.645180846326298, 12.851838531133399 ], [ 77.644905462421505, 12.8517532254383 ], [ 77.644909683878495, 12.8521563287423 ], [ 77.644019593147405, 12.8516469707101 ], [ 77.643129504687707, 12.8511376089464 ], [ 77.642879918715195, 12.851207879072399 ], [ 77.642900962457901, 12.851404158636701 ], [ 77.642957786676803, 12.8519832786943 ], [ 77.642978301038994, 12.8526945746389 ], [ 77.643014906622795, 12.8536941552293 ], [ 77.643011792241694, 12.854021093378799 ], [ 77.642966018317793, 12.8546433179042 ], [ 77.642900580808799, 12.855931372511 ], [ 77.642907153641403, 12.8562294313097 ], [ 77.642916976773506, 12.857002876412301 ], [ 77.642916369719501, 12.8570548285561 ], [ 77.642893662548303, 12.858293857165201 ], [ 77.642874038797302, 12.8589478972801 ], [ 77.642844022543898, 12.8594337822057 ], [ 77.642828466743197, 12.8594870142872 ], [ 77.642590951507998, 12.860326191050699 ], [ 77.642532460310505, 12.8605108502316 ], [ 77.6424739808742, 12.860696638556099 ], [ 77.642254042069197, 12.861345922248701 ], [ 77.642005319218299, 12.8623241112332 ], [ 77.641866949895402, 12.8630143555452 ], [ 77.641796661139594, 12.863611314250299 ], [ 77.641792507019304, 12.8636542680715 ], [ 77.641732253465904, 12.8636706850185 ], [ 77.641478237110604, 12.8637037351108 ], [ 77.641264912107403, 12.864270516006099 ], [ 77.641223690248097, 12.8644007965752 ], [ 77.641331761483698, 12.8650490332691 ], [ 77.6409419649749, 12.865048636961401 ], [ 77.6405174431478, 12.8650482046879 ], [ 77.639494576017, 12.8649616398314 ], [ 77.638836115958, 12.864905912397999 ], [ 77.638693998077102, 12.8643031868161 ], [ 77.638605443166696, 12.863944345246701 ], [ 77.638448811697401, 12.8633096436873 ], [ 77.637394184382998, 12.862891136341601 ], [ 77.636804811815594, 12.8631037213336 ], [ 77.636428710801596, 12.8631289604721 ], [ 77.635768695332999, 12.862969595823399 ], [ 77.635244861797204, 12.8629556650771 ], [ 77.634748334966105, 12.8627460954771 ], [ 77.634621657618396, 12.8626841297142 ], [ 77.634563809038298, 12.862655350162999 ], [ 77.634544032539694, 12.862635222103 ], [ 77.6345259587291, 12.862612818392501 ], [ 77.634184398968401, 12.8621430875572 ], [ 77.6342540515802, 12.8619244388636 ], [ 77.633226272357604, 12.861651318244901 ], [ 77.633014410274896, 12.8615879486248 ], [ 77.632942822712195, 12.861566082240101 ], [ 77.632239998650505, 12.8612505863052 ], [ 77.632192336714994, 12.8612291913478 ], [ 77.631727118436203, 12.8608758832093 ], [ 77.631644490717505, 12.8607886295489 ], [ 77.631466190679305, 12.860687655638101 ], [ 77.631333242796899, 12.8605760629621 ], [ 77.631167661046106, 12.8604806075017 ], [ 77.631067182581603, 12.860337069197 ], [ 77.6308348265745, 12.860129356458501 ], [ 77.630637665484997, 12.8599303244848 ], [ 77.630392850314706, 12.858582171913 ], [ 77.629886628314395, 12.8579932525389 ], [ 77.629062798300197, 12.8569117653898 ], [ 77.627276301972202, 12.8570550189465 ], [ 77.626826283825096, 12.857165678929601 ], [ 77.626449729675798, 12.857382474304799 ], [ 77.626349197840895, 12.8574403541809 ], [ 77.625478504314202, 12.8575507078424 ], [ 77.624556981284599, 12.8576431223314 ], [ 77.623635456945806, 12.8577355346108 ], [ 77.622713931279193, 12.8578279428739 ], [ 77.621398999608701, 12.8579415970139 ], [ 77.620279674238901, 12.8579392329349 ], [ 77.619720086750405, 12.8579730560381 ], [ 77.619506643365895, 12.8580246508277 ], [ 77.619042723013905, 12.858136792358099 ], [ 77.618849038411497, 12.857828174485901 ], [ 77.618907560937998, 12.857589311703901 ], [ 77.618062936212297, 12.857439646182 ], [ 77.617274519981606, 12.857493816884 ], [ 77.616794749018794, 12.8575663618763 ], [ 77.616398056568698, 12.855826706855099 ], [ 77.615488467108193, 12.8552937231585 ], [ 77.614974502341099, 12.8548426171368 ], [ 77.614361269841098, 12.854252467867401 ], [ 77.614115292964797, 12.853894677467901 ], [ 77.613590192589697, 12.853145547257199 ], [ 77.613197932902295, 12.852609656496499 ], [ 77.612880469169596, 12.852016555546699 ], [ 77.612701772682001, 12.851653575739499 ], [ 77.612216468817294, 12.851691157775999 ], [ 77.6115716034667, 12.851490918436101 ], [ 77.611107160850906, 12.851431171961901 ], [ 77.610537100332806, 12.8513973199471 ], [ 77.609852770900105, 12.8513318540505 ], [ 77.609176427173196, 12.851259531140901 ], [ 77.609170762901599, 12.8511754048147 ], [ 77.609064270107694, 12.8495938150611 ], [ 77.609039700205898, 12.8486635246317 ], [ 77.609065660156702, 12.848223972795299 ], [ 77.609064911406094, 12.847538501330501 ], [ 77.609139372680005, 12.846891807253799 ], [ 77.609323408302799, 12.846045268818701 ], [ 77.608389165462498, 12.846686958153001 ], [ 77.6071859834056, 12.847476995592199 ], [ 77.606645670153497, 12.847648368932299 ], [ 77.605978472080196, 12.8478481043794 ], [ 77.605465710938802, 12.8479570908569 ], [ 77.604553663928897, 12.8482416923753 ], [ 77.603928122013599, 12.8483517954822 ], [ 77.603455844664197, 12.848368903788 ], [ 77.602858751208203, 12.848391766528 ], [ 77.602671791801299, 12.848398138115501 ], [ 77.602171777557302, 12.848292426042899 ], [ 77.601280169677494, 12.8481036392803 ], [ 77.600626994208696, 12.8481010789551 ], [ 77.600486595818595, 12.848102470322001 ], [ 77.600400942281496, 12.847999423814301 ], [ 77.600196034999001, 12.8479393429207 ], [ 77.599914153814197, 12.847981061349399 ], [ 77.599844387939498, 12.8479913868133 ], [ 77.599366151845999, 12.8480446842237 ], [ 77.599183312872398, 12.848060046854499 ], [ 77.598986954558697, 12.8481037757086 ], [ 77.598616131558401, 12.8482497397142 ], [ 77.598227687030104, 12.8482490689345 ], [ 77.597777923035807, 12.8483291848504 ], [ 77.5974046809757, 12.8484638782791 ], [ 77.596893334327305, 12.848655273718901 ], [ 77.5965570331809, 12.848800893513401 ], [ 77.596338383466801, 12.848859522046601 ], [ 77.595616974043907, 12.8491614065685 ], [ 77.5953985139694, 12.8487344331778 ], [ 77.5952287878101, 12.848401838773301 ], [ 77.595181952888893, 12.8481561143376 ], [ 77.5948495654455, 12.8474502000757 ], [ 77.594578765678804, 12.8465212037288 ], [ 77.594524479364594, 12.846334276323701 ], [ 77.594423949834393, 12.8457909466474 ], [ 77.594391034859399, 12.845611713015 ], [ 77.594321208254499, 12.8439670102315 ], [ 77.594305693949394, 12.843632890152399 ], [ 77.594304762528594, 12.8434860900865 ], [ 77.594218766532407, 12.8427325661076 ], [ 77.594073077317105, 12.841937847620899 ], [ 77.594161065963206, 12.841932460983299 ], [ 77.594119335858494, 12.8417326371793 ], [ 77.593851182307205, 12.840445972706799 ], [ 77.593851044592199, 12.840445525072999 ], [ 77.5934999567462, 12.8393043290194 ], [ 77.593272167539396, 12.8385273595374 ], [ 77.592853761891604, 12.8371187322905 ], [ 77.592319823985207, 12.8360590694174 ], [ 77.5917858912252, 12.8349994045256 ], [ 77.591536909632197, 12.8345117428408 ], [ 77.591211897419697, 12.8346346555564 ], [ 77.5906504106119, 12.8348728308925 ], [ 77.590542045903405, 12.834911166745201 ], [ 77.590535818446696, 12.835539122135399 ], [ 77.589881158276597, 12.835445069916 ], [ 77.589560671943602, 12.8354482298245 ], [ 77.589251199605499, 12.8352344538736 ], [ 77.589050832687604, 12.8350546105587 ], [ 77.588369642950695, 12.834561040875 ], [ 77.587488931826002, 12.833913589792299 ], [ 77.587078573550301, 12.833625140624401 ], [ 77.586435960840603, 12.8340335025605 ], [ 77.5852838918982, 12.8347608260749 ], [ 77.584326384050001, 12.835382334849401 ], [ 77.583487378437596, 12.8360568822898 ], [ 77.582667723691799, 12.836710909916301 ], [ 77.582431980637807, 12.836898435238201 ], [ 77.581983505586507, 12.8371038623233 ], [ 77.581780016797296, 12.8372379924061 ], [ 77.581279377085295, 12.8375195952772 ], [ 77.580607052109599, 12.8378378932566 ], [ 77.5804339897837, 12.837888490400999 ], [ 77.579767677063501, 12.838083296176499 ], [ 77.579248894614096, 12.8381663147163 ], [ 77.579036668187001, 12.8382338993214 ], [ 77.578949393087498, 12.838252825471701 ], [ 77.578851668799402, 12.8382628196902 ], [ 77.578787411492996, 12.8382690963796 ], [ 77.578029021176505, 12.8383431732437 ], [ 77.576863277819101, 12.838467546664999 ], [ 77.574285894400603, 12.838868888611101 ], [ 77.573793240604502, 12.838975356496601 ], [ 77.573138232053793, 12.839130845926 ], [ 77.572295046841006, 12.8391729866562 ], [ 77.571073974666902, 12.839233506178401 ], [ 77.570799705691499, 12.8392553899555 ], [ 77.570424258602898, 12.8392872984669 ], [ 77.570338017939704, 12.839294918583199 ], [ 77.5691978887413, 12.8393930341795 ], [ 77.568544166117704, 12.8394491197938 ], [ 77.566787412594493, 12.839573584021901 ], [ 77.566702909152397, 12.8395823153205 ], [ 77.566668408122197, 12.8395849112118 ], [ 77.566426382780506, 12.8396087340156 ], [ 77.565681318022101, 12.839680386674299 ], [ 77.564906456561104, 12.8395377564022 ], [ 77.563308896620498, 12.8392450501876 ], [ 77.562199434715296, 12.839019848505 ], [ 77.5607210111732, 12.8399097973392 ], [ 77.560504114601997, 12.8400403588233 ] ] ] } }
]
}
