{
"type": "FeatureCollection",
"name": "Central_Zone2",
"crs": { "type": "name", "properties": { "name": "urn:ogc:def:crs:OGC:1.3:CRS84" } },
"features": [
{ "type": "Feature", "properties": { "region_id": "zone_GBA_Central_3", "name": "Central (Z3)", "parent": "corp_GBA_Central", "parent_name": "Central" }, "geometry": { "type": "Polygon", "coordinates": [ [ [ 77.565949782002903, 12.939909587163299 ], [ 77.565922894672497, 12.9397573938422 ], [ 77.565907026723494, 12.939331797005799 ], [ 77.564477868181598, 12.939301816159301 ], [ 77.564338520001996, 12.9392986696138 ], [ 77.564029983294304, 12.9393017043458 ], [ 77.563973020103901, 12.9393045232292 ], [ 77.564044493524094, 12.939425786817999 ], [ 77.564203835292105, 12.939695256306599 ], [ 77.564289378069404, 12.939841226426299 ], [ 77.564401850230993, 12.940030975052199 ], [ 77.564978880940799, 12.941006676267699 ], [ 77.565031734849796, 12.941333658667499 ], [ 77.565098718895101, 12.9417474595224 ], [ 77.564345640072105, 12.941740188429 ], [ 77.564295535922298, 12.9417384227214 ], [ 77.564289218868893, 12.942190212664 ], [ 77.564285429212106, 12.9424951662035 ], [ 77.564284567498404, 12.942579873640399 ], [ 77.564282551946405, 12.9428893269972 ], [ 77.564282413288296, 12.9429175595403 ], [ 77.564281430944405, 12.9431174605499 ], [ 77.564279306089205, 12.943203306117899 ], [ 77.5642785785369, 12.943232679194701 ], [ 77.564271323721997, 12.943536537494801 ], [ 77.564270453598198, 12.943572684276701 ], [ 77.564268161473706, 12.943667750349301 ], [ 77.564263644384496, 12.943855081121001 ], [ 77.564263183318005, 12.9438663788514 ], [ 77.564263181956406, 12.943866425844501 ], [ 77.564256325852497, 12.944177014573 ], [ 77.564256101859101, 12.9441871752305 ], [ 77.564251250023602, 12.9443882418164 ], [ 77.564249238978306, 12.9444729605558 ], [ 77.564249774919901, 12.9446943018726 ], [ 77.564249782585804, 12.9447033363518 ], [ 77.564249823902898, 12.9447552846344 ], [ 77.564248883961994, 12.945226220036201 ], [ 77.564248781843602, 12.9452578401745 ], [ 77.564247926017103, 12.945526628392701 ], [ 77.5642449870234, 12.945745745252299 ], [ 77.564240049900505, 12.9461003567168 ], [ 77.5642386808927, 12.946198664328801 ], [ 77.564234730340303, 12.946487808928699 ], [ 77.564228726491095, 12.946632420873501 ], [ 77.564228067061194, 12.946648277584201 ], [ 77.564228066140203, 12.946648277593299 ], [ 77.564221295141706, 12.946806409166101 ], [ 77.564202081458603, 12.9471792735932 ], [ 77.564203452241202, 12.9472007171673 ], [ 77.564206916156095, 12.947277476781901 ], [ 77.564226529616207, 12.947712071628199 ], [ 77.564235736889003, 12.9482743819291 ], [ 77.564237122189894, 12.948353420630699 ], [ 77.564237566985, 12.9483968941342 ], [ 77.564238681900704, 12.948505863355299 ], [ 77.564239395224504, 12.948519407281101 ], [ 77.564111200750702, 12.9485940747439 ], [ 77.563992376311006, 12.9486279944669 ], [ 77.563930240801099, 12.9486319939393 ], [ 77.563909528963407, 12.948633327093599 ], [ 77.563823803358204, 12.948638688019701 ], [ 77.563792822234305, 12.9486491567811 ], [ 77.563757961727404, 12.948674344868699 ], [ 77.563658202929403, 12.9487148527472 ], [ 77.563440828508305, 12.948794914793501 ], [ 77.563205402673006, 12.9489112925247 ], [ 77.5629810508985, 12.949039061224401 ], [ 77.562967295583206, 12.949046895803299 ], [ 77.562826274334398, 12.949105878475001 ], [ 77.5627716327283, 12.949110933292401 ], [ 77.562679309117698, 12.9490903844145 ], [ 77.562600604855305, 12.949050503085999 ], [ 77.562520266951694, 12.9490196723614 ], [ 77.562400494298004, 12.948960996474201 ], [ 77.562354211296096, 12.9489388652923 ], [ 77.562304552868397, 12.948919398164801 ], [ 77.562191208077294, 12.9488749678872 ], [ 77.561634182714798, 12.9492384404295 ], [ 77.561495059557103, 12.949257877545501 ], [ 77.561495488968703, 12.9493561242688 ], [ 77.561603495262702, 12.949446537267701 ], [ 77.561735070273699, 12.949589796527601 ], [ 77.5618586992708, 12.949687961001001 ], [ 77.561877869902403, 12.9497047122839 ], [ 77.561903992708494, 12.9497259124773 ], [ 77.561934146012106, 12.949747073028901 ], [ 77.561970044308097, 12.9497670477546 ], [ 77.562120605637404, 12.9499089906999 ], [ 77.562214130312299, 12.9500469772582 ], [ 77.562272003243393, 12.950358100485101 ], [ 77.562285320933896, 12.9506470755351 ], [ 77.562285320966396, 12.950647075544801 ], [ 77.562292740210594, 12.950809623799801 ], [ 77.561896868559799, 12.9514504545033 ], [ 77.561820091635795, 12.9515991506704 ], [ 77.561820092566094, 12.9515991515647 ], [ 77.561793555284098, 12.951650232007299 ], [ 77.561791037967296, 12.952192330748201 ], [ 77.5617832583997, 12.9522759770042 ], [ 77.561762033915798, 12.952508825845801 ], [ 77.561758889042395, 12.952547376555099 ], [ 77.561691944566107, 12.953367798195201 ], [ 77.5616919435668, 12.9533677981472 ], [ 77.5616562294544, 12.9533658907961 ], [ 77.561201743751795, 12.9533421277433 ], [ 77.561024083580804, 12.9533653319597 ], [ 77.560762608998601, 12.953468412701101 ], [ 77.560593511118498, 12.953554107714901 ], [ 77.560480814248095, 12.953611219260299 ], [ 77.560356909645407, 12.9536553516613 ], [ 77.560257976411194, 12.9536642295402 ], [ 77.5601084771356, 12.9536826390471 ], [ 77.559811377280496, 12.9536799128726 ], [ 77.559660771518494, 12.9536463841758 ], [ 77.559504074580502, 12.953580164896 ], [ 77.559346721295, 12.953506046698401 ], [ 77.559131432679095, 12.953396359363699 ], [ 77.558807791765304, 12.9532188477035 ], [ 77.558616337337796, 12.9531879783099 ], [ 77.558477579585499, 12.953187082824 ], [ 77.558478109120699, 12.9531825603285 ], [ 77.558482195488295, 12.9531317006342 ], [ 77.557898220721199, 12.9531690578651 ], [ 77.557597310400396, 12.953187823626299 ], [ 77.556533542754195, 12.953260380927899 ], [ 77.556313947671399, 12.9529542307084 ], [ 77.555968673076507, 12.9524053793329 ], [ 77.555908066667598, 12.952277230988599 ], [ 77.555789801484096, 12.9520276812513 ], [ 77.555684575045305, 12.9517487421983 ], [ 77.555650156048898, 12.9516575033457 ], [ 77.555792297830095, 12.951595125055499 ], [ 77.555826135078107, 12.951582370450099 ], [ 77.556078619149304, 12.951500840066499 ], [ 77.556187948097005, 12.951438783594099 ], [ 77.556308168432693, 12.951372102894601 ], [ 77.556436793554795, 12.9513392194144 ], [ 77.556568354535102, 12.9513119536856 ], [ 77.556652757517398, 12.9512896680742 ], [ 77.556718670257993, 12.951260787982999 ], [ 77.556802278614498, 12.951217052956499 ], [ 77.556912724451394, 12.9512080635308 ], [ 77.556993316680504, 12.9512072723966 ], [ 77.557044584879904, 12.9512101570828 ], [ 77.557139856127606, 12.951180988686801 ], [ 77.557277955430806, 12.951061053833399 ], [ 77.557372442890696, 12.9509550990034 ], [ 77.557430468503, 12.9508867698442 ], [ 77.557496265765707, 12.9508465974803 ], [ 77.557587495669694, 12.9508163393081 ], [ 77.557613077539699, 12.9507844670491 ], [ 77.557626938161206, 12.950675915831599 ], [ 77.557641259807696, 12.950612533056001 ], [ 77.557647533151794, 12.950493892419001 ], [ 77.557665147372205, 12.950414666776901 ], [ 77.557745070792095, 12.950348381222099 ], [ 77.557844555616299, 12.9503372404504 ], [ 77.557972742550703, 12.950317912527 ], [ 77.558064237313204, 12.950313626079 ], [ 77.558078939244695, 12.9502875072544 ], [ 77.558072846973502, 12.950141884301001 ], [ 77.557837910216193, 12.9501374153439 ], [ 77.557828699721398, 12.950137505782999 ], [ 77.5575024981095, 12.9501034408881 ], [ 77.557391269731795, 12.950092110318201 ], [ 77.557173890175804, 12.950059235268 ], [ 77.556996300044105, 12.950032745410599 ], [ 77.556766520678707, 12.9499694999417 ], [ 77.5567642410969, 12.9499717809655 ], [ 77.556755709946799, 12.949982028622401 ], [ 77.556720905994197, 12.9500128619911 ], [ 77.556687909647906, 12.9500515828906 ], [ 77.556563890826894, 12.9501408874224 ], [ 77.556353730746395, 12.9502513651275 ], [ 77.556168968201902, 12.9503119031552 ], [ 77.556036739840394, 12.9503301405428 ], [ 77.555819981962003, 12.950358241850701 ], [ 77.555733218936993, 12.9503749036766 ], [ 77.555697021619693, 12.9503820347689 ], [ 77.5555757536671, 12.950402423051999 ], [ 77.555518383682099, 12.9504221844226 ], [ 77.555482220893694, 12.9504327031263 ], [ 77.554989008877001, 12.950562896442401 ], [ 77.554795737823596, 12.949788944768599 ], [ 77.554603998058994, 12.9498427741581 ], [ 77.554536335116595, 12.949982344873501 ], [ 77.554403380854097, 12.950211772652301 ], [ 77.554253605391494, 12.950541875439599 ], [ 77.553948125751404, 12.950733468322399 ], [ 77.5537555101224, 12.9507579433203 ], [ 77.553623396196002, 12.950787471703 ], [ 77.553534894254099, 12.9508030205659 ], [ 77.553446921926906, 12.950814046898699 ], [ 77.553426796859597, 12.950816502834099 ], [ 77.553358938079796, 12.9508239439885 ], [ 77.553290492126607, 12.950830261553699 ], [ 77.553197177743897, 12.950825529581101 ], [ 77.553128478655097, 12.9508070043746 ], [ 77.552945581234795, 12.950655208385299 ], [ 77.552766747679499, 12.950563226789599 ], [ 77.552726405040403, 12.950615571236 ], [ 77.552255981467198, 12.9512311475874 ], [ 77.552091213542298, 12.9514462051075 ], [ 77.5519587290391, 12.951608997153301 ], [ 77.551808053184999, 12.951794553958999 ], [ 77.551674428503503, 12.951958486420599 ], [ 77.551583460911402, 12.952071181154301 ], [ 77.551477194603294, 12.9519818758471 ], [ 77.551469825975801, 12.951993241320199 ], [ 77.551463044510001, 12.9520057303705 ], [ 77.551368911007401, 12.9520902228347 ], [ 77.551322443258002, 12.952106488620601 ], [ 77.551211593179502, 12.952132419671001 ], [ 77.551160865803595, 12.9521261405696 ], [ 77.551093260224704, 12.9521019575051 ], [ 77.550898226086503, 12.9520586945369 ], [ 77.550824817073703, 12.9520865173904 ], [ 77.550723384456802, 12.952132683941899 ], [ 77.550483954308604, 12.9521395459407 ], [ 77.549502663118602, 12.9522835435218 ], [ 77.549131438595793, 12.952351548892601 ], [ 77.549123344819904, 12.9523482401157 ], [ 77.549156819282302, 12.9526392798434 ], [ 77.549187093842605, 12.9528987296066 ], [ 77.549187703978006, 12.952902111626999 ], [ 77.549215203731407, 12.953171752507901 ], [ 77.549218347167098, 12.953202213669 ], [ 77.549237558209498, 12.9533883651927 ], [ 77.549242921919202, 12.953462848515899 ], [ 77.549263129680398, 12.9537370744486 ], [ 77.549263628801498, 12.953743849160499 ], [ 77.549264273414806, 12.9537506188345 ], [ 77.549274342581995, 12.9540046196616 ], [ 77.549288186501499, 12.954346671315101 ], [ 77.549294990020201, 12.954392907267399 ], [ 77.549346218185903, 12.9547312049318 ], [ 77.549581483424404, 12.954710832354399 ], [ 77.549567275560705, 12.9547290407434 ], [ 77.549460734061896, 12.9548583215535 ], [ 77.549307377566706, 12.955044409726399 ], [ 77.549215403710306, 12.955192122190301 ], [ 77.548969194594207, 12.955587540364199 ], [ 77.548467350901205, 12.9564552613529 ], [ 77.548405175641307, 12.956568803004201 ], [ 77.548375780549506, 12.956622169268799 ], [ 77.548068806753307, 12.9571774165883 ], [ 77.547913897446406, 12.9574567481119 ], [ 77.547727899931999, 12.957792850398 ], [ 77.547591090033194, 12.958040383446299 ], [ 77.547243975015306, 12.958668300404 ], [ 77.547237757394797, 12.9586796545589 ], [ 77.547122424841206, 12.9589058986137 ], [ 77.547083253066106, 12.9589802142705 ], [ 77.547081937722893, 12.9589827107364 ], [ 77.547081936298, 12.958982710780701 ], [ 77.547083253056897, 12.9589802133671 ], [ 77.546869914850703, 12.959364240726501 ], [ 77.546865281285903, 12.959372571743 ], [ 77.546631210370407, 12.9597934690189 ], [ 77.546626793009807, 12.959801412138701 ], [ 77.546622279420603, 12.959810490953 ], [ 77.546378569465205, 12.960280397889001 ], [ 77.546317923066198, 12.960397333169 ], [ 77.546290254245704, 12.960450682455599 ], [ 77.546257496118599, 12.960513116185 ], [ 77.546235480775593, 12.9605562461745 ], [ 77.546066831767405, 12.960843616996501 ], [ 77.545820092565094, 12.9612650128366 ], [ 77.545769729066805, 12.9613513347257 ], [ 77.545737984313007, 12.9614002065231 ], [ 77.545593465324004, 12.9616232908644 ], [ 77.545514121353705, 12.961745709572201 ], [ 77.545472131601301, 12.961810495826199 ], [ 77.545212761593305, 12.9621789362737 ], [ 77.545171333245705, 12.9622380667334 ], [ 77.545266653281303, 12.9623263519105 ], [ 77.545349158953897, 12.962400081031101 ], [ 77.545396260557197, 12.9624459230425 ], [ 77.545418629894698, 12.962468477949599 ], [ 77.545443960830994, 12.962494017853199 ], [ 77.545523852248394, 12.9625937471257 ], [ 77.545546371477798, 12.9626567695211 ], [ 77.545527706684894, 12.9626897027319 ], [ 77.545524596780993, 12.9626916105519 ], [ 77.545430436384706, 12.9627493793994 ], [ 77.545354466588194, 12.962808847719099 ], [ 77.545145948433202, 12.9629125269516 ], [ 77.544951592765599, 12.9629934808878 ], [ 77.544748854116094, 12.9630993620073 ], [ 77.544677626792506, 12.963152438754699 ], [ 77.5446014276108, 12.9632092195271 ], [ 77.544550084175697, 12.963312490899 ], [ 77.544423674727099, 12.9632809761329 ], [ 77.544208829018501, 12.9635552460415 ], [ 77.543930884198204, 12.9639091860631 ], [ 77.543864952929297, 12.963993401289001 ], [ 77.543904421455196, 12.964024636832001 ], [ 77.544353191642898, 12.964220141653399 ], [ 77.544634626868998, 12.964267765960701 ], [ 77.544634626869197, 12.9642677659246 ], [ 77.544715059081597, 12.964281376502401 ], [ 77.544769600585894, 12.9642906060174 ], [ 77.545375004168903, 12.964265379892099 ], [ 77.545690412555899, 12.9642522372546 ], [ 77.546000619598203, 12.964240167850599 ], [ 77.54637202104, 12.964300905896501 ], [ 77.547043918855195, 12.9645316057877 ], [ 77.547485212296607, 12.964683125723599 ], [ 77.547788712879694, 12.9647873333428 ], [ 77.548494727247004, 12.965140676351499 ], [ 77.548502975445402, 12.965146712927501 ], [ 77.548502975212102, 12.9651467132616 ], [ 77.548506908816805, 12.965149591691199 ], [ 77.548625717694307, 12.9652312305716 ], [ 77.548790461478603, 12.965344433706401 ], [ 77.548814787504995, 12.9653611489352 ], [ 77.548943149397303, 12.965466842750899 ], [ 77.549050433430907, 12.9655551814344 ], [ 77.549340568132905, 12.9657940779593 ], [ 77.550063127679806, 12.9663890304071 ], [ 77.550507230248996, 12.966952693743901 ], [ 77.550762440015902, 12.967276609352799 ], [ 77.550943905481901, 12.9675063370945 ], [ 77.551018573416897, 12.967601597879501 ], [ 77.551123281383695, 12.9677067280246 ], [ 77.551184833037695, 12.9677682646123 ], [ 77.551225076403597, 12.967808498691699 ], [ 77.551591981240193, 12.9680488353115 ], [ 77.551865910893, 12.968148917344999 ], [ 77.552072806132998, 12.9682248114456 ], [ 77.552149593067398, 12.9682455153955 ], [ 77.552646495714697, 12.968382675289501 ], [ 77.552777786301107, 12.9684189150104 ], [ 77.553165277991098, 12.9685285456023 ], [ 77.553491483393898, 12.9686208361871 ], [ 77.554057882392598, 12.968771975931199 ], [ 77.554418098930498, 12.9688680962705 ], [ 77.554485651868404, 12.9688866314784 ], [ 77.554496925626196, 12.9688889727672 ], [ 77.554501230367293, 12.9688898664816 ], [ 77.5555802474274, 12.9691762811582 ], [ 77.555662803300507, 12.969198056614999 ], [ 77.556112911072006, 12.9692975320855 ], [ 77.556534291711102, 12.9694029356536 ], [ 77.556863534812393, 12.9693940531177 ], [ 77.557113308065396, 12.9693836927171 ], [ 77.557157755770902, 12.970014547498 ], [ 77.557175528630395, 12.9702887983217 ], [ 77.557185868192207, 12.970286438028699 ], [ 77.557355929848001, 12.9702508864299 ], [ 77.557375457557498, 12.970246177150599 ], [ 77.557533495863396, 12.9709436597596 ], [ 77.557543075449601, 12.970985364968101 ], [ 77.557699000602597, 12.971875996693299 ], [ 77.557709387976402, 12.9719346193229 ], [ 77.557722396938502, 12.9719852919389 ], [ 77.557790940018506, 12.9722522862953 ], [ 77.557910884945301, 12.972720904807399 ], [ 77.557923115038506, 12.9727908025109 ], [ 77.557925161894403, 12.9728066471007 ], [ 77.557942497810998, 12.9729408117531 ], [ 77.557951031182498, 12.972987030040301 ], [ 77.557979000072294, 12.973019505293999 ], [ 77.557949878684198, 12.9737188422759 ], [ 77.557897109676105, 12.973738559798599 ], [ 77.558360651032402, 12.974531301309099 ], [ 77.558368286913193, 12.9745470412091 ], [ 77.558412998299005, 12.974639201196499 ], [ 77.558451239735504, 12.9747190068035 ], [ 77.558458296049494, 12.974751754567601 ], [ 77.558479649761395, 12.9748508579369 ], [ 77.558530512773899, 12.974976469305799 ], [ 77.558530513704298, 12.974976470200099 ], [ 77.558668672178101, 12.9753176674686 ], [ 77.558703257461502, 12.975546579434599 ], [ 77.558712107032605, 12.9757362183816 ], [ 77.558652557570298, 12.975734160859499 ], [ 77.558126915429298, 12.975716001936799 ], [ 77.557755993494496, 12.9757038404026 ], [ 77.557563014485794, 12.975694445415 ], [ 77.556757633893, 12.9756504171219 ], [ 77.556246733456007, 12.9756360882085 ], [ 77.556246732525594, 12.975636087314101 ], [ 77.555475594422106, 12.9756144583957 ], [ 77.554493491511195, 12.9755744183737 ], [ 77.554822411467995, 12.9762657214699 ], [ 77.555066400484094, 12.976815563584699 ], [ 77.5551624695741, 12.9770325790671 ], [ 77.555205776659605, 12.977101042232 ], [ 77.5554457567264, 12.9774837831071 ], [ 77.555918360481101, 12.9777546923314 ], [ 77.556195447996103, 12.9779371771188 ], [ 77.556356595088303, 12.978042878316799 ], [ 77.556655468218807, 12.978216113687401 ], [ 77.556891931192794, 12.9783109098758 ], [ 77.557034170647398, 12.978369364964401 ], [ 77.557353551050795, 12.978520940535301 ], [ 77.557581274402693, 12.9785969839707 ], [ 77.557636072196402, 12.9786152828501 ], [ 77.557861171529296, 12.978724871007801 ], [ 77.5580126229097, 12.9787832348359 ], [ 77.558118994740994, 12.978825102343199 ], [ 77.558283260297699, 12.978841554989099 ], [ 77.558436862428195, 12.9788287501119 ], [ 77.558559054071196, 12.9788410993685 ], [ 77.558568277172199, 12.9788421379145 ], [ 77.5586995647961, 12.978843104363801 ], [ 77.558843127473097, 12.9788620190605 ], [ 77.558939020849905, 12.978892696130901 ], [ 77.558955924812494, 12.9789128575147 ], [ 77.559019475965101, 12.978990155083499 ], [ 77.559111621171297, 12.9791609047851 ], [ 77.559194642597205, 12.979509047644701 ], [ 77.559181490873499, 12.979742946563 ], [ 77.559211065361495, 12.9798759152633 ], [ 77.559253141702598, 12.979936484328601 ], [ 77.559249250356004, 12.979950074491899 ], [ 77.559604661600602, 12.9800775761959 ], [ 77.559815908429997, 12.9801274446863 ], [ 77.560098085000703, 12.980187907610899 ], [ 77.560354134332101, 12.980227170480999 ], [ 77.560529237941694, 12.980289816870799 ], [ 77.560630729901106, 12.9803610935398 ], [ 77.560759581703095, 12.980461462927799 ], [ 77.560842008140199, 12.980582617380399 ], [ 77.560981696750702, 12.980953916520001 ], [ 77.560988321664695, 12.9810385502015 ], [ 77.561135468906599, 12.9815757856049 ], [ 77.561182249976895, 12.9817582743327 ], [ 77.561263522873602, 12.981822973940099 ], [ 77.5614788129798, 12.981873930224101 ], [ 77.561729129919101, 12.981915506521601 ], [ 77.5616521185989, 12.982322820350401 ], [ 77.561584267370606, 12.982661022646999 ], [ 77.561576521866797, 12.982699628639001 ], [ 77.561458318080994, 12.983020390944599 ], [ 77.561397935983905, 12.9834772309333 ], [ 77.561385845735003, 12.9837020845656 ], [ 77.5613726734789, 12.983933724776501 ], [ 77.561357474661705, 12.9840730708212 ], [ 77.561351093783301, 12.9841315682899 ], [ 77.561230598006105, 12.9844534825449 ], [ 77.561100794755603, 12.984709988022001 ], [ 77.561038655990203, 12.9848269203305 ], [ 77.561006440906098, 12.9848859624342 ], [ 77.560976491123697, 12.9851098628064 ], [ 77.560995837675506, 12.9855930207095 ], [ 77.561044682810405, 12.9858082392104 ], [ 77.5610435299849, 12.9858300509483 ], [ 77.561038413456203, 12.985926879505101 ], [ 77.560923740715296, 12.9861990463674 ], [ 77.560806365592597, 12.986544645600899 ], [ 77.560785393152401, 12.9866894051671 ], [ 77.560835141073298, 12.9867679671729 ], [ 77.560881353578793, 12.9868386587773 ], [ 77.561031155828701, 12.9869602779376 ], [ 77.561265762493207, 12.9870415348037 ], [ 77.561536606119702, 12.987119046198901 ], [ 77.561815981750001, 12.9871863092852 ], [ 77.561847832666203, 12.987204064306599 ], [ 77.561857808676194, 12.9872785009431 ], [ 77.561849638912406, 12.9873802201505 ], [ 77.561765876711505, 12.9875222109004 ], [ 77.561634428414393, 12.987653174474699 ], [ 77.561631932380706, 12.987655661903901 ], [ 77.561556528229403, 12.9877704665645 ], [ 77.561484738368094, 12.988069314501001 ], [ 77.561483103764203, 12.9880783651664 ], [ 77.561450067484003, 12.988281968240999 ], [ 77.561626325571893, 12.9882881355098 ], [ 77.561657415636006, 12.9882878289394 ], [ 77.561918837178297, 12.988288638942601 ], [ 77.561953945847904, 12.9882871633879 ], [ 77.561963146136407, 12.9882859433371 ], [ 77.562132943625798, 12.9882797514743 ], [ 77.562280851323194, 12.9882726460875 ], [ 77.562292930315394, 12.9882713976322 ], [ 77.562344148152803, 12.988268633818899 ], [ 77.562650925703593, 12.988256573223801 ], [ 77.562899495368299, 12.988239439941999 ], [ 77.563230925325101, 12.9882169716067 ], [ 77.563537103652095, 12.9882026572591 ], [ 77.563665505447503, 12.98820251948 ], [ 77.563679323226907, 12.9882023831194 ], [ 77.563702928599795, 12.9882021501684 ], [ 77.5639560806909, 12.988182712039499 ], [ 77.563961497839102, 12.988261710732999 ], [ 77.563989600677104, 12.988363071853501 ], [ 77.565104288815206, 12.9883012484873 ], [ 77.565110429152398, 12.9885067232998 ], [ 77.565110730606094, 12.9885360825291 ], [ 77.565781271445502, 12.9885102622099 ], [ 77.566255553983098, 12.9884931549068 ], [ 77.566604314435807, 12.988476891220801 ], [ 77.566808631458997, 12.9884673630043 ], [ 77.567234400490705, 12.9884360521994 ], [ 77.56731441654, 12.988434115862001 ], [ 77.567392129958805, 12.9884322347813 ], [ 77.567427814212095, 12.9884307527982 ], [ 77.567721290511599, 12.9884131710945 ], [ 77.567933011723895, 12.988396397231099 ], [ 77.567932115599504, 12.988421250983301 ], [ 77.567935874064602, 12.9886188436673 ], [ 77.567937942518697, 12.988708038974099 ], [ 77.567937610532397, 12.988731757836 ], [ 77.567931493235506, 12.988996685649299 ], [ 77.567925310519598, 12.989276485808301 ], [ 77.567920813680104, 12.989480008126799 ], [ 77.567916927786996, 12.9896558490011 ], [ 77.567914734164404, 12.989755141842201 ], [ 77.567908800503005, 12.9901301325094 ], [ 77.567904729079402, 12.9903607767206 ], [ 77.5679015227918, 12.990542403795899 ], [ 77.567891381771702, 12.9911715270042 ], [ 77.5678901224763, 12.9912257510057 ], [ 77.567854864038793, 12.9920527568627 ], [ 77.567843291598294, 12.9923272943839 ], [ 77.567820887864201, 12.9930604401374 ], [ 77.567810931497405, 12.9933801341998 ], [ 77.568329624846598, 12.9933693582262 ], [ 77.567732162477895, 12.9941194838662 ], [ 77.567496243842101, 12.9944154380577 ], [ 77.567186639389107, 12.9947786308853 ], [ 77.567178769656607, 12.9947878624544 ], [ 77.567019761887906, 12.9951158061032 ], [ 77.566869225546, 12.995358652139799 ], [ 77.566789225375402, 12.9954873707615 ], [ 77.566577386427298, 12.9958293883384 ], [ 77.566426154823404, 12.996073685750099 ], [ 77.566261901039695, 12.9963395688051 ], [ 77.566099984795699, 12.9966088166523 ], [ 77.566109830731804, 12.9966143659083 ], [ 77.566135844348807, 12.996624272620901 ], [ 77.566305779126793, 12.9966869638442 ], [ 77.566334717981604, 12.9967013588754 ], [ 77.566407635086506, 12.9967367761455 ], [ 77.566596180017896, 12.9968173522096 ], [ 77.566787185898704, 12.996857248491001 ], [ 77.566916190814595, 12.9968593609781 ], [ 77.567112466659594, 12.9968517737355 ], [ 77.567637047925103, 12.996796896445 ], [ 77.567775206804697, 12.9967932714122 ], [ 77.567964032428307, 12.9967891451612 ], [ 77.568142447902105, 12.9967806044982 ], [ 77.568492957017199, 12.9967647146649 ], [ 77.568532661107994, 12.9967620632397 ], [ 77.568728349213998, 12.9967533512963 ], [ 77.569429226405504, 12.996819821106399 ], [ 77.569523167940702, 12.996827925863 ], [ 77.570425461821301, 12.996826899338201 ], [ 77.571010090127501, 12.996843432894501 ], [ 77.571010091058, 12.996843433788699 ], [ 77.571442074961794, 12.9968558042794 ], [ 77.5714420749525, 12.996855803376 ], [ 77.571456474596104, 12.996856215470499 ], [ 77.571433118305706, 12.9976074379216 ], [ 77.571411989729995, 12.9982953969403 ], [ 77.571382782220397, 12.999231875112599 ], [ 77.571381690160507, 12.999266903570399 ], [ 77.571357038908204, 13.000618931624301 ], [ 77.571351148252703, 13.000997308754799 ], [ 77.571339902118893, 13.0016942042813 ], [ 77.571334240681495, 13.0018726913073 ], [ 77.571334240681495, 13.0018726913073 ], [ 77.571301712912103, 13.0028498664716 ], [ 77.5712950496102, 13.0033208546196 ], [ 77.571774819050006, 13.003330781363299 ], [ 77.572102253251103, 13.0033659326463 ], [ 77.572166233773899, 13.003372074334701 ], [ 77.572191595704496, 13.0030694678409 ], [ 77.572193186099, 13.0030504908454 ], [ 77.572213408088203, 13.0028092108977 ], [ 77.572213361529506, 13.0028046941234 ], [ 77.572256545852099, 13.0021899220315 ], [ 77.572277352770897, 13.001862216209901 ], [ 77.572277352770897, 13.001862216209901 ], [ 77.572558327710595, 13.0018594312209 ], [ 77.572579444473504, 13.0010032058759 ], [ 77.572593381266302, 13.0010032935973 ], [ 77.573136304115096, 13.001006694012601 ], [ 77.573207710091296, 13.001007141589 ], [ 77.573295790641893, 13.0010051390072 ], [ 77.573727545155904, 13.000994082103 ], [ 77.573775932765997, 13.000995860887301 ], [ 77.573798602394106, 13.0009606275412 ], [ 77.573832088612903, 13.0008575284633 ], [ 77.573853638946304, 13.000602091200101 ], [ 77.573854846055895, 13.0003841228275 ], [ 77.573879989439604, 13.0000304001587 ], [ 77.573886135815599, 12.9999017761 ], [ 77.573890408827296, 12.999812340432999 ], [ 77.573940082331504, 12.999380452289399 ], [ 77.573941129056394, 12.999370278139899 ], [ 77.573974744966407, 12.9989081889197 ], [ 77.573974919310601, 12.998905797575601 ], [ 77.573979513752903, 12.998904622710301 ], [ 77.574403930905405, 12.9989083190776 ], [ 77.574623894732198, 12.998908396119701 ], [ 77.575136943834707, 12.9989078242684 ], [ 77.575147883279897, 12.998907715745901 ], [ 77.575790536440394, 12.9989115033859 ], [ 77.575954651331401, 12.9989121334677 ], [ 77.576303643370494, 12.9989165751765 ], [ 77.576395212479596, 12.998917924968801 ], [ 77.576427058802395, 12.9989186704353 ], [ 77.576598525581304, 12.9989226828136 ], [ 77.576852435557996, 12.9989201623989 ], [ 77.576907144368803, 12.9989207486097 ], [ 77.576948650303507, 12.9989259261824 ], [ 77.576999394120307, 12.9989322551789 ], [ 77.577215311084899, 12.9989865768386 ], [ 77.577523030398694, 12.9990648314682 ], [ 77.577833791901199, 12.999158865751401 ], [ 77.577947484774, 12.999183710664701 ], [ 77.578081741726706, 12.999192541022801 ], [ 77.578226774817495, 12.9991854540157 ], [ 77.578335348416005, 12.999160660207901 ], [ 77.578432889242606, 12.999126941515 ], [ 77.5784119338159, 12.9988820906492 ], [ 77.578400520400905, 12.9987805666344 ], [ 77.5783884220386, 12.9987242215911 ], [ 77.578375064009506, 12.9985459241946 ], [ 77.578370657300098, 12.9983980291008 ], [ 77.578368724337395, 12.9983223849109 ], [ 77.578357062946097, 12.998085346825899 ], [ 77.578353013589506, 12.998027792523001 ], [ 77.578341028825704, 12.9978709382499 ], [ 77.578333762485698, 12.9977806660682 ], [ 77.578324477325395, 12.9976621813255 ], [ 77.578318662977907, 12.997548180230501 ], [ 77.578316426400804, 12.997504325804799 ], [ 77.579445539695101, 12.9974624358252 ], [ 77.579440665628994, 12.9973364088087 ], [ 77.579445447965597, 12.9973312234132 ], [ 77.580030231133307, 12.997290633561899 ], [ 77.5808386287068, 12.9972351704871 ], [ 77.580862549793693, 12.997260903900299 ], [ 77.580866039338005, 12.9972642571172 ], [ 77.581270730057994, 12.997699532182001 ], [ 77.581568867836793, 12.9980206772135 ], [ 77.581603798519097, 12.9980575968018 ], [ 77.581873588450506, 12.998310135845101 ], [ 77.58205790177, 12.998482215036599 ], [ 77.582084067763105, 12.9985067993998 ], [ 77.582998101409899, 12.9992509495628 ], [ 77.583156738541007, 12.9992787327516 ], [ 77.583407695560894, 12.9993247951464 ], [ 77.584186475987195, 12.999462722829101 ], [ 77.584187653796604, 12.999409634024101 ], [ 77.584163138810496, 12.9992664570357 ], [ 77.584172336324201, 12.9990980998325 ], [ 77.584243060882102, 12.998643417321 ], [ 77.5843055319353, 12.9980589475395 ], [ 77.584361286632003, 12.9978268860915 ], [ 77.585211150910297, 12.9977122701358 ], [ 77.585266353026498, 12.9977049446187 ], [ 77.585902468833893, 12.997634239082601 ], [ 77.5863290453362, 12.9975690075585 ], [ 77.586379065573695, 12.997561733439801 ], [ 77.586485275515798, 12.997531313538399 ], [ 77.586551793647104, 12.997504676956 ], [ 77.586580358944303, 12.9974829356921 ], [ 77.5868188795165, 12.997329233230399 ], [ 77.587311244943805, 12.9969448828701 ], [ 77.587511247767395, 12.996797210276799 ], [ 77.587996182575694, 12.9964739150544 ], [ 77.588008778817994, 12.996467013712801 ], [ 77.589094648472098, 12.995901703037999 ], [ 77.589124423378905, 12.9958855959802 ], [ 77.589491027554203, 12.9957012526309 ], [ 77.589516149589599, 12.9956806747592 ], [ 77.589550167352201, 12.995629517185399 ], [ 77.589679485320602, 12.995328964113099 ], [ 77.589679819863406, 12.9953289752314 ], [ 77.591431087567102, 12.995384892153201 ], [ 77.5914824385641, 12.9953871405315 ], [ 77.591746195705994, 12.995398686395299 ], [ 77.593462287714402, 12.9954730236519 ], [ 77.593950083554105, 12.995481702343 ], [ 77.594175599117705, 12.9954625098779 ], [ 77.594405532826002, 12.995425204410401 ], [ 77.594676027370994, 12.995357002556901 ], [ 77.595008491397607, 12.9952125186049 ], [ 77.596103416776103, 12.994690004811 ], [ 77.596119184846501, 12.9947113036741 ], [ 77.596197789980593, 12.994850549735 ], [ 77.596228514731905, 12.9949812401863 ], [ 77.596253776915404, 12.994974211852099 ], [ 77.596231075568895, 12.9950613941814 ], [ 77.596112445264893, 12.995558338734501 ], [ 77.595921714367705, 12.9964309285882 ], [ 77.595821846799893, 12.997071105456399 ], [ 77.5956590107089, 12.9977469199595 ], [ 77.595571704959198, 12.9980368948583 ], [ 77.595096298899506, 12.9996158755265 ], [ 77.594978466133398, 12.999968263014001 ], [ 77.594810952336303, 13.000471342867501 ], [ 77.594659042153694, 13.000979913183 ], [ 77.594475006514401, 13.001500097566399 ], [ 77.594382706467201, 13.001760757221 ], [ 77.594289512453898, 13.002101605486899 ], [ 77.594194861543897, 13.002413106747801 ], [ 77.594042832240802, 13.002910385353401 ], [ 77.593776175265205, 13.003736304284001 ], [ 77.593554521796705, 13.0044601371415 ], [ 77.593438834369607, 13.004963828267501 ], [ 77.5932629004934, 13.0056544547231 ], [ 77.593327857201203, 13.005588306549299 ], [ 77.593782980051799, 13.0065348824218 ], [ 77.593968205326206, 13.0069201154131 ], [ 77.594086294993303, 13.007201257412399 ], [ 77.594240872731206, 13.0075990108916 ], [ 77.594351415972298, 13.0078886029334 ], [ 77.594435900734496, 13.0080944182021 ], [ 77.594615774038402, 13.0088345630507 ], [ 77.594752360700994, 13.0092329655984 ], [ 77.5947786936363, 13.009218021405699 ], [ 77.594989380489906, 13.009100726134101 ], [ 77.594991742331601, 13.0091063489568 ], [ 77.595341319861404, 13.010051454977701 ], [ 77.595343244526404, 13.010073586964999 ], [ 77.5953511316267, 13.0101642857811 ], [ 77.595353481739494, 13.010168779424401 ], [ 77.595479389270807, 13.0104814620603 ], [ 77.595484700542997, 13.010493831096699 ], [ 77.595485887354798, 13.010497207089299 ], [ 77.595768055667605, 13.011217128496 ], [ 77.596241638933094, 13.011019279703801 ], [ 77.596775278581106, 13.0108377682112 ], [ 77.596817169266203, 13.0108237973235 ], [ 77.596860787278899, 13.0108098091348 ], [ 77.597249106514695, 13.0106082953195 ], [ 77.597265588227202, 13.010599348023201 ], [ 77.597838311030799, 13.010288452383399 ], [ 77.598156160983393, 13.010121521911801 ], [ 77.598340605526801, 13.0100326721382 ], [ 77.598934239683103, 13.0097467083989 ], [ 77.599132765864894, 13.009656942823 ], [ 77.599902260965393, 13.0093090077167 ], [ 77.600356005407406, 13.0090709474034 ], [ 77.600539534014601, 13.008974656747901 ], [ 77.600736111747395, 13.0088715199708 ], [ 77.601108691803802, 13.0086895675826 ], [ 77.601302723249404, 13.0085948099874 ], [ 77.601459119547101, 13.008517579479999 ], [ 77.601562137961196, 13.0084663491527 ], [ 77.601845930298893, 13.0083252187545 ], [ 77.602415590834596, 13.008041925432 ], [ 77.6026271765421, 13.0079367035872 ], [ 77.602906267195806, 13.0078017807796 ], [ 77.602994317208896, 13.0077592140705 ], [ 77.603528812533199, 13.007500818598601 ], [ 77.604158636532006, 13.007196334643099 ], [ 77.605043772824303, 13.006763967158699 ], [ 77.605236838515907, 13.0066694273315 ], [ 77.604940012893806, 13.0059812870958 ], [ 77.604704798912394, 13.0060649569552 ], [ 77.604607182685996, 13.005870571060701 ], [ 77.6044725037886, 13.0056008952049 ], [ 77.6043113737379, 13.005279537711999 ], [ 77.603989527547498, 13.0046763429413 ], [ 77.603796895429696, 13.0043157761098 ], [ 77.603787834815904, 13.004275212828199 ], [ 77.603805180214593, 13.0039509344401 ], [ 77.603808022019706, 13.0038921831873 ], [ 77.603855068045902, 13.003615081846799 ], [ 77.603869864154902, 13.003527933384699 ], [ 77.603765423292302, 13.0033415203127 ], [ 77.603716869556393, 13.003268604062599 ], [ 77.603603395612396, 13.0030969450378 ], [ 77.603495134886501, 13.002933172947801 ], [ 77.603298853394605, 13.002664113945601 ], [ 77.6031696794673, 13.002480207157999 ], [ 77.603036098542901, 13.002260207380999 ], [ 77.602882424177494, 13.0020080500554 ], [ 77.6027994184482, 13.0018718488632 ], [ 77.602586558295002, 13.0015589131872 ], [ 77.602435060695996, 13.001387651814801 ], [ 77.602384732971004, 13.0013565753391 ], [ 77.602332481171501, 13.0013243111643 ], [ 77.602239162018293, 13.001320729711599 ], [ 77.602105858000598, 13.0013480398115 ], [ 77.601776761321503, 13.001397332674699 ], [ 77.6015159939612, 13.0014363909906 ], [ 77.601590354882504, 13.0005051144277 ], [ 77.601701992907394, 13.0005536839586 ], [ 77.601849243411806, 12.9998757660275 ], [ 77.602395388014799, 12.9995156954531 ], [ 77.603775130051702, 12.999084023696399 ], [ 77.604275953558997, 12.9988508842755 ], [ 77.604296034011199, 12.998843907114599 ], [ 77.604357625598198, 12.998786825011299 ], [ 77.604363923467304, 12.9987833739753 ], [ 77.604598272711399, 12.998672611480201 ], [ 77.604750384311799, 12.998571708280799 ], [ 77.604783917352506, 12.9985295883288 ], [ 77.604799837924702, 12.9985102307649 ], [ 77.604868159871302, 12.9983808069325 ], [ 77.604925998873895, 12.998184860597 ], [ 77.604949919289993, 12.998104441478599 ], [ 77.604957156522204, 12.9980806539147 ], [ 77.605038929232606, 12.997860752470601 ], [ 77.605056412012203, 12.997825569265601 ], [ 77.605092941474396, 12.9977947120579 ], [ 77.605118611914506, 12.9977942421477 ], [ 77.605365820533905, 12.9977897149983 ], [ 77.605710726423098, 12.997789641111501 ], [ 77.605998997172506, 12.9977698082277 ], [ 77.606250514548805, 12.997759378272599 ], [ 77.606383206680405, 12.9977840195592 ], [ 77.606468253602202, 12.997822690531899 ], [ 77.606523562317605, 12.9978808578505 ], [ 77.606601602535605, 12.9984616542541 ], [ 77.606720529660706, 12.9992633791044 ], [ 77.606745821613401, 12.999424612342301 ], [ 77.606768053783, 12.9994582675122 ], [ 77.606809684466597, 12.9994747886438 ], [ 77.606851326947705, 12.9994924389304 ], [ 77.606937783360493, 12.9995006048803 ], [ 77.607085033075904, 12.999485574581501 ], [ 77.607371764603997, 12.999428489031301 ], [ 77.607627205089301, 12.999352519766299 ], [ 77.6082777650808, 12.9991223860121 ], [ 77.608769092628293, 12.9989729007502 ], [ 77.608644172075202, 12.998810410605699 ], [ 77.608284567175403, 12.9982855210897 ], [ 77.607910405194403, 12.9977449670979 ], [ 77.607389267123807, 12.9969122636523 ], [ 77.606991053830598, 12.9962759719422 ], [ 77.606549768737494, 12.995648004864 ], [ 77.606477563475195, 12.9955374186817 ], [ 77.605668530661404, 12.994298323363999 ], [ 77.605629355447505, 12.9942411230624 ], [ 77.605424137516593, 12.9943290077408 ], [ 77.605388547927902, 12.994339528383 ], [ 77.605255401311496, 12.9943815184853 ], [ 77.604963270450199, 12.9944725334149 ], [ 77.604651318333097, 12.994595366814499 ], [ 77.604407020178201, 12.9946904185144 ], [ 77.604190685624403, 12.994761474602001 ], [ 77.603731626304196, 12.994912885207301 ], [ 77.603695484331197, 12.9949256697514 ], [ 77.603271461899197, 12.995068823314099 ], [ 77.603137773925496, 12.99511420574 ], [ 77.602704221063703, 12.9952269633432 ], [ 77.602217276877596, 12.995354936101201 ], [ 77.602160983834295, 12.995367922413401 ], [ 77.6006760006197, 12.9957001301596 ], [ 77.600551511138406, 12.995688954925599 ], [ 77.600436368594899, 12.995657661001299 ], [ 77.600351140898098, 12.9956344974198 ], [ 77.599318928863894, 12.995321856916499 ], [ 77.598885348490597, 12.995211009749699 ], [ 77.598140833035103, 12.9949892151312 ], [ 77.597236697652903, 12.994700128138501 ], [ 77.597129821570505, 12.994666189173399 ], [ 77.596786492643503, 12.994596219117501 ], [ 77.5965769234748, 12.994542979667401 ], [ 77.596592482936899, 12.994442907789299 ], [ 77.596592574894899, 12.994442316354499 ], [ 77.598642207362303, 12.993647120508101 ], [ 77.599188992758002, 12.993459832807 ], [ 77.600572541610703, 12.9928982768868 ], [ 77.601264172402296, 12.992631614080899 ], [ 77.601820587897507, 12.992484879388901 ], [ 77.602395415019998, 12.992392164816 ], [ 77.602565138512404, 12.992379171150899 ], [ 77.602857329164394, 12.992404474951099 ], [ 77.603352319934999, 12.992496631884 ], [ 77.603665027323004, 12.9926120718055 ], [ 77.603797658899495, 12.992686404073099 ], [ 77.603871788315004, 12.9927274443257 ], [ 77.603879706130797, 12.992658478605099 ], [ 77.604253272509894, 12.992123124604401 ], [ 77.604275691833394, 12.992090995261799 ], [ 77.604338022641201, 12.992049715997799 ], [ 77.604522595526106, 12.991969944464101 ], [ 77.604552533529997, 12.991969644224501 ], [ 77.604570251651495, 12.991957044413301 ], [ 77.604630619654401, 12.991893199106601 ], [ 77.604692572198402, 12.991760451605 ], [ 77.604783511385307, 12.991646611200499 ], [ 77.604918943871894, 12.991437464718301 ], [ 77.604980791538097, 12.9913498895763 ], [ 77.605129228563499, 12.991062692063799 ], [ 77.6052083216087, 12.9908620156029 ], [ 77.605287214330204, 12.9906421433347 ], [ 77.605317006654303, 12.990462288484499 ], [ 77.605331959623797, 12.9902950045983 ], [ 77.6053632684836, 12.990150142316301 ], [ 77.605363833617602, 12.990150180915601 ], [ 77.605420888221303, 12.9901540814821 ], [ 77.605675394535893, 12.990154916300201 ], [ 77.605699575033498, 12.9901546737253 ], [ 77.606016752964706, 12.9901469745074 ], [ 77.606041497400099, 12.9901455969602 ], [ 77.606076040956594, 12.9901452503754 ], [ 77.606392784436295, 12.990151106447099 ], [ 77.606419878896006, 12.9901542224114 ], [ 77.606629150144101, 12.9901792251293 ], [ 77.606636070636597, 12.990180284960701 ], [ 77.606892305647904, 12.990236436038799 ], [ 77.606963355615804, 12.990258308568301 ], [ 77.607061558989301, 12.990288942786099 ], [ 77.607162065283703, 12.9903195538463 ], [ 77.607165674648002, 12.990389533076501 ], [ 77.607177842810898, 12.990617525816401 ], [ 77.607204690742194, 12.990983143538401 ], [ 77.607209194139003, 12.9910836043878 ], [ 77.607229194350396, 12.9915102720212 ], [ 77.607226696622902, 12.991657103686901 ], [ 77.607251022352699, 12.992322556429199 ], [ 77.607257403582594, 12.9925026272021 ], [ 77.607274293887201, 12.9930174099275 ], [ 77.607282874969101, 12.993071538311201 ], [ 77.6073100442037, 12.9932429072513 ], [ 77.607355509378706, 12.993406196543701 ], [ 77.607404120506899, 12.9934847581379 ], [ 77.607535953579898, 12.993537639880101 ], [ 77.607726872905801, 12.993514266374699 ], [ 77.608296048552901, 12.993487093692 ], [ 77.608496884856393, 12.9934760421127 ], [ 77.608683915330403, 12.993466258351599 ], [ 77.608815099731402, 12.9934570355089 ], [ 77.608891247442102, 12.993415616417099 ], [ 77.608951369002995, 12.993383392557901 ], [ 77.609168165128494, 12.9931914953684 ], [ 77.609485053088505, 12.992935352644 ], [ 77.609806005883996, 12.992682556632699 ], [ 77.610282869280496, 12.992307360448899 ], [ 77.610783973435005, 12.9919929009921 ], [ 77.611099121804102, 12.991790979691 ], [ 77.611158607874202, 12.9917531154353 ], [ 77.611451821733397, 12.991601102571799 ], [ 77.611772026338997, 12.99149737696 ], [ 77.612214907487598, 12.9913969342696 ], [ 77.612419862921001, 12.9913395381807 ], [ 77.612592683903401, 12.9912926286919 ], [ 77.613046496616406, 12.991081405615301 ], [ 77.613289691057602, 12.990936669901201 ], [ 77.613406429950103, 12.9908677386916 ], [ 77.613859054094206, 12.990653138578899 ], [ 77.613957499502206, 12.990596813307199 ], [ 77.613967192263004, 12.990587681550201 ], [ 77.614040763347504, 12.990520313830499 ], [ 77.614995580522304, 12.989931384295501 ], [ 77.615739607589802, 12.989502673231801 ], [ 77.615788248183804, 12.9894739515438 ], [ 77.616656296262306, 12.9890123697344 ], [ 77.617204581155605, 12.9886962958885 ], [ 77.617262302735, 12.988655060479701 ], [ 77.617300532719895, 12.9886219263641 ], [ 77.617951750736907, 12.9880309401362 ], [ 77.618227926928697, 12.9877803067195 ], [ 77.618230206120998, 12.9877780252032 ], [ 77.618276668388205, 12.987746417911399 ], [ 77.618518342628093, 12.987582015457299 ], [ 77.618780760904301, 12.987404333077199 ], [ 77.619078987072996, 12.9871822478938 ], [ 77.619306630488097, 12.9872025382851 ], [ 77.620019521472003, 12.987265364608 ], [ 77.620076514245497, 12.987374329145499 ], [ 77.621156715048002, 12.9874887817555 ], [ 77.622546457975602, 12.987691575848 ], [ 77.622508311572702, 12.985922395856001 ], [ 77.622497859626193, 12.9855848497926 ], [ 77.622493369202303, 12.984114586225299 ], [ 77.622515268793407, 12.983842211247801 ], [ 77.622790777060303, 12.982443653680599 ], [ 77.622928483200297, 12.981739858358599 ], [ 77.623818215241201, 12.981812184795601 ], [ 77.624557749212002, 12.981891671259101 ], [ 77.624553505904501, 12.981871387286199 ], [ 77.624353311399304, 12.9809553138311 ], [ 77.624312443633997, 12.980901521598399 ], [ 77.625004770042494, 12.980762405962301 ], [ 77.625120508566198, 12.9807634955677 ], [ 77.625330672995602, 12.980764760630301 ], [ 77.625574815278497, 12.9807668115567 ], [ 77.625501622980906, 12.980321490316699 ], [ 77.625879296633002, 12.9802645995643 ], [ 77.625694315943306, 12.979481627550699 ], [ 77.626225235411098, 12.979379147109301 ], [ 77.626250037607505, 12.9793834135931 ], [ 77.626276062360006, 12.9793944433231 ], [ 77.626309571108607, 12.9794053974351 ], [ 77.626440359918604, 12.979414239368101 ], [ 77.626441463851094, 12.9794097111473 ], [ 77.6264469241993, 12.9793814243094 ], [ 77.626439701886994, 12.9792968022852 ], [ 77.626397285673093, 12.979150426184599 ], [ 77.626382057480697, 12.979016197306301 ], [ 77.626315425305293, 12.978752624803001 ], [ 77.626294353232197, 12.978669269241401 ], [ 77.6264257054805, 12.978676976292901 ], [ 77.626702434451701, 12.978657241220001 ], [ 77.627073653806207, 12.9785891217812 ], [ 77.627349406285504, 12.9785355748486 ], [ 77.627472411009705, 12.978511689385201 ], [ 77.627772677571201, 12.978430734969001 ], [ 77.628144465779201, 12.978307274357601 ], [ 77.628406920277996, 12.9781894358094 ], [ 77.628495558384799, 12.9781320763423 ], [ 77.628493807579403, 12.9781298355147 ], [ 77.628285456027399, 12.977917381692601 ], [ 77.628043430000304, 12.9777877044317 ], [ 77.627829161666298, 12.977724372992601 ], [ 77.627569384627606, 12.977603908766101 ], [ 77.627504011601999, 12.9775740793115 ], [ 77.627322011884601, 12.9774584750211 ], [ 77.627212091803003, 12.9773534348385 ], [ 77.627142517325396, 12.9772525039589 ], [ 77.6270887237105, 12.977173998911001 ], [ 77.626983588627198, 12.9768667715574 ], [ 77.626851426708797, 12.9765078709188 ], [ 77.626837984304203, 12.976488809203801 ], [ 77.626635654208499, 12.976191597691299 ], [ 77.626580946864607, 12.976135687028799 ], [ 77.626385969815303, 12.9759355178833 ], [ 77.626122036148303, 12.9756931328641 ], [ 77.625973202764897, 12.9755557361862 ], [ 77.625545135823799, 12.975254027556799 ], [ 77.625458659694999, 12.975188273949099 ], [ 77.625349554187295, 12.9751058097713 ], [ 77.625317067045501, 12.975082423159 ], [ 77.625274698482599, 12.975050102165699 ], [ 77.624746073429705, 12.9747121412792 ], [ 77.624573934639997, 12.9746032105043 ], [ 77.623971879955704, 12.9742354985507 ], [ 77.623775848673702, 12.974116530961201 ], [ 77.623109089003194, 12.973710058804 ], [ 77.622935259973602, 12.9736045315395 ], [ 77.622611394619099, 12.973411304954199 ], [ 77.622275369417096, 12.973211424863299 ], [ 77.622275369370101, 12.9732114251784 ], [ 77.621909807525299, 12.972994903869401 ], [ 77.621633997140094, 12.972827164515699 ], [ 77.621032026652301, 12.972686426867501 ], [ 77.620822841332, 12.9726682081428 ], [ 77.620276688449593, 12.9726895212707 ], [ 77.620019127134896, 12.972724865094699 ], [ 77.620019126204397, 12.9727248642007 ], [ 77.619897247741605, 12.9727419018523 ], [ 77.619684408078001, 12.972704521381701 ], [ 77.619322783689796, 12.9724789214432 ], [ 77.619301049769703, 12.972492691614301 ], [ 77.6187370093851, 12.9726203333081 ], [ 77.613853039201601, 12.973726470197599 ], [ 77.614387116524497, 12.9753032182045 ], [ 77.608921889199806, 12.9771039805794 ], [ 77.608773831219395, 12.9771506375369 ], [ 77.607614096229796, 12.9775213839069 ], [ 77.606681039293804, 12.9778209666714 ], [ 77.605481126966694, 12.978204529577599 ], [ 77.6051907646427, 12.978297782285599 ], [ 77.603415993387401, 12.9788790753929 ], [ 77.602447982160896, 12.9791959340692 ], [ 77.602447982516495, 12.9791959351474 ], [ 77.6023205885339, 12.979236735362599 ], [ 77.600915026973595, 12.9797228448298 ], [ 77.599296622162797, 12.980283350650399 ], [ 77.598419032115899, 12.9805484738761 ], [ 77.598419031185401, 12.980548472982001 ], [ 77.597760125555794, 12.980748167761 ], [ 77.597512150958394, 12.980543985947801 ], [ 77.598000763172195, 12.979526129666199 ], [ 77.598562805691202, 12.978316689202201 ], [ 77.599317225364501, 12.9766716781646 ], [ 77.599320609125797, 12.9766648686015 ], [ 77.597532125030995, 12.9753727661925 ], [ 77.596636391651899, 12.974721077515699 ], [ 77.595682756393003, 12.9739265427615 ], [ 77.595052480298506, 12.973443849518199 ], [ 77.594511609820998, 12.9727547310187 ], [ 77.593953038540405, 12.9720240035087 ], [ 77.594432758801901, 12.969759502690501 ], [ 77.594778034839294, 12.968188599879699 ], [ 77.594947120344798, 12.967504820347701 ], [ 77.594962655791093, 12.967392865379001 ], [ 77.594977133551794, 12.967289955305199 ], [ 77.594973082302005, 12.967232401766299 ], [ 77.594960764651404, 12.967043932677299 ], [ 77.595065801173902, 12.966568581953 ], [ 77.595159540658898, 12.966280806559 ], [ 77.595221176937599, 12.9661729089507 ], [ 77.595325438467, 12.966011509402501 ], [ 77.595373045754499, 12.9659387597916 ], [ 77.595421193561293, 12.9658626169066 ], [ 77.595565131411604, 12.965640969026801 ], [ 77.595592318776497, 12.9655977847017 ], [ 77.595666596143602, 12.9654875023627 ], [ 77.595764159869503, 12.965346496813799 ], [ 77.595810697557297, 12.9652816628831 ], [ 77.595859067645705, 12.9652269743003 ], [ 77.595878406305999, 12.9652041955252 ], [ 77.595942696111294, 12.9651301501427 ], [ 77.596107107862096, 12.9649952533663 ], [ 77.596248607929596, 12.9649272133554 ], [ 77.596263540273299, 12.964923676492401 ], [ 77.596398518727, 12.9648929681219 ], [ 77.596916201888106, 12.9648471476895 ], [ 77.596861094508995, 12.964696372560001 ], [ 77.5966238391443, 12.964191688085201 ], [ 77.596486202192494, 12.9639660737278 ], [ 77.596377323812803, 12.9637932490583 ], [ 77.596262583497804, 12.9636103191655 ], [ 77.595985075138998, 12.9632765584119 ], [ 77.5959507710905, 12.9632441511152 ], [ 77.595725786005801, 12.963034088218199 ], [ 77.595684562121093, 12.9629997153584 ], [ 77.595198466796603, 12.9625944056628 ], [ 77.595182783301297, 12.962581010534601 ], [ 77.594945614653994, 12.962417369248501 ], [ 77.594926477178802, 12.9624040085383 ], [ 77.594827899791497, 12.9623361044808 ], [ 77.594818642301206, 12.9623316796044 ], [ 77.5948186410848, 12.962331679250299 ], [ 77.594723791273694, 12.9622343776142 ], [ 77.594543403569602, 12.962049842473 ], [ 77.594542754130401, 12.962049218349501 ], [ 77.594535262319397, 12.962042018574699 ], [ 77.594516053757104, 12.962021882770699 ], [ 77.594069141465297, 12.960840578583699 ], [ 77.594057212277093, 12.9608090862659 ], [ 77.593792127132303, 12.960109297762999 ], [ 77.593733016871795, 12.9599608198767 ], [ 77.593126507471297, 12.9584332797551 ], [ 77.592971039443, 12.9580418335162 ], [ 77.592971039433607, 12.9580418326128 ], [ 77.592954488415003, 12.9580002135305 ], [ 77.592663739523104, 12.957220508356 ], [ 77.592663740063301, 12.9572205082038 ], [ 77.592428071693902, 12.956589319936301 ], [ 77.592225655270198, 12.956046161725 ], [ 77.592225552936398, 12.956045886292101 ], [ 77.592232977082602, 12.956040165900101 ], [ 77.592232977669894, 12.956040165461999 ], [ 77.592238935080005, 12.9560357213022 ], [ 77.592311246545805, 12.955981792573301 ], [ 77.592382653034903, 12.9559280047415 ], [ 77.592601243051107, 12.9557508832668 ], [ 77.592753753640494, 12.9556273050081 ], [ 77.592948520797506, 12.9554774278672 ], [ 77.593604178121794, 12.954969491059099 ], [ 77.594133126026804, 12.9545678397379 ], [ 77.594497548458605, 12.9542897906368 ], [ 77.594532117927301, 12.954265714774399 ], [ 77.594564995501202, 12.9542428175835 ], [ 77.594720783359605, 12.954121907115599 ], [ 77.594765456550903, 12.954087236253899 ], [ 77.595043552062805, 12.953875094084699 ], [ 77.595134447597303, 12.953805753099701 ], [ 77.5954520273376, 12.953563177927499 ], [ 77.595577733657805, 12.9534715816002 ], [ 77.595711452127702, 12.9533753881968 ], [ 77.595938593550002, 12.953183402897601 ], [ 77.596248089214399, 12.952938649016501 ], [ 77.596567534961494, 12.952709605769501 ], [ 77.596619519753503, 12.952670691528899 ], [ 77.596782796306002, 12.952538065658301 ], [ 77.596859877104094, 12.9524763153079 ], [ 77.597005459693904, 12.952358546564501 ], [ 77.597139308729197, 12.952219438212699 ], [ 77.597309114838097, 12.952105944967199 ], [ 77.597461817247705, 12.952008432299399 ], [ 77.597522437293307, 12.951969431809699 ], [ 77.5975319122944, 12.9519616454811 ], [ 77.597700539067901, 12.9518231061697 ], [ 77.597985289401805, 12.9515797268943 ], [ 77.598092854207096, 12.9515154136334 ], [ 77.598369227718294, 12.951296962031201 ], [ 77.598456889961895, 12.951224772315101 ], [ 77.598796775869999, 12.9509448748921 ], [ 77.598807841200596, 12.950935544055101 ], [ 77.598818462773494, 12.9509265898596 ], [ 77.598831649640303, 12.9509157688729 ], [ 77.598900663802596, 12.9508591415356 ], [ 77.598996000813102, 12.950726063249499 ], [ 77.599213622038704, 12.9505806091708 ], [ 77.599213656793907, 12.9505805853347 ], [ 77.599213830607297, 12.9505804697678 ], [ 77.599244460206094, 12.950551583133601 ], [ 77.59941109204, 12.950394426940701 ], [ 77.599518886853502, 12.9503298218479 ], [ 77.599614202552104, 12.9502726951995 ], [ 77.599879377503001, 12.950029509829699 ], [ 77.600025240167099, 12.9499388400549 ], [ 77.600100944318299, 12.9498803966737 ], [ 77.600142319074195, 12.9498484575254 ], [ 77.600236550056295, 12.9497752423741 ], [ 77.600277325540006, 12.9497658010349 ], [ 77.600483051584305, 12.949729868695099 ], [ 77.600536115518196, 12.9497395025711 ], [ 77.600604098592797, 12.9497998055314 ], [ 77.600628850005606, 12.949799558429101 ], [ 77.6007096264984, 12.949816820625999 ], [ 77.600818162423295, 12.9498462278275 ], [ 77.601025425997705, 12.9499028814376 ], [ 77.6010254261151, 12.949902880827 ], [ 77.601295032269803, 12.949975850747 ], [ 77.601553091693702, 12.9500455481048 ], [ 77.601594090789504, 12.9500575608158 ], [ 77.601912227497706, 12.9501469849616 ], [ 77.602188789589405, 12.950224401825899 ], [ 77.6022853575178, 12.9502513043445 ], [ 77.602285358448199, 12.9502513052387 ], [ 77.602400105582902, 12.950283273222601 ], [ 77.602488425077695, 12.9503061058972 ], [ 77.602772986751901, 12.9503777957115 ], [ 77.603087000732302, 12.9504582251608 ], [ 77.603439688970198, 12.9505484312434 ], [ 77.603455841976597, 12.9505516576597 ], [ 77.603443306885097, 12.9505088700255 ], [ 77.603369159400401, 12.950243099265199 ], [ 77.603348977774104, 12.9501845780169 ], [ 77.603151954910004, 12.9496173860448 ], [ 77.603146610908297, 12.949601629419901 ], [ 77.603080474327498, 12.949441931453499 ], [ 77.602996034872504, 12.9492383741143 ], [ 77.602919279108903, 12.949053937841899 ], [ 77.602915743214496, 12.9490460681561 ], [ 77.602899226740007, 12.949007837393699 ], [ 77.602840244405996, 12.9488717828697 ], [ 77.602832574462795, 12.948853790894301 ], [ 77.602791869801607, 12.948759337386701 ], [ 77.602745868139095, 12.9486536439071 ], [ 77.602653255062407, 12.948438875127501 ], [ 77.602629948492293, 12.9483566699277 ], [ 77.602620410057099, 12.9483251451481 ], [ 77.602582340414997, 12.9481516150756 ], [ 77.602506968294307, 12.9478253676791 ], [ 77.6025021691825, 12.9478045951557 ], [ 77.602449757041796, 12.9475803903202 ], [ 77.602425549944002, 12.9473559037279 ], [ 77.602424037512094, 12.9472102406296 ], [ 77.602422546252896, 12.9471775061608 ], [ 77.602415254344095, 12.9469743070772 ], [ 77.602434321586799, 12.9469142029082 ], [ 77.602442570028003, 12.9468882083199 ], [ 77.602443641095903, 12.9468802962165 ], [ 77.602467850000707, 12.9466415306284 ], [ 77.602485938020394, 12.9464631627041 ], [ 77.602486277451703, 12.946459836495601 ], [ 77.602516769760499, 12.946161333842801 ], [ 77.602517932001007, 12.946058582284399 ], [ 77.602517970247902, 12.946055168741101 ], [ 77.602518687729599, 12.9460133779033 ], [ 77.602552131533699, 12.9455195448294 ], [ 77.602607116785904, 12.945254074542801 ], [ 77.602607116986206, 12.9452540745242 ], [ 77.602650808466194, 12.9450431297535 ], [ 77.602676044496206, 12.9449231731338 ], [ 77.602725376993604, 12.9446844005677 ], [ 77.602783655254299, 12.944395784924 ], [ 77.602844191886405, 12.9440959839411 ], [ 77.602848189633406, 12.9439265507683 ], [ 77.602853988530498, 12.9437897170654 ], [ 77.602864373098498, 12.943544689686799 ], [ 77.602863477567496, 12.9434227625957 ], [ 77.602861585554294, 12.9431652766495 ], [ 77.602861538664797, 12.9431607599644 ], [ 77.602787960629897, 12.9428385183089 ], [ 77.602717379084396, 12.9425275395536 ], [ 77.602717378154097, 12.9425275386594 ], [ 77.602629294323705, 12.9421388137068 ], [ 77.602024423091507, 12.9422656869394 ], [ 77.601734333642199, 12.9423261766024 ], [ 77.601443104470704, 12.942387806631899 ], [ 77.601147167520395, 12.942450155497999 ], [ 77.600947952162201, 12.9424921259012 ], [ 77.600935311975903, 12.9424945106222 ], [ 77.600898755170704, 12.942466643183201 ], [ 77.600498803726197, 12.9425361329038 ], [ 77.600498804076594, 12.942536133898701 ], [ 77.600229871597804, 12.9425828593226 ], [ 77.599730535066399, 12.9426703637345 ], [ 77.599307060947098, 12.9427445728197 ], [ 77.5992868944615, 12.9427481076125 ], [ 77.599080069178498, 12.942788566148 ], [ 77.598967388280698, 12.9428032412967 ], [ 77.598967388042297, 12.942803240423199 ], [ 77.598677626437706, 12.9428400085195 ], [ 77.598568527684904, 12.942867070023899 ], [ 77.598499041413007, 12.9428835729155 ], [ 77.598142683023895, 12.9429379438076 ], [ 77.597975116472398, 12.942989303075599 ], [ 77.597770838752893, 12.943053450389 ], [ 77.597255265119003, 12.943187328017601 ], [ 77.597301575087499, 12.9428785707324 ], [ 77.597381855741702, 12.942348132337999 ], [ 77.597420130498705, 12.9420417125512 ], [ 77.597456453662502, 12.941769191003001 ], [ 77.597603502153405, 12.9402928692259 ], [ 77.597628040866198, 12.9401435887665 ], [ 77.597653191268506, 12.939990583677901 ], [ 77.597659282601398, 12.939953525539799 ], [ 77.597666589228098, 12.9399365133381 ], [ 77.597666589218704, 12.9399365124347 ], [ 77.597863471630106, 12.9394365323861 ], [ 77.597863472560405, 12.939436533280301 ], [ 77.598068371981398, 12.939043756101499 ], [ 77.598473900564997, 12.9384016642516 ], [ 77.598581991405993, 12.938277494049199 ], [ 77.598753789995897, 12.938079284817499 ], [ 77.599093189658404, 12.9377777685055 ], [ 77.599376948045403, 12.937606675156101 ], [ 77.5996712862012, 12.9375122678852 ], [ 77.599933497229202, 12.9374283443093 ], [ 77.600378690766902, 12.937336949132099 ], [ 77.600484391772099, 12.937315567668801 ], [ 77.601698424650195, 12.9370888911603 ], [ 77.601693515305001, 12.937059578615401 ], [ 77.601458205646694, 12.935740657281199 ], [ 77.601142681823504, 12.9340690674012 ], [ 77.601064720855902, 12.9336565246806 ], [ 77.600996016653596, 12.9332484067252 ], [ 77.600786818454907, 12.932003755981 ], [ 77.600704633483005, 12.9315167217985 ], [ 77.600702971842196, 12.931356379059 ], [ 77.600675674400904, 12.930721989715099 ], [ 77.600658106933906, 12.9305821327783 ], [ 77.600599169134696, 12.930116323160901 ], [ 77.600589156990395, 12.9299278313625 ], [ 77.600539339313698, 12.9290644202525 ], [ 77.600521827025105, 12.9287630740635 ], [ 77.600512617625597, 12.928763165861801 ], [ 77.600510316725604, 12.9287078535263 ], [ 77.600496251184495, 12.928294673126301 ], [ 77.599084546430305, 12.928329067702199 ], [ 77.5985458785795, 12.9283423384485 ], [ 77.598172669508998, 12.9283517524103 ], [ 77.598027931608499, 12.9283554017507 ], [ 77.597943344698706, 12.9283574528526 ], [ 77.5974277052986, 12.9283699571588 ], [ 77.597158922416, 12.9283764761688 ], [ 77.596426879218299, 12.9283939260804 ], [ 77.596213598912101, 12.928398953992501 ], [ 77.5961664588703, 12.928400066330299 ], [ 77.595929640718197, 12.928405649857099 ], [ 77.595882760332003, 12.9284067559466 ], [ 77.5954329784945, 12.928417366958501 ], [ 77.595379447794798, 12.9284178994832 ], [ 77.595379447785504, 12.9284178985799 ], [ 77.595361028936296, 12.9284180818085 ], [ 77.594727950856395, 12.928431154583199 ], [ 77.594730056003399, 12.9284554144136 ], [ 77.594727950865803, 12.928431155486599 ], [ 77.594176594479194, 12.9284422848632 ], [ 77.593575153736893, 12.928453784492801 ], [ 77.593561348252507, 12.9284540482143 ], [ 77.592878191851895, 12.928467614342001 ], [ 77.592498337185702, 12.9284747770902 ], [ 77.592499158059098, 12.9285077064829 ], [ 77.592499321869198, 12.928514292726399 ], [ 77.592507533447204, 12.9288078285356 ], [ 77.592509842693303, 12.928894616961401 ], [ 77.592513179546302, 12.9290200803965 ], [ 77.592519740426198, 12.9292650727946 ], [ 77.592528936951695, 12.929598124210299 ], [ 77.592537090531806, 12.929886014075 ], [ 77.5925417656197, 12.9300598794444 ], [ 77.592543778475303, 12.930310563504399 ], [ 77.592550926005501, 12.930556679338199 ], [ 77.592570490914497, 12.931113228567201 ], [ 77.592578973399796, 12.931432735446799 ], [ 77.592593845617898, 12.931972391803701 ], [ 77.592609430499493, 12.932537850460299 ], [ 77.592613043693703, 12.932668977464299 ], [ 77.592658605052506, 12.9336848921241 ], [ 77.592686347066405, 12.9343034712034 ], [ 77.5926980118724, 12.9344851720788 ], [ 77.592699229971402, 12.9345035774501 ], [ 77.592708925164203, 12.934649940963199 ], [ 77.592709270706095, 12.9346614527449 ], [ 77.592713132100897, 12.9347900078712 ], [ 77.592714825450301, 12.934846380003201 ], [ 77.592715945459005, 12.9348836356729 ], [ 77.592728053150793, 12.9352753813882 ], [ 77.5927276399958, 12.935291195655299 ], [ 77.592723517663103, 12.9354493382342 ], [ 77.592714946286506, 12.9357340063205 ], [ 77.592704702705007, 12.936079673072999 ], [ 77.592703796595401, 12.9361033964149 ], [ 77.592703796551405, 12.9361033964176 ], [ 77.592700241998301, 12.9362050684956 ], [ 77.592700006546593, 12.9362051015536 ], [ 77.591741410539001, 12.936338823354101 ], [ 77.591306086326497, 12.936494475902 ], [ 77.591041939196103, 12.9366698835278 ], [ 77.590624399127904, 12.936206502696001 ], [ 77.590556236632096, 12.936128128982901 ], [ 77.590116115883603, 12.936321094130999 ], [ 77.589936661535404, 12.935499617465799 ], [ 77.589644983447997, 12.935522625746 ], [ 77.589625480087804, 12.935524165558 ], [ 77.589622601127104, 12.9355241941487 ], [ 77.589555757097699, 12.9355734178459 ], [ 77.589519011421004, 12.935582817150101 ], [ 77.589450521191907, 12.9356399622722 ], [ 77.589383698561207, 12.9356914443234 ], [ 77.589322622175203, 12.935741740002699 ], [ 77.589244205734303, 12.9357854320538 ], [ 77.589201234118605, 12.935805056841 ], [ 77.589172535256097, 12.9358132469039 ], [ 77.589148934373199, 12.935813481244899 ], [ 77.5891345217657, 12.935811365751601 ], [ 77.589112555400504, 12.935802549460099 ], [ 77.589061458993598, 12.935760143397999 ], [ 77.588886883089103, 12.935634265770799 ], [ 77.588729432023598, 12.9355500020995 ], [ 77.588388176508701, 12.9354494940342 ], [ 77.587937778938894, 12.93520438883 ], [ 77.587866042474303, 12.935170092415801 ], [ 77.587816458659404, 12.9351626793687 ], [ 77.587800882991203, 12.935163352511699 ], [ 77.587779326714895, 12.9351642819529 ], [ 77.5877485602131, 12.9351656117665 ], [ 77.587703132846997, 12.9351705797633 ], [ 77.587629159844397, 12.935198417036601 ], [ 77.587553668706207, 12.9352465967787 ], [ 77.587216644909105, 12.935500645707 ], [ 77.586708688075703, 12.9358704495006 ], [ 77.586648833911397, 12.935927508342299 ], [ 77.586559333511303, 12.9360130938019 ], [ 77.586434818023903, 12.936219861886199 ], [ 77.586362810665904, 12.9363267305314 ], [ 77.586272020954695, 12.9363987770951 ], [ 77.586138544637706, 12.936462212595099 ], [ 77.5859029338189, 12.9365441423466 ], [ 77.585902933168498, 12.9365441416662 ], [ 77.585730703692604, 12.936604031341 ], [ 77.585296244405995, 12.936620761726299 ], [ 77.585267475420494, 12.9366221762742 ], [ 77.5851080656672, 12.9366271446764 ], [ 77.584910091478903, 12.9366324754213 ], [ 77.584910091618497, 12.936632488971499 ], [ 77.584908938625702, 12.936632507629399 ], [ 77.584515300945498, 12.9366443148208 ], [ 77.584001384159393, 12.9366595720393 ], [ 77.582746791034097, 12.936695717603101 ], [ 77.581830599494694, 12.936722860068601 ], [ 77.581830598564395, 12.936722859174401 ], [ 77.580089136971097, 12.936773976239399 ], [ 77.580086834510396, 12.9367739990226 ], [ 77.580035029143801, 12.9367745116405 ], [ 77.578814552863193, 12.9382817893562 ], [ 77.578814541038895, 12.9382818039283 ], [ 77.578102837859404, 12.9391606544834 ], [ 77.577675930976099, 12.9396888752685 ], [ 77.577679790918296, 12.9397283629133 ], [ 77.577702962228997, 12.939966417968099 ], [ 77.577737045078607, 12.9403139080662 ], [ 77.577757635538902, 12.9405248851988 ], [ 77.577756129196601, 12.940546356962001 ], [ 77.577756639904095, 12.9405960414984 ], [ 77.577756639910405, 12.940596042401801 ], [ 77.577440621747897, 12.9405991672953 ], [ 77.577260451983605, 12.940600948703 ], [ 77.576932434626301, 12.9406031797557 ], [ 77.576894342675203, 12.940603438873399 ], [ 77.576836719347, 12.9406040085101 ], [ 77.5768281448305, 12.940604093272601 ], [ 77.576429664209698, 12.9406072768182 ], [ 77.575943970330599, 12.9406111589887 ], [ 77.573845087172799, 12.9406279183109 ], [ 77.573844617461305, 12.940627922948799 ], [ 77.573844733355799, 12.940639214923699 ], [ 77.573842998732204, 12.940694568335701 ], [ 77.573787738538599, 12.940695113967699 ], [ 77.573778513105196, 12.9421520174417 ], [ 77.573771269682496, 12.9432972111764 ], [ 77.573780392510301, 12.9436810870892 ], [ 77.572886315956893, 12.943678622203 ], [ 77.572866744391007, 12.943678815421 ], [ 77.572843498851796, 12.94365758797 ], [ 77.572839470332994, 12.9436576277405 ], [ 77.572839469402695, 12.9436576268462 ], [ 77.572771544558407, 12.9436582974066 ], [ 77.572771543347599, 12.943658298321999 ], [ 77.572712830789698, 12.943658877923699 ], [ 77.572374862962903, 12.9436554381573 ], [ 77.571843425741605, 12.9436482606871 ], [ 77.571543449619398, 12.9436444449146 ], [ 77.571111630790895, 12.9436396709037 ], [ 77.5710719013165, 12.943638933540701 ], [ 77.571061412509493, 12.943626614563501 ], [ 77.570711931627997, 12.9436232862023 ], [ 77.570390094576993, 12.943620814040001 ], [ 77.570363823731597, 12.9436414008036 ], [ 77.570344240553197, 12.9436404646314 ], [ 77.568346279518806, 12.9436089092329 ], [ 77.567834959875398, 12.9436008296076 ], [ 77.567834945633507, 12.943601957257499 ], [ 77.567834958945198, 12.943600828713301 ], [ 77.567844638896702, 12.942803435846599 ], [ 77.567781267694102, 12.9426866112684 ], [ 77.567685441342306, 12.942548649384401 ], [ 77.567685440821805, 12.9425486495252 ], [ 77.567648045732795, 12.9424948114884 ], [ 77.567492603034296, 12.942269350082301 ], [ 77.566998446293297, 12.9417423089454 ], [ 77.566848888170298, 12.9415292114964 ], [ 77.566771998607905, 12.941328950148399 ], [ 77.566727541028499, 12.9411475677983 ], [ 77.566721241497106, 12.9410945519023 ], [ 77.566671755288198, 12.9407031659567 ], [ 77.566647938049201, 12.9401760091013 ], [ 77.566494913152098, 12.9401865502777 ], [ 77.566324526905007, 12.940188227741 ], [ 77.566169602665397, 12.940181847656399 ], [ 77.566080796159994, 12.940127153989501 ], [ 77.566075749903405, 12.9401240469934 ], [ 77.566054810552203, 12.9400919094406 ], [ 77.566028960123404, 12.940052231208901 ], [ 77.565987558074895, 12.9400006901067 ], [ 77.565949782002903, 12.939909587163299 ] ] ] } }
]
}
