{
"type": "FeatureCollection",
"name": "West_Zone1",
"crs": { "type": "name", "properties": { "name": "urn:ogc:def:crs:OGC:1.3:CRS84" } },
"features": [
{ "type": "Feature", "properties": { "region_id": "zone_GBA_West_9", "name": "West (Z9)", "parent": "corp_GBA_West", "parent_name": "West" }, "geometry": { "type": "Polygon", "coordinates": [ [ [ 77.511661957127302, 12.891127997129299 ], [ 77.511342526729194, 12.8906546813195 ], [ 77.510993217118695, 12.8901644401375 ], [ 77.510633548868597, 12.889681462330399 ], [ 77.510291278496894, 12.889261922740101 ], [ 77.509898173725503, 12.8888614874972 ], [ 77.509430917436703, 12.8884360934379 ], [ 77.508772397660593, 12.8879091416728 ], [ 77.508135444525394, 12.8874690354106 ], [ 77.507590670800994, 12.8871442992629 ], [ 77.506386086971801, 12.886557021633401 ], [ 77.503409778937694, 12.885153794061001 ], [ 77.502032496015303, 12.8843928723396 ], [ 77.501067072902202, 12.8838272807346 ], [ 77.499100601900693, 12.8824964502149 ], [ 77.498048518460706, 12.8816714296893 ], [ 77.497641370009006, 12.881352618204501 ], [ 77.497346089833002, 12.881283539911699 ], [ 77.497045542625997, 12.880866104174499 ], [ 77.496416838067802, 12.880562019821699 ], [ 77.496484680267301, 12.879883527910099 ], [ 77.4957243142359, 12.8800336828997 ], [ 77.495574871772703, 12.879544090840101 ], [ 77.495034313882002, 12.8791401508528 ], [ 77.494609375797694, 12.878569138052301 ], [ 77.494241445221405, 12.8781720305414 ], [ 77.493939028849297, 12.877654567884999 ], [ 77.493253672672395, 12.8772331945944 ], [ 77.492832752887495, 12.8765329400116 ], [ 77.492239534160007, 12.875749867040801 ], [ 77.490609725642798, 12.8735344959111 ], [ 77.490151044423598, 12.873003223007 ], [ 77.4897949632349, 12.872615077681299 ], [ 77.489018180165999, 12.8717766440524 ], [ 77.488883033831598, 12.8718198507424 ], [ 77.482246999609202, 12.864474999821301 ], [ 77.4767159999532, 12.865229000417999 ], [ 77.476972000067505, 12.8658830000004 ], [ 77.477086999974901, 12.866087999561501 ], [ 77.477183999951393, 12.8662099997916 ], [ 77.477456999950405, 12.866452000159599 ], [ 77.477635000065007, 12.866655999674601 ], [ 77.477564000388099, 12.866632000366501 ], [ 77.477460000088797, 12.866635999651599 ], [ 77.477312999605005, 12.8666850001126 ], [ 77.477262999997194, 12.866750999558899 ], [ 77.477240999882099, 12.866754999743399 ], [ 77.477209000204994, 12.866686000158699 ], [ 77.477191000274203, 12.8666609999052 ], [ 77.476924999698795, 12.8662879997913 ], [ 77.476558999907695, 12.866731000435299 ], [ 77.476016000048105, 12.8667589999279 ], [ 77.475984000371099, 12.867252000179599 ], [ 77.476393000346505, 12.867344999971699 ], [ 77.476470000300097, 12.867747999670399 ], [ 77.476426000069594, 12.868417999990699 ], [ 77.478170999601801, 12.8684709997368 ], [ 77.478033000432404, 12.868639000289599 ], [ 77.4777170002491, 12.8697759996626 ], [ 77.477494999904096, 12.871444000140499 ], [ 77.477489999673594, 12.872032000276601 ], [ 77.477638000203399, 12.8720310002304 ], [ 77.477747999880094, 12.877932999907999 ], [ 77.475706000141599, 12.8781710000916 ], [ 77.475594000372595, 12.8782599996991 ], [ 77.475708068585504, 12.8784417940618 ], [ 77.475827387083399, 12.8784296661523 ], [ 77.475649710933993, 12.878825695003 ], [ 77.475454242304707, 12.879102314539301 ], [ 77.475113208929798, 12.879559769831101 ], [ 77.474958179798904, 12.879779041168 ], [ 77.474824143046604, 12.880048377492299 ], [ 77.474865346162105, 12.880416583396901 ], [ 77.474943081169599, 12.8806772174568 ], [ 77.475157616679496, 12.8809499600117 ], [ 77.475649794473398, 12.881310551369699 ], [ 77.476068168289501, 12.881612278125001 ], [ 77.476182823427195, 12.881682345442901 ], [ 77.476526703640999, 12.8820009695272 ], [ 77.476934382207304, 12.8823686826223 ], [ 77.477354834805396, 12.8827475678971 ], [ 77.477546740659506, 12.8830055117949 ], [ 77.4779448491946, 12.8833947717686 ], [ 77.478264707823797, 12.883787030571201 ], [ 77.478507298497206, 12.8841066100586 ], [ 77.478711013007796, 12.884277477785901 ], [ 77.4789020770056, 12.8844495945063 ], [ 77.478979748578894, 12.884621655639499 ], [ 77.479018345486296, 12.884683406556 ], [ 77.479006283672305, 12.8847445078873 ], [ 77.479007017120296, 12.884819040715801 ], [ 77.478958069723106, 12.8849923010712 ], [ 77.478884531856295, 12.885240334110099 ], [ 77.478897804993693, 12.8853023248782 ], [ 77.478900360971494, 12.885562060501099 ], [ 77.478875648286106, 12.885624411049699 ], [ 77.478838971420004, 12.885699298212399 ], [ 77.478801585637896, 12.885760639400299 ], [ 77.478751548987901, 12.885823229795401 ], [ 77.478739620456196, 12.8858978825563 ], [ 77.478727814160706, 12.8859849574572 ], [ 77.478741198462799, 12.886058241083999 ], [ 77.478767133626405, 12.8861201119276 ], [ 77.478856256465093, 12.886168960975301 ], [ 77.478944681537399, 12.886205393300401 ], [ 77.479108956262806, 12.886228683797301 ], [ 77.479336296357701, 12.8862265301464 ], [ 77.479499837408795, 12.8861752875956 ], [ 77.479776393684602, 12.8860857042596 ], [ 77.480141105316804, 12.885946721512999 ], [ 77.480570460694693, 12.8859426523412 ], [ 77.480696627007802, 12.885953879759599 ], [ 77.480759936766304, 12.885953279657199 ], [ 77.480924088927694, 12.885964146894301 ], [ 77.481125982216398, 12.8859498096748 ], [ 77.481453552234498, 12.8858970108954 ], [ 77.481813363548198, 12.8858450353774 ], [ 77.481965061973597, 12.885818750251699 ], [ 77.482077831810301, 12.885755564433399 ], [ 77.482494524305295, 12.8857516122499 ], [ 77.482633352355094, 12.885762718631099 ], [ 77.482849854985801, 12.885945884348001 ], [ 77.482926720386203, 12.886094234257801 ], [ 77.482966654271394, 12.8862914981784 ], [ 77.482967745206395, 12.8864021677892 ], [ 77.482866663171606, 12.8866583683642 ], [ 77.482707018869803, 12.887104861624 ], [ 77.482509388088801, 12.887551715242299 ], [ 77.482456271385402, 12.887779384175699 ], [ 77.482376291317706, 12.888122189270099 ], [ 77.482243464572605, 12.8887784942217 ], [ 77.482009155988493, 12.8893002353398 ], [ 77.481841872807706, 12.8895559344419 ], [ 77.481729223792399, 12.889631542570401 ], [ 77.481591728981201, 12.889755950009899 ], [ 77.481404197512205, 12.8899429483148 ], [ 77.481341743635099, 12.8900305035332 ], [ 77.481254173745299, 12.8900810271194 ], [ 77.481128041791393, 12.8901319163775 ], [ 77.481052766789801, 12.8901450534905 ], [ 77.481000900669898, 12.8901455453287 ], [ 77.480787436971596, 12.8901475694631 ], [ 77.480699132633603, 12.890123560188799 ], [ 77.4805599349218, 12.890075186850799 ], [ 77.480470810334793, 12.890026338708999 ], [ 77.480344274858894, 12.889977845192799 ], [ 77.480216807938206, 12.889893219980801 ], [ 77.479988694508094, 12.8897587261784 ], [ 77.479684766806699, 12.889699490381 ], [ 77.4795460587017, 12.889700804936499 ], [ 77.479420135044094, 12.8897144215571 ], [ 77.479307485041602, 12.8897900287862 ], [ 77.479271566624803, 12.8900004356822 ], [ 77.479261584077307, 12.890272713258 ], [ 77.479265609184495, 12.8906815142724 ], [ 77.4792170778084, 12.891247798533801 ], [ 77.479217522591696, 12.891292969915501 ], [ 77.479212317225006, 12.8914658159021 ], [ 77.479203894726794, 12.891721137838999 ], [ 77.479202523893306, 12.891757291307099 ], [ 77.479204739843993, 12.8918069634618 ], [ 77.479205240245193, 12.8918577812645 ], [ 77.4791988228381, 12.8919075352376 ], [ 77.479181469834998, 12.8919573928479 ], [ 77.479091148640904, 12.892137821812 ], [ 77.479070186582206, 12.892171902163399 ], [ 77.479042239981794, 12.892198142974401 ], [ 77.479005682239404, 12.892226724167299 ], [ 77.478942693277503, 12.8922600733884 ], [ 77.478895188782403, 12.8922876289139 ], [ 77.478847706513605, 12.892317443002099 ], [ 77.478805979819498, 12.8923472025447 ], [ 77.4787746020546, 12.8923757346284 ], [ 77.478737457575406, 12.8924031919626 ], [ 77.478704364236904, 12.892432869686701 ], [ 77.478671259772298, 12.892461418123 ], [ 77.478615399767094, 12.892517287538301 ], [ 77.478558088438703, 12.8925426771579 ], [ 77.4785232016756, 12.8925655955161 ], [ 77.478480832633593, 12.8925885847638 ], [ 77.478430439102098, 12.892615038205999 ], [ 77.478391567867007, 12.8926425118635 ], [ 77.478354943276599, 12.8926643172786 ], [ 77.478314211943896, 12.8926782558641 ], [ 77.478274145098297, 12.8927012232731 ], [ 77.478228433810997, 12.892735538057901 ], [ 77.478179911408503, 12.892776655812201 ], [ 77.478130780081301, 12.892814391156801 ], [ 77.478097686611704, 12.892844068826101 ], [ 77.478012837174802, 12.8928787543538 ], [ 77.4778323717061, 12.893023896513601 ], [ 77.477794808504896, 12.893062824192899 ], [ 77.477717236828994, 12.8932062733344 ], [ 77.477588828701698, 12.893372099718199 ], [ 77.477504461664694, 12.8934482490832 ], [ 77.477435312390995, 12.893509182797301 ], [ 77.477401500539997, 12.8935570323383 ], [ 77.477295214720897, 12.8937001778386 ], [ 77.477214437377299, 12.893839676390501 ], [ 77.477160468655896, 12.8939207429282 ], [ 77.477083858862301, 12.894019924282601 ], [ 77.4770480102313, 12.8940873929989 ], [ 77.477016726493801, 12.8941548184828 ], [ 77.476994437708996, 12.8942087334798 ], [ 77.476949331704304, 12.894262862750599 ], [ 77.476863418553606, 12.894344231770299 ], [ 77.476791195489895, 12.8944254711322 ], [ 77.476736874287397, 12.894470738344699 ], [ 77.476641348688403, 12.8945029695104 ], [ 77.476572588840497, 12.894472293974699 ], [ 77.476421685359895, 12.8944423961795 ], [ 77.476219659962297, 12.894319000606201 ], [ 77.476146116105397, 12.894265992908799 ], [ 77.476022417904403, 12.8942179368851 ], [ 77.475862476463703, 12.8941970744938 ], [ 77.475739350450198, 12.894207190165799 ], [ 77.475662035801903, 12.894234773498701 ], [ 77.475584852230995, 12.8942757808857 ], [ 77.475521623762006, 12.8943435095156 ], [ 77.475490471585999, 12.894424359865001 ], [ 77.475468709585101, 12.894531971971199 ], [ 77.475455856475307, 12.8946171242332 ], [ 77.475465686754703, 12.8946886355867 ], [ 77.475489340167002, 12.8947734423245 ], [ 77.475531160684397, 12.8948491259919 ], [ 77.475667594379502, 12.895264037390801 ], [ 77.475867083048598, 12.8955933193134 ], [ 77.476110972530606, 12.8957968732072 ], [ 77.476336535108402, 12.8959318637456 ], [ 77.476577562708499, 12.8960693259764 ], [ 77.477333036276605, 12.896504891935001 ], [ 77.477108869314094, 12.8966549656291 ], [ 77.476689746456401, 12.896998882186899 ], [ 77.475443094288806, 12.897657828022799 ], [ 77.475165829910097, 12.8978524493698 ], [ 77.474692551844896, 12.8981336301106 ], [ 77.474111216471996, 12.898314187229399 ], [ 77.473358588539398, 12.898402623842401 ], [ 77.4724658817114, 12.8969473710403 ], [ 77.472395028253104, 12.896824936897699 ], [ 77.4713099737411, 12.8954765301443 ], [ 77.470220581043904, 12.8940954052328 ], [ 77.469583691742201, 12.8924852519417 ], [ 77.469381333149499, 12.8919247223307 ], [ 77.468782940641205, 12.8898951949734 ], [ 77.468757947940205, 12.8898118553399 ], [ 77.468368416532797, 12.888477193384301 ], [ 77.467795339732803, 12.8893228715218 ], [ 77.4668040587391, 12.8905485824138 ], [ 77.465861469721403, 12.891809972945801 ], [ 77.465795567072107, 12.891898687349901 ], [ 77.465044832945793, 12.8930024106471 ], [ 77.464316240740303, 12.8941341592556 ], [ 77.463308252779299, 12.8955971944655 ], [ 77.462172936780505, 12.897285048250501 ], [ 77.462246100344998, 12.897349864715199 ], [ 77.462230780732995, 12.8973725970139 ], [ 77.462102504915407, 12.897564970212301 ], [ 77.462032223218998, 12.8976703700352 ], [ 77.461948772168697, 12.8978484719712 ], [ 77.461819095725005, 12.898126396551501 ], [ 77.461542839241602, 12.898719675083299 ], [ 77.460676650448804, 12.8984985590906 ], [ 77.460684767244899, 12.8993285943993 ], [ 77.460713497749197, 12.9000296836366 ], [ 77.460315865629894, 12.9001946676023 ], [ 77.4602817944035, 12.900208803996 ], [ 77.460200068257805, 12.900386889468001 ], [ 77.4601564166326, 12.9016330327565 ], [ 77.460128170300095, 12.9030416651766 ], [ 77.460138607761095, 12.904108853492099 ], [ 77.460131211046502, 12.9047651066629 ], [ 77.460050698948393, 12.905067415290601 ], [ 77.460316783095806, 12.9066110639219 ], [ 77.4607902250265, 12.9065783710719 ], [ 77.462225714338103, 12.906441744949699 ], [ 77.463718205990006, 12.906483019124 ], [ 77.465080533780394, 12.9065869166377 ], [ 77.466671543996895, 12.906877790990601 ], [ 77.466675895142103, 12.907363154544701 ], [ 77.466623475782797, 12.9079464189783 ], [ 77.466596414707695, 12.9083566460745 ], [ 77.466499418512598, 12.910146528877601 ], [ 77.467214355126202, 12.9112578821218 ], [ 77.468189317716494, 12.912292235228101 ], [ 77.468698502403001, 12.9130260488839 ], [ 77.468967696994397, 12.9134142756364 ], [ 77.469253666877705, 12.913986434919 ], [ 77.469439233177795, 12.9143585105331 ], [ 77.470027076252407, 12.915128846434699 ], [ 77.470208902761797, 12.9158815626735 ], [ 77.470437470299601, 12.9167625874002 ], [ 77.470652898843895, 12.9175951719519 ], [ 77.470840408797798, 12.9183399274668 ], [ 77.4709019857589, 12.918572000004801 ], [ 77.471497021773004, 12.920364363311799 ], [ 77.471768506043603, 12.921217873384 ], [ 77.472045011285104, 12.922171851265 ], [ 77.4721962320979, 12.9226210469827 ], [ 77.472434413623304, 12.9234827765997 ], [ 77.472594100578306, 12.9240988926404 ], [ 77.472761750024105, 12.924745724741101 ], [ 77.472899089341396, 12.9253614557001 ], [ 77.473143598501395, 12.9264576532733 ], [ 77.473192260966002, 12.9266638708265 ], [ 77.474822207507501, 12.9266800404029 ], [ 77.475887395338702, 12.926695911907901 ], [ 77.477396937592502, 12.9264703890713 ], [ 77.478234466634106, 12.9262851224578 ], [ 77.479595264078895, 12.9259170846393 ], [ 77.479608319660301, 12.9259375913285 ], [ 77.479651974561193, 12.9260546598891 ], [ 77.479617917241498, 12.9261269914237 ], [ 77.479622678159004, 12.9262179016059 ], [ 77.479704743467096, 12.926311869241299 ], [ 77.4797326453306, 12.926398768387999 ], [ 77.479706203060701, 12.9264596569035 ], [ 77.479552158384493, 12.9265103899791 ], [ 77.479475417143505, 12.9265641768788 ], [ 77.479380406220898, 12.926724251872599 ], [ 77.479258540243407, 12.926903533128201 ], [ 77.479108956603298, 12.927014858172999 ], [ 77.479086262802994, 12.9270643421805 ], [ 77.479094924735804, 12.9271590073661 ], [ 77.479118778545896, 12.9272269975462 ], [ 77.479200918910905, 12.9273285414315 ], [ 77.479360023582998, 12.927399036705401 ], [ 77.479523181914303, 12.9274884426552 ], [ 77.4796588444609, 12.9275326316251 ], [ 77.479821251564402, 12.927546247272 ], [ 77.479952643303406, 12.9275487869304 ], [ 77.480064901967495, 12.927570461294099 ], [ 77.480177051056899, 12.927580763272401 ], [ 77.480262641994699, 12.927640589625399 ], [ 77.480871058079202, 12.927433941088401 ], [ 77.480986694463596, 12.9274063145994 ], [ 77.481179401797306, 12.927749356915401 ], [ 77.481231235598102, 12.9279118253496 ], [ 77.481243723710605, 12.9280026619036 ], [ 77.481344883037295, 12.928073707725 ], [ 77.481461343673203, 12.928129448908701 ], [ 77.481645389319496, 12.928377826632801 ], [ 77.481831198052106, 12.928804309517201 ], [ 77.481917277705506, 12.928913394315099 ], [ 77.482037377739204, 12.9289463619403 ], [ 77.482222853568203, 12.9289483857989 ], [ 77.482315648150305, 12.928955082462799 ], [ 77.482519687504407, 12.9292714884284 ], [ 77.482601687660207, 12.929514929901099 ], [ 77.482674929858106, 12.9297323685877 ], [ 77.482872143547596, 12.930139794227401 ], [ 77.482970526657894, 12.930320769148899 ], [ 77.483122432354904, 12.930444388586601 ], [ 77.483201274973496, 12.930602809892401 ], [ 77.483229179683804, 12.9306897110341 ], [ 77.483203974400098, 12.9308756533266 ], [ 77.483082258127396, 12.9310700911144 ], [ 77.483021382127703, 12.931165417772201 ], [ 77.4828948308337, 12.9312613659253 ], [ 77.483030870722899, 12.931343447600399 ], [ 77.483224152531307, 12.931352978367901 ], [ 77.483318915615399, 12.931343861567701 ], [ 77.483469588954804, 12.931560398213399 ], [ 77.483472371475798, 12.9318415882869 ], [ 77.483316208243906, 12.932117515321799 ], [ 77.483226926607102, 12.9322290449274 ], [ 77.483235214576098, 12.932310281668499 ], [ 77.483160977925095, 12.9324295737235 ], [ 77.483087266775598, 12.9324856152598 ], [ 77.483071260349107, 12.9324970614768 ], [ 77.483073115197399, 12.93268452157 ], [ 77.4831638886278, 12.9327819138121 ], [ 77.483209823082802, 12.932827781242 ], [ 77.483256881061607, 12.932812651234499 ], [ 77.483312517897701, 12.9327917926226 ], [ 77.483346771761006, 12.932820830474901 ], [ 77.483387536582399, 12.9328678764701 ], [ 77.483475912690906, 12.9328975283728 ], [ 77.483528553841694, 12.932923002968501 ], [ 77.483572710838601, 12.933254621297699 ], [ 77.483564489619596, 12.933296486774699 ], [ 77.483519678181096, 12.9334222750552 ], [ 77.483633511590497, 12.9336391621276 ], [ 77.483621484296705, 12.9339363045277 ], [ 77.483645477234901, 12.9339756044696 ], [ 77.483709860841799, 12.934082282770399 ], [ 77.483780654933099, 12.9341968056782 ], [ 77.483805245935599, 12.9342383586672 ], [ 77.4838229689352, 12.9343297819636 ], [ 77.4839326505261, 12.9348955757007 ], [ 77.484042305071696, 12.935271745218801 ], [ 77.484124155817696, 12.9358051637206 ], [ 77.484101202444094, 12.9358708865882 ], [ 77.484126515513097, 12.9361597675002 ], [ 77.484044358922802, 12.936235089411401 ], [ 77.484159602983397, 12.9364779382873 ], [ 77.484138393559803, 12.936603501846101 ], [ 77.4841512632904, 12.936708110985199 ], [ 77.484181305055202, 12.936893568514799 ], [ 77.484177892811701, 12.936894230256501 ], [ 77.483840107531094, 12.936959737252799 ], [ 77.483072777679993, 12.9370659072073 ], [ 77.482384748952995, 12.9371611031918 ], [ 77.482101654927305, 12.9372002718593 ], [ 77.481734265356195, 12.937238533118601 ], [ 77.481054826180696, 12.937309291739799 ], [ 77.481030218299097, 12.9373118542292 ], [ 77.480396453125095, 12.937366380555201 ], [ 77.479347682137302, 12.937456608448199 ], [ 77.478839664369005, 12.937507547388099 ], [ 77.478773863029801, 12.937514145143 ], [ 77.478356953900402, 12.937562226592799 ], [ 77.476915628894602, 12.9380362078965 ], [ 77.476272886393403, 12.938309367452201 ], [ 77.476391406741897, 12.938601928937199 ], [ 77.476397603275302, 12.938617225251001 ], [ 77.4759162961454, 12.9389861273779 ], [ 77.475344058225303, 12.939424723547701 ], [ 77.475190243336002, 12.9395501339988 ], [ 77.475023728190394, 12.9396851473134 ], [ 77.474960575131306, 12.939736352560599 ], [ 77.474735835399699, 12.9399146067156 ], [ 77.474460188456305, 12.9400224634084 ], [ 77.473875269581001, 12.9402151104187 ], [ 77.473634546588002, 12.940236104624301 ], [ 77.473251571198503, 12.940333464204601 ], [ 77.473718389799501, 12.941141066833801 ], [ 77.473780149905593, 12.9412737488357 ], [ 77.473975061159294, 12.9416558918061 ], [ 77.474232339090406, 12.942115370450299 ], [ 77.474318062796598, 12.9423426935258 ], [ 77.474540137219293, 12.942968526123099 ], [ 77.474744964360994, 12.943421725459199 ], [ 77.4748057023196, 12.9439756790528 ], [ 77.474835954439996, 12.9442407983389 ], [ 77.474916544083896, 12.944647742654199 ], [ 77.474932308278099, 12.9447322059029 ], [ 77.475069731863897, 12.9454684832826 ], [ 77.475155922181401, 12.9456845073836 ], [ 77.475360881736293, 12.9463839111404 ], [ 77.475536166277394, 12.9469932453366 ], [ 77.475820569017301, 12.947633165289799 ], [ 77.476279094854604, 12.948822571211201 ], [ 77.476129542873196, 12.948895144084901 ], [ 77.475778224924397, 12.949000127824499 ], [ 77.4755237452448, 12.9491166142704 ], [ 77.475179980106006, 12.949111974797299 ], [ 77.4749447123382, 12.9491334095234 ], [ 77.474186554128494, 12.949201597852101 ], [ 77.473703029385504, 12.9492118363777 ], [ 77.473057608968801, 12.9493275148156 ], [ 77.472730556622494, 12.949266243949401 ], [ 77.472432819595298, 12.949550288106799 ], [ 77.471058863550198, 12.9495859118233 ], [ 77.471121911796502, 12.950724870354 ], [ 77.471230575278199, 12.950732502411499 ], [ 77.471674438323106, 12.9507636746418 ], [ 77.472142408041407, 12.950868784890501 ], [ 77.472252012881299, 12.9510653881333 ], [ 77.472374250695907, 12.951316645953099 ], [ 77.4725123502581, 12.9516005072499 ], [ 77.472513226945296, 12.951806048064 ], [ 77.471477396450894, 12.952267635093801 ], [ 77.471561317114507, 12.9528371815084 ], [ 77.471576886526194, 12.9530730765853 ], [ 77.471636702650699, 12.953767084665399 ], [ 77.471763754409395, 12.9540979199117 ], [ 77.471890568846902, 12.9543463117306 ], [ 77.471948793631796, 12.9546340147325 ], [ 77.471965622272194, 12.9547171690031 ], [ 77.471995325239206, 12.9550432810628 ], [ 77.472099650483202, 12.955054714030901 ], [ 77.472474084746295, 12.9559490248192 ], [ 77.472858122867905, 12.9560662228564 ], [ 77.473504628392305, 12.957108156166599 ], [ 77.473820742461101, 12.9576892731925 ], [ 77.474184925522493, 12.9583587515319 ], [ 77.474256410173197, 12.958490161915799 ], [ 77.474712284829494, 12.959467267809901 ], [ 77.475105313579903, 12.960101046675099 ], [ 77.475283922454807, 12.960389060857301 ], [ 77.474409590339505, 12.9615554810071 ], [ 77.474242835694795, 12.961777942094299 ], [ 77.4737224765165, 12.9625125086437 ], [ 77.473526771645595, 12.9627887749665 ], [ 77.472912844614299, 12.963589699202499 ], [ 77.472283749056103, 12.963671345183799 ], [ 77.472485320468607, 12.9643221806555 ], [ 77.472596586193504, 12.9646814359433 ], [ 77.472997563653294, 12.965872394311001 ], [ 77.473176132991199, 12.966402765129001 ], [ 77.473485335704396, 12.9669859789459 ], [ 77.473272290545907, 12.967102072461801 ], [ 77.473925509112604, 12.968120217865399 ], [ 77.474137412520307, 12.9685056309347 ], [ 77.474525317811697, 12.9692100201342 ], [ 77.474796246047205, 12.969590305423999 ], [ 77.475017213960697, 12.970042217046601 ], [ 77.475026915595294, 12.970324471645601 ], [ 77.475039948055695, 12.970710598199901 ], [ 77.475070241237404, 12.9715938578228 ], [ 77.475074748695107, 12.971725586441 ], [ 77.475080084099901, 12.9722066547245 ], [ 77.475085032711206, 12.9729395800583 ], [ 77.475084149392799, 12.972966693761499 ], [ 77.475079800429697, 12.972992711058801 ], [ 77.474957276067599, 12.9737613635836 ], [ 77.474923119868194, 12.973975639791799 ], [ 77.474864637694793, 12.9743500235932 ], [ 77.474836822561898, 12.975670542199699 ], [ 77.474543437139999, 12.9777931947322 ], [ 77.474432995084499, 12.978618337358499 ], [ 77.474303233525504, 12.9795878189273 ], [ 77.474268871719204, 12.979781271254099 ], [ 77.474043922132594, 12.980624902750501 ], [ 77.473995975591905, 12.980971604054201 ], [ 77.473963397842994, 12.9811202497082 ], [ 77.473940671771103, 12.9812239441248 ], [ 77.473836486722803, 12.9817285640503 ], [ 77.473793237992197, 12.9822241462468 ], [ 77.473725509028, 12.982478903128101 ], [ 77.473454040458506, 12.983318635212401 ], [ 77.473315067086304, 12.9835877113445 ], [ 77.473277594514599, 12.983660262970799 ], [ 77.473265828385806, 12.983678980938601 ], [ 77.473062619380798, 12.9840022582488 ], [ 77.472303229403806, 12.984799744174699 ], [ 77.4722587009677, 12.984846506181899 ], [ 77.471686476971897, 12.985123335499599 ], [ 77.470857160929697, 12.985722690242 ], [ 77.470373358479605, 12.985987580381201 ], [ 77.469803495612695, 12.9862995883298 ], [ 77.468405230223695, 12.986709365251199 ], [ 77.468682085977505, 12.987221737338601 ], [ 77.469112056729799, 12.9880195191016 ], [ 77.469310521828007, 12.988407272642601 ], [ 77.469929555683393, 12.9896312939807 ], [ 77.470004730144794, 12.9897796586948 ], [ 77.470060299890704, 12.9898718848487 ], [ 77.470087278267002, 12.9899166593544 ], [ 77.470363485455294, 12.9906537830828 ], [ 77.470550581288293, 12.9914053064991 ], [ 77.470708080627602, 12.9919007397075 ], [ 77.470821430458201, 12.992240736994001 ], [ 77.471096255231998, 12.9933031362197 ], [ 77.471330343528194, 12.9938565680288 ], [ 77.471229868341297, 12.9942358694418 ], [ 77.471253088655502, 12.9946038292236 ], [ 77.471303557131904, 12.994699346973601 ], [ 77.471657251287198, 12.995409754171201 ], [ 77.4717547724767, 12.995461185485899 ], [ 77.471806600958203, 12.9954885190784 ], [ 77.472449630246601, 12.996806039520701 ], [ 77.472882459068003, 12.996726248486 ], [ 77.473049477667402, 12.9973096802825 ], [ 77.4731669702321, 12.9974858748719 ], [ 77.473281379190993, 12.9978816515902 ], [ 77.4734889693855, 12.998599770900499 ], [ 77.473567096597094, 12.998871208696499 ], [ 77.474202258467699, 12.999218653690599 ], [ 77.474354194932602, 12.9998485323287 ], [ 77.474534946838105, 13.000596721532901 ], [ 77.474780590257296, 13.000745717285 ], [ 77.474848675349094, 13.0011076008979 ], [ 77.475266157182404, 13.0025571386576 ], [ 77.475419562847804, 13.003392549788799 ], [ 77.475271204180999, 13.003414293825401 ], [ 77.475194156957201, 13.003426322552 ], [ 77.475180342465606, 13.0039993836179 ], [ 77.4751713095973, 13.0043740945891 ], [ 77.474998808125406, 13.0048647637167 ], [ 77.475007160836896, 13.004894048062701 ], [ 77.475232841863502, 13.005700535039299 ], [ 77.475361827644903, 13.006283088636399 ], [ 77.475398034209704, 13.006446611865501 ], [ 77.474894393645897, 13.0065880720596 ], [ 77.474583451478594, 13.006707364596901 ], [ 77.474219472573694, 13.0068791143353 ], [ 77.474037440435495, 13.006931672569999 ], [ 77.473308148051103, 13.007140786065399 ], [ 77.472839495218295, 13.0072683565053 ], [ 77.4731210219324, 13.008828743815601 ], [ 77.473442858812803, 13.0087624297533 ], [ 77.473740206712407, 13.0092463597639 ], [ 77.473968114765995, 13.009617702294699 ], [ 77.473988977849601, 13.009651695532501 ], [ 77.474724849653995, 13.0112077450159 ], [ 77.474839127716294, 13.011465283758101 ], [ 77.474903903996704, 13.0116092269117 ], [ 77.475238666817404, 13.013018892276399 ], [ 77.475260914471505, 13.013113548222201 ], [ 77.476371014880598, 13.014309131855301 ], [ 77.476952497947195, 13.0148716578015 ], [ 77.476983841812, 13.0150197836633 ], [ 77.477087250057195, 13.0155084718685 ], [ 77.477117444799802, 13.0156493562551 ], [ 77.477125331152493, 13.015747537214599 ], [ 77.477164007108897, 13.0160464541409 ], [ 77.477363679434106, 13.0169570874834 ], [ 77.477470777392995, 13.017302784496 ], [ 77.478123797523594, 13.0185140169989 ], [ 77.478372341862695, 13.019068426066999 ], [ 77.478388074475504, 13.019202672057601 ], [ 77.478693213143501, 13.020814769691301 ], [ 77.478959735511694, 13.022007210617501 ], [ 77.4789632390994, 13.0220228836318 ], [ 77.478435894468703, 13.0221578060442 ], [ 77.4784208132468, 13.0229575522324 ], [ 77.478406013262102, 13.0237855302372 ], [ 77.478438830825098, 13.024363459530401 ], [ 77.478682814473501, 13.0262528388199 ], [ 77.478750247367202, 13.0264893636525 ], [ 77.479105637242597, 13.0277090823186 ], [ 77.479607299962495, 13.0292741193237 ], [ 77.479028254927101, 13.0297709420499 ], [ 77.478478669731004, 13.0302189185897 ], [ 77.478191080776895, 13.0304882042134 ], [ 77.477858030611202, 13.030761312682699 ], [ 77.4776524228363, 13.030934945564599 ], [ 77.477285046305497, 13.031173371034299 ], [ 77.477023029513006, 13.031466128165199 ], [ 77.476939071802505, 13.0315369527983 ], [ 77.477219125792701, 13.032072989293001 ], [ 77.4776463572924, 13.0328718924205 ], [ 77.477890487754806, 13.0333280852859 ], [ 77.478239094012693, 13.033980919523399 ], [ 77.478267208659702, 13.034028084438001 ], [ 77.478523120439704, 13.034452540877201 ], [ 77.478738271316004, 13.0348322119022 ], [ 77.478841401840697, 13.035067265059601 ], [ 77.479394793202403, 13.0354052979824 ], [ 77.479898434549199, 13.035721218385399 ], [ 77.479956753859696, 13.036244008680899 ], [ 77.479998991405793, 13.0366226291491 ], [ 77.480031662347798, 13.037184746956999 ], [ 77.480064990276205, 13.0376971657473 ], [ 77.480047491954295, 13.0379062684916 ], [ 77.480747962477196, 13.0384958687499 ], [ 77.481343136293702, 13.03955742648 ], [ 77.481732844498495, 13.039709544443401 ], [ 77.482174597807997, 13.0398826208115 ], [ 77.482570325084495, 13.040580168629999 ], [ 77.482223199897902, 13.0408285727485 ], [ 77.4819200225716, 13.041094625115299 ], [ 77.481664547125604, 13.0411772606836 ], [ 77.481549572640006, 13.0415454108115 ], [ 77.481507144635302, 13.0416802135571 ], [ 77.481457670559806, 13.042725362183001 ], [ 77.481345500346805, 13.042912785050801 ], [ 77.481063539585705, 13.043112000236301 ], [ 77.480795108762095, 13.043224123374101 ], [ 77.4804910632147, 13.0432880243975 ], [ 77.480117706140106, 13.0433322605741 ], [ 77.480027424115306, 13.0433466783733 ], [ 77.480022522441999, 13.043374959814701 ], [ 77.479885251801903, 13.0438178624145 ], [ 77.479745273593906, 13.044162535008001 ], [ 77.479572089043799, 13.044353930268899 ], [ 77.479542250886396, 13.044480706633101 ], [ 77.479512390194301, 13.0446052244563 ], [ 77.4795407248087, 13.044905367715099 ], [ 77.479599954319198, 13.045242484378299 ], [ 77.479778681144793, 13.0451447743202 ], [ 77.479821437923107, 13.0457937572333 ], [ 77.479714947342401, 13.0459156214012 ], [ 77.479530178829606, 13.046389472543799 ], [ 77.479868920568606, 13.0474941461262 ], [ 77.480004711780495, 13.047942336964899 ], [ 77.480069799527797, 13.048462356332999 ], [ 77.480075444598697, 13.0485086067174 ], [ 77.4801030661, 13.0485060831393 ], [ 77.480130100418904, 13.048502435809899 ], [ 77.480204890807499, 13.0484938130865 ], [ 77.480393012940198, 13.0484716805076 ], [ 77.480491958013303, 13.048459437958 ], [ 77.4814439631499, 13.0482786420583 ], [ 77.482538613776299, 13.048020805774501 ], [ 77.482648775834207, 13.047981178104701 ], [ 77.484119154945006, 13.047452239204899 ], [ 77.486112638599806, 13.0466515627491 ], [ 77.486209510808607, 13.046593892102001 ], [ 77.486243754330602, 13.046573505348301 ], [ 77.487505368543196, 13.0462530594158 ], [ 77.487724823453803, 13.0461967394561 ], [ 77.488942598978497, 13.0458603038556 ], [ 77.489118258307499, 13.045811773956601 ], [ 77.489266356289406, 13.0457617861543 ], [ 77.489700340003793, 13.0456175683649 ], [ 77.490466866252603, 13.045264603810301 ], [ 77.490991941886307, 13.045072073761601 ], [ 77.491733321223094, 13.0472683347566 ], [ 77.492025540062201, 13.048093347498799 ], [ 77.492098959665597, 13.0489249850798 ], [ 77.492173858925497, 13.0501914152181 ], [ 77.492177420570499, 13.0503743386307 ], [ 77.492203185503996, 13.0506462682189 ], [ 77.492205207596101, 13.050675612319401 ], [ 77.492465308677495, 13.0515709537771 ], [ 77.4932005190864, 13.0515401503975 ], [ 77.494392118041802, 13.051244059757201 ], [ 77.494536897909995, 13.0512076529781 ], [ 77.496125985571894, 13.050861416755 ], [ 77.496872557281193, 13.050700616711501 ], [ 77.497293874779402, 13.0506141053486 ], [ 77.496661144162005, 13.0492062486487 ], [ 77.496653600792001, 13.048957770739101 ], [ 77.496653405070305, 13.0489578382224 ], [ 77.496760798725404, 13.048920686709399 ], [ 77.497313608707103, 13.048736910568801 ], [ 77.497411195847107, 13.0487043461968 ], [ 77.498295237769995, 13.0484112097742 ], [ 77.498468492805003, 13.0483429039584 ], [ 77.498657827774593, 13.048269925267601 ], [ 77.498918291512297, 13.048168025258301 ], [ 77.4991368726198, 13.0480823407395 ], [ 77.499322175763098, 13.048009400578399 ], [ 77.499373837187093, 13.047991960990799 ], [ 77.500115976208704, 13.047735200359 ], [ 77.500652643159796, 13.0475504445729 ], [ 77.500910971741007, 13.0474655038868 ], [ 77.501421880552897, 13.047296806771801 ], [ 77.501511437742593, 13.047267706762799 ], [ 77.502706118444706, 13.0468236067665 ], [ 77.502869072621806, 13.046762174197699 ], [ 77.503889086625705, 13.0464180135482 ], [ 77.504991143816596, 13.046042562299601 ], [ 77.505160545339507, 13.0459923596295 ], [ 77.505551053976802, 13.0458790303197 ], [ 77.505917431268301, 13.0457715809984 ], [ 77.506062746954598, 13.0457317753069 ], [ 77.506390731920703, 13.045643896341099 ], [ 77.506898085002803, 13.045466189224101 ], [ 77.507124790760898, 13.045387196224 ], [ 77.507303378003598, 13.045333532380001 ], [ 77.507781117816606, 13.0451899742522 ], [ 77.507832767636401, 13.045179021211499 ], [ 77.508417337678594, 13.0450550603263 ], [ 77.508698804451598, 13.044923584802399 ], [ 77.508822506281803, 13.044856814065399 ], [ 77.509063126446094, 13.0447269322894 ], [ 77.509376333812796, 13.0445581470491 ], [ 77.509707574501405, 13.044379643084 ], [ 77.509821199496599, 13.044318411382701 ], [ 77.509957347334804, 13.0442473182784 ], [ 77.510023797793394, 13.044211663675201 ], [ 77.510028969444804, 13.0442104841527 ], [ 77.510187682952207, 13.0441287602992 ], [ 77.510305148544205, 13.044068894277 ], [ 77.510422956448394, 13.044007981365899 ], [ 77.510516826720703, 13.043959527614399 ], [ 77.510668407115801, 13.0438812850748 ], [ 77.510731447587006, 13.0438501808277 ], [ 77.511431180789899, 13.043503454823 ], [ 77.511616857549896, 13.0434113043686 ], [ 77.511947995160597, 13.043294025389599 ], [ 77.511992167774906, 13.043278851748999 ], [ 77.512526542836895, 13.0430952892201 ], [ 77.512624090602799, 13.043059332125599 ], [ 77.512956298980001, 13.0429341361443 ], [ 77.513048099105106, 13.042899364078099 ], [ 77.513269707969997, 13.0428294507229 ], [ 77.513403479458702, 13.0427874947987 ], [ 77.513748160153696, 13.042679588693099 ], [ 77.514125733901594, 13.0425613845665 ], [ 77.514381222856599, 13.0424795820651 ], [ 77.514525872499107, 13.042433268145899 ], [ 77.514659044733705, 13.042389058762 ], [ 77.514661912757703, 13.042387901541399 ], [ 77.514872014141901, 13.042319228134501 ], [ 77.515544647576306, 13.042084561777401 ], [ 77.515612362407893, 13.0420601871875 ], [ 77.515712178415896, 13.042020818968499 ], [ 77.516021624986195, 13.0418968319199 ], [ 77.516113711350499, 13.041859935648899 ], [ 77.516280067218005, 13.0417939452441 ], [ 77.516488467362805, 13.041671078405299 ], [ 77.5165600303758, 13.041628596578001 ], [ 77.516730193336201, 13.0414835143961 ], [ 77.516920699497604, 13.041299836393801 ], [ 77.517238523764803, 13.0409489055834 ], [ 77.517502598154195, 13.0406933627219 ], [ 77.517621227607506, 13.040578144489899 ], [ 77.517726310040203, 13.040490162389901 ], [ 77.517792563832202, 13.040435309115001 ], [ 77.517801697949196, 13.0404273148134 ], [ 77.518441313253106, 13.039890297906799 ], [ 77.518500920143097, 13.040146080126799 ], [ 77.518730022142094, 13.040532346724 ], [ 77.519056909497905, 13.041076899374801 ], [ 77.519210665083307, 13.0413024017965 ], [ 77.519376121619004, 13.0415458597395 ], [ 77.519580211660099, 13.0418629191051 ], [ 77.519751786657693, 13.042129463311401 ], [ 77.519802424847299, 13.0422068374326 ], [ 77.520223294732901, 13.0428499130056 ], [ 77.520562721226597, 13.043380788291801 ], [ 77.520810834335194, 13.043766866710101 ], [ 77.520997552834302, 13.0440620658336 ], [ 77.521428298569901, 13.0447377352871 ], [ 77.521520178760994, 13.0448813962196 ], [ 77.521529553292098, 13.0448971157078 ], [ 77.521957632177404, 13.0455366706676 ], [ 77.522192160457493, 13.0459012239539 ], [ 77.523144824590105, 13.0452375808122 ], [ 77.523908920906905, 13.044697293697901 ], [ 77.523981675064206, 13.0446461429748 ], [ 77.524838430292903, 13.0440437846193 ], [ 77.525358119050793, 13.0437282169505 ], [ 77.525434837205296, 13.0436816322387 ], [ 77.528266549033603, 13.0416809607649 ], [ 77.530266568506605, 13.0402592425535 ], [ 77.530352199000902, 13.040199333727401 ], [ 77.531172715868294, 13.0396252852237 ], [ 77.531213850526797, 13.039596505836199 ], [ 77.531924740861001, 13.038905060904799 ], [ 77.532934861870103, 13.0381193063171 ], [ 77.533652096340504, 13.0376778954494 ], [ 77.535164249701296, 13.036654520901401 ], [ 77.536419423621098, 13.035696349792399 ], [ 77.537600546212303, 13.0347906559896 ], [ 77.537781283464597, 13.034652064418299 ], [ 77.538979371845201, 13.03368791978 ], [ 77.540747797101403, 13.0325031566588 ], [ 77.540749010654096, 13.032502343378599 ], [ 77.541225244032603, 13.0346305955263 ], [ 77.541465380487907, 13.035851036824599 ], [ 77.541630425865705, 13.0366881111191 ], [ 77.541950707926901, 13.0383124810532 ], [ 77.5421479604165, 13.0385293973785 ], [ 77.542954611964603, 13.0392900363727 ], [ 77.543421255912193, 13.038710953477899 ], [ 77.543855871661194, 13.0382464160261 ], [ 77.544358012889802, 13.0376142038788 ], [ 77.544508345009106, 13.037503181397399 ], [ 77.544728660024603, 13.03715686334 ], [ 77.544841629154007, 13.0369792849074 ], [ 77.545008796505797, 13.0366351190362 ], [ 77.545073973743101, 13.0365009320802 ], [ 77.545324449905806, 13.035985246939999 ], [ 77.545796385485104, 13.0350534287352 ], [ 77.546614238777494, 13.033538863536499 ], [ 77.547687937676699, 13.0314763158693 ], [ 77.547863342834802, 13.0310961458132 ], [ 77.548190088505805, 13.0303879597387 ], [ 77.5484723246377, 13.0297762403265 ], [ 77.548801790664896, 13.029062151153701 ], [ 77.548854645417606, 13.028939994551701 ], [ 77.549205167381103, 13.028129876117401 ], [ 77.550040247632197, 13.026051604344399 ], [ 77.550183850429605, 13.0257904461627 ], [ 77.5505787947491, 13.0250663872496 ], [ 77.5505787947491, 13.0250663872496 ], [ 77.553765312502605, 13.019322084394901 ], [ 77.553910611193302, 13.019221121371 ], [ 77.553888280460001, 13.019190336741699 ], [ 77.553941238448104, 13.0190757534025 ], [ 77.5551161913817, 13.016901523545799 ], [ 77.555694108809405, 13.016034155056699 ], [ 77.555861092537896, 13.015807774093499 ], [ 77.555807701413499, 13.0157676448469 ], [ 77.555599287629207, 13.015660155052 ], [ 77.555214291982693, 13.015460671660501 ], [ 77.555040163763707, 13.0153833351243 ], [ 77.554858862603695, 13.0153365608226 ], [ 77.554575504730707, 13.015277240048301 ], [ 77.5543402282009, 13.015245678327901 ], [ 77.554198646320401, 13.015197382901601 ], [ 77.554128655952596, 13.015054648405 ], [ 77.554019704863705, 13.014875029996601 ], [ 77.554066813859805, 13.014301999405999 ], [ 77.554074804293506, 13.0140139434313 ], [ 77.554067128568505, 13.013883017607199 ], [ 77.554094690004106, 13.013706571807001 ], [ 77.554121437867707, 13.01361935051 ], [ 77.554228237728196, 13.0133642009824 ], [ 77.554294001304299, 13.013263043513099 ], [ 77.554340335317207, 13.0131202924872 ], [ 77.554366000872307, 13.0130398577835 ], [ 77.554394200638697, 13.0124760480983 ], [ 77.554394660759698, 13.0124647503413 ], [ 77.554457466721502, 13.012412182875201 ], [ 77.554455245642004, 13.0121953748416 ], [ 77.554461105026405, 13.0111371419504 ], [ 77.554461859016499, 13.009973932276299 ], [ 77.554463146894307, 13.0099310053336 ], [ 77.554491609380406, 13.008774298651501 ], [ 77.5544926099207, 13.0084784062563 ], [ 77.554493080993396, 13.0081870363608 ], [ 77.554493064565904, 13.0080729749284 ], [ 77.554454125190205, 13.007700681853301 ], [ 77.5544273401933, 13.0074468479638 ], [ 77.554397784890597, 13.0070349361342 ], [ 77.554373994718105, 13.0067923659487 ], [ 77.554287531723105, 13.0061653136414 ], [ 77.554257678739404, 13.006061709820999 ], [ 77.553845140797804, 13.004619037056401 ], [ 77.553793636708605, 13.004438922669101 ], [ 77.553780635997398, 13.00439269234 ], [ 77.553625034783906, 13.0037754103159 ], [ 77.553434689163694, 13.003012731112401 ], [ 77.553307031398703, 13.0023386893335 ], [ 77.553299552391096, 13.002299198627799 ], [ 77.553235408343099, 13.001883109090301 ], [ 77.553228635782901, 13.0018402613999 ], [ 77.553161014354998, 13.001421947351 ], [ 77.553060883720093, 13.0010197219973 ], [ 77.553054723943504, 13.0009949790118 ], [ 77.552949179405502, 13.0006220213919 ], [ 77.552888041840504, 13.0004059818191 ], [ 77.552861724330299, 13.0002537818488 ], [ 77.552855542493901, 13.0002189501337 ], [ 77.552748681028703, 12.9996168251987 ], [ 77.552703406213496, 12.9993563964311 ], [ 77.5527346529678, 12.9991460347473 ], [ 77.552844257267907, 12.9987711504094 ], [ 77.553078382427401, 12.9981849871024 ], [ 77.553054741268298, 12.998181831630699 ], [ 77.552462513099897, 12.998041972342 ], [ 77.552378818837298, 12.998022467375201 ], [ 77.552378818612794, 12.9980224680132 ], [ 77.551038711152202, 12.9977250758746 ], [ 77.5510385966613, 12.9977250517027 ], [ 77.550469088383295, 12.9975996707473 ], [ 77.550094538944293, 12.997573987624 ], [ 77.550094538935099, 12.997573986720701 ], [ 77.549595554241193, 12.9975427491602 ], [ 77.549355285703697, 12.9975281687622 ], [ 77.549257923124301, 12.9975234781919 ], [ 77.548960676505203, 12.9975117155644 ], [ 77.548412831979306, 12.997488860690501 ], [ 77.547665347014302, 12.9974596996424 ], [ 77.547186984087304, 12.9974410364997 ], [ 77.546618399930097, 12.997417251926001 ], [ 77.546354156146293, 12.997423231805699 ], [ 77.545888991582899, 12.9974334404682 ], [ 77.545798618704396, 12.997436585347099 ], [ 77.545468805989103, 12.9974499832791 ], [ 77.545386493856398, 12.9974530489818 ], [ 77.545078260797098, 12.9974933387875 ], [ 77.545060423420296, 12.997494642983501 ], [ 77.544806070687898, 12.9975671548761 ], [ 77.544020290785497, 12.9978718704131 ], [ 77.542995814621605, 12.998316700787999 ], [ 77.542807259346404, 12.9984043770661 ], [ 77.542457071713599, 12.998565913602 ], [ 77.542414740443604, 12.9985934321809 ], [ 77.542084680545997, 12.9988089791654 ], [ 77.5419376722962, 12.998905282731201 ], [ 77.541157695634297, 12.999384980829699 ], [ 77.541139612496494, 12.9993174574481 ], [ 77.541119385946899, 12.9992419304505 ], [ 77.540929217711707, 12.998662184922599 ], [ 77.540818653503393, 12.998265741466399 ], [ 77.540680109004697, 12.9977792249747 ], [ 77.540621878959399, 12.997602489332399 ], [ 77.540590973452694, 12.9975079276822 ], [ 77.540439856267497, 12.996974101865399 ], [ 77.540408398535305, 12.996885191337601 ], [ 77.540145195966304, 12.996141277144099 ], [ 77.539973962236104, 12.9956675022583 ], [ 77.539859599623199, 12.995350148443199 ], [ 77.539829442894003, 12.995272519294099 ], [ 77.539592910858303, 12.994662733018 ], [ 77.539277091907095, 12.9938436651705 ], [ 77.539272935245805, 12.993831283122301 ], [ 77.539044513128403, 12.993225933860099 ], [ 77.538446810468002, 12.991582945614001 ], [ 77.537847233555397, 12.991681410596501 ], [ 77.536571120464401, 12.9918982870305 ], [ 77.5365228367735, 12.991906663960499 ], [ 77.536277330576397, 12.991942941711001 ], [ 77.5359467261502, 12.9919913435614 ], [ 77.534780707622403, 12.9921630924601 ], [ 77.534248307274595, 12.992242824513699 ], [ 77.533402584720406, 12.992371915042201 ], [ 77.5332496491027, 12.992394864313599 ], [ 77.532525517563698, 12.992476463109799 ], [ 77.531654725296306, 12.992575300456 ], [ 77.531652227637494, 12.992556125991401 ], [ 77.531603601271797, 12.9921330967733 ], [ 77.531539840644896, 12.9915803406869 ], [ 77.531524843455799, 12.9914641646315 ], [ 77.531469274392506, 12.9910378149258 ], [ 77.531456774920002, 12.990940813324499 ], [ 77.531404151105306, 12.9905914984493 ], [ 77.531387631891306, 12.9904818449125 ], [ 77.531383120928297, 12.9904344565002 ], [ 77.531365657739997, 12.990266287833499 ], [ 77.531347388088307, 12.9900903553369 ], [ 77.531329222730193, 12.9900024436606 ], [ 77.531320391805295, 12.9899833308989 ], [ 77.531217921152702, 12.989758460974199 ], [ 77.5310997601716, 12.989462595278701 ], [ 77.530991551596301, 12.989296506910801 ], [ 77.530893630474694, 12.9890659457072 ], [ 77.530766826326797, 12.988712567443701 ], [ 77.530759082195502, 12.988692319232801 ], [ 77.530623096928394, 12.9883367670609 ], [ 77.530502786957499, 12.988169666874199 ], [ 77.530383636203695, 12.9880601518144 ], [ 77.5303795716043, 12.988056803374301 ], [ 77.530301368198707, 12.987953665487201 ], [ 77.530224423244306, 12.9878042122309 ], [ 77.530177745310297, 12.9877436822935 ], [ 77.530106359671194, 12.9876314431681 ], [ 77.530064806416405, 12.987565216574 ], [ 77.530046073526094, 12.987534906729 ], [ 77.529948535581198, 12.9872851422978 ], [ 77.529843539249697, 12.9871517728171 ], [ 77.529677193325696, 12.9869240715896 ], [ 77.529623991913397, 12.986851246377199 ], [ 77.529517154379405, 12.986706601185199 ], [ 77.529437178826996, 12.986598962769699 ], [ 77.529262246956606, 12.986382702314099 ], [ 77.529106372355699, 12.986171902907 ], [ 77.529099661912198, 12.9861346998618 ], [ 77.529084998096195, 12.986051271112901 ], [ 77.529079607748997, 12.9859169316001 ], [ 77.5290855338488, 12.985819750301401 ], [ 77.529086006737003, 12.985809581599201 ], [ 77.529116218678197, 12.985551797013599 ], [ 77.529117831638104, 12.9855404878702 ], [ 77.529090148600304, 12.9852516451515 ], [ 77.5290250991508, 12.984968812814 ], [ 77.528904741126496, 12.984569066860599 ], [ 77.528738937688701, 12.983832088919 ], [ 77.528738327664797, 12.983828706820599 ], [ 77.528665909290893, 12.9838418342914 ], [ 77.528522002426598, 12.9839030898223 ], [ 77.528381762493694, 12.9840422344173 ], [ 77.528220516766595, 12.9842109463039 ], [ 77.528043202406806, 12.9844419284419 ], [ 77.527736414921307, 12.9847950099667 ], [ 77.527444223893099, 12.985054213601201 ], [ 77.5271046789004, 12.985356792700999 ], [ 77.526679722887096, 12.985697470482499 ], [ 77.526615188172102, 12.985750047951299 ], [ 77.526490496324797, 12.9858325733603 ], [ 77.526408711799306, 12.9858875772121 ], [ 77.526259980124806, 12.985927421107901 ], [ 77.526072997574204, 12.985942791176001 ], [ 77.526063796949799, 12.985944009971 ], [ 77.525944017591897, 12.985942915738701 ], [ 77.5257133436331, 12.9857373582762 ], [ 77.525465996069798, 12.985534221291401 ], [ 77.525391672161504, 12.985472829559599 ], [ 77.524949471017806, 12.9853608041415 ], [ 77.524588588010303, 12.985261540017699 ], [ 77.524363970402007, 12.985199349414501 ], [ 77.523990403851002, 12.985041481474299 ], [ 77.523786787256498, 12.985006190686301 ], [ 77.523773556379496, 12.9850074485398 ], [ 77.523704511829294, 12.9850126365187 ], [ 77.523557746650894, 12.9850761760749 ], [ 77.523380272871805, 12.985234879084199 ], [ 77.523062406514995, 12.9855180443168 ], [ 77.523042990540105, 12.9855340437351 ], [ 77.522794624308005, 12.985743126188799 ], [ 77.522755136726701, 12.985767225915801 ], [ 77.522349286927707, 12.9860049414093 ], [ 77.522333832752196, 12.986014126230501 ], [ 77.522235868890405, 12.986063639248 ], [ 77.5221249990242, 12.986089561165899 ], [ 77.521876597613101, 12.9861811909007 ], [ 77.521847382270593, 12.9861961560132 ], [ 77.521594110014405, 12.9863228733645 ], [ 77.521073941036803, 12.9865831236046 ], [ 77.520377854647705, 12.9868756027592 ], [ 77.5203078970316, 12.986904515167 ], [ 77.520296062953093, 12.986873008128301 ], [ 77.520243515831396, 12.9868012393685 ], [ 77.520164142231593, 12.986695850264301 ], [ 77.520019754989406, 12.9864815446142 ], [ 77.519896150861499, 12.9863867485422 ], [ 77.5198062317411, 12.986263391925601 ], [ 77.519793885326806, 12.9861810689903 ], [ 77.519786549915295, 12.9860817571815 ], [ 77.519817243530696, 12.985927867692 ], [ 77.519824365336902, 12.9857775948545 ], [ 77.519812483683197, 12.9854558448489 ], [ 77.519796461512399, 12.9852945029282 ], [ 77.519762693503395, 12.985143497250901 ], [ 77.5197008958244, 12.9850108329886 ], [ 77.519647500334102, 12.984911967783599 ], [ 77.519579847695795, 12.984826793023 ], [ 77.519510537786402, 12.984634345865899 ], [ 77.519461955080601, 12.9844416977104 ], [ 77.519384983336195, 12.984288852088801 ], [ 77.519314872151696, 12.983959760974299 ], [ 77.519250822414094, 12.983889232709201 ], [ 77.519162534271999, 12.983813292625401 ], [ 77.518966446213895, 12.983610780605 ], [ 77.518828502502203, 12.9834641724627 ], [ 77.518764762388201, 12.983310068931001 ], [ 77.518692427026096, 12.983102969091499 ], [ 77.518626099645502, 12.982920656745801 ], [ 77.518586459420504, 12.982872478731601 ], [ 77.518519702129694, 12.982818916729199 ], [ 77.518430376888801, 12.9827542798665 ], [ 77.518325536100903, 12.982635584361899 ], [ 77.518297467833406, 12.982592940919901 ], [ 77.518239183129893, 12.9824658887698 ], [ 77.518225121778201, 12.982384711587899 ], [ 77.518229136156194, 12.9823259463273 ], [ 77.518256146304694, 12.9822635701951 ], [ 77.518291569597295, 12.982236122490599 ], [ 77.518374283806594, 12.9822161220224 ], [ 77.518389669698607, 12.9822001619942 ], [ 77.518427958160402, 12.9819998955 ], [ 77.518453716700705, 12.9818133026567 ], [ 77.518496301525204, 12.981696566658499 ], [ 77.518543159992305, 12.9816611026615 ], [ 77.518649349862599, 12.9815708547829 ], [ 77.518695775905101, 12.9814924795478 ], [ 77.518776100321901, 12.981235338069 ], [ 77.518806093648493, 12.981069032553901 ], [ 77.518804716864395, 12.9809323942068 ], [ 77.518831756356207, 12.9808158088419 ], [ 77.518878227753902, 12.9807419505764 ], [ 77.518944338109705, 12.980617081117099 ], [ 77.518958749882003, 12.980561603172101 ], [ 77.519098903419703, 12.9804134290909 ], [ 77.519168647962502, 12.9804206586362 ], [ 77.519269796623405, 12.9804016086901 ], [ 77.519309882395106, 12.9803797624824 ], [ 77.519400030345906, 12.980297575375999 ], [ 77.519434051388401, 12.980245295421399 ], [ 77.519441497231995, 12.980184238225601 ], [ 77.5194459733207, 12.980114174995199 ], [ 77.519456354775201, 12.980058736108401 ], [ 77.519551001400103, 12.9799087442362 ], [ 77.519624755214906, 12.9797996115401 ], [ 77.519666472336397, 12.9797111177056 ], [ 77.519724999728695, 12.9796337544471 ], [ 77.519729714762903, 12.9795874053045 ], [ 77.519720755278797, 12.9794982733272 ], [ 77.519684713251294, 12.9794071451514 ], [ 77.519569171023093, 12.979140608556399 ], [ 77.519492615766097, 12.979086012266499 ], [ 77.5193117856208, 12.978911585788399 ], [ 77.5190633576929, 12.9786000331307 ], [ 77.5190144746866, 12.978434491933101 ], [ 77.518848458390394, 12.9778443195521 ], [ 77.518812214071801, 12.9777062490659 ], [ 77.518752056428298, 12.977477084424001 ], [ 77.5187113982836, 12.9773329599623 ], [ 77.518682791371802, 12.9772315564603 ], [ 77.518571031502802, 12.9769401366115 ], [ 77.518473032713601, 12.9766429366043 ], [ 77.518435635542303, 12.9765314928531 ], [ 77.518434452791595, 12.9764140515548 ], [ 77.518436831069806, 12.9763643369688 ], [ 77.518455905627306, 12.976314460664 ], [ 77.518457276015596, 12.9762218404113 ], [ 77.518459301749601, 12.9761371192845 ], [ 77.518467300894002, 12.976073798015101 ], [ 77.518522237203001, 12.9759829176362 ], [ 77.518531365054102, 12.975917326728499 ], [ 77.518564339599806, 12.9757611565738 ], [ 77.518590318624703, 12.975653616372799 ], [ 77.518602714626795, 12.9755123271374 ], [ 77.518581510641397, 12.975465099676301 ], [ 77.518519497951601, 12.9754250435911 ], [ 77.518340036029599, 12.9753861249933 ], [ 77.518209003820999, 12.9753535133787 ], [ 77.518177641422596, 12.9753267126121 ], [ 77.518132912133495, 12.9752876183948 ], [ 77.5180358099133, 12.975193692994001 ], [ 77.517932246482701, 12.9752014719587 ], [ 77.517821531448604, 12.9751280066437 ], [ 77.517777244817907, 12.9749612910578 ], [ 77.517806516147402, 12.974951972807499 ], [ 77.517747101434693, 12.974769592726 ], [ 77.517623212428504, 12.9745313691235 ], [ 77.517601542683806, 12.9744378425197 ], [ 77.517583475108196, 12.974358962642199 ], [ 77.517544234027994, 12.974178645859499 ], [ 77.517483895650599, 12.974018861672199 ], [ 77.517397804786299, 12.9738175406327 ], [ 77.517337921232198, 12.973702926152299 ], [ 77.5173153350446, 12.973575527725099 ], [ 77.517312702550797, 12.973542801926399 ], [ 77.517296490997097, 12.973362262125701 ], [ 77.517311777876102, 12.9732220741975 ], [ 77.517394799826207, 12.9731184993264 ], [ 77.517512373117796, 12.973129784130199 ], [ 77.517521497735402, 12.9731782580402 ], [ 77.517626575548206, 12.9732066040585 ], [ 77.517792630990797, 12.9731722452194 ], [ 77.518102060237595, 12.9729094979858 ], [ 77.518167965067093, 12.9727643025766 ], [ 77.518140049335997, 12.972622274273901 ], [ 77.518049641064707, 12.9725068261461 ], [ 77.517991480857802, 12.9723345980637 ], [ 77.517907667171599, 12.9722450611547 ], [ 77.517884293245501, 12.972153809751701 ], [ 77.517879274320705, 12.972055604528199 ], [ 77.517906976797093, 12.9718904506414 ], [ 77.518024635904396, 12.9716815104382 ], [ 77.518194912945702, 12.971494647872399 ], [ 77.518254306681996, 12.9713890429265 ], [ 77.518365632371101, 12.9711801639711 ], [ 77.518472219749697, 12.971015375672 ], [ 77.518535022136902, 12.9709052202805 ], [ 77.518541748139398, 12.970715423731001 ], [ 77.518459983728107, 12.970543424262299 ], [ 77.518444316623899, 12.9705162898585 ], [ 77.518332237428893, 12.970322178344899 ], [ 77.518197329204895, 12.9701902206232 ], [ 77.518247833418002, 12.9701739207462 ], [ 77.518356428472501, 12.970151411703 ], [ 77.518504520801002, 12.9701059331385 ], [ 77.518660290664201, 12.9700795791743 ], [ 77.518681512702699, 12.9700714682174 ], [ 77.518950706437295, 12.9699875481658 ], [ 77.519080004434301, 12.9699625796611 ], [ 77.519239770004603, 12.969932798620899 ], [ 77.519519690120106, 12.9698849134534 ], [ 77.519498226412495, 12.969754115485101 ], [ 77.519463255828398, 12.969541007358799 ], [ 77.519845152740999, 12.9694424427255 ], [ 77.520052834485298, 12.969368152359801 ], [ 77.520239703650404, 12.9693426256378 ], [ 77.520409990716402, 12.969328552969399 ], [ 77.520601049046107, 12.969318796342201 ], [ 77.520759291488702, 12.969309357563301 ], [ 77.520760263300104, 12.9691772139523 ], [ 77.520901124460806, 12.969154312698199 ], [ 77.521012638642702, 12.9691386290867 ], [ 77.521251602978793, 12.969105849634699 ], [ 77.521249976976804, 12.9690934136132 ], [ 77.521178198959902, 12.968598323819201 ], [ 77.521475017405706, 12.9685706014271 ], [ 77.521567240377905, 12.968563577448 ], [ 77.5217835933624, 12.968554847893 ], [ 77.522140476334201, 12.968498552429599 ], [ 77.522289481668395, 12.968464342452 ], [ 77.523260447669401, 12.9682246496658 ], [ 77.523260332863799, 12.9682240803102 ], [ 77.524103021603807, 12.967999348962699 ], [ 77.524099884436197, 12.9679928955532 ], [ 77.523949347202205, 12.967681526144901 ], [ 77.523943476193196, 12.967670289603101 ], [ 77.523874569040899, 12.9675173665002 ], [ 77.523818623728502, 12.967393680723699 ], [ 77.523776227309597, 12.967300355944801 ], [ 77.523758546012701, 12.9672598708605 ], [ 77.523656015120906, 12.967027089955799 ], [ 77.523638920967102, 12.966987728510899 ], [ 77.523603598995095, 12.966853678459399 ], [ 77.523577336871099, 12.9667556697873 ], [ 77.523536591644302, 12.9666036126499 ], [ 77.523498426832603, 12.966358913820599 ], [ 77.523478051957696, 12.966229251515401 ], [ 77.523625659147996, 12.9661937623552 ], [ 77.5238605978615, 12.966150565017299 ], [ 77.5243109688098, 12.966085617860699 ], [ 77.524537035529804, 12.966066501529699 ], [ 77.524685779229301, 12.9660289191656 ], [ 77.524715544262605, 12.966125754391401 ], [ 77.524740846485997, 12.9661797176439 ], [ 77.524928522193207, 12.966117594723199 ], [ 77.525160503760205, 12.966058193049699 ], [ 77.525658034978704, 12.965894126084899 ], [ 77.525583302641195, 12.9656204197634 ], [ 77.525910315355603, 12.965504310759099 ], [ 77.526155212575304, 12.965466923603699 ], [ 77.526355010904297, 12.965410775174099 ], [ 77.526638854266494, 12.965344645674101 ], [ 77.526693913104197, 12.965331818333 ], [ 77.526821491558294, 12.96530799256 ], [ 77.526859841734407, 12.964657273963301 ], [ 77.526858678611404, 12.964657127241599 ], [ 77.5267076391834, 12.964638265559801 ], [ 77.526709714012796, 12.9646156584595 ], [ 77.526501149878897, 12.9646018725768 ], [ 77.526433747009406, 12.9645980095755 ], [ 77.526428868063107, 12.9644568884479 ], [ 77.526473117619801, 12.964334489275201 ], [ 77.5265406803926, 12.9641260333226 ], [ 77.526597116583801, 12.963956083221399 ], [ 77.526622464650501, 12.963900499078999 ], [ 77.526656129079299, 12.9638132124546 ], [ 77.526691543389404, 12.963728167535701 ], [ 77.526728650587799, 12.9636397181361 ], [ 77.526731481829202, 12.963604707970701 ], [ 77.526738887990803, 12.9635131317897 ], [ 77.526732812018494, 12.963367504915199 ], [ 77.526710063566895, 12.963224298601 ], [ 77.526627174688599, 12.9629981043961 ], [ 77.526589971058499, 12.962905859040401 ], [ 77.526575185534497, 12.9628100080003 ], [ 77.526572044910907, 12.9627840634856 ], [ 77.526602449148996, 12.962601943306201 ], [ 77.526665850818901, 12.962323508222299 ], [ 77.526714335719404, 12.9619932679486 ], [ 77.526302791971801, 12.962005168235899 ], [ 77.526304228240704, 12.962033388001 ], [ 77.526312406917896, 12.962216263027999 ], [ 77.526299741565893, 12.962216385962501 ], [ 77.525752510264397, 12.9620760110224 ], [ 77.525047128190494, 12.961896512567501 ], [ 77.524833539245094, 12.96184098775 ], [ 77.524397726082, 12.9617300212884 ], [ 77.524174082169495, 12.9617050858451 ], [ 77.523951002578798, 12.961679015379 ], [ 77.523823697404595, 12.961687971861901 ], [ 77.523280724371105, 12.961726170778199 ], [ 77.523162070627805, 12.962235528843699 ], [ 77.523157870018395, 12.9622186293052 ], [ 77.522965604537106, 12.9621651549127 ], [ 77.522596205814907, 12.9621314668202 ], [ 77.522382259578706, 12.9619833365809 ], [ 77.522268552143203, 12.961892778192601 ], [ 77.522260373006205, 12.961886264194399 ], [ 77.522130942775107, 12.961784713093399 ], [ 77.522118189183601, 12.9617747068438 ], [ 77.521968753338598, 12.961743403627599 ], [ 77.521847178542799, 12.9617344174137 ], [ 77.521729645010197, 12.9617265213398 ], [ 77.521496207002002, 12.961758146032199 ], [ 77.521305074949495, 12.961759997561201 ], [ 77.521249807844498, 12.961760532916999 ], [ 77.520879216801504, 12.961779933352901 ], [ 77.520644445184402, 12.9617935005795 ], [ 77.520636335787202, 12.961731464714299 ], [ 77.520512766464407, 12.961295601814699 ], [ 77.5204688193095, 12.9611051667341 ], [ 77.520368033310604, 12.9608734959267 ], [ 77.520368298933704, 12.960838477088 ], [ 77.520370259152898, 12.9605798425979 ], [ 77.520320415600096, 12.9604899769546 ], [ 77.5202746928924, 12.960409106222 ], [ 77.519848578558396, 12.960117340872101 ], [ 77.519393778879802, 12.9597784194053 ], [ 77.519321736776106, 12.959660539887601 ], [ 77.519524113270606, 12.959628083295099 ], [ 77.519782202531502, 12.959586057884 ], [ 77.520159301297198, 12.959527069199099 ], [ 77.520523768613401, 12.9594715903565 ], [ 77.520702525276704, 12.959441625715399 ], [ 77.521049145702804, 12.959386318985199 ], [ 77.521701048755006, 12.9592684648008 ], [ 77.521715801608806, 12.959265797567801 ], [ 77.522522035768802, 12.9591698972019 ], [ 77.522803241218796, 12.9591366734514 ], [ 77.523396707901895, 12.959066554974999 ], [ 77.523644603470402, 12.9590415650003 ], [ 77.524013856034998, 12.9590041047288 ], [ 77.524346260895697, 12.9589494622246 ], [ 77.524503006636294, 12.958923695363101 ], [ 77.525179473849903, 12.958748861640499 ], [ 77.525269053795398, 12.9587254057487 ], [ 77.525449160014304, 12.958658156416799 ], [ 77.525803615204893, 12.9585237132837 ], [ 77.526094407650405, 12.958413603773399 ], [ 77.526341897817503, 12.9582914913473 ], [ 77.526884408761902, 12.9580219589409 ], [ 77.527742805610202, 12.9575618872574 ], [ 77.527745292752201, 12.957560329005 ], [ 77.527751959606704, 12.957556151647299 ], [ 77.528044602289896, 12.957344381081599 ], [ 77.528385260010793, 12.9570982636009 ], [ 77.528406976446107, 12.9570822418593 ], [ 77.528507088579602, 12.9569615588992 ], [ 77.528631174153304, 12.9568203148563 ], [ 77.5286288030115, 12.9568135618031 ], [ 77.528570567614807, 12.9566910285488 ], [ 77.528496230226594, 12.9565133136377 ], [ 77.528073470135496, 12.9551847888624 ], [ 77.527957138091196, 12.9548392085609 ], [ 77.527915598355904, 12.954716512933601 ], [ 77.527611050937494, 12.9538622941617 ], [ 77.527506359322203, 12.953529023263499 ], [ 77.527474976735107, 12.953422554758999 ], [ 77.5274479378959, 12.953330824997 ], [ 77.527382323678694, 12.953104462798899 ], [ 77.527339992545706, 12.9529603170339 ], [ 77.527334481111495, 12.952927619422701 ], [ 77.527297628161307, 12.952698719373 ], [ 77.5272957530524, 12.9526840560429 ], [ 77.527223911190305, 12.9522397899723 ], [ 77.527207929934406, 12.952139433046799 ], [ 77.527190255846406, 12.9520424805871 ], [ 77.527149994826402, 12.9518181309182 ], [ 77.527145127480196, 12.9517922031325 ], [ 77.527112794507303, 12.9516118211054 ], [ 77.527034757900296, 12.951181167123501 ], [ 77.527034125286093, 12.9511755265187 ], [ 77.527028648139705, 12.9511462165962 ], [ 77.526984323693, 12.950918518213699 ], [ 77.526938734147905, 12.950679538593601 ], [ 77.526910807089607, 12.950536382239999 ], [ 77.526897267958404, 12.950442761382901 ], [ 77.526863189628699, 12.950210462405099 ], [ 77.526842814740704, 12.950074008858801 ], [ 77.526792102890496, 12.9497266613602 ], [ 77.526790849078907, 12.949716509383199 ], [ 77.526707359966906, 12.949258803566501 ], [ 77.526687269962693, 12.949150580929301 ], [ 77.526674384898897, 12.9489022527657 ], [ 77.526662260341595, 12.9486685915252 ], [ 77.526648863674197, 12.948424782087599 ], [ 77.526643108554097, 12.948310773660699 ], [ 77.526643063018, 12.9483062567066 ], [ 77.526646775476493, 12.948160534692301 ], [ 77.526649935049406, 12.9480170767371 ], [ 77.526545847128403, 12.9472862679602 ], [ 77.526451964577404, 12.946425484893799 ], [ 77.526429452086504, 12.9463624596159 ], [ 77.526389083938398, 12.945875879221701 ], [ 77.5263835791757, 12.9458095232395 ], [ 77.526387021755696, 12.945808360513601 ], [ 77.526467409310101, 12.9457872528381 ], [ 77.527915065444802, 12.945475065115501 ], [ 77.527966002991903, 12.9454452079214 ], [ 77.528018816713995, 12.945315949890601 ], [ 77.527890263973006, 12.9451850632374 ], [ 77.528107184529901, 12.945172794759101 ], [ 77.528257949941704, 12.9451656853391 ], [ 77.528313262554406, 12.9451491381529 ], [ 77.528566178344093, 12.9450734762674 ], [ 77.528915084458106, 12.9449616732152 ], [ 77.5290337328302, 12.9449097011537 ], [ 77.529210260442696, 12.9448311923259 ], [ 77.529444257006205, 12.9446854941244 ], [ 77.529505248353701, 12.944625046736 ], [ 77.529557582046806, 12.9445624246805 ], [ 77.529632451999106, 12.9444510219511 ], [ 77.529839791848403, 12.9441169813451 ], [ 77.5299842650752, 12.9438287248223 ], [ 77.530113725076902, 12.943650160632499 ], [ 77.530209779766906, 12.9435272586952 ], [ 77.530422845867605, 12.943361434879399 ], [ 77.530515702927403, 12.9432069422241 ], [ 77.530870937895401, 12.942524755976599 ], [ 77.531126595222204, 12.9420727937426 ], [ 77.531163362709407, 12.9420080639864 ], [ 77.531877233405694, 12.940753204122201 ], [ 77.532269343404806, 12.9401316436059 ], [ 77.532559072529395, 12.939653895274899 ], [ 77.532666865975997, 12.939476149888399 ], [ 77.532872978763507, 12.9391353440415 ], [ 77.533019099467495, 12.938896762011201 ], [ 77.533161258863899, 12.9386649945 ], [ 77.533371639436794, 12.9383478632398 ], [ 77.533447623217796, 12.938233061135 ], [ 77.533626388618501, 12.937920754361899 ], [ 77.533822998401902, 12.937608274125299 ], [ 77.533846502202707, 12.937541414417201 ], [ 77.533889354839701, 12.937395312595701 ], [ 77.533998524232004, 12.937089328794199 ], [ 77.534131778019798, 12.9366600124438 ], [ 77.534248853158502, 12.936509801236999 ], [ 77.5342956217562, 12.9364664316301 ], [ 77.534508359964804, 12.9362689874855 ], [ 77.535077687891203, 12.935981117342701 ], [ 77.535719201658395, 12.9356586639711 ], [ 77.53621404818, 12.9354065256578 ], [ 77.536240390259294, 12.935392717353601 ], [ 77.536547216355402, 12.9352203317367 ], [ 77.536673555938606, 12.935149868736101 ], [ 77.536825431711904, 12.935065164278701 ], [ 77.537049258689393, 12.9349398885924 ], [ 77.537104775108006, 12.934907726924401 ], [ 77.537346320683, 12.934769855895 ], [ 77.537613045187598, 12.9346170582472 ], [ 77.538016579330602, 12.934387263146601 ], [ 77.538211208137596, 12.934273829844599 ], [ 77.538763444224998, 12.9339519736496 ], [ 77.538890486529993, 12.9338744495398 ], [ 77.539012322377502, 12.9337993485859 ], [ 77.539181160994403, 12.9337017109259 ], [ 77.539233192452599, 12.933669471699201 ], [ 77.5392515288233, 12.933658110901 ], [ 77.539427149037607, 12.933547984348801 ], [ 77.5395117100785, 12.9334889313213 ], [ 77.539664952273597, 12.933381914554399 ], [ 77.540433219768801, 12.932843643001901 ], [ 77.541000476881095, 12.9324500150231 ], [ 77.541078628224994, 12.932395784443701 ], [ 77.541369674398794, 12.932185511945701 ], [ 77.541587261233104, 12.932028311121201 ], [ 77.542388975246496, 12.9314500045075 ], [ 77.542483947645906, 12.931381496555099 ], [ 77.542868482905305, 12.931038947028 ], [ 77.543085859942195, 12.930845969923499 ], [ 77.543394416514104, 12.930570409287499 ], [ 77.543601606776804, 12.9303858187325 ], [ 77.544492111646306, 12.929527873544201 ], [ 77.545550322741704, 12.928632151374 ], [ 77.546053176333899, 12.928207132034199 ], [ 77.546232509342801, 12.928066473775701 ], [ 77.546968875671396, 12.9274902032227 ], [ 77.547828249455804, 12.9268176636986 ], [ 77.548152085661201, 12.926564918784701 ], [ 77.548360573712898, 12.926409235597299 ], [ 77.548711419936794, 12.9261472495488 ], [ 77.549094044030696, 12.92590506931 ], [ 77.549271394303702, 12.925792815799699 ], [ 77.549445323022198, 12.925687218028701 ], [ 77.549986280032201, 12.925379407016999 ], [ 77.550398864466501, 12.9251448559074 ], [ 77.550496212109906, 12.9250942139203 ], [ 77.551443898832602, 12.9245993378654 ], [ 77.551664132112904, 12.9245148293227 ], [ 77.551715700557807, 12.924495040661499 ], [ 77.552057881459902, 12.9243626610545 ], [ 77.5517448163788, 12.923734716398901 ], [ 77.551392793849203, 12.9230255500413 ], [ 77.550838523185305, 12.9219569733017 ], [ 77.550132496797303, 12.9206256132727 ], [ 77.550248665485498, 12.920557847823501 ], [ 77.550210474803507, 12.9204249597128 ], [ 77.550256822538898, 12.920397402968799 ], [ 77.550266389757894, 12.9203758521945 ], [ 77.550264329332094, 12.919549201159001 ], [ 77.550273548981195, 12.919481440606701 ], [ 77.5502344426326, 12.9192573059729 ], [ 77.550726520508903, 12.9191471610074 ], [ 77.5509022720546, 12.9191081759058 ], [ 77.551955743259896, 12.9188855664601 ], [ 77.551955743259896, 12.91888556646 ], [ 77.551948307862503, 12.918862000886101 ], [ 77.551915711824904, 12.918722384546699 ], [ 77.551902697891805, 12.9186127850469 ], [ 77.551904341574399, 12.9185403942242 ], [ 77.551954183327794, 12.9182924345104 ], [ 77.551997869819402, 12.918207322145401 ], [ 77.551956231916293, 12.917878987197 ], [ 77.551618671912294, 12.917168444063099 ], [ 77.551531312627603, 12.917051889726499 ], [ 77.551009392106096, 12.9165732701997 ], [ 77.550919222166101, 12.916468761826501 ], [ 77.550919222166002, 12.916468761826501 ], [ 77.550919222166101, 12.916468761826501 ], [ 77.550872118552206, 12.9164217900293 ], [ 77.550803755232195, 12.916321947288999 ], [ 77.550730672689497, 12.9162108572971 ], [ 77.550680968805906, 12.916134548213799 ], [ 77.550676260992105, 12.9161244302092 ], [ 77.550656879943801, 12.9160331526473 ], [ 77.550604007683802, 12.9157841589355 ], [ 77.549481562824695, 12.916099958265001 ], [ 77.549238192094094, 12.916168964866401 ], [ 77.549179067538205, 12.9161853527125 ], [ 77.548998815898898, 12.9162345442712 ], [ 77.548829454413706, 12.9162791120875 ], [ 77.548514295735202, 12.9163646294432 ], [ 77.548254232414905, 12.916433798128701 ], [ 77.548035507837795, 12.916492399198299 ], [ 77.548038723249505, 12.9166391812683 ], [ 77.548053291167406, 12.9167602537141 ], [ 77.548074554735607, 12.916936975840301 ], [ 77.548087097086494, 12.9170384935197 ], [ 77.548100996761804, 12.917160325964399 ], [ 77.548455164565695, 12.917174938902299 ], [ 77.548534417621795, 12.9177241509187 ], [ 77.548549334179697, 12.9177759546742 ], [ 77.548623871269598, 12.9180304565316 ], [ 77.548294080188896, 12.9180924008306 ], [ 77.548110605435298, 12.9181077434776 ], [ 77.547899731499896, 12.918145940058301 ], [ 77.547864677948496, 12.918151928796 ], [ 77.547588095345205, 12.918181731662701 ], [ 77.547293703756495, 12.918215095999599 ], [ 77.546984484122603, 12.9182621566846 ], [ 77.546864438126093, 12.9182881730807 ], [ 77.546856757664898, 12.9183255160559 ], [ 77.546843530589797, 12.9183267744153 ], [ 77.546788086000404, 12.918195183042799 ], [ 77.546759749775006, 12.918127515929401 ], [ 77.546729683416103, 12.9180557151532 ], [ 77.546724239855607, 12.918029793541001 ], [ 77.545909708000906, 12.918143894679099 ], [ 77.545348675906993, 12.9182143240272 ], [ 77.544763898935898, 12.918287197152599 ], [ 77.544708237428907, 12.917793090162499 ], [ 77.544697975537105, 12.9175187613386 ], [ 77.544343711180701, 12.9175515764334 ], [ 77.544341317347204, 12.9175425650634 ], [ 77.5431720508533, 12.9176431739451 ], [ 77.542788685281707, 12.9178151790424 ], [ 77.541928748140094, 12.9182210795489 ], [ 77.541932714295498, 12.918442391364101 ], [ 77.541976319129603, 12.918769475104099 ], [ 77.541984030336096, 12.9187919868032 ], [ 77.541986881630194, 12.9187985173388 ], [ 77.541986258787404, 12.918798859494199 ], [ 77.541959395104499, 12.918803520948501 ], [ 77.541861624570203, 12.9188123782112 ], [ 77.541773558177894, 12.9188132355912 ], [ 77.541684654339306, 12.918788126295301 ], [ 77.541514693240501, 12.9186599068146 ], [ 77.541376029411694, 12.918552840002 ], [ 77.541346435312406, 12.918529411934699 ], [ 77.541313442945594, 12.918511663636901 ], [ 77.541195337070107, 12.918445052819999 ], [ 77.541090042726793, 12.918392998664601 ], [ 77.540965429604796, 12.9183659779432 ], [ 77.540932865318496, 12.918333544006099 ], [ 77.540821289817401, 12.91822960122 ], [ 77.540655323436596, 12.9180979541359 ], [ 77.540576540725695, 12.918049029770501 ], [ 77.540514376990799, 12.918049634635899 ], [ 77.540448424831396, 12.9180739924895 ], [ 77.540448423901296, 12.918073991595101 ], [ 77.540394791243301, 12.9180643493654 ], [ 77.540351439285104, 12.9180467017172 ], [ 77.540250544439104, 12.917974276231201 ], [ 77.540236063346697, 12.917965382395201 ], [ 77.540106297729395, 12.917884202997399 ], [ 77.540001545125904, 12.9178287550271 ], [ 77.539933344283, 12.917797041634801 ], [ 77.539875461493196, 12.9177701264815 ], [ 77.539853520587101, 12.9177635638656 ], [ 77.539694087051302, 12.9177086476447 ], [ 77.539466738887498, 12.917597924799299 ], [ 77.539308217010699, 12.9175192832794 ], [ 77.539293929989299, 12.917529586291099 ], [ 77.539251011854105, 12.917554849171999 ], [ 77.539127830694596, 12.917612514125199 ], [ 77.539090588539096, 12.917629816400501 ], [ 77.538890597743503, 12.9177198497262 ], [ 77.538832782646693, 12.9177520334514 ], [ 77.538698272023694, 12.9178278778602 ], [ 77.538488052057303, 12.9179880295702 ], [ 77.5383636342805, 12.9180942679472 ], [ 77.538361319951605, 12.918101117651601 ], [ 77.538157226240202, 12.9182329249082 ], [ 77.537849703388801, 12.918562294088799 ], [ 77.536429384292603, 12.9192492406215 ], [ 77.534427356862494, 12.918359680722499 ], [ 77.533130381131102, 12.9180952404402 ], [ 77.531782013045202, 12.9177925079565 ], [ 77.531617675648604, 12.916378933618899 ], [ 77.5313757146032, 12.914297607872699 ], [ 77.531323620594307, 12.9140831970323 ], [ 77.531085716005904, 12.913104013615801 ], [ 77.530690082526107, 12.9122337380016 ], [ 77.530334739929302, 12.9114520853404 ], [ 77.530127726110194, 12.910996707854 ], [ 77.529497774705106, 12.9099165568523 ], [ 77.529401585022399, 12.9097725501911 ], [ 77.5294015859252, 12.909772550154999 ], [ 77.528428390971101, 12.9083155290959 ], [ 77.527682979704906, 12.9070927218738 ], [ 77.527368527693895, 12.906581898701999 ], [ 77.5267386082744, 12.905558593393099 ], [ 77.526382882928402, 12.904980711593799 ], [ 77.525870880091006, 12.9042976905475 ], [ 77.525871108631804, 12.9042912433531 ], [ 77.525828640295401, 12.904277305123101 ], [ 77.525520233237401, 12.9040388876143 ], [ 77.525298084514105, 12.903784272519299 ], [ 77.518407787782195, 12.898346173332801 ], [ 77.517832913962295, 12.8978678975382 ], [ 77.514381723803993, 12.89431840402 ], [ 77.514381723720703, 12.8943184039343 ], [ 77.514106240670401, 12.8940357930282 ], [ 77.513111966630106, 12.8930141545626 ], [ 77.512669773138299, 12.892496341118299 ], [ 77.5121998563598, 12.891892254620901 ], [ 77.511661957127302, 12.891127997129299 ] ] ] } }
]
}
