{
"type": "FeatureCollection",
"name": "South_Zone2",
"crs": { "type": "name", "properties": { "name": "urn:ogc:def:crs:OGC:1.3:CRS84" } },
"features": [
{ "type": "Feature", "properties": { "region_id": "zone_GBA_South_8", "name": "South (Z8)", "parent": "corp_GBA_South", "parent_name": "South" }, "geometry": { "type": "Polygon", "coordinates": [ [ [ 77.617682620890307, 12.8774113973151 ], [ 77.617644453598999, 12.877338375606699 ], [ 77.6176179362906, 12.8772787888014 ], [ 77.617587179687206, 12.8771989173124 ], [ 77.617570162957605, 12.8771674675494 ], [ 77.617564115181807, 12.877139295981401 ], [ 77.617562706279102, 12.8771144658855 ], [ 77.617564973818304, 12.877055720613299 ], [ 77.617571693484194, 12.876926915423001 ], [ 77.617586598594897, 12.876810450501999 ], [ 77.617588090454404, 12.876787849971899 ], [ 77.617600387959698, 12.876697384577399 ], [ 77.617612356250007, 12.8766306373725 ], [ 77.617630807039703, 12.876578506021 ], [ 77.617665805452603, 12.8765126578903 ], [ 77.6176960125497, 12.876428789159 ], [ 77.617682155483706, 12.87636907579 ], [ 77.617633067296893, 12.876241957727901 ], [ 77.6175461522093, 12.8760745636227 ], [ 77.6175264341705, 12.876060080054801 ], [ 77.617478729686397, 12.8760662032669 ], [ 77.616799216628493, 12.876138492400401 ], [ 77.616513141681494, 12.8761899099316 ], [ 77.616256943605805, 12.8762365115627 ], [ 77.616164940298404, 12.8762442063869 ], [ 77.616018890589501, 12.8762569582094 ], [ 77.615719228071697, 12.8762746321833 ], [ 77.615708869783404, 12.8762747356453 ], [ 77.615628235014796, 12.8762687653428 ], [ 77.615536713361294, 12.876267420879699 ], [ 77.6149190696608, 12.876256641594001 ], [ 77.614919070110204, 12.8762566415766 ], [ 77.614968364486899, 12.875627147713001 ], [ 77.614990261986705, 12.875352513273899 ], [ 77.615007353075598, 12.8752247336312 ], [ 77.6151311257061, 12.8742850635527 ], [ 77.615266907745806, 12.8735045025267 ], [ 77.615340753810003, 12.873078025517099 ], [ 77.615247205758806, 12.8725481964993 ], [ 77.615209279134106, 12.872331752791199 ], [ 77.615206035147907, 12.8720189737474 ], [ 77.615277825514099, 12.8716162322456 ], [ 77.615156100160206, 12.871588086074 ], [ 77.614985581400404, 12.8711279113739 ], [ 77.6145349939179, 12.871131279389401 ], [ 77.614498235405904, 12.871138421943501 ], [ 77.614102475574001, 12.8712123869316 ], [ 77.613868701519493, 12.8712565030637 ], [ 77.613580246961007, 12.871300035247 ], [ 77.613562753416204, 12.8711669541956 ], [ 77.613544695236101, 12.8710350080562 ], [ 77.613439886957707, 12.870251200771699 ], [ 77.613374613247501, 12.870005667806501 ], [ 77.6133357222716, 12.8698626365635 ], [ 77.613321949689606, 12.8698108268367 ], [ 77.613302483495701, 12.8693762463267 ], [ 77.613292638411707, 12.869148228972699 ], [ 77.613280607447194, 12.8687090571292 ], [ 77.6132746144458, 12.868186257959101 ], [ 77.613230833972295, 12.868182177445201 ], [ 77.613198011236307, 12.868180246213999 ], [ 77.613123121736905, 12.868173088070501 ], [ 77.613070136021193, 12.867835960203999 ], [ 77.613065216650298, 12.8678055185606 ], [ 77.613031931990903, 12.867592415569501 ], [ 77.612955310513499, 12.867140336205599 ], [ 77.612950437971506, 12.8671144112281 ], [ 77.612947867194194, 12.867088463299201 ], [ 77.612860517721899, 12.865989410239701 ], [ 77.612800075753896, 12.8654058993767 ], [ 77.612055971466503, 12.8657483820806 ], [ 77.611457908468594, 12.8661445513244 ], [ 77.611139091192598, 12.8666457435663 ], [ 77.611120444822205, 12.8670682826326 ], [ 77.611105112717894, 12.8674219021784 ], [ 77.610938986088399, 12.8674404967692 ], [ 77.610803908100095, 12.8674565233427 ], [ 77.610554493185006, 12.867490628236901 ], [ 77.610332078157597, 12.8675199467989 ], [ 77.610306982528101, 12.8672638485323 ], [ 77.610271338096894, 12.866877987260199 ], [ 77.609771558737805, 12.8669100678683 ], [ 77.609303405940906, 12.8669395740599 ], [ 77.609073357534896, 12.8669542867449 ], [ 77.608857684364907, 12.8669677268326 ], [ 77.608379184737203, 12.866998463702499 ], [ 77.608304935916706, 12.867275878567 ], [ 77.608210729913594, 12.867626895872201 ], [ 77.608076644517695, 12.868128505580399 ], [ 77.608092727120294, 12.8690159668052 ], [ 77.608075959165902, 12.8691753634841 ], [ 77.608047640616306, 12.8694421576102 ], [ 77.608023563678103, 12.869673901553901 ], [ 77.607986263663506, 12.869684436444601 ], [ 77.607141688760606, 12.869933380753601 ], [ 77.606428875036897, 12.869905949218101 ], [ 77.606417893761105, 12.8698965398989 ], [ 77.606295065477795, 12.8697057823934 ], [ 77.606260070203206, 12.8694938238755 ], [ 77.6061433397836, 12.869280419765699 ], [ 77.606070144835002, 12.869214519647301 ], [ 77.605895122019206, 12.8692636906496 ], [ 77.605325113151807, 12.868236057534901 ], [ 77.605199592038204, 12.8681187299242 ], [ 77.605005268208402, 12.8676361957111 ], [ 77.604864565373703, 12.866996156626101 ], [ 77.604662370396497, 12.867033174454599 ], [ 77.604638409903103, 12.8666076694797 ], [ 77.604588923576998, 12.8662738908354 ], [ 77.604586545349306, 12.866043538862399 ], [ 77.604525870561702, 12.865517891665901 ], [ 77.604473383500405, 12.865283520459201 ], [ 77.604467815830205, 12.865134509195601 ], [ 77.604331569004302, 12.865092949973199 ], [ 77.604285746202095, 12.864779461976299 ], [ 77.603857817237795, 12.864802911663 ], [ 77.603509841107297, 12.8646550432002 ], [ 77.603509243177896, 12.8649317259664 ], [ 77.603538836236595, 12.865234082559899 ], [ 77.603399252353995, 12.865370984313 ], [ 77.603079695079501, 12.866081096111699 ], [ 77.602925586234207, 12.8663163905463 ], [ 77.602822777789498, 12.866503745094301 ], [ 77.6026332680796, 12.8666546940147 ], [ 77.602380113463695, 12.866717060650901 ], [ 77.602041515114394, 12.8667531724067 ], [ 77.601484519472706, 12.866769624877101 ], [ 77.601601184025299, 12.866467315463201 ], [ 77.601537149592104, 12.8662850054099 ], [ 77.600590320163604, 12.866335173095999 ], [ 77.600566804579401, 12.866336419200699 ], [ 77.599851950684098, 12.8663288310663 ], [ 77.599720441390602, 12.866356109486899 ], [ 77.599637856543794, 12.8663840318287 ], [ 77.599540483593998, 12.866317239949201 ], [ 77.599263770501295, 12.8663832252176 ], [ 77.599271200321297, 12.8665457702218 ], [ 77.599034240013793, 12.8667276785703 ], [ 77.598062511111095, 12.866774834762699 ], [ 77.5979989047419, 12.8670337103914 ], [ 77.597953873815996, 12.8672241886851 ], [ 77.597902472633905, 12.867478590555701 ], [ 77.597572575921006, 12.868862992073399 ], [ 77.596784940127193, 12.8702835514041 ], [ 77.596347646769303, 12.8720258758035 ], [ 77.596347647699304, 12.8720258766978 ], [ 77.596297902481098, 12.8721133257157 ], [ 77.596284979895898, 12.8721439448528 ], [ 77.596237775783294, 12.8723104195809 ], [ 77.596153154202995, 12.8725879364139 ], [ 77.596126113380507, 12.872644669342501 ], [ 77.596106931362002, 12.872682126306501 ], [ 77.596092190264102, 12.8727037290762 ], [ 77.596058678910495, 12.872746974545899 ], [ 77.596022140022797, 12.872775569134699 ], [ 77.595985554623695, 12.872799646985801 ], [ 77.595848280839704, 12.8728823169041 ], [ 77.595772198700104, 12.8729271135188 ], [ 77.595680461887298, 12.8729607722547 ], [ 77.595601797016798, 12.872978491245799 ], [ 77.595526517002796, 12.8729894008809 ], [ 77.594675715697605, 12.873083656685001 ], [ 77.594600422099006, 12.8730934369007 ], [ 77.594414192862004, 12.873116738193101 ], [ 77.594259096667898, 12.8731453775183 ], [ 77.594256220272698, 12.8731454060063 ], [ 77.594202712232303, 12.8729703306755 ], [ 77.593957939860005, 12.872850224721599 ], [ 77.592954031989706, 12.872719001532101 ], [ 77.592658166106204, 12.872098555667399 ], [ 77.591848500042801, 12.871547563262499 ], [ 77.590358412529397, 12.8705323767816 ], [ 77.589527708502402, 12.8701735650159 ], [ 77.588987873725699, 12.869893186037899 ], [ 77.588889427850603, 12.869842920910999 ], [ 77.588878789798599, 12.870367442588799 ], [ 77.588872881168797, 12.8704646211745 ], [ 77.588847691710896, 12.871150358000699 ], [ 77.588807667987595, 12.872016930152901 ], [ 77.588805533536799, 12.872089226740099 ], [ 77.588795673735902, 12.8723061506597 ], [ 77.588793431753004, 12.8724800857209 ], [ 77.588794918885299, 12.8725128208565 ], [ 77.588798649909606, 12.872539887293399 ], [ 77.588804083220893, 12.8725646782976 ], [ 77.588810622930396, 12.872584941148901 ], [ 77.588822456835203, 12.8726164447234 ], [ 77.588833081846801, 12.872642313721601 ], [ 77.588834267556507, 12.872645689916901 ], [ 77.588785693092206, 12.8726576762297 ], [ 77.588662620071304, 12.872688041211999 ], [ 77.587967358716696, 12.8729094790784 ], [ 77.587558512757198, 12.8730558105828 ], [ 77.587295177214102, 12.873192799157801 ], [ 77.587073773176201, 12.8733779335295 ], [ 77.586784582360707, 12.8736314955924 ], [ 77.586083135725602, 12.8740359379594 ], [ 77.586243995478299, 12.8744567103073 ], [ 77.589174246035697, 12.876441308770801 ], [ 77.589593046697203, 12.876927285547801 ], [ 77.589591738991899, 12.877260703236001 ], [ 77.589589708196996, 12.877778812568 ], [ 77.589610418343, 12.877833943627699 ], [ 77.589595479170299, 12.8778363499772 ], [ 77.589658976427103, 12.8779667212149 ], [ 77.589855919633493, 12.8784255291457 ], [ 77.590192327498201, 12.8791822224473 ], [ 77.590380765973507, 12.880157205110701 ], [ 77.590552194229602, 12.8809889342186 ], [ 77.590572264812707, 12.8810937607466 ], [ 77.590611877008797, 12.8813079362314 ], [ 77.590612649855402, 12.8813271267258 ], [ 77.590616368170998, 12.8814648648329 ], [ 77.590616646805302, 12.881491965335099 ], [ 77.590615704813601, 12.8815123021018 ], [ 77.590607187055795, 12.8816354803648 ], [ 77.590559462292802, 12.8824795416106 ], [ 77.590560704616493, 12.8826003646784 ], [ 77.5905691612341, 12.882695142390901 ], [ 77.590677169107096, 12.882956071582401 ], [ 77.590727235075903, 12.8830673769827 ], [ 77.590978083123403, 12.8836182520688 ], [ 77.591010466649095, 12.883689077529301 ], [ 77.591042344390004, 12.883766683801101 ], [ 77.591081348690395, 12.883865676252301 ], [ 77.591196577271404, 12.8841570246902 ], [ 77.591303754602905, 12.8845049178243 ], [ 77.591412384384299, 12.884993959172499 ], [ 77.591529548829897, 12.8854174163856 ], [ 77.591627885176706, 12.88585687014 ], [ 77.591681833775496, 12.886233522513701 ], [ 77.591682763296703, 12.8863238574114 ], [ 77.591717103101104, 12.8869762534359 ], [ 77.591743800993001, 12.8872775124286 ], [ 77.591758030665403, 12.887429827146001 ], [ 77.591779141496104, 12.8879152175291 ], [ 77.591796340787297, 12.888300138833401 ], [ 77.591760130841095, 12.888305014712 ], [ 77.591681967572796, 12.888315952644501 ], [ 77.591607821165795, 12.8883257214674 ], [ 77.591438066049506, 12.888384997166799 ], [ 77.591377859398904, 12.8884070501829 ], [ 77.5909671494761, 12.888542116510701 ], [ 77.590708778597502, 12.888603398594199 ], [ 77.590132277651094, 12.8887030589791 ], [ 77.590132277651094, 12.8887030589791 ], [ 77.589572343220297, 12.8887998542403 ], [ 77.588341427777607, 12.889006272559801 ], [ 77.588205442150596, 12.889029076378501 ], [ 77.588202878001596, 12.889059592949399 ], [ 77.588029825882799, 12.889078244330401 ], [ 77.587596465560495, 12.8891378665211 ], [ 77.587103909285304, 12.889205978507601 ], [ 77.586480759657903, 12.889279897888599 ], [ 77.586240041147903, 12.8893229324778 ], [ 77.585828954411397, 12.889421857410699 ], [ 77.585461651957402, 12.8895248663005 ], [ 77.585447310719005, 12.8895295252462 ], [ 77.585074473062505, 12.889654045167299 ], [ 77.584707366817398, 12.889776249384701 ], [ 77.584205653608706, 12.889961894661401 ], [ 77.583689918770702, 12.890127350043899 ], [ 77.583559131909098, 12.8901704260107 ], [ 77.583020985951407, 12.890339489463299 ], [ 77.582674869855893, 12.8904321219122 ], [ 77.582592838608406, 12.890458905810799 ], [ 77.582516840385097, 12.8905127335332 ], [ 77.582446438641298, 12.890607161098901 ], [ 77.582217921512907, 12.8908860973816 ], [ 77.582047859214299, 12.891084275675199 ], [ 77.581855950426601, 12.8912849281375 ], [ 77.581807466394494, 12.892169655508299 ], [ 77.581331641596904, 12.892130308407999 ], [ 77.580895125273301, 12.8921075122242 ], [ 77.580677901548199, 12.893263809910801 ], [ 77.580539696588502, 12.8936502681064 ], [ 77.580415500506803, 12.894055786352 ], [ 77.580110022418296, 12.8948735836879 ], [ 77.580105148193297, 12.894886632391399 ], [ 77.579892714562803, 12.895331417650199 ], [ 77.579853469836607, 12.8954334427125 ], [ 77.579734680253694, 12.895805028301799 ], [ 77.579701789310903, 12.8959092493053 ], [ 77.579596381691402, 12.896407185648901 ], [ 77.579562331225802, 12.896566754301499 ], [ 77.579526794035701, 12.8966935876206 ], [ 77.579537191375707, 12.896753338505601 ], [ 77.579552803162201, 12.8968164258815 ], [ 77.579637284294805, 12.8969161011035 ], [ 77.579673487670306, 12.8969665629131 ], [ 77.579851771084094, 12.897120648835401 ], [ 77.579447025668699, 12.8968852279476 ], [ 77.5792256644133, 12.8972454028937 ], [ 77.577728871528606, 12.896544178887799 ], [ 77.577199546739905, 12.896227542174399 ], [ 77.577259580906201, 12.896132088287301 ], [ 77.576441513427397, 12.895722303621801 ], [ 77.5754811302467, 12.895241641389401 ], [ 77.575480286753901, 12.8951592097931 ], [ 77.575150298244793, 12.8949727345271 ], [ 77.574709928030202, 12.8947785340886 ], [ 77.574298627768002, 12.894597152120699 ], [ 77.5738866109848, 12.8945886321219 ], [ 77.573484586437104, 12.8945803185118 ], [ 77.573462118004699, 12.894578280966201 ], [ 77.573397014793699, 12.8945721456658 ], [ 77.573412542332306, 12.8945708635665 ], [ 77.573447510609796, 12.894556967706199 ], [ 77.573465627128002, 12.8945274272441 ], [ 77.573471220711994, 12.894511561789001 ], [ 77.573509109291706, 12.8943892229114 ], [ 77.573527075706707, 12.8943450028253 ], [ 77.5734877555563, 12.8943273206804 ], [ 77.573321405195898, 12.8942702330553 ], [ 77.573284352518499, 12.8942491406185 ], [ 77.573250225296505, 12.894289002434901 ], [ 77.573239440466395, 12.894303789646701 ], [ 77.572983757201499, 12.8946292894354 ], [ 77.572965894559502, 12.894683672325201 ], [ 77.572908840303796, 12.894789259988301 ], [ 77.572904316924493, 12.894797209699201 ], [ 77.572396388526997, 12.8945458513086 ], [ 77.571881858830395, 12.894493316393699 ], [ 77.571881362701404, 12.894444760655199 ], [ 77.571876051990799, 12.894262992891299 ], [ 77.571028180338104, 12.894202440679001 ], [ 77.570287965775407, 12.894144215633199 ], [ 77.568891907771402, 12.8940043440012 ], [ 77.568413626702295, 12.8941197144849 ], [ 77.568453177054195, 12.8941599815932 ], [ 77.568580495602404, 12.894284085703999 ], [ 77.568617122298605, 12.894319864213299 ], [ 77.568805527840794, 12.894507739425499 ], [ 77.568809015554507, 12.8945110931269 ], [ 77.569054548828603, 12.8947695540814 ], [ 77.569074439362097, 12.894800979624801 ], [ 77.569096528266101, 12.8948222197007 ], [ 77.569118041649702, 12.894843465427501 ], [ 77.569150041258894, 12.894877030648299 ], [ 77.569410919299798, 12.8951726079073 ], [ 77.569429543588996, 12.8951927526637 ], [ 77.569493577575003, 12.8952632706053 ], [ 77.569841258952707, 12.895660762362301 ], [ 77.569964412911204, 12.895827820540999 ], [ 77.570020366790104, 12.8958961590643 ], [ 77.570064464241497, 12.8959307345509 ], [ 77.570083019454898, 12.8959441040111 ], [ 77.570241453828999, 12.8961277550356 ], [ 77.570484838042702, 12.896400916325 ], [ 77.570722490592203, 12.896676392269899 ], [ 77.571145836876198, 12.897155577828199 ], [ 77.571197187163605, 12.897223961249299 ], [ 77.571290552447394, 12.8973483973569 ], [ 77.571476213022706, 12.897605185159501 ], [ 77.571639323011397, 12.897795564864801 ], [ 77.571822682193201, 12.8980523749259 ], [ 77.572186281699402, 12.898542309491299 ], [ 77.572445477095698, 12.8988977526285 ], [ 77.572493409577504, 12.898969557235599 ], [ 77.572644263684694, 12.8991995826407 ], [ 77.572736308028695, 12.8993635570025 ], [ 77.572745678202594, 12.899379275215299 ], [ 77.572786382973007, 12.899475995802201 ], [ 77.572801129246699, 12.899510859472301 ], [ 77.572842432695296, 12.899609832781699 ], [ 77.572910295231793, 12.899829381461 ], [ 77.572962984308305, 12.899972285983001 ], [ 77.572970087031806, 12.899991414442299 ], [ 77.572983705400603, 12.9000285478224 ], [ 77.573002642160702, 12.900079180642599 ], [ 77.573099193877596, 12.900391965004401 ], [ 77.573127063323497, 12.900482250941 ], [ 77.573239167744106, 12.9008628560346 ], [ 77.573246938461295, 12.900891012422999 ], [ 77.573252337736093, 12.9009124162632 ], [ 77.573306249699897, 12.901118550237999 ], [ 77.573355455534795, 12.9013710324271 ], [ 77.573400091868507, 12.901626947515 ], [ 77.573423040669596, 12.9018446793777 ], [ 77.573425748738501, 12.9019687990201 ], [ 77.573426033486996, 12.901981849933 ], [ 77.573427375926897, 12.9020433961248 ], [ 77.573424488734901, 12.902098760980101 ], [ 77.573413582768595, 12.902270524216499 ], [ 77.573406287650101, 12.9023451308218 ], [ 77.573390017002097, 12.9024988778364 ], [ 77.573355433037904, 12.902662968983501 ], [ 77.573345546949795, 12.9027093682254 ], [ 77.573322034785903, 12.9028304364038 ], [ 77.573284655996204, 12.903058926023 ], [ 77.573281425486002, 12.9030815423201 ], [ 77.573243296663094, 12.903348437843499 ], [ 77.573237427791994, 12.9033936682226 ], [ 77.573212789665305, 12.903573471871599 ], [ 77.573202847857999, 12.9036706908397 ], [ 77.5731978664396, 12.9037464039871 ], [ 77.573197893701504, 12.9038615938468 ], [ 77.573216409764001, 12.9040398433122 ], [ 77.573223893923398, 12.904096235373601 ], [ 77.573279852001704, 12.904502237783401 ], [ 77.573305020613006, 12.904655576787601 ], [ 77.573312585713694, 12.9047198732443 ], [ 77.573338480165702, 12.904815972318399 ], [ 77.573354468310697, 12.904875306288901 ], [ 77.5733645342128, 12.905015242204501 ], [ 77.573371528163904, 12.9051924757526 ], [ 77.573368888072693, 12.905384485255601 ], [ 77.5733542099358, 12.9056375962936 ], [ 77.573342980703202, 12.905777741896999 ], [ 77.573325122221505, 12.9059450563349 ], [ 77.573324857888693, 12.905947304919 ], [ 77.573297056292404, 12.906183618119 ], [ 77.573293891880098, 12.9062118821486 ], [ 77.573282281330407, 12.906314764123699 ], [ 77.573280739566997, 12.906332848342 ], [ 77.573268853902206, 12.9064650952102 ], [ 77.573264399728899, 12.906479820164201 ], [ 77.574310032900897, 12.906455969471599 ], [ 77.575488295482799, 12.906455652346899 ], [ 77.575475247979895, 12.905856115743999 ], [ 77.575468730138894, 12.9055569120281 ], [ 77.5754634355105, 12.9053209377806 ], [ 77.575457851842003, 12.905056733549101 ], [ 77.575457825939296, 12.9050542041431 ], [ 77.575457794023393, 12.905051087553501 ], [ 77.575466910227405, 12.9050419632099 ], [ 77.575472043873702, 12.905037395366101 ], [ 77.575616187974006, 12.904892552054999 ], [ 77.5757444248475, 12.9047681931022 ], [ 77.575760941157597, 12.9047521630237 ], [ 77.575763232757396, 12.9047499387298 ], [ 77.575806845973801, 12.9047070139894 ], [ 77.575899998549005, 12.9046153318517 ], [ 77.575972271406002, 12.9045344383015 ], [ 77.575977393467099, 12.9045287412526 ], [ 77.5759819399847, 12.904523049876399 ], [ 77.576124565060098, 12.904398548983499 ], [ 77.576214508888199, 12.9043570071461 ], [ 77.576253506991506, 12.9043430709789 ], [ 77.576373367414703, 12.904300104880701 ], [ 77.576570691787893, 12.9041773232066 ], [ 77.5767755645129, 12.904004777263999 ], [ 77.5768982531647, 12.9039008002364 ], [ 77.576905677356507, 12.903895080477101 ], [ 77.577004598106896, 12.9038308636739 ], [ 77.577235231080806, 12.9038692447737 ], [ 77.576971752247104, 12.9043890676222 ], [ 77.576940878492493, 12.904577967133299 ], [ 77.576939201416494, 12.9045878538558 ], [ 77.576921879912007, 12.9046899563438 ], [ 77.576926354593795, 12.905070490337099 ], [ 77.5769149537918, 12.905193697752001 ], [ 77.5769093084361, 12.905316848415399 ], [ 77.577208811444905, 12.9053353518847 ], [ 77.577480665153502, 12.9053518690804 ], [ 77.578695928231397, 12.905368113098399 ], [ 77.5786646284608, 12.9049539649947 ], [ 77.578688778108202, 12.904951468086299 ], [ 77.579689033815697, 12.9047134759288 ], [ 77.579660246016005, 12.904544363626901 ], [ 77.579667681727699, 12.904539772992999 ], [ 77.580302458019901, 12.9043607222749 ], [ 77.580296629913207, 12.904129271419899 ], [ 77.580544602923794, 12.9040624525136 ], [ 77.580783977422797, 12.903999106227401 ], [ 77.581013003636798, 12.9039369912444 ], [ 77.581232280298494, 12.903878360293801 ], [ 77.581451545234799, 12.9038185999842 ], [ 77.581713871130901, 12.903748250386901 ], [ 77.581754630068502, 12.9037376839982 ], [ 77.581755692420103, 12.9037851044446 ], [ 77.581763310382698, 12.904078649296 ], [ 77.5817750504592, 12.9045494547806 ], [ 77.581747953684399, 12.904545205227899 ], [ 77.581707044426295, 12.904709359022901 ], [ 77.581699323003505, 12.904742185233699 ], [ 77.581712508770494, 12.905465941435001 ], [ 77.581729678865699, 12.9055685388375 ], [ 77.582001265551, 12.9055590797759 ], [ 77.5820063410941, 12.905548865858 ], [ 77.5820201193401, 12.905545341801099 ], [ 77.582060360958394, 12.9055404269657 ], [ 77.582145483310796, 12.905533939362 ], [ 77.582217368172607, 12.9055275825325 ], [ 77.582286386908706, 12.905522383312601 ], [ 77.582358329731704, 12.905521672410099 ], [ 77.582425081072202, 12.9055198834821 ], [ 77.582505633832398, 12.9055168288419 ], [ 77.582571798024503, 12.905513916371699 ], [ 77.582642014201596, 12.905513222454999 ], [ 77.583007356003193, 12.9054971892557 ], [ 77.582998138620198, 12.905384349662199 ], [ 77.583876986325905, 12.905319196354601 ], [ 77.584223982091103, 12.905198317446199 ], [ 77.584289338484197, 12.905172826427 ], [ 77.584952936945101, 12.9051662634055 ], [ 77.584969654295193, 12.904664686435201 ], [ 77.585298909225997, 12.90466594678 ], [ 77.585717959787303, 12.9046674476 ], [ 77.585751329443994, 12.9046659881372 ], [ 77.586436069768595, 12.904644531450099 ], [ 77.586446813236606, 12.905577230419899 ], [ 77.586451993104006, 12.9055771791529 ], [ 77.587217875061697, 12.905553787574799 ], [ 77.588048379604601, 12.9055455640333 ], [ 77.588061624434005, 12.905266495045501 ], [ 77.588152844670205, 12.905237359077001 ], [ 77.588118435283704, 12.905081856055499 ], [ 77.588441458106502, 12.9050368726386 ], [ 77.588731208128095, 12.9049959722346 ], [ 77.589009322973993, 12.9049567136082 ], [ 77.5896616866481, 12.9048655523917 ], [ 77.589890436679894, 12.9048327944344 ], [ 77.589889227463402, 12.904827159910401 ], [ 77.590051215056405, 12.9047950634284 ], [ 77.590233907142405, 12.9057113746239 ], [ 77.591470315517796, 12.9056019966783 ], [ 77.591470390705695, 12.9055534360267 ], [ 77.591461123028694, 12.905436080714001 ], [ 77.591903036839199, 12.9053661987359 ], [ 77.592268957469003, 12.9053471285587 ], [ 77.592572096154896, 12.905331329605801 ], [ 77.592936038759305, 12.9052915812447 ], [ 77.593408403336497, 12.905272213136 ], [ 77.593414604688107, 12.905538666060099 ], [ 77.593415471344798, 12.9055668899236 ], [ 77.5934350512685, 12.9055678249096 ], [ 77.593562280010403, 12.905569950142301 ], [ 77.593589855579594, 12.9053415581804 ], [ 77.5937625674119, 12.9048982883953 ], [ 77.593858315883494, 12.903857254358201 ], [ 77.593924040820497, 12.903365357305599 ], [ 77.593974010033605, 12.902796824347501 ], [ 77.593991142497401, 12.9026700274582 ], [ 77.593992192366599, 12.9026622574047 ], [ 77.594039432463603, 12.902666305775099 ], [ 77.594406963594693, 12.9026400720512 ], [ 77.594860598006207, 12.9026468619785 ], [ 77.594871886703899, 12.9026456802392 ], [ 77.595384968868601, 12.9025919666964 ], [ 77.595903945247798, 12.902572132174599 ], [ 77.596391010810294, 12.9025277690944 ], [ 77.596642463175002, 12.9024642892396 ], [ 77.597190523611999, 12.902251053722599 ], [ 77.598075411092694, 12.901825550007301 ], [ 77.598916874066205, 12.901375631074901 ], [ 77.599112747132807, 12.9012810814825 ], [ 77.599123389699699, 12.9012753111256 ], [ 77.599383575984902, 12.901134231002599 ], [ 77.599430988953102, 12.901108522977999 ], [ 77.599470089626607, 12.9011047462806 ], [ 77.599482245651004, 12.901111401164201 ], [ 77.599489089809097, 12.9011610220391 ], [ 77.599454920293297, 12.9013635054445 ], [ 77.599348510727097, 12.901649145675099 ], [ 77.599230624965202, 12.9019257635761 ], [ 77.599182732400394, 12.9020381420096 ], [ 77.599072375509706, 12.902498862076101 ], [ 77.599043766448801, 12.902626756795399 ], [ 77.598928291816804, 12.903204974371 ], [ 77.598926977595596, 12.903356312870001 ], [ 77.598943469829706, 12.903504086423199 ], [ 77.598986794152694, 12.9035748011483 ], [ 77.599146099782402, 12.903729059552401 ], [ 77.599273790133594, 12.9038316847255 ], [ 77.599367940103903, 12.903863497887 ], [ 77.5994198312534, 12.903872016142699 ], [ 77.599552557161402, 12.9038492394599 ], [ 77.599693563222004, 12.9038012458906 ], [ 77.599884081764799, 12.9037364003362 ], [ 77.599989465774499, 12.9036856630985 ], [ 77.600058462935294, 12.9036228655818 ], [ 77.600112481705594, 12.903607804577501 ], [ 77.600150866472703, 12.9035971018751 ], [ 77.600311135819098, 12.9035661457768 ], [ 77.600585865469498, 12.9035272749688 ], [ 77.6009004349512, 12.903500429653599 ], [ 77.600984605738006, 12.9034578082117 ], [ 77.601084172307196, 12.9034568173537 ], [ 77.601120500715496, 12.9034632315692 ], [ 77.601248603562397, 12.903550041456599 ], [ 77.601303407316905, 12.903561918226499 ], [ 77.601433079876998, 12.9035222316516 ], [ 77.601458873583198, 12.9035118112884 ], [ 77.601520982730904, 12.903729146467199 ], [ 77.601727655393006, 12.904567282409699 ], [ 77.601750460093299, 12.904657398734599 ], [ 77.601853195238405, 12.9051295492085 ], [ 77.601860679551905, 12.905296609873201 ], [ 77.601858958450094, 12.905408426891301 ], [ 77.6018565196336, 12.9054389447601 ], [ 77.601851823902095, 12.9054977119723 ], [ 77.601822652425795, 12.9056267416713 ], [ 77.601732354379394, 12.9058004223378 ], [ 77.601391903825302, 12.9062095645019 ], [ 77.601075706080394, 12.906589558727299 ], [ 77.600791039162004, 12.9069544252915 ], [ 77.600555357929593, 12.9072565033351 ], [ 77.600500506626105, 12.907240109851999 ], [ 77.600361444966495, 12.9077078917412 ], [ 77.600279610007505, 12.9081434839115 ], [ 77.600228305271401, 12.9085256954877 ], [ 77.600226143243702, 12.908539268519 ], [ 77.600221348749798, 12.9085765828991 ], [ 77.600170132726504, 12.9092271280406 ], [ 77.600141981268493, 12.909584702023 ], [ 77.600081433346304, 12.910118170960599 ], [ 77.600070764530599, 12.910212168360999 ], [ 77.600026047616794, 12.910619158856599 ], [ 77.599983492723197, 12.9110125763273 ], [ 77.599929609173003, 12.911701981297499 ], [ 77.599916350152895, 12.911866990029701 ], [ 77.599883828939696, 12.9126182934871 ], [ 77.599882671336601, 12.9133410524169 ], [ 77.599898572369298, 12.9135983728846 ], [ 77.599904768633095, 12.913696559673101 ], [ 77.599957309772407, 12.9138789820535 ], [ 77.599971695477606, 12.9139341741843 ], [ 77.599986139602095, 12.913995012194601 ], [ 77.599994711373697, 12.914044615737399 ], [ 77.600004139080696, 12.9141213137815 ], [ 77.600013543433107, 12.9141957534711 ], [ 77.600023087986301, 12.9142837432747 ], [ 77.599998412622298, 12.915069976591001 ], [ 77.599977521136395, 12.9158324570773 ], [ 77.599977225990401, 12.9158595630372 ], [ 77.599973634507606, 12.9162356532118 ], [ 77.599971884028704, 12.9164558826826 ], [ 77.599975579737006, 12.916534896360099 ], [ 77.599993117922807, 12.9167278307459 ], [ 77.600620936997203, 12.916710285723401 ], [ 77.601792554040102, 12.9166771576824 ], [ 77.602263855067605, 12.916664556127699 ], [ 77.602591289586201, 12.9166556462882 ], [ 77.603049364099803, 12.9166443044458 ], [ 77.604061630720096, 12.916620659823501 ], [ 77.604305056629102, 12.9166148442122 ], [ 77.605295614785405, 12.916607221380101 ], [ 77.605392320138506, 12.916607385773199 ], [ 77.6055338721185, 12.9166025854844 ], [ 77.605927482985805, 12.9165918818534 ], [ 77.607212443532305, 12.916554210601699 ], [ 77.607232588007093, 12.9165540094622 ], [ 77.607232588937293, 12.9165540103563 ], [ 77.607274208063302, 12.9169036736262 ], [ 77.607280197988004, 12.9169261995459 ], [ 77.607412412976203, 12.9173528788567 ], [ 77.607527713738705, 12.917758270489699 ], [ 77.607695442722999, 12.918556129922999 ], [ 77.607828658520603, 12.9189681179835 ], [ 77.607992986129602, 12.9195491879555 ], [ 77.608014939391097, 12.9196122086455 ], [ 77.608051796668803, 12.9197247690088 ], [ 77.608069544245197, 12.919770892418599 ], [ 77.607998887493906, 12.919895819732901 ], [ 77.608025044515401, 12.9200310727051 ], [ 77.608041699778795, 12.920027518454299 ], [ 77.608049304273493, 12.920050297417401 ], [ 77.608049304517195, 12.920050297272301 ], [ 77.608085663240203, 12.9201592047548 ], [ 77.608112054994507, 12.9202617060738 ], [ 77.608202460221406, 12.9205711648281 ], [ 77.608211726972499, 12.9206028837612 ], [ 77.608370907355294, 12.9208542531831 ], [ 77.608383205309195, 12.9208744574343 ], [ 77.608395491538801, 12.920893532516301 ], [ 77.608478605646297, 12.9210259576531 ], [ 77.608647121107197, 12.921510995538499 ], [ 77.608660344708497, 12.92153953277 ], [ 77.6086724569045, 12.921567206589399 ], [ 77.608672668013398, 12.9215875316113 ], [ 77.608674310859001, 12.9216902801359 ], [ 77.608675636173402, 12.9218178761049 ], [ 77.608700135841403, 12.922015256132999 ], [ 77.6087133018342, 12.922119018768599 ], [ 77.6087461670419, 12.922179671682899 ], [ 77.608824478736807, 12.922237611782601 ], [ 77.608847711806305, 12.922313041653901 ], [ 77.608852927789897, 12.9223531477934 ], [ 77.608899636496901, 12.9227122894861 ], [ 77.608882548608193, 12.9227985099895 ], [ 77.608877211167396, 12.922825442127101 ], [ 77.608865158604303, 12.922884285413099 ], [ 77.608743627966803, 12.9230989350229 ], [ 77.608728015090605, 12.923142295714401 ], [ 77.608674251261604, 12.9232916069084 ], [ 77.608609785121601, 12.9234075693262 ], [ 77.608421098655, 12.923746980464999 ], [ 77.608731588637397, 12.9238793912389 ], [ 77.608702886602003, 12.9240121432601 ], [ 77.6085272703654, 12.9248243865012 ], [ 77.6084005274124, 12.924759025547001 ], [ 77.608324516364604, 12.924756397431301 ], [ 77.608271269423696, 12.9247840324726 ], [ 77.608140742958199, 12.9247977591631 ], [ 77.608086086800995, 12.924800563978099 ], [ 77.607930880941097, 12.9248213129266 ], [ 77.607755153694995, 12.9248614647107 ], [ 77.607714346490297, 12.924867518916701 ], [ 77.607632720344697, 12.9248784981421 ], [ 77.607517240776005, 12.9248999791801 ], [ 77.607340280126607, 12.9249322380281 ], [ 77.607288043452499, 12.9249463113684 ], [ 77.607226585835093, 12.9249593475389 ], [ 77.607034706993701, 12.9249962723843 ], [ 77.606986475861206, 12.9250080470807 ], [ 77.606881932066798, 12.925029418608201 ], [ 77.606935447795394, 12.925083089741101 ], [ 77.606959461887499, 12.9254555143005 ], [ 77.606926741515196, 12.9254758909826 ], [ 77.606926289458599, 12.9254761728514 ], [ 77.606555944871701, 12.925566827442401 ], [ 77.606192108340593, 12.925619020802699 ], [ 77.606072282699003, 12.9256100539409 ], [ 77.606033437708703, 12.925583338993601 ], [ 77.605937331899895, 12.925419422853601 ], [ 77.6058844504321, 12.9253713915926 ], [ 77.605806866042499, 12.9253281241434 ], [ 77.605612897916302, 12.925274725904501 ], [ 77.605493319898699, 12.9252341362218 ], [ 77.605439028175994, 12.9252166096897 ], [ 77.605321200364699, 12.925178261018401 ], [ 77.605275060469197, 12.9251696873627 ], [ 77.605166617661794, 12.9251481842325 ], [ 77.605084298425595, 12.9251478767361 ], [ 77.604943235172001, 12.9251447677558 ], [ 77.605104703865095, 12.925949467316601 ], [ 77.605011870135598, 12.9259899191755 ], [ 77.604939850946806, 12.926039197520399 ], [ 77.604778345937703, 12.926118730629099 ], [ 77.604699983567897, 12.9261669429542 ], [ 77.604590128278801, 12.926231279648899 ], [ 77.604423477924598, 12.9263142518028 ], [ 77.6044290063397, 12.926458745514701 ], [ 77.604457807189107, 12.926516051742199 ], [ 77.604465465445799, 12.9265329146246 ], [ 77.604465465455206, 12.926532915527901 ], [ 77.604497873013699, 12.9266048664932 ], [ 77.604508385751799, 12.9266194423047 ], [ 77.6045323375685, 12.9265977467502 ], [ 77.604542004374693, 12.9265863573773 ], [ 77.604571157627007, 12.926677538709299 ], [ 77.604587824481996, 12.9267304488802 ], [ 77.604665848868905, 12.9269826305352 ], [ 77.604672415493596, 12.927005150743099 ], [ 77.604546256144005, 12.927051581631 ], [ 77.604593941188995, 12.927196800046501 ], [ 77.604603914217194, 12.9272271750062 ], [ 77.604359571368903, 12.927312052077299 ], [ 77.604435342841697, 12.9275134383234 ], [ 77.604736163212806, 12.9274347730627 ], [ 77.604915129788907, 12.9280394129665 ], [ 77.604638321075697, 12.928046693695 ], [ 77.604586530236702, 12.928048340015801 ], [ 77.604123877782897, 12.9280642511471 ], [ 77.603975987771904, 12.9280691150951 ], [ 77.603798567248802, 12.9280573343467 ], [ 77.603498430125001, 12.928035485181301 ], [ 77.603487494020797, 12.9280355943104 ], [ 77.603418835521097, 12.9280204693837 ], [ 77.603320117823003, 12.9279932221939 ], [ 77.603291256631195, 12.9279856051488 ], [ 77.603071904086207, 12.927871476962901 ], [ 77.602754152165701, 12.9277052535761 ], [ 77.602301540450597, 12.927468100279601 ], [ 77.601837794448699, 12.9272118591331 ], [ 77.601534892117996, 12.927034192970099 ], [ 77.601526787150405, 12.9270297566189 ], [ 77.601305285808195, 12.926930328844801 ], [ 77.601271644598796, 12.926905819835699 ], [ 77.601229734639901, 12.9268610660205 ], [ 77.601153434755204, 12.9267195360159 ], [ 77.601122039749399, 12.9266340228797 ], [ 77.601111398491298, 12.926607025977299 ], [ 77.600434513569397, 12.926613772710899 ], [ 77.600441474088797, 12.926730020359701 ], [ 77.600496250254196, 12.9282946722321 ], [ 77.600510316716296, 12.9287078526229 ], [ 77.600512616695298, 12.9287631649676 ], [ 77.600521826094806, 12.9287630731693 ], [ 77.600539339304305, 12.929064419349199 ], [ 77.600589156060096, 12.9299278304683 ], [ 77.600599168204397, 12.9301163222667 ], [ 77.600658106003607, 12.930582131884201 ], [ 77.600675673470604, 12.930721988820901 ], [ 77.600676496142299, 12.9307411162285 ], [ 77.600698155741298, 12.9312444845354 ], [ 77.600702970911897, 12.9313563781648 ], [ 77.600704632552706, 12.9315167209044 ], [ 77.600786817524593, 12.9320037550868 ], [ 77.601064720846594, 12.9336565237772 ], [ 77.6014582056373, 12.9357406563779 ], [ 77.601693514374702, 12.9370595777212 ], [ 77.601703863570194, 12.937058345163299 ], [ 77.601703864500493, 12.937058346057499 ], [ 77.601693515305001, 12.937059578615401 ], [ 77.601698424650195, 12.9370888911603 ], [ 77.601698423719895, 12.9370888902662 ], [ 77.600484391762706, 12.937315566765401 ], [ 77.600378690757594, 12.937336948228801 ], [ 77.599933496298803, 12.937428343415201 ], [ 77.599376947115104, 12.9376066742619 ], [ 77.599093188728006, 12.937777767611299 ], [ 77.599013489955894, 12.9378485707926 ], [ 77.598753789986603, 12.938079283914099 ], [ 77.5985819913966, 12.9382774931459 ], [ 77.598473900555604, 12.9384016633483 ], [ 77.598068371972005, 12.939043755198201 ], [ 77.597863471630106, 12.9394365323861 ], [ 77.597843216657495, 12.939487968886199 ], [ 77.597666589218704, 12.9399365124347 ], [ 77.597659281671, 12.9399535246457 ], [ 77.597603502143997, 12.9402928683225 ], [ 77.597456453653194, 12.9417691900997 ], [ 77.597420130489297, 12.942041711647899 ], [ 77.597381855732294, 12.9423481314347 ], [ 77.5973015741572, 12.9428785698383 ], [ 77.597255264011395, 12.9431873283052 ], [ 77.597770838752893, 12.943053450389 ], [ 77.597975116472398, 12.942989303075599 ], [ 77.598142683023895, 12.9429379438076 ], [ 77.598499041413007, 12.9428835729155 ], [ 77.598568527684904, 12.942867070023899 ], [ 77.598677626437706, 12.9428400085195 ], [ 77.598967388042297, 12.942803240423199 ], [ 77.599080069169204, 12.942788565244699 ], [ 77.599286894452106, 12.9427481067092 ], [ 77.599883295125295, 12.9426435935071 ], [ 77.600157546298504, 12.9425955328364 ], [ 77.600229870667405, 12.9425828584284 ], [ 77.600746493237594, 12.942493098217801 ], [ 77.600898755170704, 12.942466643183201 ], [ 77.600935311975903, 12.9424945106222 ], [ 77.600947952162201, 12.9424921259012 ], [ 77.601443104470704, 12.942387806631899 ], [ 77.601734333642199, 12.9423261766024 ], [ 77.601985891875003, 12.942273721864 ], [ 77.602629294323705, 12.9421388137068 ], [ 77.602632358173295, 12.9421523336721 ], [ 77.602787960620503, 12.942838517405599 ], [ 77.602861538655404, 12.943160759061101 ], [ 77.602863435551001, 12.9434171183805 ], [ 77.602863437411699, 12.9434171201688 ], [ 77.602864373098498, 12.943544689686799 ], [ 77.602848189633406, 12.9439265507683 ], [ 77.602844191886405, 12.9440959839411 ], [ 77.602787755380902, 12.944375482695101 ], [ 77.602787754259893, 12.944375482744601 ], [ 77.602725376984196, 12.9446843996644 ], [ 77.602676044486799, 12.944923172230499 ], [ 77.602650808456801, 12.9450431288501 ], [ 77.602552131533699, 12.9455195448294 ], [ 77.602518687729599, 12.9460133779033 ], [ 77.602517970247902, 12.946055168741101 ], [ 77.602516769760499, 12.946161333842801 ], [ 77.602485938011, 12.9464631618008 ], [ 77.602443638286005, 12.9468802917274 ], [ 77.602442569097605, 12.9468882074258 ], [ 77.602415254334801, 12.9469743061739 ], [ 77.602422545322497, 12.9471775052667 ], [ 77.602424036581695, 12.947210239735499 ], [ 77.602425549013603, 12.947355902833801 ], [ 77.602449756111398, 12.947580389425999 ], [ 77.602502169173107, 12.9478045942523 ], [ 77.602582339484599, 12.9481516141814 ], [ 77.602620410047706, 12.9483251442448 ], [ 77.6026299484829, 12.948356669024401 ], [ 77.602653254132093, 12.9484388742334 ], [ 77.602745868129702, 12.9486536430037 ], [ 77.602791869792298, 12.9487593364834 ], [ 77.602840244396603, 12.9488717819663 ], [ 77.602915743205102, 12.9490460672528 ], [ 77.602919279099595, 12.949053936938499 ], [ 77.602996034863196, 12.949238373210999 ], [ 77.603146609977998, 12.9496016285258 ], [ 77.603151954900696, 12.949617385141501 ], [ 77.603348977764696, 12.9501845771135 ], [ 77.603369159390994, 12.950243098361801 ], [ 77.603443306875704, 12.950508869122199 ], [ 77.603909561555696, 12.9503924092001 ], [ 77.604802525945303, 12.950232156839199 ], [ 77.605690190189804, 12.950115996766201 ], [ 77.6057916560964, 12.949797652549201 ], [ 77.605791656105794, 12.949797653452499 ], [ 77.608979905927995, 12.9493061229239 ], [ 77.609429965321894, 12.949238375295099 ], [ 77.609929483300306, 12.9491656142946 ], [ 77.611036756028895, 12.948965928526601 ], [ 77.611436279608995, 12.9490206464785 ], [ 77.611664938633197, 12.949307450088501 ], [ 77.612763802063299, 12.9492953018593 ], [ 77.613798207705898, 12.9492849250336 ], [ 77.614421635760905, 12.949280927577499 ], [ 77.614521220343093, 12.9492799281219 ], [ 77.615133676673906, 12.949272651243399 ], [ 77.615586143590306, 12.949270367185999 ], [ 77.615769779633496, 12.9492696525962 ], [ 77.616376010442806, 12.9492725988024 ], [ 77.616693697663905, 12.9492637615134 ], [ 77.616858161908795, 12.949246299582899 ], [ 77.616888386224602, 12.949218893329601 ], [ 77.616901508650201, 12.9492074687429 ], [ 77.616951363222398, 12.949185511669301 ], [ 77.616964057488801, 12.9491764836408 ], [ 77.6169640469341, 12.949176463463999 ], [ 77.616964056548994, 12.9491764818434 ], [ 77.6170045073724, 12.949147710767599 ], [ 77.616975971504502, 12.9491163776937 ], [ 77.617041696886204, 12.949070546368199 ], [ 77.617102852607701, 12.949028148767001 ], [ 77.617161283475298, 12.949000459122001 ], [ 77.617186445935602, 12.948984396460901 ], [ 77.617208569778597, 12.9489692243825 ], [ 77.617383645352703, 12.9488491606444 ], [ 77.617492176900797, 12.9487678915914 ], [ 77.617656170061096, 12.948644438312099 ], [ 77.617752645236493, 12.948572168238201 ], [ 77.617880594437395, 12.9484760233651 ], [ 77.618002353211807, 12.9483934919629 ], [ 77.618156723342295, 12.9482883065557 ], [ 77.6182635850829, 12.9482158289699 ], [ 77.618388209907295, 12.948132139351999 ], [ 77.618513938699095, 12.948043921491999 ], [ 77.618648916227997, 12.9479352637963 ], [ 77.618776542705206, 12.9478323660678 ], [ 77.618890183120101, 12.9477442695843 ], [ 77.619019940875006, 12.947656011045099 ], [ 77.619244003545603, 12.947502435734799 ], [ 77.619291449743798, 12.9474703390483 ], [ 77.619318878628306, 12.9474508658666 ], [ 77.619318878986803, 12.9474508665221 ], [ 77.619333553662997, 12.9474778215803 ], [ 77.620046897513603, 12.9488065800585 ], [ 77.620218344537193, 12.949126698738199 ], [ 77.620254669029194, 12.949187317772999 ], [ 77.620254669308395, 12.9491873173514 ], [ 77.620590983705497, 12.949748566984701 ], [ 77.620760996260202, 12.950039359149301 ], [ 77.620799920551406, 12.950105937277399 ], [ 77.620903414084793, 12.950282957748099 ], [ 77.621035859382403, 12.9505616848054 ], [ 77.621169928762399, 12.9508855663099 ], [ 77.621197187288701, 12.950959824011701 ], [ 77.621296116942105, 12.9512264660833 ], [ 77.621343230483703, 12.9513276264799 ], [ 77.621498729115601, 12.9516637139787 ], [ 77.622031619163806, 12.951424590566701 ], [ 77.622310674403295, 12.9512998198371 ], [ 77.622885945734595, 12.951022193745199 ], [ 77.623149821513294, 12.9508949958665 ], [ 77.623298199804594, 12.9508257452694 ], [ 77.623326263694395, 12.9508119113743 ], [ 77.623549426127298, 12.9507373903795 ], [ 77.623721810747398, 12.9507007685955 ], [ 77.624174959588203, 12.9506046108385 ], [ 77.624216897554405, 12.9505962834376 ], [ 77.624255969209401, 12.9505891141785 ], [ 77.6249447450286, 12.9504412844705 ], [ 77.625420843033893, 12.9503390998375 ], [ 77.625485687582994, 12.950319248674299 ], [ 77.625653261421704, 12.950269001007401 ], [ 77.625918580743203, 12.950152270290999 ], [ 77.626048172071293, 12.9500702130014 ], [ 77.626186797330305, 12.949982434501299 ], [ 77.626194221276904, 12.9499767133102 ], [ 77.626307236299297, 12.949884103118499 ], [ 77.626377362254303, 12.949827611114999 ], [ 77.626467649288898, 12.9497548783987 ], [ 77.6264921999108, 12.949735433294 ], [ 77.626619463263694, 12.949629128120099 ], [ 77.626773544064505, 12.949499967116299 ], [ 77.626803227897099, 12.949475953155501 ], [ 77.627012836121907, 12.9493168711408 ], [ 77.627047608792296, 12.9492848467593 ], [ 77.627283100414303, 12.9490679650954 ], [ 77.627508264467593, 12.9488003161952 ], [ 77.627651107013904, 12.9485877023737 ], [ 77.628051139280501, 12.9478677116082 ], [ 77.628200860092903, 12.9475974356334 ], [ 77.628413877460702, 12.947214723616099 ], [ 77.628437603400897, 12.9471715721055 ], [ 77.628652785133497, 12.9468306210608 ], [ 77.628828549624401, 12.9465736333905 ], [ 77.628830252785207, 12.9465713576726 ], [ 77.628923123089194, 12.9464338687905 ], [ 77.628925487627697, 12.946430367694401 ], [ 77.628931160876704, 12.946422405584601 ], [ 77.629106325540505, 12.946163165342499 ], [ 77.629425127784998, 12.9455478859142 ], [ 77.629546444495503, 12.9453140327926 ], [ 77.629642919743503, 12.945126730262601 ], [ 77.629670004233105, 12.9450745106846 ], [ 77.629905089697999, 12.944545900148301 ], [ 77.630009137331598, 12.9443122212446 ], [ 77.630014751278594, 12.944298613393 ], [ 77.630189257236395, 12.9439219358455 ], [ 77.630440315755493, 12.943379612787 ], [ 77.630472378609696, 12.9433081463139 ], [ 77.630472379023203, 12.943308146316699 ], [ 77.630568016795195, 12.943096008293301 ], [ 77.630759844770907, 12.942669468113699 ], [ 77.630866721126296, 12.9424106439014 ], [ 77.631171912036507, 12.941671554877599 ], [ 77.631263423889806, 12.9414504243266 ], [ 77.631276918433201, 12.941419797934801 ], [ 77.631431678920407, 12.941081714540401 ], [ 77.631431677989895, 12.941081713646399 ], [ 77.631437867417503, 12.941068099979001 ], [ 77.631530637668803, 12.9408571200906 ], [ 77.631692559526698, 12.9404884742024 ], [ 77.631950983609499, 12.939880579069399 ], [ 77.632051930027004, 12.939680809235499 ], [ 77.632130878332205, 12.9395241735646 ], [ 77.632394242459696, 12.939003181820899 ], [ 77.632644651420094, 12.9385094231629 ], [ 77.632653860939598, 12.9385093301624 ], [ 77.632656919098594, 12.938502511949601 ], [ 77.632764515842496, 12.938262611410201 ], [ 77.632856357709102, 12.9380578380557 ], [ 77.632924404436295, 12.937904700196601 ], [ 77.633113944832502, 12.9375899798398 ], [ 77.633302445550697, 12.937340767232101 ], [ 77.633484352315406, 12.9371763159363 ], [ 77.633849292586405, 12.9368451431792 ], [ 77.634269310622898, 12.936496474682199 ], [ 77.634491881353298, 12.9363124146002 ], [ 77.634531757543598, 12.936272487493101 ], [ 77.634567076444398, 12.936237123480799 ], [ 77.634598550468894, 12.9361645326386 ], [ 77.634586214077601, 12.936140942765 ], [ 77.634576814924202, 12.9361229695273 ], [ 77.634637892978702, 12.936073794085001 ], [ 77.634719514302702, 12.9360074721125 ], [ 77.634756417597401, 12.9359585409226 ], [ 77.634809223875607, 12.935889122305801 ], [ 77.634899497096697, 12.935769637524499 ], [ 77.634974223062599, 12.935704514440999 ], [ 77.635029931190402, 12.9356555928556 ], [ 77.635048373401403, 12.9356393971598 ], [ 77.635154798441803, 12.9355231368923 ], [ 77.635237885269603, 12.935431956228999 ], [ 77.635319269001002, 12.935343051286299 ], [ 77.635663572299705, 12.9349657856836 ], [ 77.635679319707293, 12.9349483849454 ], [ 77.636178225062807, 12.934380852980301 ], [ 77.637168729315704, 12.933254042507199 ], [ 77.637762233339203, 12.9324717894306 ], [ 77.637873095374601, 12.932325670249501 ], [ 77.638005523081503, 12.932051641579299 ], [ 77.638093549241006, 12.9318443920271 ], [ 77.638521719963606, 12.9312833150414 ], [ 77.638812397621706, 12.930904429460099 ], [ 77.639050639434302, 12.9307884174808 ], [ 77.639469633670203, 12.930598627213699 ], [ 77.6395232617934, 12.9305564302508 ], [ 77.6395457949383, 12.9304956152227 ], [ 77.639490255433898, 12.930356068665301 ], [ 77.639474251406796, 12.930303215945299 ], [ 77.639465970194806, 12.930250285079801 ], [ 77.6394772358437, 12.9302198771266 ], [ 77.639515098814698, 12.930147546640599 ], [ 77.639588991101107, 12.9298287137223 ], [ 77.639579051207804, 12.9296863661878 ], [ 77.639579052056803, 12.9296863659163 ], [ 77.639936260693901, 12.9295721380812 ], [ 77.641003972299998, 12.9293998469717 ], [ 77.641245107192205, 12.929449351531 ], [ 77.641500617053794, 12.9293880430388 ], [ 77.641768767349006, 12.9293243477982 ], [ 77.641901009919906, 12.9292552531489 ], [ 77.641875667978894, 12.928925766626 ], [ 77.641845711048703, 12.928212379273299 ], [ 77.641869872982198, 12.928211005347899 ], [ 77.641823670017899, 12.9279777168996 ], [ 77.641706700060496, 12.927583661125 ], [ 77.641593432111407, 12.9271037441501 ], [ 77.641400514435304, 12.926439435053 ], [ 77.641333604169702, 12.9262074852297 ], [ 77.6413204784957, 12.9261635770323 ], [ 77.6410956460915, 12.9259671033762 ], [ 77.640550243164199, 12.925939874662101 ], [ 77.640380066655993, 12.925959664849699 ], [ 77.640145427071602, 12.9259801071747 ], [ 77.640040626625407, 12.925997175747399 ], [ 77.640040626540696, 12.925997174997001 ], [ 77.639871898444298, 12.9260246562772 ], [ 77.639737851620396, 12.926031658686 ], [ 77.639640367768607, 12.926012318188199 ], [ 77.639560655152394, 12.925986022325301 ], [ 77.639478195312805, 12.9259721760797 ], [ 77.6393564310046, 12.9259429177356 ], [ 77.639313014504197, 12.9259196424322 ], [ 77.639236731572296, 12.9258910532483 ], [ 77.639166002504794, 12.9258432104488 ], [ 77.639115827391194, 12.925669811896 ], [ 77.639195729232796, 12.925385559549399 ], [ 77.639213238982094, 12.9251346867687 ], [ 77.639316453784502, 12.924823096413499 ], [ 77.639297341286806, 12.924592920711399 ], [ 77.639265655412004, 12.924207034295 ], [ 77.639277581881601, 12.9241368995662 ], [ 77.639290564520394, 12.9240577200774 ], [ 77.639885774524402, 12.923840528357299 ], [ 77.639924770016506, 12.9238265827861 ], [ 77.640325084677102, 12.923687021986201 ], [ 77.640861057658299, 12.9234749446729 ], [ 77.641087031301794, 12.9233969976554 ], [ 77.641242722045504, 12.923368319864499 ], [ 77.641374643191995, 12.923378277333599 ], [ 77.641548372589497, 12.923422818576 ], [ 77.6418353862137, 12.923511383293899 ], [ 77.642341634175096, 12.923647415399699 ], [ 77.642852979323806, 12.9237754900018 ], [ 77.6430913853291, 12.923839701761301 ], [ 77.643533616642102, 12.9239639578192 ], [ 77.643865163043401, 12.9240723955609 ], [ 77.644014707785601, 12.924116050740199 ], [ 77.644436398084906, 12.9242574520341 ], [ 77.644543280418304, 12.9242947636415 ], [ 77.644727044839797, 12.924362915210301 ], [ 77.6448933880108, 12.9244165628788 ], [ 77.645166114115995, 12.9244600980967 ], [ 77.6453659988981, 12.924473881528501 ], [ 77.645581292839907, 12.924475086787499 ], [ 77.645760902233505, 12.9244766536558 ], [ 77.645856420845007, 12.9244734267205 ], [ 77.646095276828106, 12.924471004899299 ], [ 77.646122441634205, 12.924472076429 ], [ 77.646391267552303, 12.924482683773199 ], [ 77.646687412960503, 12.924509041035099 ], [ 77.646924815915099, 12.9245326060156 ], [ 77.647326292270606, 12.924574275539401 ], [ 77.647469946828295, 12.924589185137499 ], [ 77.647906011887301, 12.924619767696701 ], [ 77.648136988456599, 12.924634362717001 ], [ 77.648343767846001, 12.924646944588 ], [ 77.648862232582402, 12.924685723276401 ], [ 77.649173493099298, 12.924694262692899 ], [ 77.649192732568693, 12.924694790100199 ], [ 77.649489949248505, 12.9246590243672 ], [ 77.649630781577798, 12.924640655706501 ], [ 77.649756927098807, 12.9245942048216 ], [ 77.650215560675093, 12.924405962051001 ], [ 77.650264723580307, 12.9243857830942 ], [ 77.650454430056897, 12.924362400670701 ], [ 77.650687601019399, 12.924366807901199 ], [ 77.650890723931397, 12.9243602276493 ], [ 77.651072336720404, 12.924333539254601 ], [ 77.651637128294894, 12.924235202616901 ], [ 77.651737707043495, 12.924220629641299 ], [ 77.6516859081365, 12.924003210792501 ], [ 77.651622831318207, 12.923698954273901 ], [ 77.651559635497406, 12.9233834064174 ], [ 77.651517907558798, 12.923192987142 ], [ 77.651492846836007, 12.9230001400188 ], [ 77.651478724941896, 12.9227529777593 ], [ 77.651482293499896, 12.9224367515291 ], [ 77.651486821090103, 12.9223203927911 ], [ 77.651479890161397, 12.9219365182178 ], [ 77.651488284579202, 12.9215321614533 ], [ 77.651500871437193, 12.9211977755969 ], [ 77.651501303939796, 12.9211842202035 ], [ 77.651585945030206, 12.921186748150999 ], [ 77.651592851587495, 12.9211866779915 ], [ 77.651817171614795, 12.921170848164699 ], [ 77.652325310533399, 12.9211047058948 ], [ 77.653599923204297, 12.920961887696199 ], [ 77.653599565125106, 12.9207100689688 ], [ 77.653599269834302, 12.920627636844999 ], [ 77.653611797487002, 12.9204513467584 ], [ 77.653956020354698, 12.920452364287399 ], [ 77.6540181432742, 12.920448344936499 ], [ 77.654088994792104, 12.9204532708071 ], [ 77.654138586991195, 12.9204618005594 ], [ 77.654185313405605, 12.9204714886882 ], [ 77.654381129465804, 12.920481919315201 ], [ 77.654419031808004, 12.9204736291658 ], [ 77.654462913903103, 12.9204693389783 ], [ 77.654462914823995, 12.920469338968999 ], [ 77.654663986570895, 12.9204496833754 ], [ 77.660354104711502, 12.916344548497101 ], [ 77.661995281391498, 12.918261083833301 ], [ 77.662216167342393, 12.918790704202101 ], [ 77.662785587557494, 12.9211809615074 ], [ 77.662789656972294, 12.9211980428956 ], [ 77.662694979043195, 12.9212261105005 ], [ 77.662407459615906, 12.921306960962101 ], [ 77.662037275479094, 12.921408980561701 ], [ 77.661593423348606, 12.9215117508933 ], [ 77.661593422418207, 12.9215117499994 ], [ 77.661556671458897, 12.9215200294383 ], [ 77.661160480246195, 12.9216121499247 ], [ 77.661327754799004, 12.922351227059 ], [ 77.661598032244001, 12.923035371464399 ], [ 77.661601016122304, 12.923042924116899 ], [ 77.662471959896294, 12.9261417109795 ], [ 77.663099237375704, 12.927430547911101 ], [ 77.6632654268995, 12.927632114706199 ], [ 77.663285577501696, 12.928229276851001 ], [ 77.663427165022597, 12.928173627922099 ], [ 77.663763039411705, 12.9280380777773 ], [ 77.663845401071995, 12.928037236840799 ], [ 77.664099739868405, 12.9280346398037 ], [ 77.6645943822991, 12.9280521731056 ], [ 77.664932593109498, 12.9281367992212 ], [ 77.665114504303901, 12.9283551424463 ], [ 77.665855224565107, 12.930350841932301 ], [ 77.666151591752893, 12.9307227196879 ], [ 77.666401542711, 12.931005861708501 ], [ 77.666723292547999, 12.9311257911362 ], [ 77.666920509094396, 12.931199301718699 ], [ 77.667528663186999, 12.931281163300399 ], [ 77.668034809582807, 12.931243238630699 ], [ 77.667994047125504, 12.930765988900299 ], [ 77.667966777904198, 12.9305833316355 ], [ 77.667817169898697, 12.9295595156395 ], [ 77.6676910200013, 12.928792925220099 ], [ 77.668458571153295, 12.928708287284 ], [ 77.668574468186506, 12.928239598356001 ], [ 77.668633483684502, 12.9279973383365 ], [ 77.668725890052102, 12.9274848495384 ], [ 77.668781911186997, 12.9273765140374 ], [ 77.668898479915896, 12.927151088963701 ], [ 77.668932750132299, 12.9262055685709 ], [ 77.668889284921093, 12.9258183494067 ], [ 77.668845641949503, 12.9254295456696 ], [ 77.668807037521802, 12.924601932723 ], [ 77.6688008956435, 12.9244690239997 ], [ 77.668773103357495, 12.9233163587934 ], [ 77.6682024036065, 12.9232363721454 ], [ 77.668029078029093, 12.922634002754799 ], [ 77.667793221925393, 12.921563639092399 ], [ 77.667078113611595, 12.921218625154999 ], [ 77.666618569901004, 12.920981663476899 ], [ 77.666192407128307, 12.9210153769502 ], [ 77.665471579838794, 12.921053228133699 ], [ 77.665471579712104, 12.9210532290878 ], [ 77.665181652546394, 12.9210697403485 ], [ 77.664915658786597, 12.9207924048844 ], [ 77.664769817226798, 12.920618818361101 ], [ 77.664769817226798, 12.920618818361101 ], [ 77.665131682276197, 12.9205947543355 ], [ 77.668724698970195, 12.9188606592654 ], [ 77.670415000118297, 12.9183401563233 ], [ 77.673185577783698, 12.9169599807397 ], [ 77.673435517432694, 12.916648010307799 ], [ 77.673572074287407, 12.916120389975299 ], [ 77.673984302691693, 12.915589946878899 ], [ 77.675530968138801, 12.9145690899631 ], [ 77.677615407257207, 12.9139627274962 ], [ 77.677615407257207, 12.9139627274962 ], [ 77.677615407257207, 12.9139627274962 ], [ 77.678103211338794, 12.913773661403599 ], [ 77.678484977234802, 12.913626334287301 ], [ 77.678729579391202, 12.913516548885701 ], [ 77.679153954339796, 12.9133168394264 ], [ 77.680015577498395, 12.912883409899001 ], [ 77.680390479960195, 12.9126864648986 ], [ 77.681124288991199, 12.912304030058801 ], [ 77.6814689042032, 12.912127720779701 ], [ 77.682408970927895, 12.911649399062 ], [ 77.682565175844999, 12.911569918997101 ], [ 77.682824495829607, 12.911437394792801 ], [ 77.682974065007201, 12.9113760096254 ], [ 77.683745960369194, 12.9110575433719 ], [ 77.684516750609106, 12.910743603437901 ], [ 77.685142071621598, 12.910497781056799 ], [ 77.685821810813295, 12.910227684230399 ], [ 77.686371427603106, 12.910007480579999 ], [ 77.686371427603106, 12.9100074805801 ], [ 77.687079074160096, 12.909731332321799 ], [ 77.687093630166402, 12.909725652038 ], [ 77.687399717795898, 12.9096073228759 ], [ 77.687493709314694, 12.9095702967671 ], [ 77.687493709314694, 12.9095702967671 ], [ 77.687493709314793, 12.9095702967671 ], [ 77.688029611842197, 12.9093591891112 ], [ 77.688817726849393, 12.909051835439801 ], [ 77.689690824574896, 12.908779739833401 ], [ 77.689774630139098, 12.9087585510695 ], [ 77.6906229470341, 12.9085375226668 ], [ 77.6906872337522, 12.9085210515304 ], [ 77.692057631580596, 12.908143326319101 ], [ 77.692617853832303, 12.908000917995301 ], [ 77.693039119546498, 12.9078893005411 ], [ 77.693204990503105, 12.9078458097694 ], [ 77.693266974768804, 12.907829361794001 ], [ 77.693416192520701, 12.907789430216701 ], [ 77.693683132826393, 12.907724571349901 ], [ 77.6939333513305, 12.907664438551 ], [ 77.6939333513305, 12.907664438551 ], [ 77.693967877007793, 12.907656141014501 ], [ 77.694429377379294, 12.907539589811799 ], [ 77.694765721890903, 12.907452559106099 ], [ 77.695180582015098, 12.907334229312101 ], [ 77.6955488871574, 12.9072220252965 ], [ 77.695568381315695, 12.9072150488959 ], [ 77.696224124254002, 12.9070174458396 ], [ 77.696649329293805, 12.906897878002299 ], [ 77.696738827592895, 12.9068709824026 ], [ 77.697211628244503, 12.9067351135258 ], [ 77.697530656839803, 12.9066437415206 ], [ 77.697806177973604, 12.906574273412501 ], [ 77.697989250816306, 12.9065249562387 ], [ 77.698133311344606, 12.906487333915001 ], [ 77.6982675884732, 12.9064498125482 ], [ 77.698344486124796, 12.906428692638 ], [ 77.698483930466793, 12.9063899885988 ], [ 77.698783869748596, 12.9062897786714 ], [ 77.699032565906506, 12.906187839328201 ], [ 77.699064084526498, 12.906175092438 ], [ 77.699441247339493, 12.9059769720209 ], [ 77.700404265980197, 12.9054521017668 ], [ 77.701053732957405, 12.905099851224399 ], [ 77.70173862323, 12.9047235197805 ], [ 77.702335947452298, 12.9043932607541 ], [ 77.702887345262496, 12.9040880613257 ], [ 77.702851175811404, 12.904045851745099 ], [ 77.702847280256805, 12.904041305841901 ], [ 77.702847280298201, 12.9040413058189 ], [ 77.702396233927701, 12.903576220389599 ], [ 77.700817799024307, 12.9040317996404 ], [ 77.700356387560305, 12.904102061884799 ], [ 77.699328124344504, 12.9042854539878 ], [ 77.697853470014905, 12.9045445913736 ], [ 77.697659046852905, 12.904179604325799 ], [ 77.697395159480806, 12.9041529686329 ], [ 77.696964315871696, 12.9040682073672 ], [ 77.696784170231197, 12.9041220101777 ], [ 77.696360036009906, 12.904126386514699 ], [ 77.696260774976096, 12.9039941633874 ], [ 77.6958771687233, 12.904020705052099 ], [ 77.695740330762007, 12.9041403986063 ], [ 77.695740330734793, 12.904140399426 ], [ 77.695630269497798, 12.904236672444 ], [ 77.695340710916796, 12.904070276821299 ], [ 77.694667462264306, 12.9041912702518 ], [ 77.693934755953705, 12.904295936740899 ], [ 77.693593844466093, 12.9044175170509 ], [ 77.693593844466093, 12.9044175170509 ], [ 77.693393502645804, 12.904488965475601 ], [ 77.693093752853699, 12.9044457567622 ], [ 77.692946686486493, 12.9042564346641 ], [ 77.692809613965196, 12.9041404085518 ], [ 77.6918660411947, 12.9040101063345 ], [ 77.691779033721005, 12.9040008395529 ], [ 77.691526679877001, 12.903976337403799 ], [ 77.691446177877197, 12.904198493170799 ], [ 77.691395287048707, 12.9043909843175 ], [ 77.691199777764396, 12.9044076775594 ], [ 77.691214175292501, 12.904677412404499 ], [ 77.691191954516995, 12.9049136478059 ], [ 77.691080896922799, 12.9049159206995 ], [ 77.690997578619005, 12.9053052297366 ], [ 77.6909251086567, 12.9055250443416 ], [ 77.690179157715804, 12.905468359370101 ], [ 77.690096335139401, 12.905473728873 ], [ 77.689922657221203, 12.905486808927799 ], [ 77.6899234217193, 12.905450666048401 ], [ 77.689924749632894, 12.9054133881504 ], [ 77.689293221194404, 12.905453764781299 ], [ 77.688255285442494, 12.9054881581375 ], [ 77.688148447475896, 12.905992889557 ], [ 77.688119430903399, 12.906132082185 ], [ 77.688076369225399, 12.906195761524501 ], [ 77.687751507349205, 12.9064418857382 ], [ 77.687664466474104, 12.9064834329953 ], [ 77.687367502273901, 12.9065395607629 ], [ 77.687264440207699, 12.9065361038306 ], [ 77.687264440207599, 12.9065361038306 ], [ 77.686847914559493, 12.9064494731367 ], [ 77.687310701740799, 12.9047279707024 ], [ 77.685780390168603, 12.9044327474057 ], [ 77.686318622207907, 12.903879735929801 ], [ 77.687371406236295, 12.9034578758859 ], [ 77.687581931390994, 12.9033382720696 ], [ 77.687446968326199, 12.902449833505999 ], [ 77.687276186465397, 12.9023567348373 ], [ 77.686211009196995, 12.902367684126601 ], [ 77.686211009196995, 12.902367684126601 ], [ 77.686160317532696, 12.9023682050939 ], [ 77.685529272689294, 12.902183850952801 ], [ 77.685323386475304, 12.9018754298913 ], [ 77.684559245864804, 12.901839239452601 ], [ 77.684454820583099, 12.9018696717583 ], [ 77.684220465589505, 12.9016439752557 ], [ 77.683972156640493, 12.9016747556577 ], [ 77.683379460259999, 12.9015780814448 ], [ 77.683012634376894, 12.9015592624615 ], [ 77.682449478226005, 12.9014261475805 ], [ 77.682358835430094, 12.901345773508201 ], [ 77.682219091132893, 12.900870674204601 ], [ 77.682174088482995, 12.900158594437 ], [ 77.682276707832997, 12.8999587977796 ], [ 77.681967963413499, 12.8996723379204 ], [ 77.681851780666193, 12.8995645405157 ], [ 77.680642856304303, 12.8985120781636 ], [ 77.679777859996804, 12.8977598459148 ], [ 77.6795919630584, 12.897598013053599 ], [ 77.678854721680906, 12.8965734523472 ], [ 77.678460359155693, 12.8959135054049 ], [ 77.678052716185206, 12.8953033795627 ], [ 77.677491387874994, 12.8946914385076 ], [ 77.677243650814702, 12.8942885810539 ], [ 77.675998921256095, 12.8939241570103 ], [ 77.674842902326503, 12.8937293331986 ], [ 77.674073099224103, 12.893699940411199 ], [ 77.673839239125201, 12.893194176385499 ], [ 77.673801077010296, 12.892906612006801 ], [ 77.6737511421627, 12.8927027312213 ], [ 77.673702261939198, 12.892327196136099 ], [ 77.673664004375695, 12.892030598776 ], [ 77.673579529398694, 12.8916091288463 ], [ 77.673395942243303, 12.890688421165001 ], [ 77.673293533288501, 12.8902038971094 ], [ 77.6731743287759, 12.8895467717218 ], [ 77.673134370303401, 12.889360856370001 ], [ 77.673090767353997, 12.889156910488101 ], [ 77.672896178747607, 12.888554758165901 ], [ 77.672891251457898, 12.8885243191735 ], [ 77.672893317683901, 12.8885066088332 ], [ 77.672894944110098, 12.888492662885 ], [ 77.672934280521602, 12.888132035241 ], [ 77.672799540623302, 12.8876918809835 ], [ 77.672675807241006, 12.887204186276399 ], [ 77.672538647964899, 12.886590154226401 ], [ 77.672437275754206, 12.885985919602801 ], [ 77.672328141851594, 12.8846500197119 ], [ 77.6710904859641, 12.884884169090601 ], [ 77.6706561689371, 12.884966334594701 ], [ 77.669307117415599, 12.885234176456001 ], [ 77.667872448055206, 12.8855637976694 ], [ 77.667820717338699, 12.885575683376301 ], [ 77.668181279379596, 12.8835924520791 ], [ 77.668141774792602, 12.8836045058338 ], [ 77.667511242782794, 12.883796898687001 ], [ 77.667129689899298, 12.883906935695199 ], [ 77.667011576741004, 12.883948791936501 ], [ 77.666893403765101, 12.8839850025423 ], [ 77.666774774823807, 12.884032510145101 ], [ 77.666393352531799, 12.8841549665116 ], [ 77.666282937216593, 12.8841697687504 ], [ 77.665928418920899, 12.8842172940802 ], [ 77.664651431111693, 12.8843341888499 ], [ 77.663594566231396, 12.884422864814001 ], [ 77.663191445546602, 12.8844529398181 ], [ 77.663116683882606, 12.8844582175463 ], [ 77.662492312812802, 12.8844645701655 ], [ 77.661930251398601, 12.884376560307601 ], [ 77.661410941005101, 12.8843039238547 ], [ 77.661150899624602, 12.8842038068322 ], [ 77.660782907978998, 12.8841815756498 ], [ 77.660534310304698, 12.8841841028971 ], [ 77.660374232720699, 12.884196717226599 ], [ 77.660238164217006, 12.8842074396287 ], [ 77.660161374808496, 12.8842387097611 ], [ 77.660043331247294, 12.884287337854699 ], [ 77.659717329377401, 12.8843719567377 ], [ 77.659526597100907, 12.8843213453136 ], [ 77.659475508928793, 12.884307788631499 ], [ 77.659311127159995, 12.8843828599492 ], [ 77.659140439067599, 12.884460253748401 ], [ 77.658669670975101, 12.8845700564491 ], [ 77.658141455172796, 12.8846352719848 ], [ 77.658058684278203, 12.8846451466283 ], [ 77.657710409794305, 12.8847240324148 ], [ 77.657656779616403, 12.884736180273199 ], [ 77.657600527464794, 12.884750302473 ], [ 77.657341804835198, 12.8848297184414 ], [ 77.657048234007803, 12.8848688160954 ], [ 77.657020539171398, 12.884872503986299 ], [ 77.656905014451198, 12.884887227812699 ], [ 77.656495234678204, 12.8849410745706 ], [ 77.656231315933795, 12.884418652805399 ], [ 77.655760281831903, 12.8834116259253 ], [ 77.655724119506601, 12.8833114896849 ], [ 77.655650572633206, 12.8831044540773 ], [ 77.655357991414505, 12.8819917240354 ], [ 77.655176321224005, 12.8812844459699 ], [ 77.655076549577501, 12.8808980773815 ], [ 77.654930666491097, 12.8803801019686 ], [ 77.654939362156, 12.880331456036799 ], [ 77.654935754790003, 12.8803168123712 ], [ 77.654922202613207, 12.8802322560623 ], [ 77.654911610981401, 12.8801555744772 ], [ 77.6548967339169, 12.879999888850699 ], [ 77.654883257607494, 12.879867903263699 ], [ 77.654852269488003, 12.879548639746501 ], [ 77.654839658682803, 12.879389543366999 ], [ 77.654832876716995, 12.8793467006351 ], [ 77.654826011488296, 12.8792959539962 ], [ 77.654821761816294, 12.879220337332599 ], [ 77.654814437180804, 12.879071350591699 ], [ 77.654812910138602, 12.8789810260671 ], [ 77.654810184628502, 12.8788861966936 ], [ 77.654811225581, 12.878766485625601 ], [ 77.654811484380105, 12.878681789241799 ], [ 77.654813212361901, 12.878518030451 ], [ 77.654816959543396, 12.8784366864463 ], [ 77.654820818297296, 12.8783113005546 ], [ 77.654819517302201, 12.8782424294865 ], [ 77.654809883668904, 12.8780381328841 ], [ 77.654805118122596, 12.877968167691201 ], [ 77.654793361178307, 12.8777808313619 ], [ 77.654781242915803, 12.8776138251941 ], [ 77.654771775945505, 12.877425336386199 ], [ 77.654738805514, 12.8770270453034 ], [ 77.654732805927395, 12.8769491878564 ], [ 77.654730266301002, 12.8769266285969 ], [ 77.654719622892898, 12.876899634491799 ], [ 77.654714543645994, 12.8768545159715 ], [ 77.654708615435496, 12.8767834332994 ], [ 77.654698830238402, 12.876673995215199 ], [ 77.654691037639097, 12.8765351764184 ], [ 77.654670730058001, 12.876246294184 ], [ 77.654665619830496, 12.8761435841995 ], [ 77.654659204144096, 12.8760262071914 ], [ 77.654646237351898, 12.8758332368088 ], [ 77.654642777482195, 12.8757779386082 ], [ 77.654619440928798, 12.8755839440811 ], [ 77.654611063708501, 12.875553539233801 ], [ 77.654585582542893, 12.8754837839905 ], [ 77.654525004241194, 12.8753601804646 ], [ 77.654483208675501, 12.8752713933045 ], [ 77.654464894440906, 12.875226408908199 ], [ 77.654405738230594, 12.875019226363699 ], [ 77.654341847859598, 12.874799670007301 ], [ 77.654328170381206, 12.8747521921869 ], [ 77.654292866690099, 12.874629649549901 ], [ 77.654256385897398, 12.874499026166699 ], [ 77.654198773310199, 12.8743290931404 ], [ 77.654178530822705, 12.874264930974199 ], [ 77.654111668679505, 12.874036370586699 ], [ 77.654095620729393, 12.873987975413799 ], [ 77.654061199330798, 12.8738889501239 ], [ 77.654005437160706, 12.873676086705 ], [ 77.653993873898798, 12.873616353562699 ], [ 77.653986481332396, 12.873570129172199 ], [ 77.653986807162894, 12.873546411596299 ], [ 77.654293774067895, 12.8734586071979 ], [ 77.654429748226804, 12.8734188347005 ], [ 77.654519159583003, 12.8733840510428 ], [ 77.654693954156699, 12.873314524474999 ], [ 77.654707304007999, 12.873308768213301 ], [ 77.654988995520796, 12.873187316460101 ], [ 77.655485706850101, 12.8728649619578 ], [ 77.655516569725904, 12.8728367855058 ], [ 77.655968508415896, 12.872424176570901 ], [ 77.655954611949497, 12.8723068755134 ], [ 77.656132187252595, 12.872228285999199 ], [ 77.656144199967201, 12.872221388694101 ], [ 77.6561717895367, 12.872163517213799 ], [ 77.656187663749805, 12.8721407712597 ], [ 77.656195612749897, 12.872130527411301 ], [ 77.656207554090599, 12.872116855331701 ], [ 77.656217867065607, 12.8721062911968 ], [ 77.656357862318302, 12.871962882488001 ], [ 77.656428525917406, 12.871896669451299 ], [ 77.656457575538795, 12.8718681436322 ], [ 77.656468377886, 12.871855612345 ], [ 77.656480331094997, 12.8718430693866 ], [ 77.656591854669102, 12.8717222379983 ], [ 77.656600954502494, 12.871711982471799 ], [ 77.656624896580993, 12.8716902839331 ], [ 77.656677384171999, 12.8716468401652 ], [ 77.656751801993593, 12.871554616271 ], [ 77.656842815887501, 12.8714702444246 ], [ 77.656897132935995, 12.8714198909444 ], [ 77.656975145960999, 12.8713411815353 ], [ 77.657056071778996, 12.871265830314201 ], [ 77.657116337234896, 12.8712505388163 ], [ 77.657159974709998, 12.871241062209499 ], [ 77.657168594257399, 12.8712398455315 ], [ 77.657234602093197, 12.871223366514201 ], [ 77.657282279460901, 12.871214978158999 ], [ 77.657300645612906, 12.8712102748656 ], [ 77.657320749951197, 12.8712066831879 ], [ 77.657341405920604, 12.871200827416001 ], [ 77.657400544270203, 12.871187805788701 ], [ 77.6575435168062, 12.8711569949769 ], [ 77.657582550801195, 12.8711475650056 ], [ 77.657627243884704, 12.8711290436319 ], [ 77.657652431869195, 12.8711163663716 ], [ 77.657668436784903, 12.871106040768 ], [ 77.657685366453805, 12.871074250065099 ], [ 77.657693819386694, 12.871057225586 ], [ 77.657691950297504, 12.871043693568801 ], [ 77.657684688145693, 12.871009889795401 ], [ 77.657670560779806, 12.8709253394955 ], [ 77.6576680686657, 12.870907296804999 ], [ 77.657656175872503, 12.870761744424 ], [ 77.657653108335097, 12.870743707570201 ], [ 77.657635802133697, 12.8706851622219 ], [ 77.657602519108494, 12.870584996756699 ], [ 77.657598300723606, 12.870566971575499 ], [ 77.6575881895359, 12.8704812512694 ], [ 77.657579681380895, 12.8704384261389 ], [ 77.657701529244207, 12.8704236390886 ], [ 77.657697672092695, 12.8703852837757 ], [ 77.657689724943694, 12.870068045619 ], [ 77.657687054361304, 12.870033066011899 ], [ 77.657685808314497, 12.870024044665501 ], [ 77.657684959207202, 12.869998080567299 ], [ 77.657684217192696, 12.869982278617799 ], [ 77.657683142928207, 12.8697711200747 ], [ 77.657679563764205, 12.8697045307288 ], [ 77.657677623307606, 12.869684223942301 ], [ 77.657672997066896, 12.869518271359899 ], [ 77.657672818587599, 12.869501334444699 ], [ 77.657673072750796, 12.8694708421603 ], [ 77.657672632503903, 12.8694290644359 ], [ 77.657671914296102, 12.869415520740599 ], [ 77.657670208515896, 12.8693082594465 ], [ 77.657671162420002, 12.8690711076061 ], [ 77.657669635143606, 12.868980783224901 ], [ 77.657138962965007, 12.868973743781099 ], [ 77.657151470704605, 12.869068473837901 ], [ 77.657122969001506, 12.8695859588584 ], [ 77.656644659115202, 12.869578387591501 ], [ 77.656644502141603, 12.8690171523081 ], [ 77.656360004378598, 12.868997451836799 ], [ 77.656334613172007, 12.86899799293 ], [ 77.655956103553905, 12.8690060634439 ], [ 77.655447339591504, 12.8690575194945 ], [ 77.655482799440904, 12.8697471319804 ], [ 77.653727180387804, 12.8696565122377 ], [ 77.653609351938101, 12.869573764330401 ], [ 77.653578178705104, 12.8695518717445 ], [ 77.653190126677302, 12.869535475188201 ], [ 77.651728791062297, 12.8699025966552 ], [ 77.650714957635302, 12.870385000848501 ], [ 77.650628855800207, 12.8704042788438 ], [ 77.650234584201797, 12.8703788157499 ], [ 77.650084968637302, 12.870424508372301 ], [ 77.649586029238705, 12.8704369185582 ], [ 77.649581426535306, 12.870355969517499 ], [ 77.649370833612394, 12.8703944910965 ], [ 77.649146773359604, 12.870415590132099 ], [ 77.648928654411804, 12.870369934172601 ], [ 77.648838722283301, 12.8703818893903 ], [ 77.648539191496994, 12.8704470186252 ], [ 77.648369344311504, 12.8704763617755 ], [ 77.648303863630602, 12.87048831627 ], [ 77.647554590501599, 12.870599781009799 ], [ 77.646706566076602, 12.8707816952478 ], [ 77.646665152799699, 12.870790578549499 ], [ 77.646365979879505, 12.8708534514828 ], [ 77.645635087111003, 12.871016671275999 ], [ 77.645555949591795, 12.871043443407601 ], [ 77.645062177134704, 12.8711534504256 ], [ 77.644405134268396, 12.871279785124401 ], [ 77.643709417807699, 12.871395215982201 ], [ 77.642859873771897, 12.871549462658599 ], [ 77.642462298366695, 12.871613324195099 ], [ 77.642384370178206, 12.8716457295666 ], [ 77.6419592410044, 12.8718261822257 ], [ 77.641299008610005, 12.8719231810742 ], [ 77.641047065123303, 12.871990089229699 ], [ 77.640860264343999, 12.8720676330649 ], [ 77.640593717808002, 12.872223899773401 ], [ 77.640242659954893, 12.872498461406201 ], [ 77.640100131500503, 12.8730667878333 ], [ 77.640040671459502, 12.8735439359978 ], [ 77.640138236763903, 12.874342470486599 ], [ 77.640156590402299, 12.8744377027387 ], [ 77.640156645900603, 12.874437990367101 ], [ 77.640120433532502, 12.874510910069301 ], [ 77.639972611199298, 12.874958458882199 ], [ 77.639921572772806, 12.8751302147442 ], [ 77.639824181511202, 12.8754579599037 ], [ 77.639819309919105, 12.8754873698401 ], [ 77.6397796079996, 12.875707976267901 ], [ 77.639743134073896, 12.875907094168801 ], [ 77.639697129730607, 12.876020484166499 ], [ 77.639650841572006, 12.876106774715799 ], [ 77.639548084442595, 12.876296397366801 ], [ 77.639448472462405, 12.8764566274657 ], [ 77.639339795044094, 12.876630500075001 ], [ 77.639140562537094, 12.877005164907599 ], [ 77.639100261162298, 12.8770586464512 ], [ 77.639061110674504, 12.877112116392601 ], [ 77.638851641723804, 12.877388638392 ], [ 77.638672233959298, 12.8776230746236 ], [ 77.638628515143296, 12.8776799783575 ], [ 77.638402262577799, 12.877947635181901 ], [ 77.638249498516501, 12.878143407818101 ], [ 77.638212026784004, 12.878192343722301 ], [ 77.638064914310107, 12.8784332299163 ], [ 77.637955671605198, 12.878608237220201 ], [ 77.637789612266204, 12.8787984973484 ], [ 77.637699186577393, 12.8788468374328 ], [ 77.637641948227397, 12.8788767749332 ], [ 77.637575348931605, 12.8788921262879 ], [ 77.637358576906493, 12.879240994130599 ], [ 77.637022367746695, 12.8797807813998 ], [ 77.636985120061894, 12.8798511709855 ], [ 77.636967847999799, 12.8799055496635 ], [ 77.636959184185997, 12.8799575831077 ], [ 77.637061571159805, 12.8807221932702 ], [ 77.637136128868093, 12.8813572181758 ], [ 77.637193865162402, 12.8819246565696 ], [ 77.637310041693695, 12.8828517413948 ], [ 77.637389147429403, 12.883151328621 ], [ 77.637555611324004, 12.8837002794928 ], [ 77.637687581471496, 12.883711468130199 ], [ 77.638230360427897, 12.883701446180501 ], [ 77.638249261325299, 12.8836985987307 ], [ 77.638254237997899, 12.8836978484229 ], [ 77.638439823255894, 12.884128320189699 ], [ 77.638481583055906, 12.8842191734906 ], [ 77.638798341017605, 12.8849083248013 ], [ 77.638866253397595, 12.8850700406882 ], [ 77.638928462576104, 12.885218174361 ], [ 77.638211135239004, 12.8854173814108 ], [ 77.638307464321002, 12.885767611182199 ], [ 77.638020776979303, 12.885815671845499 ], [ 77.637507302108403, 12.8859710395701 ], [ 77.6375460833533, 12.8861569772432 ], [ 77.637051601792905, 12.886367486761801 ], [ 77.636981729239807, 12.886290271638201 ], [ 77.636838723826102, 12.8863741489627 ], [ 77.636844131475797, 12.886450884454799 ], [ 77.636554083843393, 12.8866728843172 ], [ 77.636397010313104, 12.886787393357899 ], [ 77.636074309760602, 12.886969068268201 ], [ 77.636032498164496, 12.8870087427276 ], [ 77.635715857154096, 12.887309200130099 ], [ 77.635662810778399, 12.887383701333301 ], [ 77.6353959557688, 12.887758482148 ], [ 77.635173872146595, 12.8878205699523 ], [ 77.635029908171603, 12.8878129856681 ], [ 77.634945932238907, 12.8877630143757 ], [ 77.634959224337095, 12.8876110381286 ], [ 77.634979345085299, 12.887380986025001 ], [ 77.635103153078404, 12.886782357615401 ], [ 77.635195320383005, 12.8863816034254 ], [ 77.634788187740895, 12.8863281763842 ], [ 77.634569338756293, 12.8862592360138 ], [ 77.634095409433897, 12.8862325112609 ], [ 77.633242812198503, 12.886150248307899 ], [ 77.632330754646304, 12.886097883736801 ], [ 77.632215597880304, 12.8864875284231 ], [ 77.632053650827999, 12.8870354928889 ], [ 77.631976326579803, 12.8872153771383 ], [ 77.6319106875019, 12.887368075737299 ], [ 77.631809006780401, 12.887647493858699 ], [ 77.631786024668301, 12.887704846126701 ], [ 77.631665737279405, 12.8880050230477 ], [ 77.631502265926997, 12.8885886263089 ], [ 77.631495261586295, 12.8886136310088 ], [ 77.631486004560102, 12.888895432078099 ], [ 77.631474179333395, 12.889255415818999 ], [ 77.632645972588506, 12.889404406077601 ], [ 77.632874001958896, 12.889409525723799 ], [ 77.632761945784594, 12.890209097945799 ], [ 77.6327236632237, 12.8907007733141 ], [ 77.632751647137994, 12.8914603522921 ], [ 77.632784977158906, 12.8920921427954 ], [ 77.632794774287802, 12.892290254100001 ], [ 77.632800547066594, 12.892406991150001 ], [ 77.632476484000193, 12.892461779898801 ], [ 77.632476484287395, 12.892461781048 ], [ 77.631580799583503, 12.892613211515799 ], [ 77.6315732828633, 12.8926140460088 ], [ 77.6315732819331, 12.8926140451147 ], [ 77.630215448377299, 12.8927647145533 ], [ 77.630194517027704, 12.8926488442613 ], [ 77.630179406221103, 12.892565196281399 ], [ 77.629955994383295, 12.8922252739802 ], [ 77.629941509206205, 12.8922008837501 ], [ 77.629936661119501, 12.892192719541301 ], [ 77.629870885101695, 12.8920669026474 ], [ 77.629856344510998, 12.892052368329701 ], [ 77.629821086285304, 12.892038042300999 ], [ 77.629708054360407, 12.892016593269499 ], [ 77.629675543852997, 12.8919898176255 ], [ 77.629473891105306, 12.8918043859479 ], [ 77.629434238908203, 12.8917550966503 ], [ 77.629428295321006, 12.891737088072601 ], [ 77.629399806192794, 12.8915442692388 ], [ 77.629360347862601, 12.891366109262901 ], [ 77.629346651331204, 12.891304268966801 ], [ 77.629277578781895, 12.8909729577521 ], [ 77.629249375270405, 12.8908625727234 ], [ 77.629203569805796, 12.8908302842532 ], [ 77.629083359142399, 12.890727599512401 ], [ 77.628978239250799, 12.890608361517399 ], [ 77.628928428488507, 12.8905518610177 ], [ 77.628912854971603, 12.890548629707 ], [ 77.628609228267095, 12.890132721205999 ], [ 77.628548329077105, 12.889426409431501 ], [ 77.628549412785603, 12.889199415060499 ], [ 77.628537773449295, 12.889187110016399 ], [ 77.628634515037604, 12.8889162422902 ], [ 77.628634262180398, 12.8881201087446 ], [ 77.628576372232402, 12.8880879414574 ], [ 77.628288959464797, 12.8880671139753 ], [ 77.627886862749705, 12.888086962521101 ], [ 77.627550794928396, 12.8881468011834 ], [ 77.627051878824503, 12.8882647381627 ], [ 77.627007386348097, 12.8882806477814 ], [ 77.626798434200495, 12.8883553659809 ], [ 77.626519996252398, 12.888422529753299 ], [ 77.625537233998202, 12.8883928687534 ], [ 77.625556276205401, 12.8885631979794 ], [ 77.625503355225703, 12.8885659875766 ], [ 77.624811976360206, 12.8886068026502 ], [ 77.624473110145004, 12.888619236151699 ], [ 77.624308896981105, 12.888601685616701 ], [ 77.624173986469998, 12.888579323983 ], [ 77.6240927019373, 12.888566587924201 ], [ 77.623927443708595, 12.888559211093099 ], [ 77.623658116837802, 12.888561911936099 ], [ 77.623412561239107, 12.8885813132861 ], [ 77.623335575640894, 12.888594507214099 ], [ 77.623080483676503, 12.8886377186644 ], [ 77.623032788968104, 12.8886449724748 ], [ 77.622968151354797, 12.888657376688201 ], [ 77.622772012551394, 12.8886950162854 ], [ 77.622765106724799, 12.888695085511401 ], [ 77.622186720745802, 12.888753958766101 ], [ 77.622023278870799, 12.8887772481398 ], [ 77.621470652440607, 12.888855993565 ], [ 77.6214478670815, 12.8887681382617 ], [ 77.621376505348593, 12.8886028495309 ], [ 77.621331970062897, 12.8886371740324 ], [ 77.621272988840602, 12.888665996871101 ], [ 77.621107648416896, 12.8887060487156 ], [ 77.621041056539198, 12.8887225257028 ], [ 77.620772140176896, 12.8887647442016 ], [ 77.620608373246, 12.8887900993857 ], [ 77.620456045498102, 12.8888085642373 ], [ 77.619903625117004, 12.888873948181001 ], [ 77.619879113965496, 12.888841444553799 ], [ 77.619788903174694, 12.8887452299192 ], [ 77.619704564790496, 12.888660249226 ], [ 77.619558003349695, 12.8885137811588 ], [ 77.619500372412602, 12.888451118549099 ], [ 77.619309064219195, 12.888207980307101 ], [ 77.619303227146801, 12.888200133789301 ], [ 77.619259971752598, 12.8881361979132 ], [ 77.619222529960396, 12.888077850224001 ], [ 77.619194495604404, 12.888038606096099 ], [ 77.619176162306701, 12.887991359903999 ], [ 77.619158827320604, 12.8879294230911 ], [ 77.619069885850294, 12.887623149506499 ], [ 77.6190200185751, 12.887476842374101 ], [ 77.618949704012195, 12.887356713290099 ], [ 77.618867727343499, 12.887166685586401 ], [ 77.618824578104693, 12.8870575773523 ], [ 77.618769038494193, 12.8869192318434 ], [ 77.618705127238101, 12.886662020842 ], [ 77.618664134254203, 12.8864965616402 ], [ 77.618663914548307, 12.886495674844401 ], [ 77.618656715257799, 12.886467514903799 ], [ 77.618594764187506, 12.886210660190599 ], [ 77.618594764863005, 12.886210660028899 ], [ 77.618574294548296, 12.886123910347999 ], [ 77.618406140184703, 12.8854502837097 ], [ 77.618336577948497, 12.8852364165475 ], [ 77.618214674500393, 12.8847486579843 ], [ 77.617849762310598, 12.884746661917401 ], [ 77.617791876678197, 12.8843271486886 ], [ 77.617762647628197, 12.8841173949151 ], [ 77.617728343666002, 12.8838625206724 ], [ 77.617734358735902, 12.8836659657422 ], [ 77.617735956646598, 12.883598192943101 ], [ 77.617758332936603, 12.8833698545307 ], [ 77.617782739427497, 12.883115522369399 ], [ 77.617739816661299, 12.8829171983054 ], [ 77.617712525923807, 12.882617082655701 ], [ 77.617698199232194, 12.8824015333731 ], [ 77.617721195922897, 12.8822883753576 ], [ 77.617728749607593, 12.8821844060214 ], [ 77.617718685318806, 12.882046734456701 ], [ 77.617696560519406, 12.8819114420545 ], [ 77.617618863545303, 12.8816897507497 ], [ 77.6176188631798, 12.881689749615999 ], [ 77.617943183544597, 12.881552122247401 ], [ 77.618202757426602, 12.881442244600599 ], [ 77.618705849891498, 12.8812282956597 ], [ 77.618580426588807, 12.8805677923246 ], [ 77.618564665980401, 12.880546493651201 ], [ 77.618519779917605, 12.8804916078986 ], [ 77.618483443770401, 12.880428731659601 ], [ 77.618466966909807, 12.880393888781899 ], [ 77.618454471400597, 12.8803544889621 ], [ 77.618393344881198, 12.8801213393696 ], [ 77.618374319801006, 12.8800628070847 ], [ 77.618338607319899, 12.8798937722435 ], [ 77.618325442544005, 12.879845344860801 ], [ 77.618299852729393, 12.8797642926137 ], [ 77.618292090085504, 12.8797372675233 ], [ 77.6182670640341, 12.8796550803504 ], [ 77.618247533961906, 12.8796033287739 ], [ 77.618241004387201, 12.879584196309599 ], [ 77.618233312148405, 12.879563946191899 ], [ 77.618230376156305, 12.8795583291519 ], [ 77.618215731392496, 12.8795336314399 ], [ 77.618194157568695, 12.8795067444578 ], [ 77.618172031745701, 12.8794821215536 ], [ 77.618118525724199, 12.879428451158001 ], [ 77.618085924210504, 12.879392640195199 ], [ 77.618064373875001, 12.8793680115232 ], [ 77.618031725455097, 12.8793276838983 ], [ 77.617993956501195, 12.8792930538707 ], [ 77.617983527726295, 12.8792863824679 ], [ 77.617949434453905, 12.8792731720056 ], [ 77.617931536349403, 12.879267704566701 ], [ 77.617917114502902, 12.879264460928701 ], [ 77.6178835064309, 12.878965537642699 ], [ 77.6183163509575, 12.8789149089727 ], [ 77.618298371390196, 12.8788462026814 ], [ 77.618280661652093, 12.878803467132601 ], [ 77.618228600639597, 12.8787226795599 ], [ 77.618194073409299, 12.8786676900875 ], [ 77.618149470037295, 12.878584569354899 ], [ 77.618114273541593, 12.878520552314299 ], [ 77.618040700103705, 12.877829705804899 ], [ 77.618037746135698, 12.877801965881799 ], [ 77.618005531943496, 12.877803417248099 ], [ 77.617704358625502, 12.877454092677301 ], [ 77.617682620890307, 12.8774113973151 ] ] ] } }
]
}
