{
"type": "FeatureCollection",
"name": "North_Zone1",
"crs": { "type": "name", "properties": { "name": "urn:ogc:def:crs:OGC:1.3:CRS84" } },
"features": [
{ "type": "Feature", "properties": { "region_id": "zone_GBA_North_4", "name": "North (Z4)", "parent": "corp_GBA_North", "parent_name": "North" }, "geometry": { "type": "Polygon", "coordinates": [ [ [ 77.606041497400099, 12.9901455969602 ], [ 77.606016752964706, 12.9901469745074 ], [ 77.605699575033498, 12.9901546737253 ], [ 77.605675394535893, 12.990154916300201 ], [ 77.605420888221303, 12.9901540814821 ], [ 77.6053632684836, 12.990150142316301 ], [ 77.605331959623797, 12.9902950045983 ], [ 77.605317006654303, 12.990462288484499 ], [ 77.605294706838293, 12.9905969122138 ], [ 77.605287214330204, 12.9906421433347 ], [ 77.6052083216087, 12.9908620156029 ], [ 77.605129228563499, 12.991062692063799 ], [ 77.604999506143002, 12.991313681345099 ], [ 77.604980791538097, 12.9913498895763 ], [ 77.604918943871894, 12.991437464718301 ], [ 77.604783511385307, 12.991646611200499 ], [ 77.604692572198402, 12.991760451605 ], [ 77.604630619654401, 12.991893199106601 ], [ 77.604570251651495, 12.991957044413301 ], [ 77.604552533529997, 12.991969644224501 ], [ 77.604522595526106, 12.991969944464101 ], [ 77.604338022641201, 12.992049715997799 ], [ 77.604275691833394, 12.992090995261799 ], [ 77.603879706130797, 12.992658478605099 ], [ 77.603871788315004, 12.9927274443257 ], [ 77.603797658899495, 12.992686404073099 ], [ 77.603665027323004, 12.9926120718055 ], [ 77.603352319934999, 12.992496631884 ], [ 77.602857329164394, 12.992404474951099 ], [ 77.602565138512404, 12.992379171150899 ], [ 77.602395415019998, 12.992392164816 ], [ 77.601820587897507, 12.992484879388901 ], [ 77.601264172402296, 12.992631614080899 ], [ 77.600572541610703, 12.9928982768868 ], [ 77.599188992758002, 12.993459832807 ], [ 77.598642207362303, 12.993647120508101 ], [ 77.596592574894899, 12.994442316354499 ], [ 77.5965769234748, 12.994542979667401 ], [ 77.596786492643503, 12.994596219117501 ], [ 77.597129821570505, 12.994666189173399 ], [ 77.597236697652903, 12.994700128138501 ], [ 77.598140833035103, 12.9949892151312 ], [ 77.598885348490597, 12.995211009749699 ], [ 77.599318928863894, 12.995321856916499 ], [ 77.600351140898098, 12.9956344974198 ], [ 77.600551511138406, 12.995688954925599 ], [ 77.600645443524499, 12.9956973871593 ], [ 77.6006760006197, 12.9957001301596 ], [ 77.602160983834295, 12.995367922413401 ], [ 77.602217276877596, 12.995354936101201 ], [ 77.602704221063703, 12.9952269633432 ], [ 77.603137773925496, 12.99511420574 ], [ 77.603271461899197, 12.995068823314099 ], [ 77.603695484331197, 12.9949256697514 ], [ 77.603731626304196, 12.994912885207301 ], [ 77.604190685624403, 12.994761474602001 ], [ 77.604407020178201, 12.9946904185144 ], [ 77.604500978421896, 12.994653861190599 ], [ 77.604651318333097, 12.994595366814499 ], [ 77.604963270450199, 12.9944725334149 ], [ 77.605255401311496, 12.9943815184853 ], [ 77.605388547927902, 12.994339528383 ], [ 77.605424137516593, 12.9943290077408 ], [ 77.605629355447505, 12.9942411230624 ], [ 77.605668530661404, 12.994298323363999 ], [ 77.606467471666804, 12.9955219621009 ], [ 77.606549768737494, 12.995648004864 ], [ 77.606991053830598, 12.9962759719422 ], [ 77.607065822311796, 12.9963954435426 ], [ 77.607688189508494, 12.997389900363199 ], [ 77.607910405194403, 12.9977449670979 ], [ 77.608284567175403, 12.9982855210897 ], [ 77.608644172075202, 12.998810410605699 ], [ 77.608769092628293, 12.9989729007502 ], [ 77.608769093360905, 12.9989729017045 ], [ 77.608277766011398, 12.9991223869061 ], [ 77.607627206019899, 12.9993525206604 ], [ 77.607371764613404, 12.999428489934701 ], [ 77.607085034006502, 12.9994855754756 ], [ 77.606937784291105, 12.999500605774299 ], [ 77.606851327878303, 12.9994924398245 ], [ 77.606809685397195, 12.9994747895378 ], [ 77.606768054713598, 12.999458268406199 ], [ 77.606745822543999, 12.9994246132364 ], [ 77.606733792932502, 12.999347924845001 ], [ 77.606733792011298, 12.9993479248543 ], [ 77.606720529660706, 12.9992633791044 ], [ 77.606601602535605, 12.9984616542541 ], [ 77.606523562317605, 12.9978808578505 ], [ 77.606468253602202, 12.997822690531899 ], [ 77.606383206680405, 12.9977840195592 ], [ 77.606250514548805, 12.997759378272599 ], [ 77.606193426901896, 12.9977617455994 ], [ 77.605998997172506, 12.9977698082277 ], [ 77.605710726423098, 12.997789641111501 ], [ 77.605427699538197, 12.9977897019737 ], [ 77.605365820533905, 12.9977897149983 ], [ 77.605092941474396, 12.9977947120579 ], [ 77.605056412012203, 12.997825569265601 ], [ 77.605038929232606, 12.997860752470601 ], [ 77.604957156522204, 12.9980806539147 ], [ 77.604949919289993, 12.998104441478599 ], [ 77.604925998873895, 12.998184860597 ], [ 77.604868159871302, 12.9983808069325 ], [ 77.604799837924702, 12.9985102307649 ], [ 77.604783917352506, 12.9985295883288 ], [ 77.604750384311799, 12.998571708280799 ], [ 77.604598272711399, 12.998672611480201 ], [ 77.604363923467304, 12.9987833739753 ], [ 77.604357625598198, 12.998786825011299 ], [ 77.604296034011199, 12.998843907114599 ], [ 77.604275953558997, 12.9988508842755 ], [ 77.603775130051702, 12.999084023696399 ], [ 77.602395388014799, 12.9995156954531 ], [ 77.601849243411806, 12.9998757660275 ], [ 77.601701992907394, 13.0005536839586 ], [ 77.601590354882504, 13.0005051144277 ], [ 77.6015159939612, 13.0014363909906 ], [ 77.602105858000598, 13.0013480398115 ], [ 77.602239162018293, 13.001320729711599 ], [ 77.602332481171501, 13.0013243111643 ], [ 77.602435060695996, 13.001387651814801 ], [ 77.602586558295002, 13.0015589131872 ], [ 77.6027994184482, 13.0018718488632 ], [ 77.603036098542901, 13.002260207380999 ], [ 77.6031696794673, 13.002480207157999 ], [ 77.603298853394605, 13.002664113945601 ], [ 77.603495134886501, 13.002933172947801 ], [ 77.603597483308704, 13.003088000803899 ], [ 77.603716869556393, 13.003268604062599 ], [ 77.603765423292302, 13.0033415203127 ], [ 77.603869864154902, 13.003527933384699 ], [ 77.603808022019706, 13.0038921831873 ], [ 77.603805180214593, 13.0039509344401 ], [ 77.603787834815904, 13.004275212828199 ], [ 77.603796895429696, 13.0043157761098 ], [ 77.603989527547498, 13.0046763429413 ], [ 77.6043113737379, 13.005279537711999 ], [ 77.604437304474601, 13.0055306936642 ], [ 77.6044725037886, 13.0056008952049 ], [ 77.604607182685996, 13.005870571060701 ], [ 77.604704798912394, 13.0060649569552 ], [ 77.604940012893806, 13.0059812870958 ], [ 77.605124022675398, 13.0064078834094 ], [ 77.605236838515907, 13.0066694273315 ], [ 77.605043772824303, 13.006763967158699 ], [ 77.604158636532006, 13.007196334643099 ], [ 77.6026271765421, 13.0079367035872 ], [ 77.601459119547101, 13.008517579479999 ], [ 77.601302723249404, 13.0085948099874 ], [ 77.600736111747395, 13.0088715199708 ], [ 77.599902260965393, 13.0093090077167 ], [ 77.598934239683103, 13.0097467083989 ], [ 77.598341719471705, 13.0100321355776 ], [ 77.598156160983393, 13.010121521911801 ], [ 77.597838311030799, 13.010288452383399 ], [ 77.597249106514695, 13.0106082953195 ], [ 77.596860787278899, 13.0108098091348 ], [ 77.596817169266203, 13.0108237973235 ], [ 77.596775278581106, 13.0108377682112 ], [ 77.596241638933094, 13.011019279703801 ], [ 77.595768055667605, 13.011217128496 ], [ 77.595801462617501, 13.011217923424301 ], [ 77.5953914492422, 13.011382385977599 ], [ 77.595562433451207, 13.0118210977488 ], [ 77.595690058249801, 13.0121879687588 ], [ 77.595792818847499, 13.012489589736299 ], [ 77.595851455323498, 13.012645974003 ], [ 77.595933945592805, 13.0127704993593 ], [ 77.596101276562194, 13.013024043571299 ], [ 77.596275764231194, 13.013301231022799 ], [ 77.596283954546493, 13.0133135711976 ], [ 77.596543789004798, 13.0137129963131 ], [ 77.596622801804898, 13.0138352975614 ], [ 77.596745886468298, 13.0140424690071 ], [ 77.596777537605405, 13.0140957429249 ], [ 77.596978713040201, 13.0143918602406 ], [ 77.597175447390697, 13.014703831826001 ], [ 77.597200136274196, 13.0147521439106 ], [ 77.597519811756598, 13.0153677912857 ], [ 77.597644678473799, 13.015579975646601 ], [ 77.597679709007906, 13.0156812605521 ], [ 77.597690391705797, 13.015766979372501 ], [ 77.597652746617797, 13.016077910627001 ], [ 77.597665062581498, 13.016154578780201 ], [ 77.597680092763397, 13.0162154097104 ], [ 77.597843398620199, 13.016524327423101 ], [ 77.598119083088207, 13.0171178283854 ], [ 77.598140353028199, 13.0171695624236 ], [ 77.598233647009806, 13.017391096944401 ], [ 77.598329314990707, 13.0176193833254 ], [ 77.5983600331584, 13.017693608364301 ], [ 77.598447627479302, 13.017865511242899 ], [ 77.598460565700293, 13.0178913551485 ], [ 77.598584988529694, 13.0181159652563 ], [ 77.598644273974003, 13.0182237824575 ], [ 77.598739928711197, 13.018340269319101 ], [ 77.598809930667201, 13.018426522580199 ], [ 77.599017068424104, 13.0186311052113 ], [ 77.599169398727199, 13.018770738591501 ], [ 77.599257533261806, 13.0188839127253 ], [ 77.599374271839594, 13.019089401417499 ], [ 77.599523797036696, 13.019346508353999 ], [ 77.599637128439895, 13.0195565481575 ], [ 77.599740705423699, 13.019714738574899 ], [ 77.599766171504697, 13.0197822402816 ], [ 77.599797442697493, 13.019854200897701 ], [ 77.599830691608105, 13.020060526645 ], [ 77.599842340079803, 13.0201835019217 ], [ 77.599877183966498, 13.020266719530699 ], [ 77.600008261446902, 13.020521752430801 ], [ 77.600029426139798, 13.0205633236687 ], [ 77.6001190213006, 13.0207611790528 ], [ 77.600207453245901, 13.0209579167631 ], [ 77.600297686737093, 13.0211852110557 ], [ 77.600359524168397, 13.021163180342599 ], [ 77.600297687658397, 13.021185211046401 ], [ 77.600362401866207, 13.021348224950801 ], [ 77.600611604177104, 13.0220515273974 ], [ 77.600942721111707, 13.022988898323799 ], [ 77.600942721362301, 13.022988898160101 ], [ 77.600943908075905, 13.02299227336 ], [ 77.600859830708799, 13.023047322892699 ], [ 77.600638784345307, 13.023165857715099 ], [ 77.600363765297004, 13.0232996147124 ], [ 77.600234845581795, 13.023361889785599 ], [ 77.600091554226793, 13.0234265675827 ], [ 77.599904114296606, 13.0235097568419 ], [ 77.599931719249696, 13.0235614269865 ], [ 77.600046417324904, 13.0237917795712 ], [ 77.600146637973396, 13.0240143723467 ], [ 77.600300228817702, 13.0243679071224 ], [ 77.600325421404605, 13.024425896485401 ], [ 77.600432200504898, 13.0246698796408 ], [ 77.600453131791895, 13.024744202356301 ], [ 77.600482819916195, 13.0248850649732 ], [ 77.600496055363706, 13.0249944727427 ], [ 77.600505590246897, 13.0251355376202 ], [ 77.600498413059, 13.025220306003201 ], [ 77.600479462161999, 13.0253356832437 ], [ 77.600431301859402, 13.0255767042534 ], [ 77.600428012038293, 13.025592547258199 ], [ 77.600435768711407, 13.0256184429513 ], [ 77.600433738446299, 13.0256997718229 ], [ 77.600471089156997, 13.0258574967727 ], [ 77.600496355960402, 13.025905802397199 ], [ 77.600610395779896, 13.0260729210899 ], [ 77.600661106360107, 13.026186469778301 ], [ 77.600670661263393, 13.026219123111099 ], [ 77.600664610302303, 13.0262462866785 ], [ 77.600660239614598, 13.026268916241101 ], [ 77.6005889861393, 13.026449187727 ], [ 77.600549738486393, 13.026495882363299 ], [ 77.600494356280606, 13.026541609669 ], [ 77.600461723604695, 13.026560005783001 ], [ 77.600320028412199, 13.0266122458589 ], [ 77.600086615664694, 13.0267049313676 ], [ 77.600044455240194, 13.026803602288499 ], [ 77.599969805265005, 13.026989554218 ], [ 77.599938724895907, 13.027046330391499 ], [ 77.599853417227393, 13.0272594921144 ], [ 77.599786395843097, 13.027514253861501 ], [ 77.599762567004404, 13.0276037065218 ], [ 77.599712936078902, 13.0278142516286 ], [ 77.599698471727905, 13.0278629560477 ], [ 77.601162957218307, 13.0278109883167 ], [ 77.601449746354703, 13.027775216430401 ], [ 77.601472380036199, 13.027772873305601 ], [ 77.601926013620101, 13.0277028188389 ], [ 77.602202336513201, 13.027660728824699 ], [ 77.602293992078302, 13.0276471754902 ], [ 77.602501025569296, 13.027620251401601 ], [ 77.602775240386805, 13.0275745836403 ], [ 77.603034730353997, 13.0275332518501 ], [ 77.603116166801897, 13.027520340271 ], [ 77.603286019973595, 13.0275175041251 ], [ 77.603498117372794, 13.027479235565901 ], [ 77.603700567513997, 13.027454615190599 ], [ 77.604036287400106, 13.027398164438299 ], [ 77.604231074663701, 13.027356681475 ], [ 77.604244858743996, 13.0273531550601 ], [ 77.604265623420702, 13.027356334156901 ], [ 77.604294534899395, 13.027422671108599 ], [ 77.604306591543406, 13.0274191620562 ], [ 77.604861480135099, 13.027284844999199 ], [ 77.605222239012704, 13.027192271450399 ], [ 77.60522790329, 13.0271908177925 ], [ 77.605510809791198, 13.0270953715512 ], [ 77.606012733751996, 13.0269627142332 ], [ 77.606026343676206, 13.026997585003899 ], [ 77.606425725449398, 13.026861441350899 ], [ 77.606454421435799, 13.026852118400299 ], [ 77.6066383324561, 13.027272475774399 ], [ 77.606836142442702, 13.027724598329799 ], [ 77.606852055786007, 13.0277594458473 ], [ 77.606853242869903, 13.027762821739101 ], [ 77.606862101987005, 13.027783056 ], [ 77.607067939238902, 13.028253044840801 ], [ 77.607171830031703, 13.028490259005901 ], [ 77.607400002226797, 13.0289972670575 ], [ 77.607493460450002, 13.029178140124699 ], [ 77.607557524996906, 13.029301715836899 ], [ 77.607679786104399, 13.0294834281019 ], [ 77.607689740528002, 13.0294991377817 ], [ 77.6078502185932, 13.0297007921699 ], [ 77.607946517390005, 13.0298229138892 ], [ 77.608002942998397, 13.0299318857169 ], [ 77.608071145208001, 13.0300655830553 ], [ 77.608088838014595, 13.0301264545721 ], [ 77.608108781868197, 13.030195071044499 ], [ 77.608129104814907, 13.0302660109119 ], [ 77.608239896933995, 13.0307821045142 ], [ 77.608329364877093, 13.031186614232601 ], [ 77.608364406768402, 13.0313432309223 ], [ 77.608391852726399, 13.0314344259927 ], [ 77.608481396377499, 13.031736170523899 ], [ 77.608576887831703, 13.032055923508601 ], [ 77.6086306640332, 13.032241712604799 ], [ 77.608688636750799, 13.032443269283201 ], [ 77.608753168468695, 13.0326662161235 ], [ 77.608923218628306, 13.0332314001255 ], [ 77.608932775008796, 13.033264052881499 ], [ 77.608984788922498, 13.033446471720399 ], [ 77.609042210229902, 13.033650292313199 ], [ 77.609156666770204, 13.0340760057243 ], [ 77.609187418740802, 13.034207821244999 ], [ 77.609199503415198, 13.034261904760401 ], [ 77.609255612022494, 13.0345052631494 ], [ 77.609267061725802, 13.03455370667 ], [ 77.609399658370407, 13.035061674193299 ], [ 77.609456134498004, 13.035340036331601 ], [ 77.609462800097603, 13.035371588896 ], [ 77.609506532860806, 13.0355879692216 ], [ 77.609525247832707, 13.0356702177786 ], [ 77.609586200769698, 13.0359361126624 ], [ 77.609650198808197, 13.036217786679 ], [ 77.609734765581194, 13.0365387779733 ], [ 77.609779165141106, 13.036708851108299 ], [ 77.609821143037095, 13.0368676558742 ], [ 77.610011650481397, 13.037460863721201 ], [ 77.610088467517897, 13.037701754260601 ], [ 77.610120604813105, 13.0378008065016 ], [ 77.610133616640496, 13.037833424302599 ], [ 77.610182149763006, 13.037958284548999 ], [ 77.610279192495597, 13.0382057466711 ], [ 77.610228717674303, 13.038334993103 ], [ 77.610036429528805, 13.0388349427615 ], [ 77.609914685557001, 13.039032664381301 ], [ 77.609764820122706, 13.0392397037308 ], [ 77.609664329918004, 13.039377359360399 ], [ 77.6094437351545, 13.03964948048 ], [ 77.609286847928502, 13.039791092438699 ], [ 77.609145941926002, 13.0399189919082 ], [ 77.60883639443, 13.040166036049699 ], [ 77.608613860696295, 13.040308309425001 ], [ 77.6082337753883, 13.0405289613291 ], [ 77.607791754669407, 13.040719746382001 ], [ 77.607694157439894, 13.040748961723301 ], [ 77.607368061393601, 13.0408459773081 ], [ 77.606762960554505, 13.0409308657489 ], [ 77.606726296671496, 13.0409360087274 ], [ 77.605251822315594, 13.0409757000476 ], [ 77.604434841764004, 13.0409974743679 ], [ 77.603392858960504, 13.0410361902837 ], [ 77.601694612048306, 13.0411006980714 ], [ 77.601357201921402, 13.0411074776707 ], [ 77.601053178946103, 13.0411127919938 ], [ 77.600536104637797, 13.0411213761766 ], [ 77.600221026796603, 13.041126778023999 ], [ 77.599740344000097, 13.0411350175692 ], [ 77.599495727184106, 13.041148767576299 ], [ 77.599318448978707, 13.041158453175401 ], [ 77.598438861408496, 13.041196647504099 ], [ 77.598145064475005, 13.041202986848401 ], [ 77.597378843985894, 13.0412185812266 ], [ 77.596595808554099, 13.041237731723101 ], [ 77.596351108388802, 13.0412435746253 ], [ 77.595417858121493, 13.041272133560099 ], [ 77.595055085074804, 13.041276900770599 ], [ 77.595027397206294, 13.041272661254601 ], [ 77.594754643705897, 13.0412392588673 ], [ 77.593555205410794, 13.041090922848801 ], [ 77.593194252897106, 13.0410493682911 ], [ 77.592668561168594, 13.041060281654801 ], [ 77.592510902616098, 13.0410842191658 ], [ 77.5922465110785, 13.0411243617911 ], [ 77.591586846725505, 13.041266483310499 ], [ 77.590571458393498, 13.0414821804415 ], [ 77.590020439292701, 13.041605142025301 ], [ 77.590024058995198, 13.0416209158859 ], [ 77.590115632681403, 13.0419531404818 ], [ 77.590138960982799, 13.0420364745881 ], [ 77.590264028960107, 13.0424327334434 ], [ 77.590466862089002, 13.042941142831699 ], [ 77.590572291774194, 13.0431106103734 ], [ 77.590483339574803, 13.0430855271866 ], [ 77.588958403017799, 13.0426513303284 ], [ 77.588559112249399, 13.042578532911 ], [ 77.588403055533107, 13.042580093928599 ], [ 77.587429177531007, 13.042745675960401 ], [ 77.586419394284704, 13.042947750856101 ], [ 77.585677994252094, 13.0430951928367 ], [ 77.585497197723498, 13.043154593435499 ], [ 77.585219609215002, 13.043265779268401 ], [ 77.585048789757394, 13.0433431486478 ], [ 77.584794493268006, 13.0434789459137 ], [ 77.583922608728301, 13.0440387507188 ], [ 77.583148112197094, 13.0445490211969 ], [ 77.582804329188207, 13.0447749247934 ], [ 77.582369981181301, 13.045042386703701 ], [ 77.582174300656902, 13.0452216395032 ], [ 77.5813221068818, 13.045959670239499 ], [ 77.579991963369096, 13.046982532350899 ], [ 77.579554022066404, 13.047292939935099 ], [ 77.579302456691806, 13.047415154162101 ], [ 77.578852508367206, 13.047567578484299 ], [ 77.578469692519704, 13.047640281906601 ], [ 77.578315669179204, 13.0476471176119 ], [ 77.578240001801106, 13.0476504764084 ], [ 77.577994516634604, 13.0476371127905 ], [ 77.577554142904006, 13.0475977131445 ], [ 77.577347145577207, 13.047579193415499 ], [ 77.576916394984096, 13.047535615919401 ], [ 77.576585549278207, 13.0475021450069 ], [ 77.576259799235103, 13.047469189364399 ], [ 77.575973284184002, 13.0474435941334 ], [ 77.575838817511098, 13.047431581134299 ], [ 77.575024442128495, 13.047359524625501 ], [ 77.574860201889805, 13.0473507843147 ], [ 77.573612055057296, 13.0472843558493 ], [ 77.572871950611002, 13.0472449637103 ], [ 77.572611109614897, 13.047231079925201 ], [ 77.572462440906094, 13.0472235239132 ], [ 77.572103330681202, 13.047200783701999 ], [ 77.570901111116996, 13.047124650184299 ], [ 77.570165845416099, 13.047078084683299 ], [ 77.569918881255504, 13.047033107279001 ], [ 77.569431241010804, 13.0469385720261 ], [ 77.569028604394603, 13.046877070912799 ], [ 77.566662803186702, 13.0466667868083 ], [ 77.566128809226498, 13.046600937617599 ], [ 77.565750080108401, 13.046512090534399 ], [ 77.565360344726599, 13.04636123986 ], [ 77.565308688106697, 13.0463356460198 ], [ 77.564929070435895, 13.046147558887 ], [ 77.564145266181598, 13.0455929309701 ], [ 77.563845715392105, 13.045027855320299 ], [ 77.562714869241503, 13.0429870957866 ], [ 77.562135286962203, 13.0420171075108 ], [ 77.5615680066322, 13.0410108572475 ], [ 77.561055862058296, 13.0401011804222 ], [ 77.560962689708205, 13.040001593281501 ], [ 77.560836039204901, 13.0401745023513 ], [ 77.5606419068788, 13.040449717435701 ], [ 77.560480618806295, 13.0404467958515 ], [ 77.560386188918002, 13.0404488593478 ], [ 77.560264094359596, 13.0404489378439 ], [ 77.560109175598697, 13.040449340967999 ], [ 77.5600124887048, 13.0404559439179 ], [ 77.5599641510628, 13.0404598099803 ], [ 77.559797900888796, 13.040478394057899 ], [ 77.559730133373193, 13.0406089356711 ], [ 77.559435374298502, 13.0412916992729 ], [ 77.559225307852103, 13.0415298038332 ], [ 77.558143263595298, 13.042325377472601 ], [ 77.558106052793093, 13.042347202342 ], [ 77.5573876216651, 13.0427710215152 ], [ 77.5570974323158, 13.042666603974601 ], [ 77.556966452230299, 13.0437633369776 ], [ 77.556961698894199, 13.0438051687249 ], [ 77.5569001618248, 13.0438136820416 ], [ 77.556898357489203, 13.0438622605588 ], [ 77.556863018915607, 13.0446824948529 ], [ 77.556847679268003, 13.0447029741684 ], [ 77.556664754546404, 13.0452287855089 ], [ 77.556466474008303, 13.0454374100641 ], [ 77.556301691334994, 13.045711204030701 ], [ 77.555883186061607, 13.046403094013799 ], [ 77.555048851392996, 13.0477676482158 ], [ 77.554488557368501, 13.0486179130324 ], [ 77.553933554702596, 13.049422952199301 ], [ 77.553874126626496, 13.049503498903199 ], [ 77.553874126626496, 13.049503498903199 ], [ 77.553821083484905, 13.0495753916463 ], [ 77.553785854067499, 13.0496220416239 ], [ 77.553511906734201, 13.049978223665301 ], [ 77.553196483051906, 13.050333685673801 ], [ 77.553077467485593, 13.050465861768 ], [ 77.552839447577995, 13.050731343065101 ], [ 77.552452970969398, 13.0511225147942 ], [ 77.552157140105294, 13.0515353780472 ], [ 77.551912203446804, 13.0519127299318 ], [ 77.551591448834799, 13.052366494378701 ], [ 77.5511585318649, 13.0530031860792 ], [ 77.551010309174899, 13.0532079263924 ], [ 77.550984741525895, 13.053242058295901 ], [ 77.550804968129199, 13.0534030662199 ], [ 77.550602123823495, 13.053560913662601 ], [ 77.550135137685999, 13.0539088337934 ], [ 77.549549738260495, 13.054335844248699 ], [ 77.549109043567995, 13.0546643052572 ], [ 77.549043877333204, 13.054712379323201 ], [ 77.548259696381507, 13.055408068336501 ], [ 77.548080992702594, 13.0555666051602 ], [ 77.547988541581205, 13.055649957004499 ], [ 77.546791808126201, 13.0567289610568 ], [ 77.546791807803899, 13.0567289616707 ], [ 77.546505294716695, 13.0564788154325 ], [ 77.546128161771804, 13.056097429827201 ], [ 77.545311169690393, 13.055283324832599 ], [ 77.545033020885697, 13.0550624562502 ], [ 77.544861720800498, 13.0549828308363 ], [ 77.544706422081504, 13.0549470915636 ], [ 77.544459808171993, 13.0549370960579 ], [ 77.543939098730505, 13.054933185315599 ], [ 77.543403450270603, 13.054932808460199 ], [ 77.543218009148006, 13.054934632597201 ], [ 77.542757285739896, 13.054939164040301 ], [ 77.542528465911602, 13.054923345028699 ], [ 77.542227347032593, 13.0548777448137 ], [ 77.541683793923895, 13.054780319738599 ], [ 77.541446578414906, 13.054731831696699 ], [ 77.540712480711207, 13.0545877161099 ], [ 77.540453932939002, 13.054537178046299 ], [ 77.539324774956796, 13.0543416023484 ], [ 77.539158706770195, 13.054322905263501 ], [ 77.538956519029995, 13.054320373388901 ], [ 77.538706149522497, 13.0543375130753 ], [ 77.5377018761953, 13.0544704688532 ], [ 77.537555228735698, 13.054492236104601 ], [ 77.536508612865802, 13.0546527070136 ], [ 77.535374572139403, 13.054825324548499 ], [ 77.535304380554294, 13.054832788840899 ], [ 77.535303655444494, 13.0551004482625 ], [ 77.535322740384998, 13.0552210999219 ], [ 77.535310209697599, 13.055291241544101 ], [ 77.535254011787401, 13.0553719753762 ], [ 77.535218132864301, 13.055468320645 ], [ 77.535124698783605, 13.0557380184908 ], [ 77.5350978502251, 13.055929139328301 ], [ 77.5351400753093, 13.0560597281069 ], [ 77.535204359431305, 13.0560941071101 ], [ 77.535199141813294, 13.056147237003399 ], [ 77.535203311582407, 13.056217214861601 ], [ 77.535170852420407, 13.0562536718712 ], [ 77.5351775792968, 13.0563484700172 ], [ 77.535231024616095, 13.056618986218 ], [ 77.535203900410593, 13.0567265390012 ], [ 77.535109162051299, 13.0567557014119 ], [ 77.535146228778203, 13.057114466337 ], [ 77.535117849000301, 13.0572118674249 ], [ 77.534985917897302, 13.057208643848501 ], [ 77.534949888961293, 13.057290309252201 ], [ 77.5349392473411, 13.057432709784401 ], [ 77.534910819538197, 13.0575255939999 ], [ 77.534944510570796, 13.0575534969914 ], [ 77.534981415146802, 13.057557652435101 ], [ 77.535063276324706, 13.0575082882751 ], [ 77.535473338256807, 13.0576747961204 ], [ 77.535395544026898, 13.0577275085199 ], [ 77.5352810640901, 13.057797520721 ], [ 77.535223635111905, 13.0578703613663 ], [ 77.535187398799195, 13.0579317008152 ], [ 77.535079299325403, 13.0581191011755 ], [ 77.535015637930897, 13.0582021669301 ], [ 77.534941518937003, 13.0583327672877 ], [ 77.534767235780606, 13.0585253339581 ], [ 77.534680261287704, 13.058694457727199 ], [ 77.5343282838638, 13.0593664753565 ], [ 77.5338548902252, 13.060049847181 ], [ 77.534217284585196, 13.0608503807298 ], [ 77.535007451071095, 13.063156637584299 ], [ 77.535200215463107, 13.063250739834 ], [ 77.535186531544099, 13.0632644260983 ], [ 77.535097643669403, 13.0633590329111 ], [ 77.535061705136499, 13.063393265522301 ], [ 77.535007500131599, 13.0634434880144 ], [ 77.5349539277437, 13.0634993509642 ], [ 77.534730630565207, 13.0637432190741 ], [ 77.5343740082793, 13.064774138928399 ], [ 77.533938404148799, 13.0660333754255 ], [ 77.5339561971482, 13.0673169493048 ], [ 77.5333080615368, 13.067870712156299 ], [ 77.533065071001602, 13.068060266605199 ], [ 77.532471808334805, 13.068609829028301 ], [ 77.532343400433206, 13.0686461551847 ], [ 77.532118559405305, 13.0690481353643 ], [ 77.531847791496901, 13.0691559986013 ], [ 77.530976189212396, 13.0697734142874 ], [ 77.531250520957201, 13.0708616651948 ], [ 77.531498386897496, 13.0718150717894 ], [ 77.531746505963, 13.0718213578948 ], [ 77.531498385975894, 13.071815071798399 ], [ 77.531509927599799, 13.0718594635494 ], [ 77.531619229179796, 13.072279884781301 ], [ 77.531782107881696, 13.072436395008699 ], [ 77.531805952234393, 13.072458747954199 ], [ 77.531830349499899, 13.072478836803301 ], [ 77.531792359918995, 13.072537934751301 ], [ 77.531607768078501, 13.072793845170001 ], [ 77.531376765727501, 13.0731868602041 ], [ 77.531350974626505, 13.0733689362124 ], [ 77.531247683338293, 13.0739154183302 ], [ 77.531242914476707, 13.074069054846399 ], [ 77.531245530565897, 13.0741168091688 ], [ 77.531269811803398, 13.074560052525801 ], [ 77.531367022063904, 13.0749984113233 ], [ 77.531521287536407, 13.0756089990082 ], [ 77.531117196077403, 13.075861415035099 ], [ 77.530955801383499, 13.076302309249 ], [ 77.530888230789301, 13.077301305238 ], [ 77.530775377499594, 13.0778704679757 ], [ 77.530570714817998, 13.0778532757178 ], [ 77.530405321277996, 13.0779023292282 ], [ 77.530295519423007, 13.0786013358075 ], [ 77.530261514460804, 13.078599410475899 ], [ 77.530228073944301, 13.0785963502697 ], [ 77.5300511145131, 13.078584532818001 ], [ 77.529904911564998, 13.078595000535501 ], [ 77.529809427730996, 13.078777759690899 ], [ 77.529682715329102, 13.078779001575301 ], [ 77.529526536543699, 13.0787714974684 ], [ 77.5294394847554, 13.078877378953599 ], [ 77.529421940358105, 13.0790209767577 ], [ 77.529632857154496, 13.079990139904 ], [ 77.529787158394001, 13.0809429174563 ], [ 77.529839756032104, 13.081355739248099 ], [ 77.529934710777496, 13.081516303586101 ], [ 77.529955515451306, 13.082087544138901 ], [ 77.529946138659, 13.082128292198901 ], [ 77.530098184250804, 13.0822386058584 ], [ 77.530629429130698, 13.082647863135501 ], [ 77.530840190408597, 13.0828106792155 ], [ 77.531196696185702, 13.0829178573299 ], [ 77.531716629562695, 13.083065216906 ], [ 77.533036571290594, 13.083371864649701 ], [ 77.533178387950699, 13.0833828951057 ], [ 77.5343478984163, 13.083633678333101 ], [ 77.535069982778097, 13.083796355318301 ], [ 77.5359735747695, 13.0837919252633 ], [ 77.536884619946093, 13.0837874554627 ], [ 77.537244316672698, 13.0844514292287 ], [ 77.537953530608704, 13.085760571125901 ], [ 77.539094461632004, 13.0870052321979 ], [ 77.539662724301294, 13.0880453968471 ], [ 77.540780877592098, 13.090073951608399 ], [ 77.541565582893597, 13.089075799854999 ], [ 77.542433526725503, 13.0879379191267 ], [ 77.544025525177304, 13.086237269123201 ], [ 77.544654883358405, 13.085876453909499 ], [ 77.545259272318503, 13.085271949681699 ], [ 77.545214989940604, 13.0847178881136 ], [ 77.5451949047455, 13.084613059051 ], [ 77.545172962927893, 13.0843919233281 ], [ 77.545164081812004, 13.084303928119599 ], [ 77.545169115559204, 13.0841209278459 ], [ 77.545186644690801, 13.083527859402199 ], [ 77.545498011133205, 13.0835329669044 ], [ 77.546433378512404, 13.083548308953301 ], [ 77.546390884335096, 13.083392881623499 ], [ 77.546419072010707, 13.083389215477 ], [ 77.546539793479596, 13.0833654376064 ], [ 77.546663982323906, 13.0833427547851 ], [ 77.546799702100202, 13.083321087419501 ], [ 77.547006783902503, 13.083293068968899 ], [ 77.547495096305795, 13.0832216183473 ], [ 77.547446145837398, 13.0829984956505 ], [ 77.547402012044202, 13.0827956531918 ], [ 77.547354236947399, 13.0825747774856 ], [ 77.547259920245594, 13.082140919080199 ], [ 77.547217008411394, 13.081944840404001 ], [ 77.547225613088102, 13.0819413674987 ], [ 77.547721201471205, 13.0818495172831 ], [ 77.547817201913603, 13.081830500316 ], [ 77.548268131341601, 13.0817650644543 ], [ 77.548264501499204, 13.081748160460201 ], [ 77.548574551504501, 13.0817067016549 ], [ 77.548596979277093, 13.0817030921925 ], [ 77.548835828731001, 13.081963865247801 ], [ 77.548903738865803, 13.082014013973501 ], [ 77.548950001730901, 13.0820316261639 ], [ 77.549014776715396, 13.082056960738701 ], [ 77.549116297354999, 13.082070639095599 ], [ 77.549323923142495, 13.082095691749201 ], [ 77.549722896807197, 13.082131276191401 ], [ 77.550097645135594, 13.082163711431001 ], [ 77.550151581414895, 13.082199316691501 ], [ 77.550248441013295, 13.082263860083801 ], [ 77.550350396157995, 13.082375784545 ], [ 77.550376284459801, 13.0824286067605 ], [ 77.550439275049897, 13.0825585716149 ], [ 77.550442197850401, 13.0825646031135 ], [ 77.5505439188818, 13.0827657461044 ], [ 77.550637385907706, 13.082892435456101 ], [ 77.550770885092007, 13.0830469620385 ], [ 77.550937651081, 13.0831876077999 ], [ 77.551243852578096, 13.0833878580841 ], [ 77.551251386618603, 13.083392300871701 ], [ 77.551473001354395, 13.083683817652799 ], [ 77.551512987024395, 13.083736415356 ], [ 77.551683790756798, 13.083933486528 ], [ 77.552067944563504, 13.084375768278299 ], [ 77.552154379929505, 13.084434767222801 ], [ 77.552309832216295, 13.084539385484 ], [ 77.552357904994494, 13.084564884263701 ], [ 77.552408857625295, 13.0845903545427 ], [ 77.552718583011398, 13.084629075097199 ], [ 77.552823031010803, 13.0846472400812 ], [ 77.553002337130295, 13.084718871588301 ], [ 77.553308437290497, 13.084908955913701 ], [ 77.553706395781205, 13.0852370366846 ], [ 77.553860336562394, 13.085306659910099 ], [ 77.553899112662094, 13.0853243451495 ], [ 77.554101045176097, 13.085411562211601 ], [ 77.554379756347501, 13.0855149586694 ], [ 77.554557288931903, 13.085582089191799 ], [ 77.554952998110394, 13.0857475681781 ], [ 77.555556965085501, 13.085999070235101 ], [ 77.555607679872395, 13.086057292301099 ], [ 77.555653826822095, 13.0859518087316 ], [ 77.555708974179794, 13.085881244803801 ], [ 77.556305514574902, 13.085635919507499 ], [ 77.5568618988151, 13.085406801423099 ], [ 77.557417374522302, 13.085201406932599 ], [ 77.558068110120999, 13.084961187475001 ], [ 77.558715400043198, 13.084722130073599 ], [ 77.5587933205166, 13.084848969771301 ], [ 77.558842883721795, 13.084907202533 ], [ 77.558909126675402, 13.0849630112189 ], [ 77.5596822326156, 13.0844686081519 ], [ 77.559940878248199, 13.084302291616 ], [ 77.560094681726099, 13.0841912221999 ], [ 77.560104743717105, 13.0841840567875 ], [ 77.560120413562302, 13.084172897870999 ], [ 77.560135824677801, 13.0841591931995 ], [ 77.560201123133496, 13.084123536568301 ], [ 77.560334296618194, 13.084022835565699 ], [ 77.563059627391894, 13.0861858970516 ], [ 77.5630703892475, 13.086194437936999 ], [ 77.561135848237996, 13.087341833610401 ], [ 77.560071800171599, 13.0879994921427 ], [ 77.560476021506403, 13.090326380548699 ], [ 77.560739135530397, 13.091595373455601 ], [ 77.560806147147801, 13.0919243713144 ], [ 77.561096561927599, 13.093350162068001 ], [ 77.561325511246906, 13.094489621603101 ], [ 77.561509107812697, 13.095198134290801 ], [ 77.562120727431704, 13.0964094535084 ], [ 77.562849258775401, 13.0977844869974 ], [ 77.563410307682503, 13.0976874331202 ], [ 77.563824550190105, 13.097631447248499 ], [ 77.564299987465901, 13.0975837229213 ], [ 77.564329328063806, 13.0975800431096 ], [ 77.564500503372898, 13.097588503936301 ], [ 77.564608331083306, 13.0975987242296 ], [ 77.565104211661406, 13.097644608930899 ], [ 77.565450757922406, 13.0976772979615 ], [ 77.566120775627795, 13.097739516368801 ], [ 77.566415424013897, 13.097767074171999 ], [ 77.566454626645495, 13.0977700717697 ], [ 77.567091236769002, 13.0978326201841 ], [ 77.567244038750303, 13.097846908649601 ], [ 77.567817795444199, 13.0979033053584 ], [ 77.568104955939702, 13.0979309357513 ], [ 77.568119367465599, 13.097931921472201 ], [ 77.5683961366761, 13.097957396447701 ], [ 77.568686741419498, 13.097983862543201 ], [ 77.568974454486906, 13.0980092278144 ], [ 77.569751124534804, 13.0980794078896 ], [ 77.569836371387794, 13.0980785579937 ], [ 77.569931959973999, 13.0980646956576 ], [ 77.569958902453394, 13.097865547538801 ], [ 77.569535525350403, 13.0943806662057 ], [ 77.570294154098505, 13.092308519568 ], [ 77.573331308984294, 13.0908271033778 ], [ 77.574174453463897, 13.0904374709636 ], [ 77.575123260634399, 13.090230679248201 ], [ 77.576602962672197, 13.0899231713801 ], [ 77.577298136419103, 13.089749356506699 ], [ 77.578800940161798, 13.089340093991799 ], [ 77.580205755671102, 13.089092372630599 ], [ 77.579865176111298, 13.087872962434499 ], [ 77.579637309768799, 13.086813345235001 ], [ 77.579365616132804, 13.0855871949279 ], [ 77.579318648609501, 13.0854542944766 ], [ 77.579165598240294, 13.085138491971399 ], [ 77.580555372322394, 13.084736116576799 ], [ 77.581627872125495, 13.084455485361 ], [ 77.582350036363096, 13.084274346835 ], [ 77.582967269720697, 13.084084093304099 ], [ 77.583166560942402, 13.0840278919749 ], [ 77.583265342578898, 13.0839997999086 ], [ 77.584464789177105, 13.0836309313369 ], [ 77.584259116253605, 13.082798443345601 ], [ 77.583995896838502, 13.0819157129243 ], [ 77.583805121290496, 13.081185840559399 ], [ 77.583802135671903, 13.0811757068043 ], [ 77.583772350092403, 13.081081144307101 ], [ 77.583633472504999, 13.080633075562 ], [ 77.583505103716007, 13.0801984529785 ], [ 77.583273980562197, 13.079465595641199 ], [ 77.583156509532003, 13.0790816818318 ], [ 77.583136786082207, 13.0790129922398 ], [ 77.5831153348215, 13.0789443199359 ], [ 77.582998839678893, 13.0784881213067 ], [ 77.582910425692106, 13.078184096386 ], [ 77.583137745353199, 13.0781095467027 ], [ 77.583455757510805, 13.078004727486499 ], [ 77.583721629397104, 13.0779264036053 ], [ 77.584883294221598, 13.077582760874799 ], [ 77.585552966127196, 13.0773964964049 ], [ 77.586307616285794, 13.077184534539301 ], [ 77.586458663657197, 13.077142366610399 ], [ 77.5870603132106, 13.0769511337149 ], [ 77.590091782788406, 13.0760692506878 ], [ 77.590294302800899, 13.076543778819101 ], [ 77.590710760076206, 13.0775378911188 ], [ 77.591010307740007, 13.0782576292769 ], [ 77.591415510504504, 13.079221361514101 ], [ 77.591719047424604, 13.0799365408434 ], [ 77.592230124154199, 13.0811645899842 ], [ 77.593073482237003, 13.083156083838601 ], [ 77.593537314864093, 13.084216338962401 ], [ 77.593610000099403, 13.084387881352701 ], [ 77.593635943615595, 13.0844491097266 ], [ 77.593715716898203, 13.084641415679901 ], [ 77.593721618160501, 13.0846549077852 ], [ 77.593712250629096, 13.084813010749601 ], [ 77.593968089401997, 13.087383299201299 ], [ 77.594701197995505, 13.087198896514501 ], [ 77.594917390644198, 13.0872404865371 ], [ 77.5958198575061, 13.0870106105996 ], [ 77.596499728035596, 13.086877516050199 ], [ 77.597626361565901, 13.0866831383389 ], [ 77.5978357047413, 13.0866475618883 ], [ 77.602143876073697, 13.0859082647716 ], [ 77.602525394744504, 13.08613263801 ], [ 77.602572634509698, 13.086160419597901 ], [ 77.603470615388702, 13.0865131720732 ], [ 77.604161060395001, 13.086843065466301 ], [ 77.605035061979507, 13.0871475083596 ], [ 77.605371140726405, 13.087285454346899 ], [ 77.605630981237795, 13.0873859344685 ], [ 77.605929439221896, 13.0876945634708 ], [ 77.607018610916199, 13.0881906751777 ], [ 77.607400924588802, 13.088235110245799 ], [ 77.607619211261806, 13.0882707351217 ], [ 77.607619211261905, 13.0882707351217 ], [ 77.607710231144395, 13.0882855904302 ], [ 77.607946083034605, 13.0883449500329 ], [ 77.608044317707595, 13.0883654400686 ], [ 77.607942778527502, 13.0887972722188 ], [ 77.607871748641301, 13.0888969067117 ], [ 77.607838017814402, 13.0891162745757 ], [ 77.607748565368496, 13.0895199080634 ], [ 77.607516232655499, 13.090045099440699 ], [ 77.607089534915502, 13.0912787977703 ], [ 77.606808086783204, 13.0912463156786 ], [ 77.606715806382297, 13.091381489485 ], [ 77.6065048703299, 13.091885268248999 ], [ 77.606635786190196, 13.0919969916723 ], [ 77.606327219310302, 13.0928126350477 ], [ 77.605980757848798, 13.093452024635701 ], [ 77.605980934633493, 13.093468830984801 ], [ 77.606046435998607, 13.0935042533618 ], [ 77.606109713539198, 13.093608108793401 ], [ 77.606042590832303, 13.093983229662699 ], [ 77.606016767758106, 13.094061862385599 ], [ 77.6060972605449, 13.0941132962823 ], [ 77.606284163579701, 13.0941462383584 ], [ 77.606774176134493, 13.094280611679499 ], [ 77.607530760608796, 13.094420996111699 ], [ 77.607735245213505, 13.094436344027701 ], [ 77.6078597865977, 13.094452500422999 ], [ 77.608001542626099, 13.094416234283599 ], [ 77.608122037424707, 13.0943466374026 ], [ 77.608247577674106, 13.094085028286001 ], [ 77.608290371730007, 13.093983343793299 ], [ 77.608468823528696, 13.0935593148471 ], [ 77.608664884377205, 13.093073294912401 ], [ 77.608897894313998, 13.0926227568873 ], [ 77.609043693385303, 13.092226880806599 ], [ 77.609398974726602, 13.0915779054816 ], [ 77.609729751102293, 13.091033155054699 ], [ 77.609981495855806, 13.09062545327 ], [ 77.610497395406796, 13.0899461663652 ], [ 77.610793479802197, 13.089581039731 ], [ 77.611322755983807, 13.0887832986701 ], [ 77.611654695293595, 13.0883496836102 ], [ 77.611908645064403, 13.088170946232299 ], [ 77.611986878814307, 13.088074542201699 ], [ 77.612052984522805, 13.0879842367126 ], [ 77.612088801726202, 13.087912165153799 ], [ 77.612142779387199, 13.0878279582096 ], [ 77.612197197828195, 13.0877855769528 ], [ 77.612342985325299, 13.0877362946096 ], [ 77.612427755091602, 13.0876816544523 ], [ 77.612541868495796, 13.087519153837301 ], [ 77.612618000267105, 13.087325692759199 ], [ 77.612616763093399, 13.087318090695399 ], [ 77.612750942217801, 13.086861379993 ], [ 77.612817713066207, 13.0866471294914 ], [ 77.612851330994204, 13.086647131120101 ], [ 77.612877533262704, 13.0866422549374 ], [ 77.612903718123405, 13.086642462152099 ], [ 77.612924620636306, 13.086642601401399 ], [ 77.612956004143001, 13.086637746900999 ], [ 77.613002930136801, 13.086627821813201 ], [ 77.613044535545399, 13.0866228738643 ], [ 77.613070586507703, 13.0866230000388 ], [ 77.613112284279893, 13.086613031994 ], [ 77.613138343475399, 13.0866080732653 ], [ 77.613153983161894, 13.0866030637157 ], [ 77.613180031943699, 13.0865980935439 ], [ 77.613211321814404, 13.086588083431399 ], [ 77.613232165279598, 13.0865830905156 ], [ 77.613263358863605, 13.086583162987999 ], [ 77.6132841579104, 13.086583211470501 ], [ 77.613320605520499, 13.086583354711401 ], [ 77.613356963693107, 13.0865833602269 ], [ 77.613377747816997, 13.086583363438301 ], [ 77.613403735984207, 13.086583367330499 ], [ 77.613434936442204, 13.0865833769108 ], [ 77.613450563084399, 13.086583423700199 ], [ 77.613497450187893, 13.0865835656298 ], [ 77.613523508600295, 13.086583659175099 ], [ 77.613570418423194, 13.086583827795 ], [ 77.613591269635293, 13.086583904736701 ], [ 77.613627768274696, 13.0865840672289 ], [ 77.613659062223604, 13.0865842561484 ], [ 77.613695571360594, 13.0865845202082 ], [ 77.613732068635201, 13.086584783541101 ], [ 77.613768553848203, 13.0865850313431 ], [ 77.613805029153696, 13.086585278960101 ], [ 77.613862282770398, 13.0865957962073 ], [ 77.6138935162233, 13.0866010096933 ], [ 77.613919538859804, 13.0866062053487 ], [ 77.613945586200998, 13.0866063210325 ], [ 77.613971603302602, 13.0866115315463 ], [ 77.613992410613307, 13.0866167156135 ], [ 77.614034021185205, 13.086627083079801 ], [ 77.614065212733394, 13.0866373974794 ], [ 77.614077598432104, 13.086640484133801 ], [ 77.614086013694106, 13.0866425813105 ], [ 77.614106807899802, 13.086647774251601 ], [ 77.614127548400305, 13.0866631194066 ], [ 77.614143185743103, 13.0866631664572 ], [ 77.614164037579101, 13.086673307912699 ], [ 77.614179706049299, 13.0866834041422 ], [ 77.6142162758062, 13.086693536911501 ], [ 77.614237038509899, 13.086708874414301 ], [ 77.614268321719805, 13.0867191029098 ], [ 77.614310028346594, 13.086734444053 ], [ 77.614336001305801, 13.086749810527801 ], [ 77.614361999937998, 13.086760096114 ], [ 77.614398344064199, 13.0867856625855 ], [ 77.614413954240902, 13.0867908112085 ], [ 77.614434702491494, 13.086811216247201 ], [ 77.614460651274598, 13.086831650111 ], [ 77.614481372919897, 13.086857131391 ], [ 77.614502107525794, 13.086877540201 ], [ 77.614517583365497, 13.086913143964299 ], [ 77.614522748095197, 13.0869233203261 ], [ 77.614548664045699, 13.086948828322701 ], [ 77.614558975115202, 13.0869742553725 ], [ 77.614574531964394, 13.086994626252901 ], [ 77.614590079049194, 13.0870200712219 ], [ 77.614605627079598, 13.0870455182613 ], [ 77.614610819106005, 13.087050617644 ], [ 77.614718991538695, 13.0872389438127 ], [ 77.614729306960896, 13.0872542129979 ], [ 77.614962077000797, 13.087473313743599 ], [ 77.6149866727675, 13.0874987855803 ], [ 77.615035798843195, 13.087506721820599 ], [ 77.615223793803395, 13.0875593532003 ], [ 77.615514216709002, 13.087623749027999 ], [ 77.615819951822402, 13.0876591928866 ], [ 77.615960565798304, 13.0876934797295 ], [ 77.6161198973534, 13.087728424954699 ], [ 77.616346259698901, 13.0877249500536 ], [ 77.6165871238954, 13.087726043665601 ], [ 77.616689450730107, 13.0877226477152 ], [ 77.616761946493099, 13.087745500398601 ], [ 77.6170498691326, 13.0878452233377 ], [ 77.617315707916902, 13.0879379336609 ], [ 77.617586113882794, 13.088030597324201 ], [ 77.617924094116603, 13.0881328131992 ], [ 77.618163464312403, 13.088213017825099 ], [ 77.618291761361107, 13.088209620482701 ], [ 77.618383700930593, 13.0882065921619 ], [ 77.618445776073699, 13.0882111990821 ], [ 77.618593698815602, 13.0882432121634 ], [ 77.618803428823597, 13.088289976408699 ], [ 77.619043453016999, 13.0883020941627 ], [ 77.619108847844998, 13.0883053952036 ], [ 77.619125089762306, 13.0881808882471 ], [ 77.6191198777652, 13.088071150399699 ], [ 77.619253456299603, 13.0880578888119 ], [ 77.6193249929659, 13.088053193675799 ], [ 77.619380485031797, 13.088066701690799 ], [ 77.6195309992506, 13.0881215577809 ], [ 77.619704981728304, 13.088240784711401 ], [ 77.619807485730703, 13.0882926049215 ], [ 77.619931894495707, 13.0882607987235 ], [ 77.620010865405604, 13.088242376423 ], [ 77.620137945988205, 13.0882363868859 ], [ 77.620212415632494, 13.088246202109101 ], [ 77.620410091200597, 13.0883020501883 ], [ 77.620692287777899, 13.088374352302701 ], [ 77.620942805973499, 13.0884751633064 ], [ 77.621054558321205, 13.0885133585922 ], [ 77.621293208721994, 13.088544944903701 ], [ 77.621518736643594, 13.0885813566731 ], [ 77.621624645211995, 13.0886307112866 ], [ 77.621744352348699, 13.088625976630601 ], [ 77.6218685756441, 13.0885953937099 ], [ 77.621999065881496, 13.0885790986011 ], [ 77.622264457693504, 13.0885697333807 ], [ 77.622431097826393, 13.088556372491601 ], [ 77.622599562476793, 13.088554659580399 ], [ 77.622742485390006, 13.0885515394947 ], [ 77.622862616287705, 13.088541141473501 ], [ 77.6228784726176, 13.088507428567199 ], [ 77.623066550565895, 13.088249449653199 ], [ 77.623433399239602, 13.0879273059135 ], [ 77.623833635997698, 13.0880002300946 ], [ 77.623747787535294, 13.0878305569496 ], [ 77.623721069221801, 13.0877551682124 ], [ 77.623780168682998, 13.0876247019938 ], [ 77.6240100687573, 13.087250836404399 ], [ 77.6240955635311, 13.087165272095699 ], [ 77.624111823546698, 13.087123324020901 ], [ 77.624106269494405, 13.087088373426001 ], [ 77.623802090011495, 13.085886545667201 ], [ 77.623751175187195, 13.0857018646168 ], [ 77.623671276630205, 13.085118848951399 ], [ 77.623613257198201, 13.0846982243715 ], [ 77.623603506853897, 13.084593302183499 ], [ 77.623607717550897, 13.084338046209499 ], [ 77.623626407928697, 13.084144752387999 ], [ 77.623696571527006, 13.083426957698199 ], [ 77.623690243563601, 13.082992256265101 ], [ 77.623682230720405, 13.0829426502234 ], [ 77.623651660939998, 13.082884239448401 ], [ 77.623570335013298, 13.0828737737467 ], [ 77.623266421930495, 13.0828938026191 ], [ 77.623519342341396, 13.082844931413399 ], [ 77.623637867330402, 13.0827782290903 ], [ 77.623889052510904, 13.082619836819401 ], [ 77.623994665429393, 13.082584884991499 ], [ 77.624675554287705, 13.0824277682761 ], [ 77.625072723573794, 13.0822938630875 ], [ 77.625055836790693, 13.0821133531639 ], [ 77.624971163296493, 13.081514577038799 ], [ 77.624973144287793, 13.0814840668451 ], [ 77.624975053563503, 13.081446781815799 ], [ 77.624991277376296, 13.081401446350499 ], [ 77.625116270089904, 13.0812928950968 ], [ 77.6255132045099, 13.0809737932664 ], [ 77.625821586675897, 13.080723347638701 ], [ 77.626186518487998, 13.080428285158501 ], [ 77.626793666171807, 13.079998633722999 ], [ 77.627108560289599, 13.0797650595962 ], [ 77.6273044752283, 13.0796094860211 ], [ 77.627598908543504, 13.079456297125599 ], [ 77.627779257681098, 13.079408161333101 ], [ 77.628592597296205, 13.0791954832474 ], [ 77.628737922437907, 13.0791578668738 ], [ 77.629134182912097, 13.079047680385999 ], [ 77.629368908545899, 13.0789673704616 ], [ 77.629639726713407, 13.078814420164299 ], [ 77.630140242986698, 13.078541686359401 ], [ 77.630403668957101, 13.078397844802399 ], [ 77.630874403285901, 13.078141222953199 ], [ 77.631359847999903, 13.077867044487199 ], [ 77.631815101067502, 13.0776099169556 ], [ 77.632174151619296, 13.0774131531973 ], [ 77.633763447695699, 13.076543328913401 ], [ 77.633763787094395, 13.077054859432 ], [ 77.634049286976307, 13.0769016706196 ], [ 77.634935565122404, 13.076444510713999 ], [ 77.635860594275499, 13.075967357881099 ], [ 77.636026188712194, 13.075883480961799 ], [ 77.6368230470962, 13.075479855596701 ], [ 77.637661545284601, 13.0753064193183 ], [ 77.638190082385506, 13.0751866274656 ], [ 77.638308528775696, 13.075159781252699 ], [ 77.639490911574399, 13.074935396447801 ], [ 77.639440505301394, 13.0732221952612 ], [ 77.639440391325195, 13.0732183244554 ], [ 77.639481046777703, 13.071571462960501 ], [ 77.6394979474466, 13.070872284677501 ], [ 77.639503845539096, 13.0706283064627 ], [ 77.639527268762606, 13.069689660557 ], [ 77.639362568686593, 13.068879413084201 ], [ 77.639022760857699, 13.0675797305363 ], [ 77.638727399599802, 13.06664494512 ], [ 77.638695556109099, 13.0665441627125 ], [ 77.638567598787105, 13.065288613596699 ], [ 77.638526242600406, 13.0648113628529 ], [ 77.638361312340294, 13.0636533063394 ], [ 77.638345152721001, 13.062782818712501 ], [ 77.638282778733398, 13.0623328843295 ], [ 77.638234885723406, 13.0619991149226 ], [ 77.638195379536, 13.061533137442799 ], [ 77.638182088864696, 13.060824103233999 ], [ 77.638172792202994, 13.060491068956001 ], [ 77.638156406270298, 13.0599243519681 ], [ 77.638157427374097, 13.0596408994087 ], [ 77.638171563611905, 13.058965462679399 ], [ 77.638354192946494, 13.0576694763083 ], [ 77.638358764825895, 13.057503429669699 ], [ 77.638336192163493, 13.0565166941792 ], [ 77.638308641104203, 13.055603410761201 ], [ 77.638296767101906, 13.055190225805701 ], [ 77.638185964712704, 13.0548435469338 ], [ 77.638153250443906, 13.0546372276574 ], [ 77.638339338012301, 13.0545348253717 ], [ 77.638312958163098, 13.054328441488501 ], [ 77.638182001830302, 13.0539277640897 ], [ 77.638120218213103, 13.0538041767721 ], [ 77.638066056639204, 13.0535379214583 ], [ 77.638031504505093, 13.053368061364999 ], [ 77.637949704761894, 13.052963433857601 ], [ 77.637885016973101, 13.0526434466771 ], [ 77.637807918098403, 13.052162042435 ], [ 77.637794195457005, 13.0520086040941 ], [ 77.637779981557799, 13.051808871410699 ], [ 77.637796263280904, 13.0516607732679 ], [ 77.638428059178906, 13.051553824555199 ], [ 77.638362453105003, 13.051070044818401 ], [ 77.638295760010706, 13.050783593466299 ], [ 77.638135567376906, 13.050095556284999 ], [ 77.638333923870206, 13.0500641723194 ], [ 77.638259809694304, 13.0498639214871 ], [ 77.638159496296595, 13.049528427581899 ], [ 77.638135719778802, 13.049427251508201 ], [ 77.638090134507905, 13.049233270971101 ], [ 77.638003706575205, 13.048578056844899 ], [ 77.637876080521707, 13.048056514524101 ], [ 77.637838460316502, 13.0477889978963 ], [ 77.637780776942606, 13.0473788055561 ], [ 77.637700808639707, 13.0471593606916 ], [ 77.637557744183098, 13.0467667661809 ], [ 77.637314440666998, 13.046035232205901 ], [ 77.6372308695328, 13.045540341967101 ], [ 77.637165555976296, 13.0451074584774 ], [ 77.637101407396898, 13.0446822997857 ], [ 77.637089254507202, 13.044133606468099 ], [ 77.637117664135602, 13.0434998057058 ], [ 77.637177853775796, 13.043364811097399 ], [ 77.637277494427096, 13.042931291497 ], [ 77.637290190316804, 13.042810270554099 ], [ 77.637343393171193, 13.042845925847599 ], [ 77.637556052936006, 13.042969105399401 ], [ 77.637650464553403, 13.0430200886795 ], [ 77.637745031870395, 13.04308575062 ], [ 77.637829798088305, 13.043150383178901 ], [ 77.637906731230999, 13.0431823472235 ], [ 77.638007885330396, 13.043217452068101 ], [ 77.638071874720495, 13.043223575203999 ], [ 77.638202588950705, 13.043222242504701 ], [ 77.638309933531801, 13.0432437330727 ], [ 77.638383915706996, 13.0432689515322 ], [ 77.638470866578103, 13.043268064922501 ], [ 77.638586716923101, 13.043277046859799 ], [ 77.638636286519599, 13.0432810583882 ], [ 77.639065125893893, 13.0433162087645 ], [ 77.639262636732397, 13.0433141942412 ], [ 77.639381030729695, 13.043291530820801 ], [ 77.6397583105054, 13.0431894372801 ], [ 77.640086512283602, 13.0430754222263 ], [ 77.640391080605596, 13.042959389464899 ], [ 77.640462568151904, 13.042912360709799 ], [ 77.640551546846595, 13.042831275927901 ], [ 77.640647771547293, 13.042727532167699 ], [ 77.640722498186506, 13.042660143795301 ], [ 77.640794321232306, 13.042644730565801 ], [ 77.640934871950407, 13.042647813155799 ], [ 77.641010341772301, 13.0426504306564 ], [ 77.641075326744897, 13.042641862645 ], [ 77.641118334224103, 13.0426244849328 ], [ 77.641214510291405, 13.0425704285226 ], [ 77.641326485836302, 13.042485721060499 ], [ 77.641390811278001, 13.0424150509574 ], [ 77.641429452443703, 13.042311894769799 ], [ 77.641455965785994, 13.042097066624301 ], [ 77.641468335186005, 13.0419060971064 ], [ 77.641470603148093, 13.0417942782016 ], [ 77.641459950787805, 13.0417130809296 ], [ 77.641409986244796, 13.0416176046676 ], [ 77.641375052882793, 13.0415818252261 ], [ 77.641347509384602, 13.041536936350401 ], [ 77.641315899492298, 13.041434497213601 ], [ 77.641299728717598, 13.0413759412491 ], [ 77.641303339904994, 13.0413363806341 ], [ 77.641318023695206, 13.0413091287601 ], [ 77.641335550654205, 13.0412784601164 ], [ 77.641354433076202, 13.041266974890799 ], [ 77.641393505427899, 13.041258671343 ], [ 77.641394645445303, 13.0412033264498 ], [ 77.641400452740001, 13.0410451721551 ], [ 77.641444889830098, 13.040674324556701 ], [ 77.641454691961798, 13.040512741740599 ], [ 77.641464722258902, 13.0403184083415 ], [ 77.6414615577159, 13.039966114586299 ], [ 77.6414719225574, 13.0399660088024 ], [ 77.641458454039693, 13.0395110584313 ], [ 77.641648247989295, 13.039487665635701 ], [ 77.641737788691003, 13.0394596497332 ], [ 77.641808351182405, 13.0394340860138 ], [ 77.641868717021595, 13.039370231860699 ], [ 77.641977596130502, 13.0392652295098 ], [ 77.642167486791493, 13.0390340534501 ], [ 77.642368436912193, 13.0389766688339 ], [ 77.642959637854503, 13.038954823218001 ], [ 77.643574998919505, 13.0389304710122 ], [ 77.643709261218604, 13.0389381336848 ], [ 77.643765403808302, 13.0389646622009 ], [ 77.643768294911695, 13.038965761919 ], [ 77.643793259039199, 13.0388762963102 ], [ 77.643806502848904, 13.0388219571145 ], [ 77.643813484545504, 13.0387202534518 ], [ 77.643819590484895, 13.038590327526 ], [ 77.643836972941202, 13.0384919053741 ], [ 77.643919986770996, 13.038337479682101 ], [ 77.643932102902994, 13.038285410503301 ], [ 77.643981611214699, 13.038175367725101 ], [ 77.644028288387702, 13.0380698708562 ], [ 77.644071378636994, 13.037951988894701 ], [ 77.644110474121106, 13.0378375354823 ], [ 77.644137621376899, 13.0377367550957 ], [ 77.644154631767506, 13.0376033300595 ], [ 77.644192779064596, 13.0372370640049 ], [ 77.644232390095198, 13.0370085512752 ], [ 77.644245561798499, 13.0369474373342 ], [ 77.644267298666605, 13.036825256506701 ], [ 77.644287056205599, 13.0367335855967 ], [ 77.644339419078193, 13.0365128473571 ], [ 77.644393797290505, 13.0363191904872 ], [ 77.644421028368399, 13.0362263139922 ], [ 77.6444627268761, 13.036194269106099 ], [ 77.644687186333798, 13.0361276090581 ], [ 77.644762473990795, 13.0361132889582 ], [ 77.6448322793145, 13.036070793654901 ], [ 77.644907218936197, 13.036023728891999 ], [ 77.644929231478699, 13.0359275179541 ], [ 77.644939679932804, 13.035881112055799 ], [ 77.644883430032607, 13.0358444215542 ], [ 77.6432313241001, 13.035906464579099 ], [ 77.643176155904101, 13.0353751515237 ], [ 77.643176611801394, 13.035363854378501 ], [ 77.643177111378293, 13.035334806798399 ], [ 77.643157672372197, 13.0353254433636 ], [ 77.643249788514694, 13.0341539760401 ], [ 77.643267934464006, 13.0340671222796 ], [ 77.643098720387897, 13.0340612502862 ], [ 77.642548655141994, 13.0340520517512 ], [ 77.642376177276503, 13.0340301094864 ], [ 77.642303350299301, 13.034001224788801 ], [ 77.6421853718698, 13.033997051687001 ], [ 77.641715605187997, 13.034143508990701 ], [ 77.641278937392997, 13.034284254465801 ], [ 77.641176536510798, 13.0343272873101 ], [ 77.641176536510798, 13.0343272873101 ], [ 77.641099269920105, 13.034317912222701 ], [ 77.641032416595394, 13.034258743852799 ], [ 77.6408801426427, 13.0339644332551 ], [ 77.640768883403297, 13.0336821259644 ], [ 77.640445523759396, 13.0333285801701 ], [ 77.640166790739499, 13.0329474767496 ], [ 77.640114873124901, 13.032884767992 ], [ 77.639917711179194, 13.032647376700099 ], [ 77.639892040337898, 13.0326160193506 ], [ 77.639851902454893, 13.032578033968701 ], [ 77.639806367862704, 13.032465572957999 ], [ 77.639756483505096, 13.032330353510099 ], [ 77.639648653333197, 13.0320380648404 ], [ 77.639656007127797, 13.032025568107001 ], [ 77.639599535890497, 13.031750606173601 ], [ 77.639397555974696, 13.0313845285434 ], [ 77.639122590560603, 13.031141153698901 ], [ 77.638524606301203, 13.0306300488243 ], [ 77.638188045007496, 13.0303342252643 ], [ 77.637992985381899, 13.0301318172172 ], [ 77.637916311011097, 13.0300151557764 ], [ 77.637873380197107, 13.029930898989999 ], [ 77.637822282143802, 13.0297823579003 ], [ 77.637744437411996, 13.0295008372151 ], [ 77.637742073513806, 13.029475126946499 ], [ 77.637605153391505, 13.027985667367499 ], [ 77.637328196030097, 13.027934283096499 ], [ 77.637136851508302, 13.0279192923403 ], [ 77.637030292874698, 13.027916989378101 ], [ 77.636948433800498, 13.0279087886626 ], [ 77.636944967051605, 13.0279076946986 ], [ 77.636728757519293, 13.0278285892217 ], [ 77.636654037158706, 13.027787567347501 ], [ 77.636580167570798, 13.027772509653399 ], [ 77.636354141668605, 13.0277996537231 ], [ 77.636047258416497, 13.027866322284501 ], [ 77.636010566917605, 13.027874293295801 ], [ 77.635666953847903, 13.027999749347501 ], [ 77.635039633577406, 13.0282523093809 ], [ 77.634911660177394, 13.028294264409 ], [ 77.634876608023802, 13.0283013965026 ], [ 77.634276893417905, 13.0284418777171 ], [ 77.633744451148601, 13.0285726395916 ], [ 77.633496335020993, 13.028689217298 ], [ 77.633495954379896, 13.028688771271799 ], [ 77.633003033889807, 13.028110405885799 ], [ 77.632715570857599, 13.0277734209852 ], [ 77.632762007758799, 13.027753751638601 ], [ 77.633887227945905, 13.0272623786874 ], [ 77.634069447069294, 13.027198984108599 ], [ 77.634973907541394, 13.026884319273901 ], [ 77.635815444890497, 13.0266318390414 ], [ 77.636986143659996, 13.0263579380255 ], [ 77.637150438482195, 13.0263201294976 ], [ 77.639011595044494, 13.025992891206 ], [ 77.639649648517903, 13.025884758228299 ], [ 77.639936983744406, 13.0257745514986 ], [ 77.6401153610027, 13.025707237177601 ], [ 77.640555990444497, 13.025499481251501 ], [ 77.642753473743596, 13.024552618640501 ], [ 77.643119485015205, 13.024394907855299 ], [ 77.643322034698897, 13.024304061741001 ], [ 77.644487524621098, 13.0237813176392 ], [ 77.645206624422499, 13.023471834997499 ], [ 77.646411847363197, 13.0229531299527 ], [ 77.647394917801407, 13.0225246897483 ], [ 77.647846855691, 13.0223277263927 ], [ 77.647913605066904, 13.0222986352272 ], [ 77.650543884023804, 13.0211374307304 ], [ 77.651270544311103, 13.020816621971701 ], [ 77.652745270580695, 13.020168026462001 ], [ 77.654675792529702, 13.0194413553139 ], [ 77.655633922535301, 13.0190577618296 ], [ 77.6573441055546, 13.0182972749431 ], [ 77.657344106466198, 13.018297274030401 ], [ 77.658017504468901, 13.0179978230155 ], [ 77.658017504315893, 13.0179978226833 ], [ 77.658565969117404, 13.0177539248345 ], [ 77.660370736245895, 13.016956236053 ], [ 77.660535220760707, 13.016883406138399 ], [ 77.661523638698299, 13.016480286359901 ], [ 77.661707122542694, 13.0164072607612 ], [ 77.661797920893704, 13.016336315940499 ], [ 77.661935856138896, 13.0162039084213 ], [ 77.662016908565704, 13.0160291740109 ], [ 77.662054492604994, 13.0158819875679 ], [ 77.662094858942496, 13.015725738678899 ], [ 77.662159738394706, 13.015061082435 ], [ 77.662205943361499, 13.0144007834744 ], [ 77.662255657455802, 13.0136903357643 ], [ 77.662282666862495, 13.0131999705455 ], [ 77.662282630691607, 13.0131965832124 ], [ 77.662289844269694, 13.0130632594418 ], [ 77.662310610841004, 13.0126892695069 ], [ 77.662327772132002, 13.012409043078801 ], [ 77.662297616062105, 13.012389026448201 ], [ 77.661797642123801, 13.0120497421438 ], [ 77.661684864536795, 13.0120034718085 ], [ 77.660858996084997, 13.011719474868499 ], [ 77.660024468714496, 13.011433305281001 ], [ 77.6595142968132, 13.011217207081501 ], [ 77.6589053091474, 13.010914040271899 ], [ 77.658454176255603, 13.010672491082399 ], [ 77.658168213500403, 13.010475533384501 ], [ 77.658131076941601, 13.0104499550635 ], [ 77.657495698809697, 13.009993478231101 ], [ 77.656202950485394, 13.0090694513764 ], [ 77.656101184786195, 13.0089756373042 ], [ 77.656079065937902, 13.008953278995101 ], [ 77.655587126313605, 13.008447899151699 ], [ 77.655013358580106, 13.007828172916399 ], [ 77.654973163516402, 13.007784543899399 ], [ 77.654621172189394, 13.007389523942701 ], [ 77.654217903938303, 13.0069374365888 ], [ 77.654085612598607, 13.0067886008668 ], [ 77.653855600628802, 13.006601241230999 ], [ 77.653686570342003, 13.006462944229 ], [ 77.653525096936093, 13.0063313452439 ], [ 77.6534646793787, 13.0062811472778 ], [ 77.6533508733242, 13.006191971828001 ], [ 77.653174910668298, 13.0060514867995 ], [ 77.652876434320603, 13.0058151394751 ], [ 77.652543038510004, 13.0058693461941 ], [ 77.651831430328897, 13.0059850461769 ], [ 77.651261806677297, 13.006078948923101 ], [ 77.651568297107502, 13.006690125476499 ], [ 77.651465695183106, 13.0067340854121 ], [ 77.651388809637794, 13.006759714580101 ], [ 77.651323918671906, 13.0067761871898 ], [ 77.651264185382402, 13.006790348586 ], [ 77.651188343269297, 13.0068058038377 ], [ 77.6511056042212, 13.006822458794099 ], [ 77.651088355917295, 13.0068248935452 ], [ 77.6509698847496, 13.0068385258735 ], [ 77.650864271906102, 13.0068700946763 ], [ 77.650844768615201, 13.006877069432999 ], [ 77.650740990950297, 13.006918782642099 ], [ 77.650634334523602, 13.006960525229401 ], [ 77.6506154196815, 13.0069697316705 ], [ 77.650461335638994, 13.007044727659199 ], [ 77.650384114041998, 13.007092944899201 ], [ 77.6502268280165, 13.007192796103899 ], [ 77.650042625787606, 13.0073064731399 ], [ 77.649953961082304, 13.0073615826485 ], [ 77.649736773154999, 13.0074597870247 ], [ 77.649678155054005, 13.0074705489724 ], [ 77.649573441307496, 13.007478393981501 ], [ 77.6495090057618, 13.0074835690816 ], [ 77.649303704368407, 13.0075082507547 ], [ 77.649071378812906, 13.0075365959772 ], [ 77.648969015920699, 13.007548933728501 ], [ 77.648857956862997, 13.0075557140061 ], [ 77.648615147801294, 13.0075728734178 ], [ 77.648568536323594, 13.0075756078128 ], [ 77.648379739445005, 13.007582052325599 ], [ 77.647981994441295, 13.007595146640201 ], [ 77.647981287217206, 13.007528528284499 ], [ 77.647849752889101, 13.007559231324599 ], [ 77.646704443208094, 13.0079909993685 ], [ 77.646624583250102, 13.0078992158207 ], [ 77.646548237743104, 13.007813042622701 ], [ 77.646485002705504, 13.0077143139093 ], [ 77.646378419671393, 13.007546013989399 ], [ 77.646350448373795, 13.00751468038 ], [ 77.646288664475094, 13.007444167996301 ], [ 77.6462417893772, 13.0074220611949 ], [ 77.646178109813405, 13.007389962561801 ], [ 77.646096342543103, 13.007335463436499 ], [ 77.646070074588806, 13.007301853914001 ], [ 77.645845142332803, 13.0069958632072 ], [ 77.645792570650102, 13.0069252566987 ], [ 77.645527784781606, 13.0063904344557 ], [ 77.645474864130307, 13.006395491093899 ], [ 77.645193948370306, 13.0064028724608 ], [ 77.645112780257406, 13.006404829288 ], [ 77.644971686731296, 13.006402880047 ], [ 77.644861107699697, 13.0064006196438 ], [ 77.644764358523005, 13.0063993474567 ], [ 77.644548886058203, 13.0063879929683 ], [ 77.6445131478837, 13.0063838782059 ], [ 77.644233534301407, 13.006351683558799 ], [ 77.644145373411405, 13.0063458066008 ], [ 77.643541477319204, 13.0063034029726 ], [ 77.643463715736502, 13.0063008075642 ], [ 77.643363476132095, 13.006296182656699 ], [ 77.643177798811294, 13.006270972404799 ], [ 77.643157611813095, 13.0062677903184 ], [ 77.642852527805303, 13.0062223405409 ], [ 77.642711794589999, 13.006200059848 ], [ 77.642557332225905, 13.0061858625221 ], [ 77.642302572373097, 13.006162445658701 ], [ 77.642277203666893, 13.0061593162738 ], [ 77.641945179264198, 13.006125432267201 ], [ 77.641637935868701, 13.0060935540022 ], [ 77.641094493028405, 13.006050528926201 ], [ 77.641012512226197, 13.0060369135517 ], [ 77.640674008901499, 13.0059825368799 ], [ 77.640110574612507, 13.005845985087401 ], [ 77.639700337009401, 13.005712390347099 ], [ 77.639200345434404, 13.005531149953301 ], [ 77.638819937418106, 13.0054412911327 ], [ 77.638634176964999, 13.0054081734792 ], [ 77.638541457965601, 13.005406857901299 ], [ 77.638463156496798, 13.005407654184101 ], [ 77.638311219218394, 13.0054148455109 ], [ 77.638068019558901, 13.0054376341809 ], [ 77.638067905583299, 13.005437572101499 ], [ 77.638007081908995, 13.0054043869546 ], [ 77.637593492048396, 13.005171448110801 ], [ 77.637458089852203, 13.0050542526781 ], [ 77.6374522607736, 13.0050475363964 ], [ 77.637448170869206, 13.005041931691499 ], [ 77.637412692279497, 13.005008414656 ], [ 77.637330473686504, 13.004911005121601 ], [ 77.637302745319005, 13.0048764668086 ], [ 77.637254036484507, 13.0048157952977 ], [ 77.637140754516096, 13.004666755626801 ], [ 77.636974482575994, 13.0045142929867 ], [ 77.636832590430501, 13.0043841856457 ], [ 77.636650747630995, 13.0042313253653 ], [ 77.6366460842534, 13.0042270716395 ], [ 77.636350740480594, 13.0039577057744 ], [ 77.636339025852095, 13.0038844231001 ], [ 77.636423075535603, 13.0038282355594 ], [ 77.636439676646006, 13.0038190328327 ], [ 77.636506057211193, 13.0037799636467 ], [ 77.636586183998901, 13.003733979234401 ], [ 77.636737801333197, 13.0036420981072 ], [ 77.637126845279596, 13.0034076995393 ], [ 77.637214411454096, 13.0033549406222 ], [ 77.637436629674298, 13.0032420150382 ], [ 77.6377023652757, 13.003106061845299 ], [ 77.638086871624495, 13.002909986411799 ], [ 77.638445749033707, 13.002726979556099 ], [ 77.638526438844593, 13.0026798596865 ], [ 77.638565675366394, 13.0026331612841 ], [ 77.638593793727907, 13.0025696370987 ], [ 77.638605851074104, 13.0025119224929 ], [ 77.638675695829406, 13.002256000679999 ], [ 77.638747369911499, 13.002118632045599 ], [ 77.638801867304295, 13.001990472099299 ], [ 77.6388683357427, 13.0018508978768 ], [ 77.638908293714493, 13.001763538943401 ], [ 77.638959465301795, 13.0017020388446 ], [ 77.639049992564296, 13.0016051316437 ], [ 77.639192878535596, 13.001450099989601 ], [ 77.639244494373102, 13.001376173539001 ], [ 77.6394691182538, 13.0010554393945 ], [ 77.639619989042302, 13.000801561588499 ], [ 77.639619989458794, 13.000801561807201 ], [ 77.639654112372497, 13.0007441431493 ], [ 77.640065172952902, 12.999976586399599 ], [ 77.640065172022105, 12.9999765855056 ], [ 77.640078726845104, 12.9999516040427 ], [ 77.640431559916706, 12.999286272217599 ], [ 77.640469190247202, 12.999196678373499 ], [ 77.640492979130798, 12.999104966824 ], [ 77.640527754660994, 12.999017660527301 ], [ 77.640579682626395, 12.9989188872058 ], [ 77.640652924508402, 12.998821026309701 ], [ 77.6406963478493, 12.9987347612864 ], [ 77.640749594402493, 12.998651784088199 ], [ 77.640962040404702, 12.998323268502499 ], [ 77.641310940112902, 12.997830752012799 ], [ 77.6421027285962, 12.996695700464301 ], [ 77.642149796709006, 12.996627466293001 ], [ 77.642682921557196, 12.9958609241004 ], [ 77.642706659669003, 12.995818900147199 ], [ 77.642719158227493, 12.9958029633975 ], [ 77.642369384222505, 12.9957771628542 ], [ 77.641324340653, 12.9957776332616 ], [ 77.641231546427207, 12.995387855592901 ], [ 77.6411775360843, 12.995398568299001 ], [ 77.640659469450696, 12.9956838927733 ], [ 77.640448769292703, 12.994870714216599 ], [ 77.640047957376098, 12.9949188308054 ], [ 77.639883769380106, 12.9949103368909 ], [ 77.639541525537993, 12.9949431769346 ], [ 77.639471899044906, 12.9949472725025 ], [ 77.639471899090907, 12.994947273405399 ], [ 77.639372299225599, 12.9949482858772 ], [ 77.639196295501193, 12.9949658845026 ], [ 77.639027836705097, 12.994989052603399 ], [ 77.638878411561095, 12.995015414921401 ], [ 77.638705718825406, 12.995019428511 ], [ 77.637939055577604, 12.995100620384299 ], [ 77.637919523551503, 12.9947778515591 ], [ 77.637901131818396, 12.994235995424001 ], [ 77.638056807069006, 12.9942016654438 ], [ 77.637962350357597, 12.9938175487028 ], [ 77.637889605417001, 12.9936353481867 ], [ 77.637471390461499, 12.9936712154842 ], [ 77.637439801910901, 12.993406161009499 ], [ 77.637413892514701, 12.9932426819389 ], [ 77.637405021529801, 12.9931659825794 ], [ 77.637369609240295, 12.9928659599382 ], [ 77.637340031068703, 12.992682191473399 ], [ 77.636326455961495, 12.9928810691016 ], [ 77.634818304976605, 12.9931911119606 ], [ 77.634542721909199, 12.9932661805599 ], [ 77.634468655618804, 12.993286129383 ], [ 77.634115377856801, 12.993310039843999 ], [ 77.632957742525505, 12.993553278384599 ], [ 77.632579150640794, 12.993633906545901 ], [ 77.631912896103202, 12.9937908519495 ], [ 77.631874969831003, 12.993798011919299 ], [ 77.631842733262403, 12.9938037771715 ], [ 77.6316339818177, 12.993841100475599 ], [ 77.631633981586305, 12.993841099612 ], [ 77.631607159134703, 12.993845895717101 ], [ 77.631282494802605, 12.9938995427504 ], [ 77.631282495335896, 12.9938995446149 ], [ 77.630441476245494, 12.994038402158401 ], [ 77.630441476022895, 12.994038401290201 ], [ 77.630339183862702, 12.994055234526201 ], [ 77.629097795604906, 12.994274461682201 ], [ 77.628891886526702, 12.9941862053576 ], [ 77.6290801689604, 12.9943503008052 ], [ 77.629133682556699, 12.9944017050878 ], [ 77.629151334764103, 12.9944376627819 ], [ 77.629154605735906, 12.994474895353999 ], [ 77.628120485243201, 12.994663782559501 ], [ 77.627843431108801, 12.994714387051699 ], [ 77.627675373535595, 12.994745082832701 ], [ 77.626951929888094, 12.9949398610507 ], [ 77.626231897833605, 12.9951854198993 ], [ 77.6260976875854, 12.995245798213499 ], [ 77.6254255761406, 12.9955481639882 ], [ 77.625050402529695, 12.995790232682101 ], [ 77.624616681629306, 12.996049831830501 ], [ 77.624153282568898, 12.9964441131995 ], [ 77.623163498874703, 12.99732139356 ], [ 77.622395422909506, 12.9979981420898 ], [ 77.621741201074499, 12.998574569465699 ], [ 77.621643455157695, 12.998661752430399 ], [ 77.621181507719399, 12.999073776629199 ], [ 77.620182708872306, 12.999964627356601 ], [ 77.620111757125599, 12.9998975873667 ], [ 77.6199540411491, 12.9997930279496 ], [ 77.619897191766896, 12.999752948028499 ], [ 77.619427297703695, 12.9994200384787 ], [ 77.619412797525598, 12.9994100213677 ], [ 77.619340398411694, 12.999314763927099 ], [ 77.619227711493906, 12.9991115029528 ], [ 77.619119410407905, 12.9989420757797 ], [ 77.618976529549798, 12.998769609606599 ], [ 77.618854077000805, 12.998678244773 ], [ 77.618397003931307, 12.9984694232802 ], [ 77.618386017504506, 12.9984650170106 ], [ 77.618001997448005, 12.9983040165124 ], [ 77.617936150014401, 12.9982843536872 ], [ 77.617816157770307, 12.998098104554099 ], [ 77.617752947794699, 12.9980004952725 ], [ 77.617750597475805, 12.9979960018832 ], [ 77.617509133843399, 12.9974823590751 ], [ 77.617394307816696, 12.9972395938809 ], [ 77.617371214785706, 12.997178845972799 ], [ 77.617211445050003, 12.996768272077199 ], [ 77.617009638814906, 12.996247452935201 ], [ 77.6168315138748, 12.9957885048247 ], [ 77.616780435073196, 12.9957494950668 ], [ 77.616911670353403, 12.995635245028501 ], [ 77.616996180631702, 12.995567766108 ], [ 77.617345259149502, 12.9953621075275 ], [ 77.617427817102794, 12.995273191997599 ], [ 77.617598630967905, 12.995089657082399 ], [ 77.617634826737799, 12.995027182176299 ], [ 77.617930179876694, 12.9945228291012 ], [ 77.617990064212705, 12.9944205691202 ], [ 77.618272506679901, 12.9939005145648 ], [ 77.618706396826497, 12.993052573074101 ], [ 77.618861173792993, 12.992767564986799 ], [ 77.619202548367397, 12.992102368966499 ], [ 77.619358312715306, 12.991692001669801 ], [ 77.619397273328502, 12.9913991273867 ], [ 77.619478850124807, 12.990832539585 ], [ 77.619510155966907, 12.9904685984122 ], [ 77.619554424767003, 12.989858345311699 ], [ 77.619547801464606, 12.9896111016341 ], [ 77.619546356497196, 12.989577237155499 ], [ 77.619512686498794, 12.9887882167389 ], [ 77.619495995097196, 12.9884044326819 ], [ 77.619475035509893, 12.988272519241701 ], [ 77.619430012922507, 12.9879872674697 ], [ 77.619306630488097, 12.9872025382851 ], [ 77.619078987072996, 12.9871822478938 ], [ 77.618780760904301, 12.987404333077199 ], [ 77.618518342628093, 12.987582015457299 ], [ 77.618230206120998, 12.9877780252032 ], [ 77.618227926928697, 12.9877803067195 ], [ 77.617316652320397, 12.988607297505499 ], [ 77.617300532719895, 12.9886219263641 ], [ 77.617262302735, 12.988655060479701 ], [ 77.617204581155605, 12.9886962958885 ], [ 77.616656296262306, 12.9890123697344 ], [ 77.615788248183804, 12.9894739515438 ], [ 77.615739607589802, 12.989502673231801 ], [ 77.614995580522304, 12.989931384295501 ], [ 77.614040763347504, 12.990520313830499 ], [ 77.613967192263004, 12.990587681550201 ], [ 77.613957499502206, 12.990596813307199 ], [ 77.613859054094206, 12.990653138578899 ], [ 77.613406429950103, 12.9908677386916 ], [ 77.613289691057602, 12.990936669901201 ], [ 77.613046496616406, 12.991081405615301 ], [ 77.612592683903401, 12.9912926286919 ], [ 77.612419862921001, 12.9913395381807 ], [ 77.612214907487598, 12.9913969342696 ], [ 77.611772026338997, 12.99149737696 ], [ 77.611506729845701, 12.991583315870001 ], [ 77.611451821733397, 12.991601102571799 ], [ 77.611158607874202, 12.9917531154353 ], [ 77.611099121804102, 12.991790979691 ], [ 77.610783973435005, 12.9919929009921 ], [ 77.610282869280496, 12.992307360448899 ], [ 77.609777201939295, 12.9927052437719 ], [ 77.609485053088505, 12.992935352644 ], [ 77.609168165128494, 12.9931914953684 ], [ 77.608951369002995, 12.993383392557901 ], [ 77.608891247442102, 12.993415616417099 ], [ 77.608815099731402, 12.9934570355089 ], [ 77.608683915330403, 12.993466258351599 ], [ 77.608496884856393, 12.9934760421127 ], [ 77.608296048552901, 12.993487093692 ], [ 77.607726872905801, 12.993514266374699 ], [ 77.607535953579898, 12.993537639880101 ], [ 77.607404120506899, 12.9934847581379 ], [ 77.607355509378706, 12.993406196543701 ], [ 77.6073100442037, 12.9932429072513 ], [ 77.607274293887201, 12.9930174099275 ], [ 77.607257403582594, 12.9925026272021 ], [ 77.607252487436199, 12.9923626456651 ], [ 77.607226696622902, 12.991657103686901 ], [ 77.607227234385803, 12.9916254856346 ], [ 77.607229194350396, 12.9915102720212 ], [ 77.607209194139003, 12.9910836043878 ], [ 77.607204690742194, 12.990983143538401 ], [ 77.607184806102893, 12.990712355322099 ], [ 77.607177842810898, 12.990617525816401 ], [ 77.607167974391004, 12.990432631384399 ], [ 77.607162065283703, 12.9903195538463 ], [ 77.607061558989301, 12.990288942786099 ], [ 77.606963355615804, 12.990258308568301 ], [ 77.606892305647904, 12.990236436038799 ], [ 77.606636070636597, 12.990180284960701 ], [ 77.606629150144101, 12.9901792251293 ], [ 77.606419878896006, 12.9901542224114 ], [ 77.606392784436295, 12.990151106447099 ], [ 77.606076040956594, 12.9901452503754 ], [ 77.606041497400099, 12.9901455969602 ] ] ] } }
]
}
