{
"type": "FeatureCollection",
"name": "East_Zone1",
"crs": { "type": "name", "properties": { "name": "urn:ogc:def:crs:OGC:1.3:CRS84" } },
"features": [
{ "type": "Feature", "properties": { "region_id": "zone_GBA_East_5", "name": "East (Z5)", "parent": "corp_GBA_East", "parent_name": "East" }, "geometry": { "type": "Polygon", "coordinates": [ [ [ 77.673984302691693, 12.915589946878899 ], [ 77.673572074287407, 12.916120389975299 ], [ 77.673435517432694, 12.916648010307799 ], [ 77.673185577783698, 12.9169599807397 ], [ 77.670415000118297, 12.9183401563233 ], [ 77.668724698970195, 12.9188606592654 ], [ 77.665131682276197, 12.9205947543355 ], [ 77.664769817226798, 12.920618818361101 ], [ 77.664769816443993, 12.9206188185349 ], [ 77.664915658777005, 12.9207924039811 ], [ 77.665181651615896, 12.921069739454699 ], [ 77.665471579838794, 12.921053228133699 ], [ 77.666192407128307, 12.9210153769502 ], [ 77.666618569901004, 12.920981663476899 ], [ 77.667078113611595, 12.921218625154999 ], [ 77.667793221925393, 12.921563639092399 ], [ 77.667810738545697, 12.921643132657 ], [ 77.667854564535901, 12.9218420250882 ], [ 77.668029078029093, 12.922634002754799 ], [ 77.6682024036065, 12.9232363721454 ], [ 77.668773103357495, 12.9233163587934 ], [ 77.6688008956435, 12.9244690239997 ], [ 77.668807824675199, 12.924617762876901 ], [ 77.668835213091995, 12.9252056906364 ], [ 77.668845641949503, 12.9254295456696 ], [ 77.668932750132299, 12.9262055685709 ], [ 77.668898479915896, 12.927151088963701 ], [ 77.6688736423378, 12.9271991205198 ], [ 77.668725890052102, 12.9274848495384 ], [ 77.668633483684502, 12.9279973383365 ], [ 77.668574468186506, 12.928239598356001 ], [ 77.668458571153295, 12.928708287284 ], [ 77.6676910200013, 12.928792925220099 ], [ 77.667817169898697, 12.9295595156395 ], [ 77.667820088016995, 12.9295794832091 ], [ 77.667966777904198, 12.9305833316355 ], [ 77.667994047125504, 12.930765988900299 ], [ 77.668034800103896, 12.9312431267075 ], [ 77.668034809582807, 12.931243238630699 ], [ 77.668033438384697, 12.931243341188599 ], [ 77.667528663186999, 12.931281163300399 ], [ 77.666920509094396, 12.931199301718699 ], [ 77.666401542711, 12.931005861708501 ], [ 77.666151591752893, 12.9307227196879 ], [ 77.665855224565107, 12.930350841932301 ], [ 77.665114504303901, 12.9283551424463 ], [ 77.664932593109498, 12.9281367992212 ], [ 77.6645943822991, 12.9280521731056 ], [ 77.664099739868405, 12.9280346398037 ], [ 77.663763039411705, 12.9280380777773 ], [ 77.663427165022597, 12.928173627922099 ], [ 77.663285577501696, 12.928229276851001 ], [ 77.663024189563203, 12.928332447440701 ], [ 77.661816875981501, 12.928961333874501 ], [ 77.661329940989503, 12.9296709483583 ], [ 77.661084653296996, 12.9298270275074 ], [ 77.660747146614497, 12.9298090146573 ], [ 77.660543951395496, 12.929700421431299 ], [ 77.659124346930398, 12.9294179051714 ], [ 77.658031792178704, 12.9308835059167 ], [ 77.6550207276224, 12.9349681661324 ], [ 77.657162654186607, 12.936053008446301 ], [ 77.659336018329896, 12.9375496824515 ], [ 77.660543543014697, 12.938021807317099 ], [ 77.660564347763994, 12.938029499691099 ], [ 77.6604568917069, 12.938210145666201 ], [ 77.660455776474905, 12.938213544771401 ], [ 77.6604344912475, 12.938269094815 ], [ 77.660408313918694, 12.9382975929864 ], [ 77.660362459021002, 12.938316128785701 ], [ 77.660290595155104, 12.9383247668103 ], [ 77.660058599809403, 12.938323746344301 ], [ 77.659664770127307, 12.938315342809901 ], [ 77.659056164425806, 12.9383012246933 ], [ 77.658930064046501, 12.938297993864699 ], [ 77.658909906699094, 12.938297070208201 ], [ 77.658921508299898, 12.9379796346826 ], [ 77.658921149208695, 12.9379457610634 ], [ 77.658917516175293, 12.9379288594751 ], [ 77.658908163238095, 12.9379154039508 ], [ 77.658887946074003, 12.937908834683199 ], [ 77.658882166321604, 12.9379066351433 ], [ 77.658594843487506, 12.9378994020991 ], [ 77.658168829372002, 12.937895841338101 ], [ 77.6581388991262, 12.937896146501901 ], [ 77.6581262183402, 12.938166164957901 ], [ 77.658113764949505, 12.9384576367191 ], [ 77.658108469904704, 12.9387727496017 ], [ 77.658103750511003, 12.939087856611 ], [ 77.658096631955303, 12.9394481578121 ], [ 77.658077858150193, 12.939795026937601 ], [ 77.658073576588706, 12.9398255601653 ], [ 77.658055996706395, 12.9398505827784 ], [ 77.658011256560101, 12.939865719148299 ], [ 77.657920662144406, 12.9398451872741 ], [ 77.657881546213801, 12.939847844598299 ], [ 77.657801695285897, 12.939863338929101 ], [ 77.657778215910099, 12.939874870757199 ], [ 77.657717166643806, 12.9399263091598 ], [ 77.6575844549577, 12.940059783718301 ], [ 77.657514544456504, 12.9400898567997 ], [ 77.657427822259507, 12.9401088088176 ], [ 77.657280543747703, 12.940117085694499 ], [ 77.657139536850195, 12.9401196523393 ], [ 77.656775022609807, 12.9401075583629 ], [ 77.656447489429496, 12.940108637936699 ], [ 77.656000558376505, 12.9400872195473 ], [ 77.655879756704607, 12.940095225857901 ], [ 77.654399650950296, 12.9402480700704 ], [ 77.654274096999103, 12.940350980749299 ], [ 77.654227749151403, 12.940377425360699 ], [ 77.654051411731402, 12.940468431348499 ], [ 77.654033064568793, 12.940475393637501 ], [ 77.654002641974898, 12.9404836081215 ], [ 77.653945214467399, 12.940496614542701 ], [ 77.653906805308793, 12.9405116858124 ], [ 77.653878780658005, 12.940528909842699 ], [ 77.653841522668401, 12.940543969383899 ], [ 77.653792812622996, 12.9405647917485 ], [ 77.653724687846704, 12.940600491972299 ], [ 77.653576637592906, 12.9406991144384 ], [ 77.653342079250805, 12.940837011864801 ], [ 77.6532781148737, 12.9408850913644 ], [ 77.653072552922197, 12.9409888160202 ], [ 77.652937057637502, 12.941077147188601 ], [ 77.652755586585997, 12.941172721710901 ], [ 77.652743078853405, 12.9411875292269 ], [ 77.652704729213298, 12.9412082459835 ], [ 77.652658285446094, 12.941225657367699 ], [ 77.652623269897802, 12.941235047705799 ], [ 77.652560697598105, 12.941251493967 ], [ 77.652346821800194, 12.941323367633199 ], [ 77.652307733361297, 12.941336503312501 ], [ 77.652246551044797, 12.941375520322399 ], [ 77.652115934617996, 12.941489774212799 ], [ 77.652023562737298, 12.9415189453096 ], [ 77.651898212450803, 12.941586846359099 ], [ 77.651849081630004, 12.9416223529341 ], [ 77.651784651018502, 12.941626396210101 ], [ 77.651728242884403, 12.941626970105601 ], [ 77.651657060371605, 12.9416457622737 ], [ 77.651332021661105, 12.941828619440701 ], [ 77.651105148974494, 12.9419314303588 ], [ 77.650949998570397, 12.9420120558898 ], [ 77.650923628662994, 12.9420224873428 ], [ 77.650731362888706, 12.942131721497001 ], [ 77.650653463955507, 12.9421686497267 ], [ 77.650516266764598, 12.9422050517367 ], [ 77.650386850643798, 12.9422696057918 ], [ 77.6502285206615, 12.942376236046 ], [ 77.650184450423396, 12.942400398420199 ], [ 77.650147719707306, 12.9424109351614 ], [ 77.650080888172496, 12.9424601724595 ], [ 77.649926551290903, 12.942563374222001 ], [ 77.6498412516179, 12.942602413765099 ], [ 77.649820567180598, 12.9426118803059 ], [ 77.649495860702402, 12.9427948117612 ], [ 77.649349031781995, 12.942877530928 ], [ 77.649156743575801, 12.942930301862299 ], [ 77.648605524504006, 12.943287778974399 ], [ 77.648605525132893, 12.943287780063899 ], [ 77.647821150562095, 12.9437964604864 ], [ 77.647328935225104, 12.9442847809608 ], [ 77.647551909852396, 12.9444665837102 ], [ 77.647535945732102, 12.9445356302568 ], [ 77.647541528382007, 12.944628172175401 ], [ 77.647574029976496, 12.9447622229037 ], [ 77.647514854848893, 12.9448825248072 ], [ 77.647455299921205, 12.9449666945102 ], [ 77.647147056348103, 12.945105336288201 ], [ 77.647035248146807, 12.945175600271799 ], [ 77.647035247934497, 12.945175599495901 ], [ 77.646911444825903, 12.9452534023407 ], [ 77.645069415429901, 12.9466814157228 ], [ 77.643022314775195, 12.948426562505 ], [ 77.642294935738207, 12.9491623109681 ], [ 77.642279417946298, 12.9491647268779 ], [ 77.642236877808202, 12.9492250089161 ], [ 77.642164929483002, 12.949335276486099 ], [ 77.642065712877596, 12.949425494010001 ], [ 77.641965273541302, 12.949508948374 ], [ 77.6419150240866, 12.9495478527079 ], [ 77.641652395172599, 12.949754911513701 ], [ 77.641643844246303, 12.949762903022499 ], [ 77.641566298364907, 12.9498337032958 ], [ 77.641337154182594, 12.9499952520599 ], [ 77.641128450653795, 12.9500752869452 ], [ 77.641001301798696, 12.9501917602978 ], [ 77.640821267347107, 12.9503155453249 ], [ 77.640775741479004, 12.950365694177799 ], [ 77.640614932736099, 12.950456535735199 ], [ 77.640533495313207, 12.950595130663499 ], [ 77.640531228534002, 12.9505985414138 ], [ 77.640293900734093, 12.9508030842354 ], [ 77.640159874827503, 12.950977219143599 ], [ 77.640005031227901, 12.9511425309593 ], [ 77.639885014784895, 12.9512803875519 ], [ 77.639781929158701, 12.951440657669201 ], [ 77.6397977802432, 12.9514698577135 ], [ 77.639759641878996, 12.9515108975252 ], [ 77.639739157431094, 12.9515336902888 ], [ 77.640241532001994, 12.952389092208801 ], [ 77.640537053497098, 12.9528445744732 ], [ 77.640772639739296, 12.9532938884198 ], [ 77.641666667773194, 12.9536202102001 ], [ 77.6420730591107, 12.953943571581 ], [ 77.642513591583494, 12.953956040502501 ], [ 77.642525572525301, 12.953945755629499 ], [ 77.643031070398607, 12.9537317134692 ], [ 77.643802580793206, 12.9534675413569 ], [ 77.644141833069398, 12.9533748859706 ], [ 77.644228478128895, 12.9533480333856 ], [ 77.644253662547797, 12.953334226626099 ], [ 77.644261038388905, 12.953323988449799 ], [ 77.644279882565399, 12.9532549126302 ], [ 77.6443602346137, 12.952631877935501 ], [ 77.644498587063595, 12.9517225531702 ], [ 77.644916193012506, 12.9503270724903 ], [ 77.645041087059596, 12.9499971915511 ], [ 77.645248583308003, 12.9496393697284 ], [ 77.645402647298894, 12.949400662036799 ], [ 77.645657199874904, 12.949028811164 ], [ 77.645732612004096, 12.9489196369952 ], [ 77.646163782549394, 12.9483190122581 ], [ 77.646208036413398, 12.948257583114399 ], [ 77.646386861958604, 12.948019752881599 ], [ 77.646532620461002, 12.947866952417 ], [ 77.646762071974706, 12.947680553346499 ], [ 77.647138410725304, 12.947502824990201 ], [ 77.647475631349195, 12.9473277521968 ], [ 77.647684714472504, 12.9472296411058 ], [ 77.647773289572399, 12.9471677613815 ], [ 77.647777282743206, 12.9471643332994 ], [ 77.647777283051397, 12.947164333946301 ], [ 77.648110974462298, 12.946818779446399 ], [ 77.648194938818406, 12.946717619641401 ], [ 77.648195102512602, 12.946717421036301 ], [ 77.648292878026197, 12.946600114381001 ], [ 77.648802589616196, 12.946133069554 ], [ 77.649025259808198, 12.946013363773 ], [ 77.649071579594093, 12.946311014931601 ], [ 77.649146534791797, 12.946649027912599 ], [ 77.649201678199702, 12.9468009160015 ], [ 77.649301507017299, 12.947095764445599 ], [ 77.649374389078503, 12.947401050077 ], [ 77.649477858793205, 12.947332242873999 ], [ 77.649815775158402, 12.947332193997401 ], [ 77.650469385307701, 12.9473813376379 ], [ 77.650796341927901, 12.947405783516 ], [ 77.6518893319505, 12.9474951636371 ], [ 77.6528619713864, 12.9475812475343 ], [ 77.653911837631497, 12.9476755749607 ], [ 77.654541213166993, 12.947691747858499 ], [ 77.654649474894796, 12.9476951617261 ], [ 77.654679286795499, 12.9476835654991 ], [ 77.654822590193604, 12.9476256429754 ], [ 77.655381483260101, 12.947455077397199 ], [ 77.655575487363095, 12.9474011547369 ], [ 77.655771973241301, 12.947364145319 ], [ 77.656111627704405, 12.9473651997681 ], [ 77.656396780114306, 12.947383748144601 ], [ 77.657231439967902, 12.947432828006701 ], [ 77.658435182201003, 12.947489431718299 ], [ 77.659247429828497, 12.9475421213796 ], [ 77.659789444764101, 12.947571594893899 ], [ 77.659959102936398, 12.9475563118681 ], [ 77.660395723347094, 12.947418603252199 ], [ 77.661031643756203, 12.9471840022723 ], [ 77.661870643682093, 12.946882958555699 ], [ 77.662266943465099, 12.946743400654899 ], [ 77.662484699927703, 12.946649707128 ], [ 77.662485536578203, 12.946648350718499 ], [ 77.662572418568999, 12.9465076549341 ], [ 77.6625610860103, 12.946307895417201 ], [ 77.6625545730586, 12.9454779711848 ], [ 77.662492515794497, 12.944675716173601 ], [ 77.662507673051707, 12.9445310186747 ], [ 77.662535973103004, 12.944485559948401 ], [ 77.662611519870595, 12.9444441354264 ], [ 77.662741688189499, 12.9444507100387 ], [ 77.663072319295594, 12.944469916128501 ], [ 77.6634396324514, 12.9444740667634 ], [ 77.663862993789493, 12.944443766779299 ], [ 77.664157745871904, 12.944445270439999 ], [ 77.664238269408699, 12.944493004406899 ], [ 77.664241806971603, 12.9445008729036 ], [ 77.664315424255307, 12.944657084278401 ], [ 77.664544614655597, 12.945531029181501 ], [ 77.664564257977602, 12.945646010535301 ], [ 77.664599130367407, 12.9457314759714 ], [ 77.664695244103996, 12.945837770613901 ], [ 77.6647496983027, 12.945869961599399 ], [ 77.664947835648405, 12.9458803567769 ], [ 77.665544898195407, 12.945944262133001 ], [ 77.666030774567602, 12.946000269856301 ], [ 77.666481216237898, 12.9460803532188 ], [ 77.666555588303893, 12.946090884454801 ], [ 77.666559440229406, 12.9462365164548 ], [ 77.666557977703107, 12.9462613746106 ], [ 77.666547606907798, 12.946368758150999 ], [ 77.668393525593103, 12.946510211188199 ], [ 77.668308310881997, 12.9468871189337 ], [ 77.668706914296095, 12.946964341197299 ], [ 77.669032367310393, 12.9469835920391 ], [ 77.669138014259602, 12.947011869812 ], [ 77.6692343089628, 12.9470808957599 ], [ 77.669255676620807, 12.9470332490361 ], [ 77.669295020062904, 12.946997839713401 ], [ 77.669366777316299, 12.946979036791999 ], [ 77.670875901824601, 12.9471171461275 ], [ 77.670896985881697, 12.9478531893291 ], [ 77.672947952471702, 12.9478987782019 ], [ 77.672956208268204, 12.9480229097419 ], [ 77.672977724608003, 12.9480972181833 ], [ 77.673269639620599, 12.9481563305416 ], [ 77.673561759480094, 12.9482346373513 ], [ 77.673954226293105, 12.9483299815079 ], [ 77.674328274150398, 12.9484255141001 ], [ 77.674821904871706, 12.9485604705232 ], [ 77.675030898152002, 12.948617044441299 ], [ 77.675228846646604, 12.948663568540701 ], [ 77.675317787145602, 12.9486366829106 ], [ 77.675420722787294, 12.9486265919471 ], [ 77.675631114419303, 12.9485984588776 ], [ 77.676036751047704, 12.9485254094291 ], [ 77.676401089013396, 12.948466334413901 ], [ 77.676755617437394, 12.9484051012584 ], [ 77.677267702267002, 12.948327568548301 ], [ 77.677364378363293, 12.948324316540999 ], [ 77.677384524241504, 12.948324109494401 ], [ 77.677704266321101, 12.9482937217466 ], [ 77.678195029076704, 12.9482141480105 ], [ 77.678590318563593, 12.948196533253901 ], [ 77.678673192266501, 12.948194551912399 ], [ 77.678990333334994, 12.948190161566799 ], [ 77.679155529217596, 12.9481884627263 ], [ 77.679421502534794, 12.9481902441914 ], [ 77.679460643010898, 12.9481898416234 ], [ 77.679730886898, 12.948214163341 ], [ 77.679779800411794, 12.948212530970601 ], [ 77.680021538266203, 12.948208914990699 ], [ 77.680045137661196, 12.9482086722119 ], [ 77.680185981315105, 12.9482444876411 ], [ 77.680330016945504, 12.9483096299744 ], [ 77.680471629490498, 12.948363504904799 ], [ 77.680685827465197, 12.9484222789602 ], [ 77.680700241500205, 12.9484243890847 ], [ 77.681479315776102, 12.9484976751445 ], [ 77.681762810537094, 12.948522987476199 ], [ 77.682228362431104, 12.948562234173 ], [ 77.682340136579299, 12.948571246302601 ], [ 77.682842611112804, 12.9486180162364 ], [ 77.683227531375707, 12.948653574572701 ], [ 77.683974814871704, 12.9487147588888 ], [ 77.684360310700399, 12.9487503095579 ], [ 77.684423230886495, 12.948756273903699 ], [ 77.684693379075398, 12.948781883066401 ], [ 77.685463625720104, 12.948837180203 ], [ 77.685614710245005, 12.9488513404883 ], [ 77.685995491740499, 12.9488870284898 ], [ 77.686129174710899, 12.9488992006924 ], [ 77.686367712552297, 12.9489193252954 ], [ 77.686853434226094, 12.948960613863999 ], [ 77.687512591100102, 12.9490170505207 ], [ 77.688194347202895, 12.9491410052904 ], [ 77.688590621464201, 12.9492690340271 ], [ 77.688670907574306, 12.949294177361701 ], [ 77.688725401024897, 12.9493297498488 ], [ 77.688878423851904, 12.949427541435 ], [ 77.689087590882494, 12.9496425869555 ], [ 77.689117658485401, 12.949673499536299 ], [ 77.6893290954348, 12.950011210866201 ], [ 77.689414483621505, 12.950297150240599 ], [ 77.6894586170758, 12.9506546561582 ], [ 77.689486852398602, 12.9511399276485 ], [ 77.689482261108793, 12.951784757583299 ], [ 77.689433264670399, 12.9526366926458 ], [ 77.689389817064196, 12.9530402715469 ], [ 77.6893403218494, 12.953202260618299 ], [ 77.689280983823096, 12.953303395333 ], [ 77.689251000930994, 12.9533544980165 ], [ 77.689202644402101, 12.953408070550401 ], [ 77.6890217722719, 12.9536120680505 ], [ 77.688653150150898, 12.9539693190845 ], [ 77.688352508978596, 12.954224238417201 ], [ 77.687953189992299, 12.9546179406645 ], [ 77.687534232330506, 12.9550592723647 ], [ 77.688483990017005, 12.955210945811199 ], [ 77.689635277593595, 12.955420382341901 ], [ 77.689518728539497, 12.9558247163591 ], [ 77.689374535043996, 12.957728934848801 ], [ 77.689237125340796, 12.959996690907399 ], [ 77.689262593317693, 12.960170327034399 ], [ 77.689498621576305, 12.960866872841301 ], [ 77.689548830567901, 12.9611463994899 ], [ 77.689593777463202, 12.961150451881601 ], [ 77.689602024728501, 12.961221507236701 ], [ 77.689608946592202, 12.9614371158785 ], [ 77.689546714524596, 12.9615924615221 ], [ 77.689568389711994, 12.9617345186918 ], [ 77.689347955248195, 12.9621681570211 ], [ 77.688865481644399, 12.9623244572531 ], [ 77.688404623207205, 12.9670120785755 ], [ 77.688404350898196, 12.967012196117899 ], [ 77.687793749977104, 12.9672747225798 ], [ 77.687777563010897, 12.9676972168524 ], [ 77.687770319498, 12.968094775953601 ], [ 77.687743252429598, 12.968093926391999 ], [ 77.687746302307801, 12.968324255078899 ], [ 77.687746189501993, 12.968581717638401 ], [ 77.687746470450094, 12.968822237876299 ], [ 77.687770108024395, 12.968825381291399 ], [ 77.687781209415704, 12.9688941487974 ], [ 77.687788626521495, 12.9689414992552 ], [ 77.6878054059991, 12.969056505966201 ], [ 77.687805539426193, 12.9690689259696 ], [ 77.687785598256895, 12.9690883286993 ], [ 77.687770765060904, 12.9691009033493 ], [ 77.687738159819901, 12.9691204369307 ], [ 77.687721526924705, 12.969126254874601 ], [ 77.687697459233107, 12.969136666503999 ], [ 77.687629188588701, 12.9691588270168 ], [ 77.687593608097401, 12.9691693575906 ], [ 77.6875609300577, 12.9691821166055 ], [ 77.687523768182601, 12.969206214110899 ], [ 77.687502257730003, 12.9692403128567 ], [ 77.687484813136507, 12.969277757244701 ], [ 77.687471288862298, 12.969304998177501 ], [ 77.687449214884197, 12.969340231960601 ], [ 77.687428722280899, 12.9693618988026 ], [ 77.687399607200007, 12.9693847839439 ], [ 77.687370407216903, 12.9693997654418 ], [ 77.687358343028606, 12.9694021485154 ], [ 77.687337656364605, 12.9694057498868 ], [ 77.687310625528994, 12.969408287582599 ], [ 77.687262308129803, 12.9694121744051 ], [ 77.687250795324104, 12.9694122933437 ], [ 77.6871829061498, 12.9694163823462 ], [ 77.6871662368345, 12.969418812985399 ], [ 77.687128856592594, 12.969422586795799 ], [ 77.687120234114005, 12.969423805087199 ], [ 77.687116216758298, 12.969424975805399 ], [ 77.687046109896301, 12.969436992203001 ], [ 77.687000167798203, 12.969447629744201 ], [ 77.686948590551793, 12.9694696176606 ], [ 77.686910840796003, 12.9694925919521 ], [ 77.6868942684779, 12.969504055311599 ], [ 77.686836528920495, 12.969541915906699 ], [ 77.686821635014596, 12.9695488450563 ], [ 77.686808468030193, 12.969555756367299 ], [ 77.686781534166997, 12.9695673267492 ], [ 77.686735125512996, 12.9695881320258 ], [ 77.686680021608893, 12.9696033810208 ], [ 77.686600752895899, 12.9696200088128 ], [ 77.686597299049495, 12.9696200444862 ], [ 77.686536414463902, 12.969633094724699 ], [ 77.686477893055496, 12.9696517666309 ], [ 77.686442888058806, 12.9696622911246 ], [ 77.686430860213207, 12.9696680614366 ], [ 77.686390159417797, 12.969684290838501 ], [ 77.686372447899302, 12.969696895154501 ], [ 77.686351452263807, 12.969725342435201 ], [ 77.686329929477395, 12.9697583120302 ], [ 77.686315314384998, 12.9697912102844 ], [ 77.686311048716107, 12.9698228724356 ], [ 77.686308425106006, 12.969846613104099 ], [ 77.686305862114594, 12.969875999235301 ], [ 77.686307777197399, 12.969947120174901 ], [ 77.686308534697005, 12.969964050617801 ], [ 77.686315036493497, 12.969979792517201 ], [ 77.686329239869593, 12.970015780794601 ], [ 77.686355822716607, 12.9700787424404 ], [ 77.686369868491099, 12.970100052511199 ], [ 77.686390343328995, 12.9701303299216 ], [ 77.686460305514302, 12.9702120402152 ], [ 77.686412672680405, 12.970226082798501 ], [ 77.686093391257302, 12.9703016501935 ], [ 77.686332965911006, 12.971113341898301 ], [ 77.686469956630404, 12.971575620677701 ], [ 77.686472747508802, 12.9715850402378 ], [ 77.686682534745302, 12.972088762492399 ], [ 77.686843070270001, 12.9730988825268 ], [ 77.686824280050899, 12.9731182733595 ], [ 77.686822469181394, 12.9732176631739 ], [ 77.686108103897098, 12.973762550718099 ], [ 77.685901682652101, 12.973947616208999 ], [ 77.685843924138595, 12.9740374210082 ], [ 77.685823831853199, 12.9742036235663 ], [ 77.685832612796204, 12.9743243591777 ], [ 77.6857807026405, 12.974583486254099 ], [ 77.685741134485895, 12.974651648029701 ], [ 77.685639019873904, 12.974685450075601 ], [ 77.685559155930093, 12.9747540280335 ], [ 77.685509086771802, 12.974862950099 ], [ 77.685425538445699, 12.974910110940799 ], [ 77.6852870362288, 12.9749329965019 ], [ 77.684937851141797, 12.975119535875599 ], [ 77.684538771442902, 12.975377730821799 ], [ 77.684302298391898, 12.975498740282699 ], [ 77.684270952546598, 12.975635699406 ], [ 77.684272600896904, 12.975789256180001 ], [ 77.684171333928902, 12.9759020943559 ], [ 77.684004302593394, 12.975948987488399 ], [ 77.684268408609, 12.9764713477574 ], [ 77.684558378295407, 12.9770431260885 ], [ 77.684900064186195, 12.978034438951999 ], [ 77.6856332594311, 12.978383698075101 ], [ 77.685606555067693, 12.9784167212815 ], [ 77.686015666374203, 12.9787704562277 ], [ 77.686447859261605, 12.979075395426101 ], [ 77.686807139569197, 12.979506430435199 ], [ 77.687047486215405, 12.9793706983815 ], [ 77.687187452118394, 12.979430229123 ], [ 77.688821793942395, 12.9785065682713 ], [ 77.688847093699806, 12.9785679888179 ], [ 77.689396724140295, 12.9799023408994 ], [ 77.690177936662494, 12.9817988751842 ], [ 77.691604091568493, 12.981537940224801 ], [ 77.691614060277502, 12.981554775169201 ], [ 77.692051902762302, 12.9817952792023 ], [ 77.692127716402794, 12.9818317578637 ], [ 77.692229925590297, 12.981860058575 ], [ 77.692264514232306, 12.9818642171041 ], [ 77.692348671009498, 12.981873508174999 ], [ 77.693316463382004, 12.981872513893499 ], [ 77.693501027741107, 12.981582652298799 ], [ 77.693520649032294, 12.9815869657855 ], [ 77.693538506824694, 12.9815879099152 ], [ 77.693586814037999, 12.981582892401301 ], [ 77.693625322770203, 12.981576847224799 ], [ 77.693748810911799, 12.981549595451799 ], [ 77.693770649680005, 12.9815459814601 ], [ 77.693860956082801, 12.981538270148301 ], [ 77.693926508879201, 12.9815308153948 ], [ 77.694007641131194, 12.9815265867612 ], [ 77.694094003040107, 12.9815268207324 ], [ 77.694162592355298, 12.981534014178299 ], [ 77.694239865327205, 12.9815456344244 ], [ 77.694326912433297, 12.9815560241054 ], [ 77.694358634857295, 12.9815613412811 ], [ 77.694371923834893, 12.981565720350099 ], [ 77.694414651947397, 12.981470423713001 ], [ 77.694438501226301, 12.9814396877804 ], [ 77.694498925242996, 12.9813837300283 ], [ 77.6946008214004, 12.981329600702701 ], [ 77.694970867353106, 12.9812625280183 ], [ 77.695056324737493, 12.981232282404299 ], [ 77.6951158407077, 12.981198918150801 ], [ 77.695182941135698, 12.9811214360617 ], [ 77.695210785241599, 12.9812476187778 ], [ 77.695254805431802, 12.981432352621001 ], [ 77.695302490093994, 12.9815831721557 ], [ 77.695374961560802, 12.9817901950644 ], [ 77.695477480720797, 12.9819539963241 ], [ 77.695542694696201, 12.982075274512001 ], [ 77.695560329980907, 12.982108967868101 ], [ 77.695618550814402, 12.9822224140931 ], [ 77.695672888183694, 12.982349451086201 ], [ 77.695700635363394, 12.9824666010022 ], [ 77.695752239790494, 12.9828206373108 ], [ 77.695785319953302, 12.983058557228899 ], [ 77.695815214168604, 12.9833213527747 ], [ 77.695827189689297, 12.9835775589466 ], [ 77.695841678226202, 12.983799862772999 ], [ 77.695849326068299, 12.9839217379796 ], [ 77.695819939364, 12.9839728572576 ], [ 77.695593133690394, 12.986697732924601 ], [ 77.695577141587293, 12.9876701476422 ], [ 77.695646419692594, 12.9882228449134 ], [ 77.695715106690898, 12.9887708236166 ], [ 77.695555116185204, 12.9889904212198 ], [ 77.695563262058698, 12.9902787637629 ], [ 77.695319290682804, 12.990345660599701 ], [ 77.695144574946895, 12.9903745746818 ], [ 77.695001232519999, 12.9903229892689 ], [ 77.694782460121502, 12.990324130022801 ], [ 77.694522332619599, 12.990387806154899 ], [ 77.694411338227297, 12.9903460476825 ], [ 77.694334601275898, 12.9903150361689 ], [ 77.694288744906402, 12.990296505010299 ], [ 77.694094909545598, 12.9903143246397 ], [ 77.693620785042299, 12.9903948993067 ], [ 77.693497807498304, 12.9904165004715 ], [ 77.693493765522604, 12.9904154131789 ], [ 77.693247048564999, 12.9904947579788 ], [ 77.693115679103897, 12.990539030211799 ], [ 77.692702727392103, 12.990739794583799 ], [ 77.692133573702705, 12.9910313853168 ], [ 77.692031594517303, 12.9910787201911 ], [ 77.691401997463998, 12.9913709560005 ], [ 77.691159430042504, 12.991461548223601 ], [ 77.690893932148896, 12.991561411544 ], [ 77.6907595857367, 12.9915966799046 ], [ 77.690612022736005, 12.991634343556999 ], [ 77.690515943348998, 12.991640985022 ], [ 77.690222341465599, 12.9916440265759 ], [ 77.690036417890894, 12.991648210896599 ], [ 77.689837314211104, 12.991658177663499 ], [ 77.689824661186194, 12.991659437929099 ], [ 77.689680762931104, 12.991663186722599 ], [ 77.689496549961504, 12.991719296769199 ], [ 77.689373729096999, 12.991755574315301 ], [ 77.688967894928894, 12.991869310455 ], [ 77.688773294796107, 12.9919232691666 ], [ 77.688684500240399, 12.9919648401999 ], [ 77.688517788393995, 12.9920422235112 ], [ 77.6885086137912, 12.992045706135301 ], [ 77.688603285909707, 12.9921757148797 ], [ 77.688806228260603, 12.9924152655577 ], [ 77.688984504310596, 12.9929305996243 ], [ 77.689058893493396, 12.993208745136901 ], [ 77.689124894871995, 12.9934564886847 ], [ 77.689291070944194, 12.9939708183466 ], [ 77.689594579979996, 12.994833781352501 ], [ 77.689622489175406, 12.9949125371744 ], [ 77.689876697107493, 12.9954745102365 ], [ 77.690184867916898, 12.995968170896299 ], [ 77.690406412668395, 12.9963306108181 ], [ 77.690603803929903, 12.9968559073295 ], [ 77.690671536590798, 12.997263980161801 ], [ 77.691628455407695, 12.996836251903 ], [ 77.691718917794105, 12.996808136099 ], [ 77.692305015249701, 12.9966259783781 ], [ 77.692641279671307, 12.996520861934799 ], [ 77.693061315747599, 12.996388904288199 ], [ 77.693146725564603, 12.996355221506001 ], [ 77.693373186930003, 12.996265912160499 ], [ 77.693675919416293, 12.996146523212801 ], [ 77.694015942034696, 12.996017609451799 ], [ 77.6941168771354, 12.9959793415028 ], [ 77.694588236428402, 12.995801680737101 ], [ 77.694664377668701, 12.9957613681557 ], [ 77.694966627375607, 12.995599012474599 ], [ 77.695797349646099, 12.9953789958847 ], [ 77.695982818409504, 12.9953298736927 ], [ 77.697056227114601, 12.9951877373584 ], [ 77.698009547697495, 12.995015226938801 ], [ 77.698067485379795, 12.994995428372199 ], [ 77.698745612322895, 12.9947715731617 ], [ 77.699097806301495, 12.994649345629499 ], [ 77.699849816676107, 12.994389714478199 ], [ 77.701122348824995, 12.994080628139701 ], [ 77.7012963310722, 12.9940370376596 ], [ 77.701700590761803, 12.993937978612101 ], [ 77.701712643598896, 12.993934465594201 ], [ 77.702200319873995, 12.993810202203299 ], [ 77.702304039925906, 12.993783773554499 ], [ 77.702304039925906, 12.993783773554499 ], [ 77.702248831396204, 12.993797841108499 ], [ 77.7022622690193, 12.9938329232405 ], [ 77.702292058011295, 12.9939128675144 ], [ 77.702492945611397, 12.9944519847185 ], [ 77.702607354972102, 12.9947590209149 ], [ 77.702769482739001, 12.995194115449801 ], [ 77.702732461108297, 12.995228815271201 ], [ 77.7028282461103, 12.995688999939601 ], [ 77.702755065711301, 12.995730376509201 ], [ 77.702609455830697, 12.9958127049825 ], [ 77.702723843328599, 12.996204764294699 ], [ 77.702762760538704, 12.9963381513253 ], [ 77.702904076691098, 12.996434732517001 ], [ 77.702904348243706, 12.9964363065358 ], [ 77.703006604547198, 12.9970290194575 ], [ 77.703031245067905, 12.997057957702699 ], [ 77.703143818806197, 12.9971901660752 ], [ 77.703175903226807, 12.9972278464843 ], [ 77.703206634086399, 12.9972760335106 ], [ 77.703441258612798, 12.997409094405301 ], [ 77.703449574171898, 12.997485793507501 ], [ 77.7034513868593, 12.9974936790402 ], [ 77.703457939632699, 12.9975139364246 ], [ 77.703461479412496, 12.997521803970701 ], [ 77.703515790608094, 12.9975393055739 ], [ 77.703583544350195, 12.9976411230392 ], [ 77.703583543598498, 12.997641123303399 ], [ 77.703754588543703, 12.997898163788101 ], [ 77.703818355640806, 12.997991223295299 ], [ 77.703984483573606, 12.9982322710619 ], [ 77.704032921493805, 12.9982999684169 ], [ 77.704047036458604, 12.9983196971227 ], [ 77.704074238651799, 12.998492181490301 ], [ 77.704129990339894, 12.998855203368 ], [ 77.704153567263504, 12.9990119166571 ], [ 77.704237502034701, 12.9995316037314 ], [ 77.704494231413307, 12.999513936620801 ], [ 77.704585581173106, 12.9995076504169 ], [ 77.704679453963706, 12.999493100148101 ], [ 77.705690834668104, 12.9993363358967 ], [ 77.705874283076895, 12.999307900881799 ], [ 77.706362869122401, 12.9992327965992 ], [ 77.707596929010094, 12.998974129814799 ], [ 77.708006968348002, 12.9988881814299 ], [ 77.708088362957795, 12.9988729914292 ], [ 77.708173602313394, 12.9988570837721 ], [ 77.708330816776396, 12.9988068879446 ], [ 77.708504714140602, 12.9987553887555 ], [ 77.708694657424303, 12.9986969468358 ], [ 77.708742917987806, 12.9986874096381 ], [ 77.709012174510903, 12.998626679089201 ], [ 77.709042795895101, 12.998619892370099 ], [ 77.709378743853094, 12.998492197854601 ], [ 77.710696381746402, 12.998169898036601 ], [ 77.712461851924999, 12.9977418311727 ], [ 77.713328707452206, 12.997542051952401 ], [ 77.7137387533854, 12.997431586307901 ], [ 77.714393844088093, 12.997255117460901 ], [ 77.714400376258894, 12.9972533578105 ], [ 77.715544344173793, 12.996945643032101 ], [ 77.71603591937, 12.996820303941201 ], [ 77.716273305585204, 12.9967633327078 ], [ 77.719070901852504, 12.996091908073399 ], [ 77.719357339166294, 12.9960098900453 ], [ 77.719969198298301, 12.995834690331099 ], [ 77.720233693942006, 12.9957589537616 ], [ 77.7216724639446, 12.9954920662385 ], [ 77.721701436880593, 12.995490402971701 ], [ 77.722779513699706, 12.995428516090501 ], [ 77.722779514630602, 12.995428516983999 ], [ 77.723312802246994, 12.9953976444133 ], [ 77.724305550293295, 12.995403475067 ], [ 77.725432200545995, 12.995454837793501 ], [ 77.725615328278494, 12.995489206374501 ], [ 77.726986114654494, 12.9957464586745 ], [ 77.7271532565304, 12.995777825062 ], [ 77.730757506222901, 12.9965213310333 ], [ 77.731418596345193, 12.9966385858335 ], [ 77.731418596335303, 12.996638584930199 ], [ 77.734074918988895, 12.997111569368 ], [ 77.734669850577106, 12.997217498534599 ], [ 77.736626118210395, 12.997568711544099 ], [ 77.738183754099893, 12.9978483447701 ], [ 77.738495741323007, 12.9979043531612 ], [ 77.741240386505595, 12.998486263919601 ], [ 77.742870824113893, 12.9986361569312 ], [ 77.743532236490594, 12.998608079378499 ], [ 77.7458103674238, 12.9985113567904 ], [ 77.747751372292498, 12.998108030158299 ], [ 77.747824150303501, 12.998098595898201 ], [ 77.7481012874713, 12.9980626705507 ], [ 77.750359796140899, 12.9977698857709 ], [ 77.751071962473205, 12.997659037097 ], [ 77.753358561590105, 12.9973029507 ], [ 77.7547220209362, 12.9970905692693 ], [ 77.754728009919006, 12.997097949124701 ], [ 77.756583411830704, 12.996815905165599 ], [ 77.757447445262102, 12.996684555950599 ], [ 77.758510620965097, 12.9965229305111 ], [ 77.758514958090203, 12.9965686598135 ], [ 77.758517760041002, 12.996598202694599 ], [ 77.7585115863277, 12.9967168295424 ], [ 77.758496454248103, 12.997005521887999 ], [ 77.7583474414119, 12.9976030641758 ], [ 77.758312937638493, 12.9979135039555 ], [ 77.758239259091397, 12.9982992651203 ], [ 77.758008254279304, 12.9993204484655 ], [ 77.758008254279304, 12.9993204484655 ], [ 77.757958081923107, 12.9995231940535 ], [ 77.757912948362602, 12.9996985138163 ], [ 77.757838923262199, 13.0000854714397 ], [ 77.757725058684898, 13.0006185134239 ], [ 77.757684484402802, 13.000827556432199 ], [ 77.757683426069207, 13.0008271503423 ], [ 77.757562150657705, 13.0014546901656 ], [ 77.757376813679898, 13.0023453047561 ], [ 77.757229652033203, 13.0030594007541 ], [ 77.757228726110895, 13.003063891984899 ], [ 77.757172125548706, 13.003308390989501 ], [ 77.757142648038396, 13.003454365267199 ], [ 77.757051711269995, 13.003926189386499 ], [ 77.757015787084399, 13.0041140109282 ], [ 77.757011493506795, 13.004142285439301 ], [ 77.756446284377802, 13.004419288148499 ], [ 77.756322170952302, 13.004494001843399 ], [ 77.756127158567907, 13.0046135057457 ], [ 77.756032205478206, 13.0046698430652 ], [ 77.755777632946504, 13.004818208349 ], [ 77.755727859800402, 13.004846965934201 ], [ 77.755499606461697, 13.004980372418901 ], [ 77.755353865608697, 13.0050778985905 ], [ 77.755297871992298, 13.005116884586901 ], [ 77.755189812683, 13.005237722805701 ], [ 77.755124082145301, 13.005281328807801 ], [ 77.755108050101796, 13.005289403159599 ], [ 77.754886210329701, 13.004960915807599 ], [ 77.754747961935806, 13.0048505971609 ], [ 77.754364950548705, 13.004629961209099 ], [ 77.754195802302604, 13.0045369075869 ], [ 77.754018103706997, 13.0045037899657 ], [ 77.753884344441801, 13.0044871432117 ], [ 77.753642704559297, 13.0045032578009 ], [ 77.753603106619906, 13.0045149696439 ], [ 77.753535399590604, 13.0045360130677 ], [ 77.753329422379295, 13.0046533731698 ], [ 77.753162753853502, 13.0047849950836 ], [ 77.7529432212919, 13.004926211131 ], [ 77.752810956767107, 13.005045047077999 ], [ 77.752635325777007, 13.005199347030199 ], [ 77.752161921058899, 13.005657162352501 ], [ 77.752001331974796, 13.0058180774117 ], [ 77.751954060126195, 13.005864874410999 ], [ 77.751811796095694, 13.005964620379 ], [ 77.751528870212795, 13.006152803549099 ], [ 77.751149840222396, 13.0063453931708 ], [ 77.750982521820802, 13.006418304641899 ], [ 77.750938392535204, 13.006436839172199 ], [ 77.750743029746104, 13.006472785596999 ], [ 77.750360438340707, 13.006551366762301 ], [ 77.750152966961195, 13.0064812999943 ], [ 77.750031812631704, 13.0064069305438 ], [ 77.749827636954194, 13.0062702080071 ], [ 77.749624161629995, 13.0061447694597 ], [ 77.7494746086292, 13.0061057046962 ], [ 77.749250087589203, 13.006108084151601 ], [ 77.749002357816394, 13.006198784000899 ], [ 77.748959992762195, 13.006220687006101 ], [ 77.748959874698102, 13.0062202564812 ], [ 77.7483394445686, 13.006415822206799 ], [ 77.748058639686505, 13.0064970062 ], [ 77.747666396435207, 13.0066292910778 ], [ 77.747190084313004, 13.0067227304594 ], [ 77.747189857810696, 13.006722650369101 ], [ 77.747189868632702, 13.0067227200968 ], [ 77.7471695312463, 13.006729788137999 ], [ 77.747198183517497, 13.0070071813045 ], [ 77.746970588775099, 13.007096537110399 ], [ 77.746970631062396, 13.0072049363985 ], [ 77.746970486844006, 13.0072964002023 ], [ 77.746970925992201, 13.0078067776293 ], [ 77.746989127315103, 13.0081001674771 ], [ 77.747057540619195, 13.0085612709318 ], [ 77.747069560893195, 13.008659380871 ], [ 77.747062990874895, 13.009369694428599 ], [ 77.747060913542697, 13.009546995129099 ], [ 77.747060343075205, 13.009652013393 ], [ 77.747049985400295, 13.010122984346401 ], [ 77.746925060610295, 13.0104382150445 ], [ 77.747033670001201, 13.010784847052401 ], [ 77.747363681121698, 13.0116293528549 ], [ 77.747825916241396, 13.0115668680408 ], [ 77.7479682118894, 13.012618869048801 ], [ 77.7482707683033, 13.012486938022899 ], [ 77.749020887120295, 13.012162821470399 ], [ 77.749324307292099, 13.012004909544 ], [ 77.749744719613204, 13.0116481535883 ], [ 77.749721311247001, 13.0115095149644 ], [ 77.749970859782096, 13.011426698347201 ], [ 77.750334326137406, 13.011283957014401 ], [ 77.750688155814103, 13.0113637620733 ], [ 77.751248842095606, 13.011144403020801 ], [ 77.751699856676595, 13.010900235969499 ], [ 77.7521688774832, 13.010851783625 ], [ 77.752249333175698, 13.0108131056669 ], [ 77.752453962330094, 13.0107296344859 ], [ 77.752686362202596, 13.010658289152699 ], [ 77.7528386168146, 13.0105245614834 ], [ 77.752927832940202, 13.0103655322634 ], [ 77.753021926481296, 13.010283234038001 ], [ 77.753178597025496, 13.010184463277501 ], [ 77.753325118986396, 13.010053054594801 ], [ 77.7534698139536, 13.009912631988501 ], [ 77.753650962731896, 13.009840700933101 ], [ 77.753760512478706, 13.0097503343107 ], [ 77.753897321749406, 13.009625803478301 ], [ 77.754116420781997, 13.0094450700648 ], [ 77.754241191991795, 13.009273242324999 ], [ 77.754285049157701, 13.009177927364201 ], [ 77.754362211676394, 13.009022413373099 ], [ 77.754415681969405, 13.0089453835198 ], [ 77.754432488573798, 13.008921172054 ], [ 77.754523237020393, 13.008901012648799 ], [ 77.754590018092102, 13.0089003034277 ], [ 77.754633683911607, 13.008891935582801 ], [ 77.754672669311802, 13.008876842496401 ], [ 77.754767098404599, 13.0088250275224 ], [ 77.7547825175551, 13.0088135721864 ], [ 77.754814268276206, 13.008821139062899 ], [ 77.754842201123594, 13.008847942155301 ], [ 77.754858657418097, 13.008878254610201 ], [ 77.754911341341696, 13.0090086772475 ], [ 77.755048522537905, 13.009282734409799 ], [ 77.755069358035797, 13.0093446167143 ], [ 77.755074558470398, 13.009502643428201 ], [ 77.755076229889895, 13.009653932686 ], [ 77.755142589961395, 13.009875671634299 ], [ 77.755195324238301, 13.0100106102298 ], [ 77.755204332103503, 13.0100963304423 ], [ 77.7552171453505, 13.010161685406301 ], [ 77.7552292581599, 13.010215756242999 ], [ 77.755249919179406, 13.0102618321673 ], [ 77.755278026906495, 13.0103044415053 ], [ 77.755301967505403, 13.010334674388 ], [ 77.755357359633706, 13.010345377458 ], [ 77.755396507358, 13.010344961538699 ], [ 77.7554675949618, 13.010317106509399 ], [ 77.755502951617601, 13.010286243631001 ], [ 77.755541762473698, 13.010255344048799 ], [ 77.755585428456101, 13.010246976003099 ], [ 77.755660057546606, 13.010226987395299 ], [ 77.756014168901203, 13.010071917693701 ], [ 77.756202126935804, 13.0099389381944 ], [ 77.756437605789799, 13.009781741278299 ], [ 77.756709830834396, 13.0095631792394 ], [ 77.756975198467401, 13.0092972653758 ], [ 77.757115561144303, 13.0091297875228 ], [ 77.757209265649095, 13.0090124884468 ], [ 77.757353957492398, 13.008872064219 ], [ 77.757690156532803, 13.0087115374203 ], [ 77.758111257130096, 13.008574948867601 ], [ 77.7582991753046, 13.0084385812187 ], [ 77.758315252882795, 13.0084252081764 ], [ 77.758460060541495, 13.008304759267901 ], [ 77.758597203473698, 13.0082107101383 ], [ 77.758743034133701, 13.0080172030243 ], [ 77.758812995369397, 13.0079396764839 ], [ 77.758891754333405, 13.007876735357 ], [ 77.758982088397005, 13.0078712579291 ], [ 77.759073048103005, 13.007870290429601 ], [ 77.759191516224504, 13.007857738753 ], [ 77.759293814924106, 13.007840842415201 ], [ 77.759345327615307, 13.0078131947615 ], [ 77.759396264599602, 13.007785553224 ], [ 77.759439066909493, 13.0077512232969 ], [ 77.759474322731506, 13.007711327879999 ], [ 77.759513583415199, 13.0076691315492 ], [ 77.759548263520799, 13.0076292422512 ], [ 77.759575259734603, 13.0075713682462 ], [ 77.759594771926103, 13.0075135738594 ], [ 77.7596138208432, 13.0074659467787 ], [ 77.759617388501795, 13.0074241301611 ], [ 77.759620468986796, 13.0073382817571 ], [ 77.759636132697295, 13.006984690212199 ], [ 77.759619127543203, 13.006852760205501 ], [ 77.759529112916894, 13.006574816938 ], [ 77.759495876136896, 13.0064328971871 ], [ 77.759415507727894, 13.006298253680701 ], [ 77.759377263539506, 13.006224136356201 ], [ 77.759365075308494, 13.006163291717 ], [ 77.759348682407506, 13.0060866836515 ], [ 77.759359259522597, 13.0060018846457 ], [ 77.759374253626405, 13.0059520424136 ], [ 77.759409346905898, 13.0058974697832 ], [ 77.759455465697002, 13.0058506839492 ], [ 77.759498142824299, 13.005805063871801 ], [ 77.759684981819305, 13.005675482130499 ], [ 77.7599189521206, 13.0055386239823 ], [ 77.760122873927102, 13.0053919229806 ], [ 77.760266847101306, 13.005272381221699 ], [ 77.760457842282193, 13.0050892357325 ], [ 77.760659277008898, 13.0049751644917 ], [ 77.760764153544599, 13.0049068910555 ], [ 77.760845080817006, 13.0048938359537 ], [ 77.761011637330697, 13.004981606176701 ], [ 77.761166124773794, 13.0050107436535 ], [ 77.761335288166805, 13.005076099776099 ], [ 77.761473143368306, 13.005150184483499 ], [ 77.761633370844706, 13.005182057236199 ], [ 77.761779078118195, 13.0051916992527 ], [ 77.7618615821779, 13.005165637284099 ], [ 77.761992396530303, 13.0051194733771 ], [ 77.762105619240302, 13.005031522993001 ], [ 77.762195756343601, 13.004921433164901 ], [ 77.7622521662541, 13.004859271276899 ], [ 77.762291449268503, 13.004797292632899 ], [ 77.762359246071298, 13.0047322119126 ], [ 77.762404299034898, 13.0046757678987 ], [ 77.762459934314805, 13.0045436592754 ], [ 77.762510201406897, 13.004442389360801 ], [ 77.762580356826902, 13.0043325122199 ], [ 77.762665676991205, 13.0041474275375 ], [ 77.762717800207099, 13.0039366012046 ], [ 77.762757869387002, 13.0038294228483 ], [ 77.762827369599407, 13.0036976679223 ], [ 77.762971160890203, 13.003525568223001 ], [ 77.763140274347606, 13.0032989399913 ], [ 77.763226237916996, 13.003163774914199 ], [ 77.7633111198965, 13.0030576368894 ], [ 77.763397145743397, 13.002950067552201 ], [ 77.763471953615493, 13.002850605729501 ], [ 77.763551046885595, 13.0028400581112 ], [ 77.763675405990398, 13.002882326042499 ], [ 77.763705743283396, 13.0029264915841 ], [ 77.763832528727605, 13.003111067720701 ], [ 77.764123679956398, 13.0040824223217 ], [ 77.764711014862598, 13.0038808218036 ], [ 77.765399020460293, 13.003722644679801 ], [ 77.765668924776094, 13.0036605915018 ], [ 77.765873466751998, 13.003570337668201 ], [ 77.766188564291696, 13.0034811634 ], [ 77.767417477674798, 13.0032456173125 ], [ 77.767497007459696, 13.003219636084401 ], [ 77.767871249485196, 13.003097375667 ], [ 77.768698682887404, 13.002689959673599 ], [ 77.768867723703295, 13.003032545305199 ], [ 77.769069832275406, 13.003605123453401 ], [ 77.769260512966298, 13.0039779645598 ], [ 77.769397309221503, 13.004579467829201 ], [ 77.769379676150194, 13.004598851508099 ], [ 77.769361467394404, 13.004618241331199 ], [ 77.769286942895505, 13.004699206083499 ], [ 77.769474073331693, 13.005218873496601 ], [ 77.769659605896507, 13.005905671057199 ], [ 77.7696545674156, 13.0061778486747 ], [ 77.7697592623243, 13.006584352023999 ], [ 77.769716019474998, 13.0076676631877 ], [ 77.769708876124099, 13.007802107639399 ], [ 77.769677600941307, 13.008407662958099 ], [ 77.769694440341098, 13.00873154756 ], [ 77.769701088584796, 13.008863586448401 ], [ 77.769868514460299, 13.0088527653766 ], [ 77.769928079718198, 13.0091355444243 ], [ 77.769911724379597, 13.0092181466103 ], [ 77.769892791535099, 13.0093278757817 ], [ 77.769781508470501, 13.0093651968345 ], [ 77.769933136967694, 13.0097463573406 ], [ 77.770105654065603, 13.0101419734192 ], [ 77.770187388867996, 13.010606307619 ], [ 77.770293067686495, 13.0111528134253 ], [ 77.770374552661494, 13.011594567207201 ], [ 77.770477217715694, 13.011714288739 ], [ 77.770511059806395, 13.0117545763395 ], [ 77.770540513791303, 13.011969928035899 ], [ 77.770694911351598, 13.0123408956393 ], [ 77.770716213667498, 13.0123926086082 ], [ 77.770877692922696, 13.0126754271677 ], [ 77.771048115490004, 13.013193011686001 ], [ 77.771092151131199, 13.013425144484501 ], [ 77.771136293712502, 13.0138740715152 ], [ 77.771162842001104, 13.0139833146082 ], [ 77.771170664997399, 13.014013717847201 ], [ 77.771215901023695, 13.014198413744101 ], [ 77.771279988063199, 13.014473239527 ], [ 77.771505159053504, 13.0150986357287 ], [ 77.771603703261803, 13.015054674841 ], [ 77.772161593108706, 13.0148962759169 ], [ 77.772260099407305, 13.014848927796001 ], [ 77.772785011744006, 13.014728141973499 ], [ 77.773113936524098, 13.0146419084904 ], [ 77.773159721514801, 13.0144587860919 ], [ 77.773149526506899, 13.014266941179899 ], [ 77.773107379083399, 13.0140494677741 ], [ 77.773098013100096, 13.0139321372846 ], [ 77.773097234434402, 13.0138621388699 ], [ 77.773104251849304, 13.013768345111099 ], [ 77.773175184618296, 13.013674996886101 ], [ 77.773427559342593, 13.0134848600906 ], [ 77.773641604656305, 13.0134204677423 ], [ 77.773880120304497, 13.013433724137901 ], [ 77.774079427731706, 13.0134936945463 ], [ 77.774374186073203, 13.013490540762101 ], [ 77.774413557548996, 13.013458503561999 ], [ 77.774436382225005, 13.013388252658 ], [ 77.774443487103994, 13.013302362002101 ], [ 77.774442708099798, 13.0132323636642 ], [ 77.774433693411893, 13.013146645490099 ], [ 77.774344717179503, 13.0130154881499 ], [ 77.774054524656407, 13.012652751502401 ], [ 77.773895514678799, 13.0125404094009 ], [ 77.773871647280203, 13.0125169527733 ], [ 77.773855100662104, 13.0124787390039 ], [ 77.773854924806301, 13.0124629329187 ], [ 77.773862457006501, 13.0124154284452 ], [ 77.773869825911603, 13.0123532468929 ], [ 77.773892914498603, 13.012306705148401 ], [ 77.773907727664195, 13.0121891160821 ], [ 77.773915096562803, 13.012126934531199 ], [ 77.773921110982997, 13.011994760763301 ], [ 77.773919729285694, 13.0118705700958 ], [ 77.773910938918505, 13.011753233520601 ], [ 77.773837683204107, 13.011637715653601 ], [ 77.773773226275694, 13.0115367824655 ], [ 77.773741123429303, 13.011497605924101 ], [ 77.7737244010968, 13.011443586037799 ], [ 77.773715562676003, 13.0113736738538 ], [ 77.773714181149202, 13.0112494831587 ], [ 77.773728818613904, 13.011116088001399 ], [ 77.773775307654802, 13.010999289275199 ], [ 77.773854150610902, 13.0109442472195 ], [ 77.773916773618396, 13.010880345517201 ], [ 77.773948497525097, 13.010833711425001 ], [ 77.773979294047294, 13.010755471317999 ], [ 77.774002118765694, 13.0106852204646 ], [ 77.774001679166105, 13.0106457052512 ], [ 77.773952667811699, 13.010587514191499 ], [ 77.773728580937501, 13.0104736094993 ], [ 77.773529188205003, 13.010405735259299 ], [ 77.773401344728896, 13.010351774542301 ], [ 77.773344899781705, 13.010298179387 ], [ 77.773304825386901, 13.010266991977799 ], [ 77.7732802802565, 13.0101825688683 ], [ 77.773271266290394, 13.0100968505332 ], [ 77.773270224136994, 13.0100031429642 ], [ 77.773277417464399, 13.009925155307201 ], [ 77.773340228790403, 13.0098781888638 ], [ 77.7733872201715, 13.0098065504781 ], [ 77.773402397813399, 13.009721702598601 ], [ 77.773425298009599, 13.009658225817899 ], [ 77.773417211318005, 13.0096041135241 ], [ 77.773311843500295, 13.009500230125401 ], [ 77.773223560019304, 13.009431167369 ], [ 77.773190767060001, 13.0093298952973 ], [ 77.773173605664198, 13.0092363600686 ], [ 77.773164077095203, 13.009104352421501 ], [ 77.7732226053148, 13.0086204541744 ], [ 77.773252272056496, 13.0084406035205 ], [ 77.773330423964296, 13.008323466372101 ], [ 77.773376825076795, 13.008198764714299 ], [ 77.773407182224403, 13.0080810094495 ], [ 77.773430231182502, 13.0079791403026 ], [ 77.773453055975196, 13.007908889504399 ], [ 77.773460337204, 13.007838804902899 ], [ 77.773459646696494, 13.007776709525199 ], [ 77.773466576398704, 13.007675012731699 ], [ 77.773480826820602, 13.007558558829899 ], [ 77.773439972752996, 13.0074054324486 ], [ 77.773404330436705, 13.0070478757712 ], [ 77.773376911105302, 13.0067049099857 ], [ 77.773358883872802, 13.0065334732425 ], [ 77.773365211151301, 13.0063775841019 ], [ 77.773411699956796, 13.0062607855472 ], [ 77.773482306422693, 13.0061900239381 ], [ 77.773569458797695, 13.0061574762171 ], [ 77.773776129078897, 13.006155266537201 ], [ 77.773887987380206, 13.006169878472299 ], [ 77.773967946423497, 13.0062153182574 ], [ 77.774080183315505, 13.0063157407448 ], [ 77.774128479842602, 13.006361519046701 ], [ 77.774224834370898, 13.006431624493599 ], [ 77.774296294477395, 13.006437635121101 ], [ 77.774415460971696, 13.0064363606754 ], [ 77.7744791985874, 13.006421000176401 ], [ 77.774558027547101, 13.0063648292063 ], [ 77.774692107469207, 13.006254997681101 ], [ 77.774858013085193, 13.006159504510499 ], [ 77.775016298606204, 13.0061036126645 ], [ 77.775095654859598, 13.006094859803101 ], [ 77.775350106449594, 13.006092137743799 ], [ 77.775469760419895, 13.006082953652999 ], [ 77.775680307109795, 13.006015210913199 ], [ 77.775743956537497, 13.0059919471061 ], [ 77.775814549584098, 13.005920056003999 ], [ 77.775853844454105, 13.0058812448182 ], [ 77.775869096647398, 13.0058031710173 ], [ 77.775891568855798, 13.0057013080405 ], [ 77.775889232051398, 13.0054913131618 ], [ 77.775856702758404, 13.005413750614499 ], [ 77.775799479843698, 13.005290157557599 ], [ 77.775775261387494, 13.0052350888541 ], [ 77.775734333475995, 13.0051271293736 ], [ 77.775673806971497, 13.0047066079481 ], [ 77.775699841771399, 13.004200474967201 ], [ 77.775695552278194, 13.0039701764148 ], [ 77.775619056222297, 13.0035114349739 ], [ 77.775497806366303, 13.0033252948125 ], [ 77.7752408459977, 13.0031022153374 ], [ 77.7750487673988, 13.0030184550053 ], [ 77.774832747208507, 13.002904463747299 ], [ 77.7747691592687, 13.0028814317902 ], [ 77.774681656642997, 13.0028823674885 ], [ 77.774475252871895, 13.0029082864759 ], [ 77.774300498623106, 13.0029327377784 ], [ 77.774022310982403, 13.0029752318811 ], [ 77.773752872968004, 13.0030797349359 ], [ 77.773563102290794, 13.003151770233799 ], [ 77.773499290064507, 13.0031603563105 ], [ 77.773148061539203, 13.0030545835595 ], [ 77.773008771426404, 13.0030063899338 ], [ 77.772769426601698, 13.002969427693101 ], [ 77.772649747202607, 13.002924411719199 ], [ 77.7725050112563, 13.002800623448801 ], [ 77.772464260905707, 13.0027084691838 ], [ 77.772462956223194, 13.0025910523236 ], [ 77.772470237893899, 13.002520967699899 ], [ 77.772524435002097, 13.0023724709938 ], [ 77.772575430318298, 13.002298531884801 ], [ 77.772646699674596, 13.0022356675687 ], [ 77.772750605366895, 13.00210470599 ], [ 77.772809696204803, 13.001982127247 ], [ 77.772862244191899, 13.0019443040648 ], [ 77.772929847505594, 13.0019142239923 ], [ 77.773035032699994, 13.001898421149001 ], [ 77.7731864348806, 13.001896803206501 ], [ 77.773627200018595, 13.001874026254701 ], [ 77.773661202396696, 13.0018770502466 ], [ 77.773683239516302, 13.001839553038799 ], [ 77.773709268692798, 13.0017986257369 ], [ 77.773726910525795, 13.0016764899114 ], [ 77.773737733745193, 13.001614271456001 ], [ 77.773741407225799, 13.001426794739199 ], [ 77.773770851135296, 13.001330503019901 ], [ 77.773822333705098, 13.001248654575001 ], [ 77.773893966381493, 13.0012185312389 ], [ 77.774040511651705, 13.0011943819701 ], [ 77.774689504989297, 13.001154698709801 ], [ 77.7747648300371, 13.001145989347 ], [ 77.774839828664696, 13.001107925804201 ], [ 77.774895428384696, 13.0010339371802 ], [ 77.774991358988402, 13.0008590238166 ], [ 77.775000537239094, 13.0006489055895 ], [ 77.7749510008708, 13.0005432960759 ], [ 77.774869788378695, 13.000384955631301 ], [ 77.774845617450296, 13.000230521830501 ], [ 77.774836238211904, 13.0000601219072 ], [ 77.774832384446199, 12.999713516993401 ], [ 77.774888561588398, 12.999329008633699 ], [ 77.774984906257103, 12.998828898524801 ], [ 77.775004624061907, 12.9984385841672 ], [ 77.775030678817402, 12.997922838573199 ], [ 77.775080128858505, 12.997555429619499 ], [ 77.774959496298095, 12.9975272712503 ], [ 77.775109628426804, 12.997049169027299 ], [ 77.774848157705307, 12.996005250733999 ], [ 77.774825818192198, 12.9955493166584 ], [ 77.774808897831207, 12.995390481063801 ], [ 77.7748001065099, 12.995307955342801 ], [ 77.774508269610394, 12.993862386291299 ], [ 77.774489971255804, 12.993769992246399 ], [ 77.774183052163394, 12.9920027778216 ], [ 77.775208964026803, 12.992104730081801 ], [ 77.775379616860704, 12.992022737284399 ], [ 77.776027876223395, 12.991712069498201 ], [ 77.776113967504401, 12.9915327450785 ], [ 77.776116848308703, 12.99122220081 ], [ 77.775996595419997, 12.990658916248 ], [ 77.776149981627498, 12.989904140325701 ], [ 77.776346962805206, 12.9894458622455 ], [ 77.776496169074804, 12.988315127546599 ], [ 77.7759421014335, 12.988293950053601 ], [ 77.776148082351, 12.9879202615829 ], [ 77.776056255854797, 12.987065354675799 ], [ 77.775903693330505, 12.986391759022 ], [ 77.776068323677407, 12.985871724451201 ], [ 77.776422154818405, 12.9855404927289 ], [ 77.776662426644805, 12.985351616845399 ], [ 77.776941347085099, 12.9853768642411 ], [ 77.777147392403293, 12.9851646419069 ], [ 77.777005582716001, 12.985044210623901 ], [ 77.776575842359605, 12.984864753750101 ], [ 77.776613075458798, 12.984588845709 ], [ 77.7765419363961, 12.984196665220001 ], [ 77.776389769003103, 12.983713890122599 ], [ 77.7762906982299, 12.9832429680537 ], [ 77.776247630945406, 12.982941947728101 ], [ 77.776095316136207, 12.982497564519299 ], [ 77.775906343573894, 12.9823290830148 ], [ 77.775649809744195, 12.982142127563201 ], [ 77.775421484634293, 12.9814885352215 ], [ 77.7753618932405, 12.9814101317479 ], [ 77.77520265087, 12.9812573305465 ], [ 77.775027886597599, 12.981089634911999 ], [ 77.7747593381184, 12.9807018192485 ], [ 77.774720492863395, 12.9805215712873 ], [ 77.774932195130503, 12.9804041385656 ], [ 77.775257944717495, 12.9802403222641 ], [ 77.775402125158706, 12.980211683259199 ], [ 77.775472624829803, 12.980131890524699 ], [ 77.775911382428305, 12.979931863361999 ], [ 77.776038241456703, 12.979795011539 ], [ 77.776310515709298, 12.9794815896553 ], [ 77.776434146294605, 12.979365096732501 ], [ 77.776529210174203, 12.979320044771899 ], [ 77.776621792257203, 12.979103389973799 ], [ 77.776979267877195, 12.978738246202401 ], [ 77.7771602939074, 12.9785025801832 ], [ 77.777412686330507, 12.9783689032739 ], [ 77.777792812810603, 12.978591798351699 ], [ 77.778358232389607, 12.9786004341188 ], [ 77.778391980507607, 12.9785808780303 ], [ 77.778425165550203, 12.978562457096 ], [ 77.778519415998502, 12.9781335060713 ], [ 77.778559467544397, 12.978007743562401 ], [ 77.778826977450294, 12.9771625466802 ], [ 77.778624875852003, 12.976796607757301 ], [ 77.778523016595599, 12.9766432614403 ], [ 77.778523016595599, 12.9766432614403 ], [ 77.778244316710499, 12.9762236850141 ], [ 77.777777758545298, 12.976185656394801 ], [ 77.777777758545298, 12.976185656394801 ], [ 77.777668690642898, 12.9761767662709 ], [ 77.777258763062093, 12.976535695663999 ], [ 77.777142462870202, 12.976482739351299 ], [ 77.776976409205204, 12.976407731636201 ], [ 77.776897535327507, 12.9763035640987 ], [ 77.776678483380906, 12.976017972983801 ], [ 77.776675135922801, 12.975716528236999 ], [ 77.776514597896806, 12.9754100379894 ], [ 77.776483987885399, 12.9753515989434 ], [ 77.776160249598504, 12.974970018914201 ], [ 77.776646827968904, 12.9743094824625 ], [ 77.776873698147, 12.974001501599201 ], [ 77.777684421898797, 12.9737060406762 ], [ 77.778149028758506, 12.9733984677792 ], [ 77.778602155776298, 12.9729385831704 ], [ 77.779242557961794, 12.9722361901458 ], [ 77.778628185286394, 12.9710842587789 ], [ 77.778673279730398, 12.9704796875891 ], [ 77.779211207897504, 12.970243595640801 ], [ 77.780216587040002, 12.9701639731289 ], [ 77.780834846125998, 12.9703188301374 ], [ 77.781149000289304, 12.970770513192599 ], [ 77.781973752094203, 12.9709615494634 ], [ 77.782860625017506, 12.970992710057001 ], [ 77.783262463035697, 12.970891304337499 ], [ 77.783647400295493, 12.9706161921982 ], [ 77.7839120051527, 12.9693566332115 ], [ 77.784361344231598, 12.968558042125199 ], [ 77.784180479864503, 12.966789495202599 ], [ 77.784077790225396, 12.9665625089873 ], [ 77.781847548320599, 12.9661347119573 ], [ 77.781691017168896, 12.9662425245028 ], [ 77.781584337814095, 12.9663814198073 ], [ 77.781453348980705, 12.966612035085401 ], [ 77.781397473449502, 12.9668158771278 ], [ 77.781224037922996, 12.9669566152155 ], [ 77.780535112085005, 12.967124317104799 ], [ 77.779882568431006, 12.967147098865899 ], [ 77.779364219623005, 12.966968587764701 ], [ 77.779068614571997, 12.9668904477667 ], [ 77.778595751826998, 12.966764518557699 ], [ 77.778473956706605, 12.966993905556 ], [ 77.778656422417399, 12.967717993258599 ], [ 77.777450852451594, 12.9682243022108 ], [ 77.777310919526698, 12.9681682101271 ], [ 77.777220725836102, 12.9681330405941 ], [ 77.777197487293705, 12.968010212381699 ], [ 77.777176663944203, 12.967897520642101 ], [ 77.7764785669887, 12.967758184278599 ], [ 77.776088585801602, 12.967423603907401 ], [ 77.775097034842105, 12.9668809035888 ], [ 77.774826492708797, 12.9666748980049 ], [ 77.774590374077107, 12.966510303212401 ], [ 77.774365718121004, 12.966496891076501 ], [ 77.774031098819805, 12.966378511813099 ], [ 77.773863301122105, 12.9662493203023 ], [ 77.773500052862602, 12.966092854591199 ], [ 77.773287259341501, 12.966058990384999 ], [ 77.773176533143996, 12.9660409752166 ], [ 77.773120588200896, 12.9660314092433 ], [ 77.773087141358502, 12.966026120030399 ], [ 77.7721061843977, 12.965867202325599 ], [ 77.771983608160198, 12.965922707311901 ], [ 77.771494985561503, 12.965361081817001 ], [ 77.771233595446006, 12.965045446945499 ], [ 77.771000885473796, 12.9647204730718 ], [ 77.770689234967094, 12.9642326132444 ], [ 77.770469847275507, 12.9633948641785 ], [ 77.770473814627493, 12.963337235460701 ], [ 77.770516946103001, 12.963333388806699 ], [ 77.770475683283806, 12.9630379917054 ], [ 77.770203593727899, 12.9630555672857 ], [ 77.770180207564195, 12.962850932986701 ], [ 77.770157065307004, 12.9626484405553 ], [ 77.770081817020696, 12.9624550282757 ], [ 77.769978766821296, 12.962194163047799 ], [ 77.769812318079602, 12.961770246142599 ], [ 77.769686403779602, 12.961732066061 ], [ 77.769186825885498, 12.961583818234701 ], [ 77.768820693860704, 12.9615301272375 ], [ 77.768676262381803, 12.9614311696076 ], [ 77.768228504115896, 12.9611276750525 ], [ 77.768136332824895, 12.9607571654519 ], [ 77.7680405670271, 12.960530095899699 ], [ 77.767961930160396, 12.9603423643292 ], [ 77.767629974260501, 12.9602036215948 ], [ 77.767299182296199, 12.960065995138599 ], [ 77.767164406097393, 12.9597467495314 ], [ 77.767097422244504, 12.9594674324984 ], [ 77.766946533199402, 12.959461132478699 ], [ 77.766993195787407, 12.959360142099699 ], [ 77.766830771932106, 12.959299765416301 ], [ 77.766603045764001, 12.959216370550299 ], [ 77.766306718957907, 12.9593324350065 ], [ 77.766112983974807, 12.9594078886786 ], [ 77.765878031617902, 12.959504104928 ], [ 77.765465409930997, 12.9596710869546 ], [ 77.765440196633804, 12.959681517197801 ], [ 77.765414970863702, 12.959690818420301 ], [ 77.764880724252805, 12.9598952246794 ], [ 77.764793040560704, 12.9594614326609 ], [ 77.764566561169801, 12.9594909378614 ], [ 77.764423321957096, 12.958769801815899 ], [ 77.764331355524007, 12.9575829102918 ], [ 77.764333596644903, 12.957264465539501 ], [ 77.764339459198695, 12.956544004088601 ], [ 77.764377365794104, 12.956119040309 ], [ 77.764417461097096, 12.955996666129501 ], [ 77.764478576061904, 12.9559011684198 ], [ 77.7645046457164, 12.955759747575501 ], [ 77.764579200442597, 12.955630232588399 ], [ 77.764563818765296, 12.955436181727 ], [ 77.764555040272299, 12.9553188431012 ], [ 77.764573218543504, 12.9550883030248 ], [ 77.764468942987406, 12.9550284359496 ], [ 77.764543323132102, 12.9548831147266 ], [ 77.764545099324295, 12.953792334704501 ], [ 77.764547641644398, 12.9537031974558 ], [ 77.764570001552201, 12.9529192355298 ], [ 77.7645489414964, 12.952158410347201 ], [ 77.7645600638932, 12.9519143953416 ], [ 77.764643871423303, 12.951371512517101 ], [ 77.764923845538902, 12.9510783482636 ], [ 77.764918968797502, 12.950479949339201 ], [ 77.765030218288402, 12.950128731157999 ], [ 77.765286255098303, 12.9487619973614 ], [ 77.765364328003301, 12.9477517066288 ], [ 77.765416019436699, 12.947375149791201 ], [ 77.765416019436699, 12.947375149791201 ], [ 77.765466624093193, 12.947006509539399 ], [ 77.765524223972903, 12.946592628476701 ], [ 77.765509942977502, 12.9454026537926 ], [ 77.765341114612397, 12.9437694331438 ], [ 77.765301774810297, 12.943333997789599 ], [ 77.765270846764096, 12.9429059282502 ], [ 77.765252863896905, 12.9426570253174 ], [ 77.765274743788893, 12.942240135877899 ], [ 77.765269260423295, 12.9422079969534 ], [ 77.765268589910804, 12.942204068293901 ], [ 77.765292480164504, 12.941865069048299 ], [ 77.765403762344107, 12.9401599971699 ], [ 77.765424473500204, 12.939429556285999 ], [ 77.765519209029407, 12.938049515410601 ], [ 77.765511847105898, 12.9370164188587 ], [ 77.765631963993101, 12.936895454509299 ], [ 77.766002844491098, 12.935921578156901 ], [ 77.766344567486001, 12.935018018539401 ], [ 77.765687577380803, 12.9333775541158 ], [ 77.765674713224698, 12.9329937786042 ], [ 77.765592522486799, 12.931803393933601 ], [ 77.765511928586903, 12.931541155881099 ], [ 77.7653142913978, 12.9308951174917 ], [ 77.765113065631496, 12.9302366960868 ], [ 77.764650887467496, 12.928774824264201 ], [ 77.763295890543802, 12.9285577041999 ], [ 77.762349515108994, 12.9283893204477 ], [ 77.762318950951496, 12.9283839983057 ], [ 77.762288399219699, 12.928379805184401 ], [ 77.761916155661893, 12.928236956143101 ], [ 77.761329673830801, 12.927925871542801 ], [ 77.7605260562257, 12.9277062864476 ], [ 77.759978412516006, 12.927524640444799 ], [ 77.759334788092403, 12.9273033585816 ], [ 77.758404342595398, 12.9270128413393 ], [ 77.757941863979298, 12.926829160870501 ], [ 77.756989172360804, 12.9264519276899 ], [ 77.756652349264499, 12.9263369247155 ], [ 77.756566607622602, 12.9263210440389 ], [ 77.756536999696394, 12.9263155601863 ], [ 77.755922750179806, 12.9261481581031 ], [ 77.755343991325702, 12.9260153836527 ], [ 77.755193863603694, 12.9259718024924 ], [ 77.754692662518707, 12.9258257866699 ], [ 77.754603322527103, 12.9258143090728 ], [ 77.754285171438895, 12.9257747594575 ], [ 77.753477367315796, 12.9255924566462 ], [ 77.752866034885301, 12.9254284033162 ], [ 77.752215518941696, 12.9252602450295 ], [ 77.752095869278094, 12.924689020364699 ], [ 77.751741571202203, 12.923346791684899 ], [ 77.751570605713297, 12.9227670740724 ], [ 77.751434418180907, 12.922314585270399 ], [ 77.751378923828298, 12.9220825621518 ], [ 77.751354078330905, 12.9220737907443 ], [ 77.751328657334099, 12.9220650254008 ], [ 77.750570594950304, 12.9217986281464 ], [ 77.749732669687603, 12.921492419735699 ], [ 77.749596171726793, 12.9214317535271 ], [ 77.748643118341704, 12.921071424676899 ], [ 77.747502214534194, 12.920638544026099 ], [ 77.747322493169804, 12.9205726855465 ], [ 77.746642927579103, 12.9203257740157 ], [ 77.746099247150198, 12.920136147814 ], [ 77.745805009772795, 12.920019550995899 ], [ 77.745685161063804, 12.919902248721399 ], [ 77.745555199769001, 12.919228371447501 ], [ 77.745538106408702, 12.9190862756793 ], [ 77.745463684418397, 12.9188070239576 ], [ 77.745432548225395, 12.9185386086807 ], [ 77.745388782849801, 12.918062558693 ], [ 77.745365184777697, 12.917588554927599 ], [ 77.745279075236098, 12.916924378471499 ], [ 77.745184925688207, 12.916156402627299 ], [ 77.745011696657897, 12.9153147326036 ], [ 77.744822071937193, 12.914289179513201 ], [ 77.744733562038206, 12.9137210071122 ], [ 77.743903276442595, 12.9137952242182 ], [ 77.743183125717295, 12.913835535874799 ], [ 77.742987036609307, 12.9139042168119 ], [ 77.742495249489707, 12.914038107697399 ], [ 77.742358468445602, 12.914056481716999 ], [ 77.742074373377804, 12.914235616112 ], [ 77.741776529538399, 12.914262456062 ], [ 77.741509621001597, 12.9143815632514 ], [ 77.741158432201701, 12.9144778422418 ], [ 77.740795425391696, 12.914546015462999 ], [ 77.740616642118894, 12.9145128874066 ], [ 77.739835515796102, 12.9144510751849 ], [ 77.739106143538805, 12.914332258858099 ], [ 77.738945244112898, 12.914329719748199 ], [ 77.738848250553403, 12.9143281887093 ], [ 77.7386166208492, 12.9143046468654 ], [ 77.737742908447899, 12.9146198153515 ], [ 77.737505737809698, 12.914721669418 ], [ 77.737350045211798, 12.9146420006846 ], [ 77.737284115185304, 12.9135033507867 ], [ 77.736532658004805, 12.913417504159 ], [ 77.736049319261994, 12.9133762719906 ], [ 77.735482510072501, 12.913333654846699 ], [ 77.735145554286902, 12.9133100836968 ], [ 77.734933553259395, 12.9132919786586 ], [ 77.734773223351993, 12.913262040562399 ], [ 77.734446747279804, 12.9131965790452 ], [ 77.734397039823904, 12.913335988743601 ], [ 77.734360730194396, 12.913543009020501 ], [ 77.734356303998197, 12.913718078406699 ], [ 77.734338406206504, 12.9138187629045 ], [ 77.734361353306994, 12.9141821188877 ], [ 77.734277868328704, 12.914126533972301 ], [ 77.7326674854163, 12.914181782451999 ], [ 77.732070129745694, 12.913923803831301 ], [ 77.731407960955195, 12.9140041273332 ], [ 77.731067038917502, 12.9140923816711 ], [ 77.730496189311097, 12.914207881853301 ], [ 77.729984466554299, 12.9142561408839 ], [ 77.729032552757701, 12.914367717108901 ], [ 77.728708708947295, 12.914385780618399 ], [ 77.727948628466805, 12.9144603437149 ], [ 77.727757955832899, 12.914445397673299 ], [ 77.727568813591404, 12.914412368516601 ], [ 77.727621670253399, 12.9140854815005 ], [ 77.727661609654206, 12.913841160033201 ], [ 77.727643081049607, 12.9121340232932 ], [ 77.727612277051804, 12.9108865935662 ], [ 77.727335646000398, 12.9098449840064 ], [ 77.726926118159795, 12.908702004813 ], [ 77.726881695596404, 12.908586162169399 ], [ 77.726738657044805, 12.9080275780062 ], [ 77.726277233689999, 12.906609616234199 ], [ 77.726063498740004, 12.9066434635322 ], [ 77.725629845170801, 12.906724772405701 ], [ 77.724856058406004, 12.906860441502101 ], [ 77.724527569560294, 12.906927101643699 ], [ 77.723303679350906, 12.907272972199101 ], [ 77.722809170250898, 12.9072623173693 ], [ 77.721635460514904, 12.907778165885899 ], [ 77.7213831158749, 12.9078609671145 ], [ 77.721269903509906, 12.9079298978758 ], [ 77.720764267689304, 12.908220849775899 ], [ 77.720745641220006, 12.9088929134921 ], [ 77.720398672276005, 12.908901043543599 ], [ 77.720098233367807, 12.908847712226899 ], [ 77.719672462172099, 12.908753905149799 ], [ 77.719709760728094, 12.908211503871399 ], [ 77.719698571459304, 12.9081348351764 ], [ 77.719212825989601, 12.908136503714299 ], [ 77.718761975702904, 12.908171684055 ], [ 77.717855947495906, 12.9083742033365 ], [ 77.717913124215301, 12.908871583618399 ], [ 77.717774001064896, 12.9089396534918 ], [ 77.717639605609193, 12.908965893892701 ], [ 77.717289019465198, 12.9087459599243 ], [ 77.716971403210195, 12.9083280731797 ], [ 77.716121510590696, 12.907387255836399 ], [ 77.715604096669907, 12.907494261931699 ], [ 77.714593071153104, 12.9079406387881 ], [ 77.714227985608701, 12.9080833232494 ], [ 77.713953393063093, 12.9080782714323 ], [ 77.713388455874806, 12.907941860219101 ], [ 77.711300079455995, 12.9078630420123 ], [ 77.709487373399, 12.9079428240548 ], [ 77.708352850284498, 12.908146551887899 ], [ 77.708352850290098, 12.9081465527719 ], [ 77.707997287190906, 12.906448528471101 ], [ 77.707092017752501, 12.903300652758 ], [ 77.706870527807695, 12.902025816023199 ], [ 77.706693275681801, 12.9020807242612 ], [ 77.705786408563398, 12.902525987274201 ], [ 77.704841798936201, 12.9029942224591 ], [ 77.704063934977299, 12.9033941064549 ], [ 77.703984181636699, 12.9034338215081 ], [ 77.7039841807062, 12.903433820614399 ], [ 77.703549846466899, 12.903650108150799 ], [ 77.702847280256805, 12.904041305841901 ], [ 77.702887346299406, 12.9040880607518 ], [ 77.702335947452298, 12.9043932607541 ], [ 77.70173862323, 12.9047235197805 ], [ 77.701053732957405, 12.905099851224399 ], [ 77.700404265980197, 12.9054521017668 ], [ 77.699441247339493, 12.9059769720209 ], [ 77.699064084526498, 12.906175092438 ], [ 77.699032565906506, 12.906187839328201 ], [ 77.698783869748596, 12.9062897786714 ], [ 77.698483930466793, 12.9063899885988 ], [ 77.698344486124796, 12.906428692638 ], [ 77.6982675884732, 12.9064498125482 ], [ 77.698133311344606, 12.906487333915001 ], [ 77.697989250816306, 12.9065249562387 ], [ 77.697806177973604, 12.906574273412501 ], [ 77.697530656839803, 12.9066437415206 ], [ 77.697211628244503, 12.9067351135258 ], [ 77.696738827592895, 12.9068709824026 ], [ 77.696649329293805, 12.906897878002299 ], [ 77.696224124254002, 12.9070174458396 ], [ 77.695568381315695, 12.9072150488959 ], [ 77.6955488871574, 12.9072220252965 ], [ 77.695180582015098, 12.907334229312101 ], [ 77.694765721890903, 12.907452559106099 ], [ 77.694429377379294, 12.907539589811799 ], [ 77.693967877007793, 12.907656141014501 ], [ 77.6939333513305, 12.907664438551 ], [ 77.6939333513305, 12.907664438551 ], [ 77.693683132826393, 12.907724571349901 ], [ 77.693416192520701, 12.907789430216701 ], [ 77.693266974768804, 12.907829361794001 ], [ 77.693204990503105, 12.9078458097694 ], [ 77.693039119546498, 12.9078893005411 ], [ 77.692617853832303, 12.908000917995301 ], [ 77.692057631580596, 12.908143326319101 ], [ 77.6906872337522, 12.9085210515304 ], [ 77.6906229470341, 12.9085375226668 ], [ 77.689774630139098, 12.9087585510695 ], [ 77.689690824574896, 12.908779739833401 ], [ 77.688817726849393, 12.909051835439801 ], [ 77.688029611842197, 12.9093591891112 ], [ 77.687493709314793, 12.9095702967671 ], [ 77.687493709314694, 12.9095702967671 ], [ 77.687399717795898, 12.9096073228759 ], [ 77.687093630166402, 12.909725652038 ], [ 77.686371427603106, 12.9100074805801 ], [ 77.685821810813295, 12.910227684230399 ], [ 77.685142071621698, 12.910497781056799 ], [ 77.684516750609106, 12.910743603438 ], [ 77.683745960369194, 12.9110575433719 ], [ 77.682974065007201, 12.9113760096254 ], [ 77.682824495829607, 12.911437394792801 ], [ 77.682565175844999, 12.911569918997101 ], [ 77.682565175844999, 12.911569918997101 ], [ 77.682408970927895, 12.911649399062 ], [ 77.6814689042032, 12.912127720779701 ], [ 77.681124288991199, 12.912304030058801 ], [ 77.680390479960195, 12.9126864648986 ], [ 77.680015577498395, 12.912883409899001 ], [ 77.679153954339796, 12.9133168394264 ], [ 77.678729579391202, 12.913516548885701 ], [ 77.678484977234802, 12.913626334287301 ], [ 77.678103211338794, 12.913773661403599 ], [ 77.677615407257207, 12.9139627274962 ], [ 77.677615407257207, 12.9139627274962 ], [ 77.677615407257207, 12.9139627274962 ], [ 77.675530968138801, 12.9145690899631 ], [ 77.673984302691693, 12.915589946878899 ] ] ] } }
]
}
