{
"type": "FeatureCollection",
"name": "North_Zone2",
"crs": { "type": "name", "properties": { "name": "urn:ogc:def:crs:OGC:1.3:CRS84" } },
"features": [
{ "type": "Feature", "properties": { "region_id": "zone_GBA_North_1", "name": "North (Z1)", "parent": "corp_GBA_North", "parent_name": "North" }, "geometry": { "type": "MultiPolygon", "coordinates": [ [ [ [ 77.550183850429605, 13.0257904461627 ], [ 77.550040247632197, 13.026051604344399 ], [ 77.549205167381103, 13.028129876117401 ], [ 77.548854645417606, 13.028939994551701 ], [ 77.548801790664896, 13.029062151153701 ], [ 77.5484723246377, 13.0297762403265 ], [ 77.548190088505805, 13.0303879597387 ], [ 77.547863342834802, 13.0310961458132 ], [ 77.547863341932, 13.031096147629 ], [ 77.547837791727005, 13.031151525200899 ], [ 77.547687938607297, 13.0314763167636 ], [ 77.546732737040003, 13.033311233715599 ], [ 77.546614238786702, 13.033538864439899 ], [ 77.545796386415702, 13.0350534296295 ], [ 77.545324450836404, 13.035985247834301 ], [ 77.545073975040097, 13.0365009322201 ], [ 77.545073973743101, 13.0365009320802 ], [ 77.545008796505797, 13.0366351190362 ], [ 77.544841629154007, 13.0369792849074 ], [ 77.544728660024603, 13.03715686334 ], [ 77.544508345009106, 13.037503181397399 ], [ 77.544358012889802, 13.0376142038788 ], [ 77.543855871661194, 13.0382464160261 ], [ 77.543421255912193, 13.038710953477899 ], [ 77.542954611964603, 13.0392900363727 ], [ 77.542954611555103, 13.0392900368812 ], [ 77.542147960425794, 13.0385293982819 ], [ 77.541950707936195, 13.0383124819566 ], [ 77.541630425865705, 13.0366881111191 ], [ 77.541465380497101, 13.035851037727999 ], [ 77.541225244963201, 13.0346305964206 ], [ 77.5407490115754, 13.032502343369501 ], [ 77.538979371845201, 13.03368791978 ], [ 77.537781284395194, 13.0346520653127 ], [ 77.537600547133707, 13.034790655980499 ], [ 77.536419423621098, 13.035696349792399 ], [ 77.535164250622699, 13.0366545208924 ], [ 77.533652096349698, 13.0376778963528 ], [ 77.532934862800701, 13.038119307211399 ], [ 77.531924741782404, 13.0389050608958 ], [ 77.531213850536005, 13.039596506739599 ], [ 77.531172716789698, 13.039625285214701 ], [ 77.530352199010096, 13.040199334630699 ], [ 77.530266569427994, 13.040259242544501 ], [ 77.528266549033603, 13.0416809607649 ], [ 77.525434838135894, 13.043681633133099 ], [ 77.525358119990599, 13.043728218748299 ], [ 77.5248384312235, 13.044043785513701 ], [ 77.523981674142803, 13.044646142983799 ], [ 77.523981674293594, 13.0446461435166 ], [ 77.523908920906905, 13.044697293697901 ], [ 77.523144824590105, 13.0452375808122 ], [ 77.522192211058496, 13.0459011887045 ], [ 77.521957632186599, 13.045536671571 ], [ 77.521758584076593, 13.045239289863501 ], [ 77.521758583146095, 13.045239288969 ], [ 77.521529553292098, 13.0448971157078 ], [ 77.521520178760994, 13.0448813962196 ], [ 77.521428298569901, 13.0447377352871 ], [ 77.520997552834302, 13.0440620658336 ], [ 77.520810834335194, 13.043766866710101 ], [ 77.520562721226597, 13.043380788291801 ], [ 77.520223294732901, 13.0428499130056 ], [ 77.519751786657693, 13.042129463311401 ], [ 77.519376121619004, 13.0415458597395 ], [ 77.519210665083307, 13.0413024017965 ], [ 77.519056909497905, 13.041076899374801 ], [ 77.518730022142094, 13.040532346724 ], [ 77.518500920143097, 13.040146080126799 ], [ 77.518441313253106, 13.039890297906799 ], [ 77.517801697949196, 13.0404273148134 ], [ 77.517792563832202, 13.040435309115001 ], [ 77.517726310040203, 13.040490162389901 ], [ 77.517621227607506, 13.040578144489899 ], [ 77.517502598154195, 13.0406933627219 ], [ 77.517238523764803, 13.0409489055834 ], [ 77.516920699497604, 13.041299836393801 ], [ 77.516730193336201, 13.0414835143961 ], [ 77.5165600303758, 13.041628596578001 ], [ 77.516488467362805, 13.041671078405299 ], [ 77.516488467372, 13.041671079308699 ], [ 77.5162800672272, 13.0417939461475 ], [ 77.516113711359594, 13.041859936552299 ], [ 77.516021625907598, 13.041896831910901 ], [ 77.516021624986195, 13.0418968319199 ], [ 77.515712178415896, 13.042020818968499 ], [ 77.515612362407893, 13.0420601871875 ], [ 77.515544647576306, 13.042084561777401 ], [ 77.514872014141901, 13.042319228134501 ], [ 77.514661912757703, 13.042387901541399 ], [ 77.514659044733705, 13.042389058762 ], [ 77.514525872499107, 13.042433268145899 ], [ 77.514381222856599, 13.0424795820651 ], [ 77.514125733901594, 13.0425613845665 ], [ 77.513748160153696, 13.042679588693099 ], [ 77.513403479458702, 13.0427874947987 ], [ 77.513269707969997, 13.0428294507229 ], [ 77.513048099105106, 13.042899364078099 ], [ 77.512956298980001, 13.0429341361443 ], [ 77.512624090602799, 13.043059332125599 ], [ 77.512526542836895, 13.0430952892201 ], [ 77.511992167774906, 13.043278851748999 ], [ 77.511947995160597, 13.043294025389599 ], [ 77.511616857549896, 13.0434113043686 ], [ 77.511431180789899, 13.043503454823 ], [ 77.510731447587006, 13.0438501808277 ], [ 77.510668407115801, 13.0438812850748 ], [ 77.510422956448394, 13.044007981365899 ], [ 77.510305148544205, 13.044068894277 ], [ 77.510187682952207, 13.0441287602992 ], [ 77.510028969444804, 13.0442104841527 ], [ 77.510023797793394, 13.044211663675201 ], [ 77.509957347334804, 13.0442473182784 ], [ 77.509821199496599, 13.044318411382701 ], [ 77.509707574501405, 13.044379643084 ], [ 77.509376333812796, 13.0445581470491 ], [ 77.509063126446094, 13.0447269322894 ], [ 77.508822506281803, 13.044856814065399 ], [ 77.508698804451598, 13.044923584802399 ], [ 77.508417337678594, 13.0450550603263 ], [ 77.507832767636401, 13.045179021211499 ], [ 77.507781117816606, 13.0451899742522 ], [ 77.507303378109597, 13.0453335323482 ], [ 77.507303371380502, 13.045333515277999 ], [ 77.507124790760898, 13.045387196224 ], [ 77.506898085002803, 13.045466189224101 ], [ 77.506390731920703, 13.045643896341099 ], [ 77.506062746954598, 13.0457317753069 ], [ 77.505917431268301, 13.0457715809984 ], [ 77.505551053976802, 13.0458790303197 ], [ 77.505160545339507, 13.0459923596295 ], [ 77.504991143816596, 13.046042562299601 ], [ 77.503889086625705, 13.0464180135482 ], [ 77.503689417177199, 13.046485383743599 ], [ 77.502869072621806, 13.046762174197699 ], [ 77.502706118444706, 13.0468236067665 ], [ 77.501511437742593, 13.047267706762799 ], [ 77.501421880552897, 13.047296806771801 ], [ 77.501157796147197, 13.0473840053637 ], [ 77.500910971741007, 13.0474655038868 ], [ 77.500652643159796, 13.0475504445729 ], [ 77.500115976208704, 13.047735200359 ], [ 77.499373837187093, 13.047991960990799 ], [ 77.499322175763098, 13.048009400578399 ], [ 77.4991368726198, 13.0480823407395 ], [ 77.498918291512297, 13.048168025258301 ], [ 77.498657827774593, 13.048269925267601 ], [ 77.498468492805003, 13.0483429039584 ], [ 77.498295237769995, 13.0484112097742 ], [ 77.497411195847107, 13.0487043461968 ], [ 77.497313608707103, 13.048736910568801 ], [ 77.496760798725404, 13.048920686709399 ], [ 77.496653600792001, 13.048957770739101 ], [ 77.496661144162005, 13.0492062486487 ], [ 77.497293874779402, 13.0506141053486 ], [ 77.496892651779802, 13.0506964907214 ], [ 77.496872557281193, 13.050700616711501 ], [ 77.496125985571894, 13.050861416755 ], [ 77.494536897909995, 13.0512076529781 ], [ 77.494392118041802, 13.051244059757201 ], [ 77.493934352368498, 13.0513578070842 ], [ 77.4932005190864, 13.0515401503975 ], [ 77.492465308677495, 13.0515709537771 ], [ 77.492475935772404, 13.052187068166401 ], [ 77.492480441962201, 13.0524483271378 ], [ 77.492459275433404, 13.0527818348413 ], [ 77.492423099668798, 13.053351827859 ], [ 77.4923426652106, 13.054619171619899 ], [ 77.492218721853206, 13.054828475458001 ], [ 77.491609152037697, 13.055857852929901 ], [ 77.491532157668999, 13.055987872417401 ], [ 77.491012916791604, 13.0568794305947 ], [ 77.491001805708805, 13.056920194945301 ], [ 77.490998836919402, 13.056968786424701 ], [ 77.491040130809296, 13.057114367169399 ], [ 77.4914227750034, 13.058463373555499 ], [ 77.491969973070894, 13.059926147570501 ], [ 77.491976757263203, 13.059944282155801 ], [ 77.492007104892394, 13.0600283873595 ], [ 77.492308539430098, 13.060863776672599 ], [ 77.492599750048001, 13.061661189374799 ], [ 77.492660348642801, 13.0618271224577 ], [ 77.492720449622695, 13.062133730706901 ], [ 77.493061893264695, 13.062121402059599 ], [ 77.492992175895395, 13.062578338977501 ], [ 77.492984595091599, 13.062605451871899 ], [ 77.492902114693393, 13.0629022068312 ], [ 77.492849269535199, 13.0633759215126 ], [ 77.492762361962903, 13.063784461506099 ], [ 77.492743587850896, 13.0655125745195 ], [ 77.4927315273071, 13.066622858802999 ], [ 77.492804526728705, 13.067754909558399 ], [ 77.492832551889606, 13.068193962859301 ], [ 77.492943727427999, 13.0699151743035 ], [ 77.493031629773796, 13.0710967727062 ], [ 77.493040895629406, 13.0712163961174 ], [ 77.493105543364194, 13.0720918351794 ], [ 77.494140082048204, 13.072040453878699 ], [ 77.495065792994794, 13.0719944738967 ], [ 77.496050953617996, 13.0719455371535 ], [ 77.497205819081003, 13.0719530483823 ], [ 77.497573381141393, 13.0719565726834 ], [ 77.498585741909395, 13.0719662780502 ], [ 77.499237837570803, 13.0719628149341 ], [ 77.499459350525996, 13.071901309134301 ], [ 77.499445539785398, 13.071891964296899 ], [ 77.500255181144794, 13.0724397724467 ], [ 77.501003535146594, 13.0726360274514 ], [ 77.501433230526104, 13.0728446829473 ], [ 77.501611759195896, 13.0730491212872 ], [ 77.501887577975893, 13.0734787353902 ], [ 77.502142635744093, 13.0738686467795 ], [ 77.502341056107198, 13.0740263376232 ], [ 77.502471408183894, 13.074164736277099 ], [ 77.502637035034695, 13.0744358034064 ], [ 77.502672376784005, 13.0745751218807 ], [ 77.502707114926494, 13.074654591983199 ], [ 77.502768730856701, 13.074707199270501 ], [ 77.5029988108504, 13.074785976456001 ], [ 77.503758223568994, 13.075206640031899 ], [ 77.504108034739204, 13.0753941089345 ], [ 77.504316002988404, 13.0757388045113 ], [ 77.504481059674305, 13.075998084943199 ], [ 77.504620005600898, 13.0762094311102 ], [ 77.504795611900306, 13.0764765405753 ], [ 77.505077990494499, 13.076706341555299 ], [ 77.505330104399704, 13.0768235959567 ], [ 77.505456666440793, 13.076932364286399 ], [ 77.505721691617495, 13.0770203772146 ], [ 77.506009694630905, 13.077421978686001 ], [ 77.506331889120105, 13.0776129616478 ], [ 77.506604139218496, 13.077762370997901 ], [ 77.506899302448602, 13.0778921470251 ], [ 77.507368719102303, 13.0779490563561 ], [ 77.507483908900397, 13.077912350115501 ], [ 77.507707520078, 13.0778228290839 ], [ 77.508073613646204, 13.0777836841345 ], [ 77.508610153736498, 13.077723959771101 ], [ 77.5087823155759, 13.077770814512601 ], [ 77.508962684527503, 13.077976112671999 ], [ 77.509081988379194, 13.077693492836699 ], [ 77.509140300551607, 13.077582929713101 ], [ 77.509221853401002, 13.077485083070799 ], [ 77.509271079564201, 13.077455488033101 ], [ 77.509320403876799, 13.077435597245699 ], [ 77.509353154931404, 13.077409396812 ], [ 77.5093593324887, 13.0773672805431 ], [ 77.509357892716096, 13.0772249463142 ], [ 77.509374073291596, 13.077192438021401 ], [ 77.509416729166006, 13.077166141304 ], [ 77.509443009070097, 13.0771529452573 ], [ 77.509479030207103, 13.0771234785595 ], [ 77.509511422175507, 13.077061695230499 ], [ 77.509556037350194, 13.076902738259101 ], [ 77.509565451345395, 13.0768541197874 ], [ 77.509598235028804, 13.076831154393201 ], [ 77.509644323643002, 13.0768177657663 ], [ 77.509799191689694, 13.0767871436431 ], [ 77.509881662237305, 13.0767798720087 ], [ 77.509940725703899, 13.0767437104961 ], [ 77.509996390894102, 13.076697876805801 ], [ 77.510139359258901, 13.0764700252663 ], [ 77.510431731045898, 13.076154767236799 ], [ 77.510599085041406, 13.076052848795999 ], [ 77.510684691660202, 13.076029370511099 ], [ 77.510753856959099, 13.0760125219307 ], [ 77.510809652775706, 13.0759796274174 ], [ 77.510881757992806, 13.075927163870499 ], [ 77.510986647508105, 13.075851734774201 ], [ 77.511271376718696, 13.075603091842099 ], [ 77.511307461976998, 13.0755800959766 ], [ 77.511379469683106, 13.075649863491799 ], [ 77.511461842474901, 13.0758207236949 ], [ 77.511488867186898, 13.0758159433939 ], [ 77.511842457868596, 13.075750389105 ], [ 77.511935604359905, 13.075733671919799 ], [ 77.512367964816903, 13.0756537983267 ], [ 77.512540701590495, 13.0755900030177 ], [ 77.513076570983799, 13.0755497775842 ], [ 77.514288461892804, 13.0751584978205 ], [ 77.514442190824198, 13.0753559830759 ], [ 77.514614132110907, 13.0753088227903 ], [ 77.515420856458107, 13.0750800338202 ], [ 77.516148141218295, 13.0748650123892 ], [ 77.517026879826204, 13.074544545857499 ], [ 77.517971123326006, 13.0742541597662 ], [ 77.518126181655006, 13.0749460665086 ], [ 77.5182620223908, 13.0755037681846 ], [ 77.518254514775194, 13.0756721140573 ], [ 77.518216744773795, 13.0765477260764 ], [ 77.518211979508493, 13.0767024930382 ], [ 77.518282327760105, 13.076936710878 ], [ 77.518531682779894, 13.077724820666401 ], [ 77.518593707228206, 13.0778766772469 ], [ 77.518681117577202, 13.078089270788601 ], [ 77.518709185659105, 13.078187250022999 ], [ 77.518784417998603, 13.078448524196499 ], [ 77.518795175321202, 13.078486816988899 ], [ 77.518836465278198, 13.0786388757742 ], [ 77.518844815537307, 13.078667027937099 ], [ 77.518904615444399, 13.079110277298801 ], [ 77.518979950410198, 13.0796651802117 ], [ 77.519142503259104, 13.079619549220601 ], [ 77.519418646991696, 13.079358233738301 ], [ 77.519472415252295, 13.079350377182401 ], [ 77.519501472164606, 13.079346131802399 ], [ 77.519629126509599, 13.079437491988701 ], [ 77.520882530803902, 13.0791508225262 ], [ 77.521136723052507, 13.079960338166799 ], [ 77.521212938465197, 13.080204661306301 ], [ 77.521280642731497, 13.0804050231287 ], [ 77.521709547362093, 13.0803816339197 ], [ 77.522066962281897, 13.0803521665659 ], [ 77.522243480209795, 13.0805469472573 ], [ 77.522716485150198, 13.080781744840101 ], [ 77.522849057566305, 13.080960014397499 ], [ 77.523221966708405, 13.080924747143399 ], [ 77.523299327601705, 13.081507860718199 ], [ 77.523414117469699, 13.0815801455509 ], [ 77.523566421560702, 13.0827915695254 ], [ 77.523586279266894, 13.0828749466251 ], [ 77.523577695171895, 13.083446477574199 ], [ 77.523577695171895, 13.083446477574199 ], [ 77.523542150256603, 13.0835737355704 ], [ 77.523530043064198, 13.083960162287401 ], [ 77.523514407682995, 13.084459202228301 ], [ 77.523469528559104, 13.0851695987686 ], [ 77.523435979928294, 13.086037662573199 ], [ 77.523436387228102, 13.0865612566762 ], [ 77.523447858467406, 13.088113748081501 ], [ 77.523533754011595, 13.089670787417999 ], [ 77.523616765160796, 13.0905565912998 ], [ 77.523656138464105, 13.090992621444 ], [ 77.523664275275905, 13.0916553630426 ], [ 77.523769211896706, 13.0929419828114 ], [ 77.523778609696507, 13.093067956912799 ], [ 77.526420043830896, 13.0928747844352 ], [ 77.528618375270796, 13.092609461333801 ], [ 77.528886018708207, 13.0925873054608 ], [ 77.5294981530473, 13.0924678935025 ], [ 77.5300430789367, 13.0924154551291 ], [ 77.532829168043406, 13.0922450476926 ], [ 77.5339957950128, 13.0921590629283 ], [ 77.534335689897802, 13.09213022506 ], [ 77.534394101954803, 13.092137017847501 ], [ 77.534824216677805, 13.091286596808599 ], [ 77.535452398082398, 13.090173577641201 ], [ 77.537247929305494, 13.0900950171666 ], [ 77.538023550090699, 13.0900597222721 ], [ 77.5385428608041, 13.0900360895572 ], [ 77.53946246273, 13.0900066823393 ], [ 77.540713741820795, 13.089973288224201 ], [ 77.540722908455606, 13.0899687850718 ], [ 77.540396022475406, 13.0893757522605 ], [ 77.539767684176297, 13.0882358170999 ], [ 77.539662724301294, 13.0880453968471 ], [ 77.539111396382296, 13.0870362302351 ], [ 77.539094461632004, 13.0870052321979 ], [ 77.538823804280497, 13.0867099692981 ], [ 77.538474634281499, 13.086329054475801 ], [ 77.537953530608704, 13.085760571125901 ], [ 77.537244316725605, 13.0844514292012 ], [ 77.536884619946093, 13.0837874554627 ], [ 77.535069982778097, 13.083796355318301 ], [ 77.534399691980198, 13.0836453468822 ], [ 77.5343478984163, 13.083633678333101 ], [ 77.533178387950699, 13.0833828951057 ], [ 77.533036571290594, 13.083371864649701 ], [ 77.532801308225501, 13.083317209108101 ], [ 77.532098138672097, 13.083153849584701 ], [ 77.531716629562695, 13.0830652169061 ], [ 77.531196696185802, 13.082917857329999 ], [ 77.530840190408597, 13.0828106792155 ], [ 77.530654855165906, 13.0826675051315 ], [ 77.530629429130698, 13.082647863135501 ], [ 77.530098184250804, 13.0822386058585 ], [ 77.530003701610894, 13.082170055879899 ], [ 77.529979194056807, 13.082152274903899 ], [ 77.529946138659, 13.082128292198901 ], [ 77.529955515451306, 13.082087544138901 ], [ 77.529934710777496, 13.081516303586101 ], [ 77.529839756032104, 13.081355739248099 ], [ 77.529787158394001, 13.0809429174563 ], [ 77.529632857154496, 13.079990139904 ], [ 77.529421940358105, 13.0790209767577 ], [ 77.5294394847554, 13.078877378953599 ], [ 77.529526536543699, 13.0787714974684 ], [ 77.529682715329102, 13.078779001575301 ], [ 77.529809427730996, 13.078777759690899 ], [ 77.529904911564998, 13.078595000535501 ], [ 77.5300511145131, 13.078584532818001 ], [ 77.530228073944301, 13.0785963502697 ], [ 77.530261514460804, 13.078599410475899 ], [ 77.530295519423007, 13.0786013358075 ], [ 77.530405321277996, 13.0779023292282 ], [ 77.530570714817998, 13.0778532757178 ], [ 77.530775377499594, 13.0778704679757 ], [ 77.530888230789301, 13.077301305238 ], [ 77.530955801383499, 13.076302309249 ], [ 77.531117196077403, 13.075861415035099 ], [ 77.531521287536407, 13.0756089990082 ], [ 77.531451598313595, 13.0753331675183 ], [ 77.531367022063904, 13.0749984113233 ], [ 77.531269811803398, 13.074560052525801 ], [ 77.531242914476707, 13.074069054846399 ], [ 77.531247683338293, 13.0739154183302 ], [ 77.531350974626505, 13.0733689362124 ], [ 77.531376765727501, 13.0731868602041 ], [ 77.531607768078501, 13.072793845170001 ], [ 77.531792359918995, 13.072537934751301 ], [ 77.531830349499899, 13.072478836803301 ], [ 77.531805952234393, 13.072458747954199 ], [ 77.531782107881696, 13.072436395008699 ], [ 77.531619229179796, 13.072279884781301 ], [ 77.531250520026504, 13.0708616643005 ], [ 77.531088208958195, 13.070217790269099 ], [ 77.530976189203201, 13.069773413384 ], [ 77.531847791496901, 13.0691559986013 ], [ 77.532118559405305, 13.0690481353643 ], [ 77.532343399502494, 13.068646154290301 ], [ 77.532471808325596, 13.068609828124901 ], [ 77.533065071001602, 13.068060266605199 ], [ 77.533308060606103, 13.0678707112619 ], [ 77.533956196226697, 13.0673169493139 ], [ 77.533938403218002, 13.0660333745311 ], [ 77.534726968410297, 13.063753802079299 ], [ 77.534730629634495, 13.0637432181798 ], [ 77.534748913591301, 13.063723250169399 ], [ 77.534953926813003, 13.063499350069799 ], [ 77.535007499200901, 13.0634434871201 ], [ 77.535061705127305, 13.063393264619 ], [ 77.535097642738705, 13.063359032016701 ], [ 77.535186530613402, 13.063264425204 ], [ 77.535200214532395, 13.063250738939701 ], [ 77.535007451061901, 13.063156636680899 ], [ 77.534217283654499, 13.060850379835401 ], [ 77.533854890216006, 13.0600498462777 ], [ 77.534328283854606, 13.0593664744531 ], [ 77.534680260357007, 13.0586944568329 ], [ 77.534689788242005, 13.058675929043799 ], [ 77.534767234849895, 13.0585253330638 ], [ 77.534941518006306, 13.058332766393301 ], [ 77.534966340839304, 13.058289029121299 ], [ 77.535015637921703, 13.0582021660267 ], [ 77.535079299316195, 13.0581191002721 ], [ 77.535187397868498, 13.0579316999209 ], [ 77.535223634181193, 13.057870360471901 ], [ 77.535281064080806, 13.0577975198176 ], [ 77.535395544017703, 13.0577275076165 ], [ 77.535473338247598, 13.057674795217 ], [ 77.535063275394094, 13.0575082873808 ], [ 77.534981415137594, 13.057557651531701 ], [ 77.534944510561601, 13.057553496088 ], [ 77.534910819529003, 13.0575255930965 ], [ 77.534939246410403, 13.057432708890101 ], [ 77.534939841572594, 13.057424744405999 ], [ 77.534949888952099, 13.057290308348801 ], [ 77.534985917888093, 13.057208642945101 ], [ 77.535117848069603, 13.057211866530601 ], [ 77.535146228768994, 13.0571144654336 ], [ 77.535109162042005, 13.0567557005085 ], [ 77.535203899479896, 13.056726538106901 ], [ 77.535231024606901, 13.0566189853146 ], [ 77.535177579287605, 13.0563484691139 ], [ 77.535170852411198, 13.0562536709678 ], [ 77.535203310651696, 13.056217213967299 ], [ 77.535199140882597, 13.056147236109 ], [ 77.535204358500593, 13.0560941062158 ], [ 77.535140075300106, 13.0560597272035 ], [ 77.535097849294402, 13.0559291384339 ], [ 77.535105956293606, 13.055871431246601 ], [ 77.535124697852893, 13.0557380175965 ], [ 77.535218132855107, 13.0554683197416 ], [ 77.535254011778207, 13.0553719744728 ], [ 77.535310208766901, 13.055291240649799 ], [ 77.535322740375804, 13.0552210990185 ], [ 77.535303654513797, 13.055100447368099 ], [ 77.535304379623597, 13.0548327879466 ], [ 77.535374571208706, 13.0548253236541 ], [ 77.536508611935105, 13.054652706119301 ], [ 77.537555227805001, 13.054492235210301 ], [ 77.537701876186105, 13.0544704679499 ], [ 77.538706149513203, 13.054337512171999 ], [ 77.538956518099297, 13.0543203724945 ], [ 77.539158706761, 13.054322904360101 ], [ 77.539324774947602, 13.054341601445 ], [ 77.540453932008305, 13.054537177152 ], [ 77.540712479780495, 13.0545877152156 ], [ 77.541446577484194, 13.0547318308024 ], [ 77.5416837939147, 13.0547803188353 ], [ 77.542227347023399, 13.0548777439103 ], [ 77.542528465902393, 13.054923344125299 ], [ 77.542757284809198, 13.054939163146001 ], [ 77.543403449339905, 13.054932807565899 ], [ 77.543939097799793, 13.0549331844213 ], [ 77.544459807241296, 13.0549370951636 ], [ 77.544706421150806, 13.0549470906693 ], [ 77.544861720791204, 13.0549828299329 ], [ 77.545033020876403, 13.0550624553468 ], [ 77.545311168759696, 13.055283323938299 ], [ 77.546128160841107, 13.056097428932899 ], [ 77.546505293785998, 13.056478814538201 ], [ 77.546791808126201, 13.0567289610568 ], [ 77.547113832637507, 13.0564386191084 ], [ 77.548080992702594, 13.0555666051602 ], [ 77.549043877333204, 13.054712379323201 ], [ 77.549109043567995, 13.0546643052572 ], [ 77.549549738260495, 13.054335844248699 ], [ 77.550135137685999, 13.0539088337934 ], [ 77.5504807555741, 13.053651337247 ], [ 77.550602123823495, 13.053560913662601 ], [ 77.550804968129199, 13.0534030662199 ], [ 77.550984741525895, 13.053242058295901 ], [ 77.551010309174899, 13.0532079263924 ], [ 77.5511585318649, 13.0530031860792 ], [ 77.551591448834799, 13.052366494378701 ], [ 77.551912203446804, 13.0519127299318 ], [ 77.552157140105294, 13.0515353780472 ], [ 77.552452970969398, 13.0511225147942 ], [ 77.552839447577995, 13.050731343065101 ], [ 77.553077467485593, 13.050465861768 ], [ 77.553196483051906, 13.050333685673801 ], [ 77.553511906734201, 13.049978223665301 ], [ 77.553785854067499, 13.0496220416239 ], [ 77.553821083484905, 13.0495753916463 ], [ 77.553933554702596, 13.049422952199301 ], [ 77.554114311615805, 13.049160763024 ], [ 77.554114312074901, 13.0491607632749 ], [ 77.554488557377795, 13.0486179139358 ], [ 77.555048851402205, 13.0477676491191 ], [ 77.555100184588497, 13.047683695316501 ], [ 77.555883186992304, 13.046403094908101 ], [ 77.556301691344203, 13.045711204933999 ], [ 77.556466474939, 13.0454374109583 ], [ 77.556664755477101, 13.0452287864032 ], [ 77.556847679277297, 13.0447029750718 ], [ 77.556863019846205, 13.0446824957472 ], [ 77.556898358419801, 13.043862261453 ], [ 77.556898357489203, 13.0438622605588 ], [ 77.5569001618248, 13.0438136820416 ], [ 77.556961698894199, 13.0438051687249 ], [ 77.556966452230299, 13.0437633369776 ], [ 77.5570974323158, 13.042666603974601 ], [ 77.5573876216651, 13.0427710215152 ], [ 77.558106052793093, 13.042347202342 ], [ 77.558143263595298, 13.042325377472601 ], [ 77.559225307852103, 13.0415298038332 ], [ 77.559435374298502, 13.0412916992729 ], [ 77.559541701932503, 13.041045408980199 ], [ 77.559730133373193, 13.0406089356711 ], [ 77.559797900888796, 13.040478394057899 ], [ 77.5599641510628, 13.0404598099803 ], [ 77.5600124887048, 13.0404559439179 ], [ 77.560109175598697, 13.040449340967999 ], [ 77.560135701250005, 13.040449271923601 ], [ 77.560135701386699, 13.040449272826701 ], [ 77.560264094368904, 13.0404489387472 ], [ 77.560386188927296, 13.0404488602511 ], [ 77.560480618815603, 13.0404467967548 ], [ 77.560641906888094, 13.040449718339101 ], [ 77.560836039214195, 13.040174503254701 ], [ 77.560962690638902, 13.040001594175701 ], [ 77.560857873288597, 13.039889699734999 ], [ 77.560770517821993, 13.0397957015208 ], [ 77.560575839744502, 13.0395995582116 ], [ 77.560575838823098, 13.039599558220701 ], [ 77.560483031681798, 13.0395060519774 ], [ 77.5600826669383, 13.0392163900428 ], [ 77.559442192792204, 13.0389313602508 ], [ 77.558765777473496, 13.0386794340907 ], [ 77.558734646223201, 13.0386763538742 ], [ 77.557421688523206, 13.0385775266616 ], [ 77.557297291173697, 13.0385776263442 ], [ 77.557310724440796, 13.038483760207599 ], [ 77.557330318081696, 13.038372893435501 ], [ 77.557389339857096, 13.0381758089438 ], [ 77.557406091792899, 13.0379565556901 ], [ 77.5574289910695, 13.037664265020499 ], [ 77.557428992140501, 13.0376642651455 ], [ 77.557450895188296, 13.0373846788971 ], [ 77.557507868454096, 13.0367641202955 ], [ 77.557564058466397, 13.036291510144499 ], [ 77.557576010689701, 13.036109571822699 ], [ 77.557574049600305, 13.0359187363992 ], [ 77.557535041922804, 13.0357655344395 ], [ 77.557535040992093, 13.0357655335453 ], [ 77.557503244382701, 13.0356416226169 ], [ 77.557392251843694, 13.0351525947579 ], [ 77.557371717224498, 13.035003727536299 ], [ 77.557373842339501, 13.034930300839999 ], [ 77.557375163818406, 13.034890761638099 ], [ 77.557387329400697, 13.0347856148516 ], [ 77.557397848642793, 13.0346883895565 ], [ 77.557381044548407, 13.0346783916637 ], [ 77.557716587527494, 13.034153332232099 ], [ 77.557772737991499, 13.0340692080231 ], [ 77.557818121337505, 13.0340021299419 ], [ 77.558332571197099, 13.0332336287064 ], [ 77.5586199225, 13.0328389163789 ], [ 77.558884552529804, 13.032474919969999 ], [ 77.559363245258794, 13.031814056176399 ], [ 77.5597975725846, 13.031151371785 ], [ 77.559975558595099, 13.0309305250885 ], [ 77.559743587851202, 13.0303817111886 ], [ 77.559743587613198, 13.030381711505999 ], [ 77.559087792278604, 13.028827475672401 ], [ 77.559087791348006, 13.0288274747782 ], [ 77.558819817509303, 13.028193186805501 ], [ 77.558459165728493, 13.0273384672363 ], [ 77.5584045721275, 13.027219709730799 ], [ 77.558155306020197, 13.026677425988201 ], [ 77.557890729647497, 13.0261018298838 ], [ 77.557886617657104, 13.0260939652497 ], [ 77.557721465755606, 13.0257138859315 ], [ 77.5575613461573, 13.025150807044501 ], [ 77.557480332146199, 13.024888475353199 ], [ 77.557355223263002, 13.024482025943801 ], [ 77.557317763731106, 13.0243672050832 ], [ 77.5572214659163, 13.0240745324234 ], [ 77.557113845203403, 13.0237447038754 ], [ 77.557017536405894, 13.0234509018327 ], [ 77.556931364592003, 13.023190879277999 ], [ 77.556926043099097, 13.0231773799492 ], [ 77.556905955140195, 13.0231278880897 ], [ 77.556765154284705, 13.0227633776943 ], [ 77.556496905756006, 13.0221008545966 ], [ 77.556488577759097, 13.022074962386 ], [ 77.556434776032106, 13.021938845371 ], [ 77.556387861063996, 13.0218004017614 ], [ 77.556293860976197, 13.0215630423761 ], [ 77.556185222321005, 13.021302111572099 ], [ 77.556085997336695, 13.021116752314001 ], [ 77.556050950039804, 13.021068537178101 ], [ 77.555832444670202, 13.0205952479988 ], [ 77.555576230967105, 13.020038760517 ], [ 77.555544418832298, 13.0199690562677 ], [ 77.555486104359105, 13.019842017928999 ], [ 77.555374855789296, 13.0198318215157 ], [ 77.555173145972802, 13.0198168702274 ], [ 77.554935770189402, 13.019805658305801 ], [ 77.554638625099699, 13.0198063284674 ], [ 77.554373621573404, 13.0197965176402 ], [ 77.554342148356696, 13.0198160262774 ], [ 77.553910611193302, 13.019221121371 ], [ 77.553765312502605, 13.019322084394901 ], [ 77.5505787947491, 13.0250663872496 ], [ 77.5505787947491, 13.0250663872496 ], [ 77.550183850429605, 13.0257904461627 ] ] ], [ [ [ 77.568563270878897, 13.0341046867557 ], [ 77.568321682753904, 13.034411996818299 ], [ 77.568075533894202, 13.034723869229399 ], [ 77.567870321187897, 13.034984516557101 ], [ 77.5678657610122, 13.0349890790245 ], [ 77.5675776790209, 13.0353115308324 ], [ 77.567236967652804, 13.035668383629201 ], [ 77.566776619565204, 13.036151775796901 ], [ 77.566642162971704, 13.036293143385899 ], [ 77.566297005156898, 13.0366658498343 ], [ 77.566019627598905, 13.036965608224699 ], [ 77.565986024893505, 13.0370020792621 ], [ 77.565440028078498, 13.0376692673594 ], [ 77.565082669572604, 13.038143731817 ], [ 77.564870174517296, 13.038424777537999 ], [ 77.564655259194694, 13.038694554018599 ], [ 77.564349922544807, 13.0390758988593 ], [ 77.564286816930604, 13.039155575934 ], [ 77.564158878011, 13.0393149471725 ], [ 77.563910078609695, 13.0395940934682 ], [ 77.562802552865193, 13.041100273458399 ], [ 77.562245603551901, 13.0418240318812 ], [ 77.562111822016703, 13.041975555196601 ], [ 77.562135286962203, 13.0420171075108 ], [ 77.562213281926901, 13.042147641121099 ], [ 77.562714869241503, 13.0429870957866 ], [ 77.563845715392105, 13.045027855320299 ], [ 77.564145266181598, 13.0455929309701 ], [ 77.564356537254596, 13.045742429561299 ], [ 77.564466482802203, 13.0458202272062 ], [ 77.564929070435895, 13.046147558887 ], [ 77.565360344726599, 13.04636123986 ], [ 77.565750080108401, 13.046512090534399 ], [ 77.566128809226498, 13.046600937617599 ], [ 77.566662803186702, 13.0466667868083 ], [ 77.567260565995696, 13.0467199211229 ], [ 77.569028604394603, 13.046877070912799 ], [ 77.569431241010804, 13.0469385720261 ], [ 77.569918881255504, 13.047033107279001 ], [ 77.570126795534904, 13.047070973143001 ], [ 77.570165845416099, 13.047078084683299 ], [ 77.571561400138293, 13.0471664650193 ], [ 77.572462440906094, 13.0472235239132 ], [ 77.572611109614897, 13.047231079925201 ], [ 77.573387806429096, 13.047272420729399 ], [ 77.574049113953905, 13.0473076174576 ], [ 77.575024442128495, 13.047359524625501 ], [ 77.575838817511098, 13.047431581134299 ], [ 77.576259799235103, 13.047469189364399 ], [ 77.576823878069405, 13.047526256357299 ], [ 77.577347145577207, 13.047579193415499 ], [ 77.577554142945004, 13.0475977133604 ], [ 77.577554142904006, 13.0475977131445 ], [ 77.577994516634604, 13.0476371127905 ], [ 77.578240001801106, 13.0476504764084 ], [ 77.578315669179204, 13.0476471176119 ], [ 77.578315669366802, 13.047647118168699 ], [ 77.578362544975207, 13.047645037748 ], [ 77.578469692519704, 13.047640281906601 ], [ 77.578852508367206, 13.047567578484299 ], [ 77.579302456691806, 13.047415154162101 ], [ 77.579554022066404, 13.047292939935099 ], [ 77.579991963369096, 13.046982532350899 ], [ 77.580813613116405, 13.0463506970359 ], [ 77.5813221068818, 13.045959670239499 ], [ 77.582174300656902, 13.0452216395032 ], [ 77.582369981181301, 13.045042386703701 ], [ 77.582804329188207, 13.0447749247934 ], [ 77.583148112197094, 13.0445490211969 ], [ 77.583922608728301, 13.0440387507188 ], [ 77.584794493268006, 13.0434789459137 ], [ 77.585048789757394, 13.0433431486478 ], [ 77.585219609215002, 13.043265779268401 ], [ 77.585497197723498, 13.043154593435499 ], [ 77.585677994252094, 13.0430951928367 ], [ 77.586419394284704, 13.042947750856101 ], [ 77.587429177531007, 13.042745675960401 ], [ 77.588403055533107, 13.042580093928599 ], [ 77.588559112249399, 13.042578532911 ], [ 77.588958403017799, 13.0426513303284 ], [ 77.590483339574803, 13.0430855271866 ], [ 77.590572291774194, 13.0431106103734 ], [ 77.590466862089002, 13.042941142831699 ], [ 77.590264028960107, 13.0424327334434 ], [ 77.590138960982799, 13.0420364745881 ], [ 77.590115632681403, 13.0419531404818 ], [ 77.590024058995198, 13.0416209158859 ], [ 77.590020439292701, 13.041605142025301 ], [ 77.590571458393498, 13.0414821804415 ], [ 77.591586846725505, 13.041266483310499 ], [ 77.5922465110785, 13.0411243617911 ], [ 77.592668561168594, 13.041060281654801 ], [ 77.593194252897106, 13.0410493682911 ], [ 77.593555205410794, 13.041090922848801 ], [ 77.594754643705897, 13.0412392588673 ], [ 77.595027397206294, 13.041272661254601 ], [ 77.595055085074804, 13.041276900770599 ], [ 77.595417858121493, 13.041272133560099 ], [ 77.596351108388802, 13.0412435746253 ], [ 77.596595808554099, 13.041237731723101 ], [ 77.597378843985894, 13.0412185812266 ], [ 77.598145214637199, 13.041202983533999 ], [ 77.598438253389304, 13.041196660836301 ], [ 77.599316379952995, 13.0411585429915 ], [ 77.599318448978707, 13.041158453175401 ], [ 77.599495727184106, 13.041148767576299 ], [ 77.599740344000097, 13.0411350175692 ], [ 77.600225015957704, 13.041126709034099 ], [ 77.600536104637797, 13.0411213761766 ], [ 77.601053341094897, 13.0411127894607 ], [ 77.601357201921402, 13.0411074776707 ], [ 77.601694612048306, 13.0411006980714 ], [ 77.602085160747805, 13.0410858636433 ], [ 77.603092479256603, 13.0410476009805 ], [ 77.603392858960504, 13.0410361902837 ], [ 77.604435109829794, 13.040997467153099 ], [ 77.605251734806302, 13.0409757027354 ], [ 77.606274814110904, 13.0409481626293 ], [ 77.606726296671496, 13.0409360087274 ], [ 77.607368061393601, 13.0408459773081 ], [ 77.607694157439894, 13.040748961723301 ], [ 77.607791754669407, 13.040719746382001 ], [ 77.6082337753883, 13.0405289613291 ], [ 77.608613860696295, 13.040308309425001 ], [ 77.60883639443, 13.040166036049699 ], [ 77.609145941926002, 13.0399189919082 ], [ 77.609286847928502, 13.039791092438699 ], [ 77.6094437351545, 13.03964948048 ], [ 77.609664329918004, 13.039377359360399 ], [ 77.609764820122706, 13.0392397037308 ], [ 77.609914685557001, 13.039032664381301 ], [ 77.610036429528805, 13.0388349427615 ], [ 77.610228717674303, 13.038334993103 ], [ 77.610263687537298, 13.038245449359099 ], [ 77.610279192495597, 13.0382057466711 ], [ 77.610182149763006, 13.037958284548999 ], [ 77.610133616640496, 13.037833424302599 ], [ 77.610120604813105, 13.0378008065016 ], [ 77.610088467517897, 13.037701754260601 ], [ 77.610011650481397, 13.037460863721201 ], [ 77.609821143037095, 13.0368676558742 ], [ 77.609787502173504, 13.0367403895081 ], [ 77.609734765581194, 13.0365387779733 ], [ 77.609650198808197, 13.036217786679 ], [ 77.609598233363499, 13.035989072791899 ], [ 77.609524586840294, 13.0356669385767 ], [ 77.609506532860806, 13.0355879692216 ], [ 77.609486594572203, 13.0354893169223 ], [ 77.609462800097603, 13.035371588896 ], [ 77.609456134498004, 13.035340036331601 ], [ 77.609399658370407, 13.035061674193299 ], [ 77.609385840458799, 13.0350087401597 ], [ 77.609267061725802, 13.03455370667 ], [ 77.609255612022494, 13.0345052631494 ], [ 77.609199503415198, 13.034261904760401 ], [ 77.609187418740802, 13.034207821244999 ], [ 77.609185063620103, 13.034197726241899 ], [ 77.609156666770204, 13.0340760057243 ], [ 77.609042210229902, 13.033650292313199 ], [ 77.608984788922498, 13.033446471720399 ], [ 77.608932775008796, 13.033264052881499 ], [ 77.608923218628306, 13.0332314001255 ], [ 77.608753168468695, 13.0326662161235 ], [ 77.608688636750799, 13.032443269283201 ], [ 77.6086306640332, 13.032241712604799 ], [ 77.608630663798607, 13.032241712665 ], [ 77.608576887841096, 13.0320559244119 ], [ 77.608481396386907, 13.031736171427299 ], [ 77.608391852735906, 13.031434426896 ], [ 77.608391852726399, 13.0314344259927 ], [ 77.608364406768402, 13.0313432309223 ], [ 77.608329364877093, 13.031186614232601 ], [ 77.608239896933995, 13.0307821045142 ], [ 77.608167812960005, 13.0304463218633 ], [ 77.608129104814907, 13.0302660109119 ], [ 77.608108781868197, 13.030195071044499 ], [ 77.608071145208001, 13.0300655830553 ], [ 77.608002942998397, 13.0299318857169 ], [ 77.607946517390005, 13.0298229138892 ], [ 77.6078502185932, 13.0297007921699 ], [ 77.607689740528002, 13.0294991377817 ], [ 77.607679786104399, 13.0294834281019 ], [ 77.607557524996906, 13.029301715836899 ], [ 77.607493460450002, 13.029178140124699 ], [ 77.607400002226797, 13.0289972670575 ], [ 77.607171830031703, 13.028490259005901 ], [ 77.607082151147793, 13.0282856337321 ], [ 77.606853242869903, 13.027762821739101 ], [ 77.606852055786007, 13.0277594458473 ], [ 77.606836142442702, 13.027724598329799 ], [ 77.606454421435799, 13.026852118400299 ], [ 77.606425725449398, 13.026861441350899 ], [ 77.606026343676206, 13.026997585003899 ], [ 77.606012733751996, 13.0269627142332 ], [ 77.605510809791198, 13.0270953715512 ], [ 77.60522790329, 13.0271908177925 ], [ 77.605123455040996, 13.027217620289001 ], [ 77.604861480135099, 13.027284844999199 ], [ 77.604306591543406, 13.0274191620562 ], [ 77.604294534899395, 13.027422671108599 ], [ 77.604265623420702, 13.027356334156901 ], [ 77.604244858743996, 13.0273531550601 ], [ 77.604231074663701, 13.027356681475 ], [ 77.604036287400106, 13.027398164438299 ], [ 77.603700567513997, 13.027454615190599 ], [ 77.603498117372794, 13.027479235565901 ], [ 77.603286019973595, 13.0275175041251 ], [ 77.603116166801897, 13.027520340271 ], [ 77.602948864697794, 13.0275468656043 ], [ 77.602775240386805, 13.0275745836403 ], [ 77.602501025569296, 13.027620251401601 ], [ 77.602293992078302, 13.0276471754902 ], [ 77.602195669430998, 13.0276617145822 ], [ 77.601926013620101, 13.0277028188389 ], [ 77.601472380036199, 13.027772873305601 ], [ 77.601448219402599, 13.0277753745062 ], [ 77.601162957218307, 13.0278109883167 ], [ 77.601159352196305, 13.0278111166656 ], [ 77.599698471727905, 13.0278629560477 ], [ 77.599712936078902, 13.0278142516286 ], [ 77.599727196271004, 13.0277537577155 ], [ 77.599762567004404, 13.0276037065218 ], [ 77.599786395843097, 13.027514253861501 ], [ 77.599853417227393, 13.0272594921144 ], [ 77.599858591359293, 13.027246562724599 ], [ 77.599929196472203, 13.027070138293199 ], [ 77.599938724895907, 13.027046330391499 ], [ 77.599969805265005, 13.026989554218 ], [ 77.600044455240194, 13.026803602288499 ], [ 77.600086615664694, 13.0267049313676 ], [ 77.600320028412199, 13.0266122458589 ], [ 77.600461723604695, 13.026560005783001 ], [ 77.600494356280606, 13.026541609669 ], [ 77.600549738486393, 13.026495882363299 ], [ 77.6005889861393, 13.026449187727 ], [ 77.600660239614598, 13.026268916241101 ], [ 77.600664610302303, 13.0262462866785 ], [ 77.600670022272496, 13.026221990680501 ], [ 77.600670661263393, 13.026219123111099 ], [ 77.600661106360107, 13.026186469778301 ], [ 77.600610395779896, 13.0260729210899 ], [ 77.600496355960402, 13.025905802397199 ], [ 77.600471089156997, 13.0258574967727 ], [ 77.600433738446299, 13.0256997718229 ], [ 77.600435768711407, 13.0256184429513 ], [ 77.600428012038293, 13.025592547258199 ], [ 77.600431301859402, 13.0255767042534 ], [ 77.600479462161999, 13.0253356832437 ], [ 77.600498413059, 13.025220306003201 ], [ 77.600505590246897, 13.0251355376202 ], [ 77.600496055363706, 13.0249944727427 ], [ 77.600482819916195, 13.0248850649732 ], [ 77.600453131791895, 13.024744202356301 ], [ 77.600432200504898, 13.0246698796408 ], [ 77.600325421404605, 13.024425896485401 ], [ 77.600146637973396, 13.0240143723467 ], [ 77.600046417324904, 13.0237917795712 ], [ 77.599931719249696, 13.0235614269865 ], [ 77.599904114296606, 13.0235097568419 ], [ 77.600091554226793, 13.0234265675827 ], [ 77.600234845581795, 13.023361889785599 ], [ 77.600363765297004, 13.0232996147124 ], [ 77.600638784345307, 13.023165857715099 ], [ 77.600859830708799, 13.023047322892699 ], [ 77.600943908075905, 13.02299227336 ], [ 77.600611604167696, 13.022051526494099 ], [ 77.600362401856799, 13.021348224047401 ], [ 77.600207453245901, 13.0209579167631 ], [ 77.6001190213006, 13.0207611790528 ], [ 77.600029426139798, 13.0205633236687 ], [ 77.600008261446902, 13.020521752430801 ], [ 77.599877183966498, 13.020266719530699 ], [ 77.599842340079803, 13.0201835019217 ], [ 77.599830691608105, 13.020060526645 ], [ 77.599797442697493, 13.019854200897701 ], [ 77.599766171504697, 13.0197822402816 ], [ 77.599740705423699, 13.019714738574899 ], [ 77.599637128439895, 13.0195565481575 ], [ 77.599523797036696, 13.019346508353999 ], [ 77.599461101018505, 13.0192387030955 ], [ 77.599374271839594, 13.019089401417499 ], [ 77.599257533261806, 13.0188839127253 ], [ 77.599169398727199, 13.018770738591501 ], [ 77.599017068424104, 13.0186311052113 ], [ 77.598809930667201, 13.018426522580199 ], [ 77.598739928711197, 13.018340269319101 ], [ 77.598644273974003, 13.0182237824575 ], [ 77.598584988529694, 13.0181159652563 ], [ 77.598460565700293, 13.0178913551485 ], [ 77.598447627479302, 13.017865511242899 ], [ 77.5983600331584, 13.017693608364301 ], [ 77.598329314990707, 13.0176193833254 ], [ 77.598233647009806, 13.017391096944401 ], [ 77.598140353028199, 13.0171695624236 ], [ 77.598119083088207, 13.0171178283854 ], [ 77.597848099843105, 13.0165344475145 ], [ 77.597843398620199, 13.016524327423101 ], [ 77.597680092763397, 13.0162154097104 ], [ 77.597678441607201, 13.016208727067699 ], [ 77.597665062581498, 13.016154578780201 ], [ 77.597652746617797, 13.016077910627001 ], [ 77.597690391705797, 13.015766979372501 ], [ 77.597679709007906, 13.0156812605521 ], [ 77.597644678473799, 13.015579975646601 ], [ 77.597544940777794, 13.0154104922148 ], [ 77.597519811756598, 13.0153677912857 ], [ 77.597372243680098, 13.0150835968587 ], [ 77.597200136274196, 13.0147521439106 ], [ 77.597175447390697, 13.014703831826001 ], [ 77.596978713040201, 13.0143918602406 ], [ 77.596777537605405, 13.0140957429249 ], [ 77.596622801804898, 13.0138352975614 ], [ 77.596543789004798, 13.0137129963131 ], [ 77.596283954546493, 13.0133135711976 ], [ 77.596275764231194, 13.013301231022799 ], [ 77.596101276562194, 13.013024043571299 ], [ 77.595933945592805, 13.0127704993593 ], [ 77.595851455323498, 13.012645974003 ], [ 77.595792818847499, 13.012489589736299 ], [ 77.595690058249801, 13.0121879687588 ], [ 77.595562433451207, 13.0118210977488 ], [ 77.5953914492422, 13.011382385977599 ], [ 77.595801462617501, 13.011217923424301 ], [ 77.595768055667605, 13.011217128496 ], [ 77.595485887354798, 13.010497207089299 ], [ 77.595484700542997, 13.010493831096699 ], [ 77.595479389270807, 13.0104814620603 ], [ 77.595353481739494, 13.010168779424401 ], [ 77.5953511316267, 13.0101642857811 ], [ 77.595341319861404, 13.010051454977701 ], [ 77.594991742331601, 13.0091063489568 ], [ 77.594989380489906, 13.009100726134101 ], [ 77.5947786936363, 13.009218021405699 ], [ 77.594752360700994, 13.0092329655984 ], [ 77.594615774038402, 13.0088345630507 ], [ 77.594435900734496, 13.0080944182021 ], [ 77.594351415972298, 13.0078886029334 ], [ 77.594241085721094, 13.0075995580487 ], [ 77.594086294993303, 13.007201257412399 ], [ 77.593968205326206, 13.0069201154131 ], [ 77.5938970707452, 13.0067721703704 ], [ 77.593327857201203, 13.005588306549299 ], [ 77.5932629004934, 13.0056544547231 ], [ 77.593238212280298, 13.0057168125318 ], [ 77.593170481032203, 13.005903822654201 ], [ 77.5931426791946, 13.0059436257438 ], [ 77.593117990934701, 13.0060059835508 ], [ 77.592964832488406, 13.006339526133001 ], [ 77.592679374240603, 13.006797483712599 ], [ 77.592310731724098, 13.007396304647999 ], [ 77.592281307907697, 13.007446287535601 ], [ 77.591700608627306, 13.0084187642654 ], [ 77.591152092980195, 13.0092192663663 ], [ 77.590667640056196, 13.009923138077101 ], [ 77.590662540157197, 13.009931094070399 ], [ 77.590662540166505, 13.0099310949737 ], [ 77.589802487943203, 13.0112304671239 ], [ 77.589112101041195, 13.0122333981232 ], [ 77.588741613240302, 13.0127114005897 ], [ 77.588287150129901, 13.0133099462529 ], [ 77.588119826082604, 13.013500208642 ], [ 77.587795192241899, 13.013791418928101 ], [ 77.587583003421699, 13.0139313105163 ], [ 77.587175481242795, 13.0141149349452 ], [ 77.586853222974696, 13.0142468898828 ], [ 77.586666605678104, 13.0142984406325 ], [ 77.586522352617607, 13.0143258534433 ], [ 77.586019743980003, 13.014391848609201 ], [ 77.585250835251699, 13.014488730532401 ], [ 77.584641741232204, 13.014503837105201 ], [ 77.583972694243599, 13.01451276393 ], [ 77.583944597623997, 13.0148021443921 ], [ 77.583968723770894, 13.015907487323201 ], [ 77.5839743011894, 13.0168899214811 ], [ 77.5839649451881, 13.0172649418418 ], [ 77.583946950034402, 13.017973191362399 ], [ 77.583933556279504, 13.0191252092791 ], [ 77.583928437994103, 13.019298041712 ], [ 77.5839284370266, 13.0192980420625 ], [ 77.583918104667205, 13.0196900116034 ], [ 77.583961362909804, 13.020251970924701 ], [ 77.583971416799798, 13.020388515784999 ], [ 77.584025061945695, 13.0206748227071 ], [ 77.584073374789, 13.020891166270401 ], [ 77.584165246073496, 13.0211985486375 ], [ 77.584204572726705, 13.021325767187699 ], [ 77.584205759475907, 13.021329143248501 ], [ 77.584449026574603, 13.022186113094399 ], [ 77.584590071788398, 13.022681597408299 ], [ 77.584655236649994, 13.022912453468701 ], [ 77.584623813031797, 13.022936482137901 ], [ 77.583685272754707, 13.023670850936099 ], [ 77.582737296458006, 13.024550990898801 ], [ 77.582609720680395, 13.0246324427572 ], [ 77.5825765340619, 13.0246531009234 ], [ 77.582349327972906, 13.0247897520678 ], [ 77.582144592448401, 13.0248719727457 ], [ 77.581847173584094, 13.024957375461099 ], [ 77.581696929703099, 13.025018725439701 ], [ 77.581432095581306, 13.025136552751199 ], [ 77.581279147883393, 13.0252148689639 ], [ 77.581155260121704, 13.025318869506799 ], [ 77.581140522861006, 13.0253416023273 ], [ 77.581096334465798, 13.025412059153901 ], [ 77.581015777606396, 13.025696316033301 ], [ 77.580950672413906, 13.0257489124188 ], [ 77.580839501614307, 13.0258019676741 ], [ 77.5806570786268, 13.025925749258199 ], [ 77.580638263751496, 13.0259440054776 ], [ 77.580467237383203, 13.026111716170499 ], [ 77.580267522389306, 13.026345211965101 ], [ 77.580085248104098, 13.026539008442001 ], [ 77.5801045336095, 13.0265105838527 ], [ 77.579999357079004, 13.026530829408101 ], [ 77.579241990635495, 13.02668969708 ], [ 77.579103509725897, 13.0267193082819 ], [ 77.579023587301606, 13.0267313969422 ], [ 77.578945392333097, 13.026743468382699 ], [ 77.578729786130296, 13.026777235054199 ], [ 77.578623410860899, 13.026792974812199 ], [ 77.578506694134305, 13.026811076062801 ], [ 77.578121620228401, 13.026847291429 ], [ 77.577780060400997, 13.0268792896485 ], [ 77.577726590611505, 13.0268877268051 ], [ 77.577724672987301, 13.026925012879801 ], [ 77.577719451419597, 13.0271994854263 ], [ 77.577707262458006, 13.027245908126799 ], [ 77.577687841469697, 13.027250593285901 ], [ 77.577684358035896, 13.0272585583633 ], [ 77.576958107914606, 13.027364033101399 ], [ 77.576935109961099, 13.027367649782899 ], [ 77.576935109950796, 13.027367650689101 ], [ 77.576717176899194, 13.027399180359 ], [ 77.575886614732696, 13.027553120544299 ], [ 77.575830288890202, 13.027563844352599 ], [ 77.5758199356994, 13.0275650766014 ], [ 77.574653604458305, 13.027772040900601 ], [ 77.574653603527594, 13.027772040006401 ], [ 77.574559907133406, 13.0277887815013 ], [ 77.574022488959699, 13.0278889837739 ], [ 77.573463235349394, 13.0279939191523 ], [ 77.573455772920596, 13.0279962518996 ], [ 77.572008771221803, 13.0283505444767 ], [ 77.571530532060805, 13.0284377319666 ], [ 77.571443169126695, 13.028454409537 ], [ 77.571251475968495, 13.028461958934701 ], [ 77.571112123200294, 13.0288552129325 ], [ 77.570894460106004, 13.0294694574792 ], [ 77.570681048212194, 13.0300509107783 ], [ 77.570329262640001, 13.031007538454899 ], [ 77.570297465787306, 13.0311072331686 ], [ 77.570181491863707, 13.031476538714999 ], [ 77.570110104341396, 13.031701979587 ], [ 77.570047748292097, 13.031853925768001 ], [ 77.569989318144906, 13.031995669207699 ], [ 77.569852750920703, 13.032266929245001 ], [ 77.569476640309901, 13.032875970965801 ], [ 77.569034171080602, 13.033416782935101 ], [ 77.568627883526403, 13.034010299550101 ], [ 77.568563270878897, 13.0341046867557 ] ] ], [ [ [ 77.560135824677801, 13.0841591931995 ], [ 77.560120413562302, 13.084172897870999 ], [ 77.560094681726099, 13.0841912221999 ], [ 77.559940878248199, 13.084302291616 ], [ 77.5596822326156, 13.0844686081519 ], [ 77.558955505339597, 13.084933351679201 ], [ 77.558909126675402, 13.0849630112189 ], [ 77.558842883721795, 13.084907202533 ], [ 77.5587933205166, 13.084848969771301 ], [ 77.558715400043198, 13.084722130073599 ], [ 77.557417374522302, 13.085201406932599 ], [ 77.557171028985906, 13.085292496389901 ], [ 77.5568618988151, 13.085406801423099 ], [ 77.556305514574902, 13.085635919507499 ], [ 77.555708974179794, 13.085881244803801 ], [ 77.555653826822095, 13.0859518087316 ], [ 77.555607679872395, 13.086057292301099 ], [ 77.555556965085501, 13.085999070235101 ], [ 77.554952998110394, 13.0857475681781 ], [ 77.554557288931903, 13.085582089191799 ], [ 77.554379756347501, 13.0855149586694 ], [ 77.554101045176097, 13.085411562211601 ], [ 77.553899112662094, 13.0853243451495 ], [ 77.553860336562394, 13.085306659910099 ], [ 77.553714866455095, 13.085240867506901 ], [ 77.553706395781205, 13.0852370366846 ], [ 77.553308437290497, 13.084908955913701 ], [ 77.553244333386402, 13.0848691480663 ], [ 77.553002337130295, 13.084718871588301 ], [ 77.552823031010803, 13.0846472400812 ], [ 77.552718583011398, 13.084629075097199 ], [ 77.552408857625295, 13.0845903545427 ], [ 77.552357904994494, 13.084564884263701 ], [ 77.552309832216295, 13.084539385484 ], [ 77.552154379929505, 13.084434767222801 ], [ 77.552067944563504, 13.084375768278299 ], [ 77.551741133700403, 13.0839995068212 ], [ 77.551512987024395, 13.083736415356 ], [ 77.551251386618603, 13.083392300871701 ], [ 77.551243852578096, 13.0833878580841 ], [ 77.550937651081, 13.0831876077999 ], [ 77.550770885092007, 13.0830469620385 ], [ 77.550637385907706, 13.082892435456101 ], [ 77.5505439188818, 13.0827657461044 ], [ 77.550442197850401, 13.0825646031135 ], [ 77.550376284459801, 13.0824286067605 ], [ 77.550350396157995, 13.082375784545 ], [ 77.550248441013295, 13.082263860083801 ], [ 77.550151581414895, 13.082199316691501 ], [ 77.550097645135594, 13.082163711431001 ], [ 77.549722896807197, 13.082131276191401 ], [ 77.549323923142495, 13.082095691749201 ], [ 77.549116297354999, 13.082070639095599 ], [ 77.549014776715396, 13.082056960738701 ], [ 77.548950001730901, 13.0820316261639 ], [ 77.548903738865803, 13.082014013973501 ], [ 77.548835828731001, 13.081963865247801 ], [ 77.548596979277093, 13.0817030921925 ], [ 77.548574551504501, 13.0817067016549 ], [ 77.548264501499204, 13.081748160460201 ], [ 77.548268131341601, 13.0817650644543 ], [ 77.547817201913603, 13.081830500316 ], [ 77.547721201471205, 13.0818495172831 ], [ 77.547225613088102, 13.0819413674987 ], [ 77.547217008411394, 13.081944840404001 ], [ 77.547259920245594, 13.082140919080199 ], [ 77.547354236947399, 13.0825747774856 ], [ 77.547402012044202, 13.0827956531918 ], [ 77.547446145837398, 13.0829984956505 ], [ 77.547495096305795, 13.0832216183473 ], [ 77.547494974828496, 13.083221635808799 ], [ 77.547006783902503, 13.083293068968899 ], [ 77.546799702100202, 13.083321087419501 ], [ 77.546663982323906, 13.0833427547851 ], [ 77.546551890398405, 13.083363228518801 ], [ 77.546539793479596, 13.0833654376064 ], [ 77.546419072010707, 13.083389215477 ], [ 77.546390884335096, 13.083392881623499 ], [ 77.546433378512404, 13.083548308953301 ], [ 77.545186644690801, 13.083527859402199 ], [ 77.545169115559204, 13.0841209278459 ], [ 77.545164081812004, 13.084303928119599 ], [ 77.545176265633202, 13.084424645684299 ], [ 77.5451949047455, 13.084613059051 ], [ 77.545214989940604, 13.0847178881136 ], [ 77.545249340365004, 13.0851476837226 ], [ 77.545259272318503, 13.085271949681699 ], [ 77.544654883358405, 13.085876453909499 ], [ 77.544025525177304, 13.086237269123201 ], [ 77.542976974744406, 13.0873573853675 ], [ 77.542433526725503, 13.0879379191267 ], [ 77.541565582893597, 13.089075799854999 ], [ 77.540780877592098, 13.090073951608399 ], [ 77.540780244419494, 13.0902582388554 ], [ 77.540774658406093, 13.091883196019801 ], [ 77.541632520899398, 13.093187020278 ], [ 77.542204963549295, 13.0942948929862 ], [ 77.542454570913506, 13.0955692885949 ], [ 77.542456637838995, 13.0955798432213 ], [ 77.542395229668401, 13.095658372321299 ], [ 77.543344204639894, 13.0979788103059 ], [ 77.543381969483093, 13.098178328246 ], [ 77.543423727812396, 13.0983179525262 ], [ 77.543967703765304, 13.0997366627126 ], [ 77.544080915713394, 13.1001025756955 ], [ 77.544223774789103, 13.1003823672271 ], [ 77.544316087917295, 13.100564406429299 ], [ 77.5444289908896, 13.1007880272835 ], [ 77.544244806910598, 13.1008033975915 ], [ 77.544229361599804, 13.1013185219857 ], [ 77.544547319811201, 13.1013153826599 ], [ 77.544901122609701, 13.101380777718299 ], [ 77.545173659971994, 13.101274188379699 ], [ 77.545633789662901, 13.1012905676393 ], [ 77.5460095008049, 13.101247167085701 ], [ 77.546362123619701, 13.1012096633415 ], [ 77.546741276876503, 13.101175131327 ], [ 77.547149725885305, 13.101176741143099 ], [ 77.547656400227496, 13.1010949387924 ], [ 77.548072238958099, 13.101030973472501 ], [ 77.548504635625804, 13.101008628649801 ], [ 77.548893132778602, 13.1010307608184 ], [ 77.549661620979407, 13.1010321933515 ], [ 77.5502882657063, 13.100965009509499 ], [ 77.550790439689194, 13.1009498755992 ], [ 77.551047374154194, 13.1008389177093 ], [ 77.551223550883506, 13.100829268456 ], [ 77.551593108801896, 13.100858359950299 ], [ 77.551927431285705, 13.1008222993548 ], [ 77.552457100865198, 13.100680406380899 ], [ 77.553939289087197, 13.1004898585667 ], [ 77.554608153010705, 13.1004038672924 ], [ 77.555076438005202, 13.1003427592197 ], [ 77.555137978801298, 13.1004449168171 ], [ 77.555214739942699, 13.100459834269399 ], [ 77.555550956984405, 13.100315496891 ], [ 77.555612039373003, 13.1004075158286 ], [ 77.555774694725102, 13.1003493873746 ], [ 77.556159948603906, 13.1002252520358 ], [ 77.556551522886195, 13.100709750467001 ], [ 77.556945340152893, 13.1005795399935 ], [ 77.557330220597507, 13.1004157324896 ], [ 77.557462367411901, 13.100734395538501 ], [ 77.557128764819893, 13.1008724331012 ], [ 77.557295011187307, 13.101165496465301 ], [ 77.557563984728304, 13.1014238603832 ], [ 77.557850138536296, 13.101682051580401 ], [ 77.558170048805593, 13.1020923600103 ], [ 77.558294135595503, 13.102264188572001 ], [ 77.558387691037296, 13.1023937396542 ], [ 77.558913126460695, 13.102903288292101 ], [ 77.558984763700707, 13.103082451045401 ], [ 77.5593089376611, 13.1033127243441 ], [ 77.559352671489805, 13.1033790196455 ], [ 77.559357341243299, 13.1033860987691 ], [ 77.559149156793396, 13.1034009241998 ], [ 77.558922863701198, 13.1033436370447 ], [ 77.559027184532496, 13.104338394355601 ], [ 77.5591591167329, 13.1045902495327 ], [ 77.559339447340193, 13.1048707862602 ], [ 77.559446009729598, 13.105036865828 ], [ 77.559589982121295, 13.105310987593001 ], [ 77.559716285280402, 13.1056033537666 ], [ 77.559958429913095, 13.1058448790086 ], [ 77.559958429922503, 13.105844879911899 ], [ 77.560127204413405, 13.1061774789074 ], [ 77.560299017578899, 13.1065811941126 ], [ 77.560409317967, 13.106774339337299 ], [ 77.560516073987898, 13.107016698046699 ], [ 77.560516074319395, 13.107016697917199 ], [ 77.560542052743799, 13.1070756744354 ], [ 77.560553289152594, 13.1071037955177 ], [ 77.560659706287396, 13.107366996429599 ], [ 77.560703394875006, 13.1074693294103 ], [ 77.5609512889705, 13.107932140926801 ], [ 77.561077977830195, 13.1083171054948 ], [ 77.561086322592004, 13.108344125972801 ], [ 77.561095231689393, 13.1083700115284 ], [ 77.560959777043806, 13.1089170764528 ], [ 77.560535487439296, 13.109035090560599 ], [ 77.560046847194798, 13.1093098614678 ], [ 77.560048539976407, 13.1095541869368 ], [ 77.560122369599995, 13.1098316629247 ], [ 77.560283656985604, 13.110560358809799 ], [ 77.560313425500894, 13.111151256222399 ], [ 77.560222780860798, 13.1115346974966 ], [ 77.560130334928004, 13.1117442726076 ], [ 77.559811524373799, 13.1117938097067 ], [ 77.5597096096229, 13.1119002019925 ], [ 77.559675302467298, 13.1121111568721 ], [ 77.559813907066101, 13.1124029256572 ], [ 77.559832872835401, 13.1124040823507 ], [ 77.560089390626899, 13.1123590573843 ], [ 77.560403091655303, 13.112958726441301 ], [ 77.561062020230693, 13.113775206438 ], [ 77.561440319532693, 13.113759851094599 ], [ 77.561607705996096, 13.113766525536301 ], [ 77.561626895356198, 13.113817032492401 ], [ 77.561670492408794, 13.1139103314329 ], [ 77.561682869767495, 13.1139373117158 ], [ 77.562354158759902, 13.1155636127087 ], [ 77.562582278003802, 13.1163405651241 ], [ 77.562574133744604, 13.1164004670362 ], [ 77.5625741346756, 13.116400467930401 ], [ 77.562567825797203, 13.116446864915501 ], [ 77.562836573325797, 13.117753057997 ], [ 77.563119078656996, 13.119385483227999 ], [ 77.5632638748788, 13.1205156077247 ], [ 77.5633903993903, 13.120938967200299 ], [ 77.563646098991896, 13.121439554551401 ], [ 77.563868483186695, 13.121874917557999 ], [ 77.564308029220498, 13.122927569017699 ], [ 77.564742049778204, 13.1241135322466 ], [ 77.564957101219804, 13.124628610678201 ], [ 77.565175115142097, 13.125151564360101 ], [ 77.565509533642597, 13.1259545539714 ], [ 77.568166679639504, 13.125297889527699 ], [ 77.568255216283106, 13.125280066122 ], [ 77.569572812553005, 13.1250049109237 ], [ 77.5698800755316, 13.126906974674601 ], [ 77.569938651647306, 13.127442807961399 ], [ 77.570279431230603, 13.1289108831575 ], [ 77.5704403968939, 13.1294863475953 ], [ 77.570717547173501, 13.130818411565 ], [ 77.570845492627598, 13.1310064341041 ], [ 77.570845492872806, 13.131006433574999 ], [ 77.570867911837794, 13.1310393798059 ], [ 77.5713165846675, 13.1332957538117 ], [ 77.571333620147797, 13.133935896851799 ], [ 77.571576442836403, 13.134625729313299 ], [ 77.571766471796394, 13.1352671500744 ], [ 77.571911271185996, 13.135973197965599 ], [ 77.571980189630395, 13.135976577531199 ], [ 77.572017587747098, 13.1359716861566 ], [ 77.5722271038873, 13.1358973146293 ], [ 77.572352449765802, 13.1361142880386 ], [ 77.572384417204105, 13.136251742690799 ], [ 77.572567540020302, 13.1362431343401 ], [ 77.572652870424903, 13.136249056169699 ], [ 77.572789049262397, 13.136324485610199 ], [ 77.572797440211303, 13.1363209071258 ], [ 77.572938182863297, 13.1362608815123 ], [ 77.573425532646596, 13.1360888669359 ], [ 77.573519095928404, 13.136387194404801 ], [ 77.573669658974595, 13.1369431548087 ], [ 77.573671293604903, 13.136949190578299 ], [ 77.573820555911894, 13.137726911883799 ], [ 77.573840356137794, 13.137857712209399 ], [ 77.573927517404599, 13.1384260056562 ], [ 77.573965871896803, 13.1386785843272 ], [ 77.573998197390594, 13.1390712563118 ], [ 77.573985612756601, 13.1395219722601 ], [ 77.573955140745198, 13.1396385951457 ], [ 77.573934179613303, 13.139728019623901 ], [ 77.574005485650204, 13.1404884522756 ], [ 77.574039624574297, 13.1409996822702 ], [ 77.574027342025801, 13.141203078916 ], [ 77.574399769543106, 13.1413359931221 ], [ 77.574380137406905, 13.1414423437735 ], [ 77.574250013486093, 13.1415610943218 ], [ 77.575142122071995, 13.141637982276899 ], [ 77.575176770019596, 13.141645540130501 ], [ 77.575211982277693, 13.141651963026799 ], [ 77.575606947771405, 13.141736089619799 ], [ 77.576080485772906, 13.141840884488399 ], [ 77.576724971450801, 13.141984618876799 ], [ 77.577269510766897, 13.142102250915601 ], [ 77.577327261407603, 13.142115223208499 ], [ 77.577793031707998, 13.142303660379101 ], [ 77.5782405426514, 13.1424538837838 ], [ 77.578658905206893, 13.142516313903601 ], [ 77.579195248616301, 13.1425662661131 ], [ 77.579999382426706, 13.1426598294128 ], [ 77.581213885621494, 13.1413353942434 ], [ 77.581397543510803, 13.1411573798104 ], [ 77.582383686057, 13.1401999963285 ], [ 77.5826980716013, 13.1389704269363 ], [ 77.582863701172201, 13.1382810242789 ], [ 77.582922089456403, 13.138134758988301 ], [ 77.582931023190596, 13.138107566228101 ], [ 77.583113653075301, 13.137666436738 ], [ 77.583191719451406, 13.137473672752799 ], [ 77.583389087410893, 13.136954474047 ], [ 77.583455256698699, 13.1367810275575 ], [ 77.583610357381801, 13.1364621380584 ], [ 77.583710642394095, 13.135805012344701 ], [ 77.583716048666204, 13.135771079293701 ], [ 77.583720878864199, 13.1357371520327 ], [ 77.583825771951794, 13.1353001916687 ], [ 77.5840331994346, 13.135191953493001 ], [ 77.584085527773496, 13.134521758396099 ], [ 77.584231870434607, 13.1342469992116 ], [ 77.584337444833594, 13.1340404072008 ], [ 77.584467509398706, 13.1338618012451 ], [ 77.584543627235803, 13.133758270692599 ], [ 77.584558285947693, 13.133727632507499 ], [ 77.584572956474005, 13.1336981234932 ], [ 77.584783244502006, 13.133257845042399 ], [ 77.584899600977295, 13.1330906696911 ], [ 77.585194050191802, 13.132820067701299 ], [ 77.585194051122997, 13.1328200685954 ], [ 77.585600617331906, 13.1326928879965 ], [ 77.585894649534396, 13.132767852023999 ], [ 77.585747596776301, 13.1333046138987 ], [ 77.586213200699106, 13.133313482433101 ], [ 77.586791538678497, 13.133359611729301 ], [ 77.587364675715605, 13.1333302224596 ], [ 77.587777915385004, 13.1333090316026 ], [ 77.588572214613706, 13.133292001652199 ], [ 77.589007121352793, 13.1332853641402 ], [ 77.589100009017201, 13.133297980224199 ], [ 77.591172770042306, 13.1332296694211 ], [ 77.594420192298102, 13.1329371867749 ], [ 77.596534593744295, 13.132775812240901 ], [ 77.598021442189903, 13.132326020544401 ], [ 77.598105261739803, 13.132298070922801 ], [ 77.599663336574096, 13.1317741479607 ], [ 77.601034435893595, 13.1333548213252 ], [ 77.601819964210605, 13.1341464008187 ], [ 77.6045169689218, 13.1341631345399 ], [ 77.604498248466498, 13.1338629373451 ], [ 77.60760823471, 13.1338167329929 ], [ 77.607573269381803, 13.133396998666599 ], [ 77.610406834767602, 13.133308394001601 ], [ 77.612010023312493, 13.1332401656837 ], [ 77.613863189305107, 13.1316426181548 ], [ 77.614563500847893, 13.131293330867701 ], [ 77.614925782674405, 13.131121386491101 ], [ 77.615206946541093, 13.131014634790301 ], [ 77.615709536579402, 13.1309812913646 ], [ 77.615709536569895, 13.1309812904613 ], [ 77.616966374664997, 13.1310136735506 ], [ 77.618528711131802, 13.1309525987275 ], [ 77.618570937265005, 13.1309528291352 ], [ 77.619539839822806, 13.1309581102532 ], [ 77.620509634873002, 13.130434415552299 ], [ 77.621916187751594, 13.129754944565599 ], [ 77.623059204624198, 13.129160591097399 ], [ 77.625028603084999, 13.128156913991401 ], [ 77.625981163510303, 13.1275317453113 ], [ 77.626179811557193, 13.1275218123636 ], [ 77.626383571763597, 13.127450847213399 ], [ 77.626659660073599, 13.1273554289413 ], [ 77.628242320613495, 13.1268254510705 ], [ 77.629172800643104, 13.1265087848764 ], [ 77.630484750919706, 13.1260391536838 ], [ 77.630584136715797, 13.125850681332301 ], [ 77.631429780595695, 13.124546779640401 ], [ 77.631826396982902, 13.123922763061399 ], [ 77.632252483692994, 13.123253274621799 ], [ 77.632688900596094, 13.1225802924076 ], [ 77.632756369411098, 13.122477124734999 ], [ 77.632791500525599, 13.1224234058697 ], [ 77.633252850585905, 13.1217117735327 ], [ 77.633541304068402, 13.121263896563301 ], [ 77.6344253062896, 13.119886196414701 ], [ 77.634564143323701, 13.1196702175732 ], [ 77.6351254178403, 13.1188220506834 ], [ 77.635654121154602, 13.117999060238001 ], [ 77.636299707122404, 13.1169546686223 ], [ 77.636410138185298, 13.1167762454754 ], [ 77.636832615893198, 13.116148572733501 ], [ 77.636998208200495, 13.115902958753001 ], [ 77.637203482194494, 13.115597088036701 ], [ 77.637273810706603, 13.115493605945 ], [ 77.637302705150802, 13.115448139994299 ], [ 77.637369013617899, 13.1153458283229 ], [ 77.638714455198297, 13.113271164530699 ], [ 77.638400108114894, 13.1120999683499 ], [ 77.638274752122697, 13.111634873417801 ], [ 77.638070187261604, 13.1108724683054 ], [ 77.637877314281198, 13.109913008425201 ], [ 77.637830510129703, 13.109680178795401 ], [ 77.637505143562095, 13.1083927799297 ], [ 77.637183312885, 13.1072205271476 ], [ 77.637023814892899, 13.1064158761278 ], [ 77.636990955411406, 13.1062513421132 ], [ 77.638018034518097, 13.1061967853539 ], [ 77.638278760725598, 13.106176047212401 ], [ 77.638545246631494, 13.106155249818601 ], [ 77.639337703703106, 13.1059766152718 ], [ 77.639924272230999, 13.1058294489092 ], [ 77.640031235513305, 13.105812543280599 ], [ 77.640116420017407, 13.105806024034599 ], [ 77.640833521953098, 13.105745599142599 ], [ 77.6408675046181, 13.1057452507708 ], [ 77.640901499330297, 13.1057460315171 ], [ 77.641256320597094, 13.1056362446589 ], [ 77.641404440619198, 13.1055895561196 ], [ 77.641922910897094, 13.105484865878401 ], [ 77.642286101355396, 13.1055116305615 ], [ 77.642928133738707, 13.1054881058541 ], [ 77.643075118886202, 13.105550964769201 ], [ 77.643213989358699, 13.1055551861471 ], [ 77.643803655603307, 13.105752399073999 ], [ 77.6441227794149, 13.105698307770799 ], [ 77.644208479163794, 13.105686135688 ], [ 77.645109274116095, 13.105566222151401 ], [ 77.645759784290604, 13.1054737195656 ], [ 77.647254087736897, 13.1052641387846 ], [ 77.648167500675001, 13.1051395684357 ], [ 77.649066597359493, 13.105023046891001 ], [ 77.649928830429104, 13.1049069015366 ], [ 77.650443296796496, 13.1048056238927 ], [ 77.650322473974697, 13.1044963263219 ], [ 77.649544564092096, 13.1027494901279 ], [ 77.649556127437805, 13.102538203486001 ], [ 77.649560022171897, 13.1024715383219 ], [ 77.6493399588785, 13.102039043942799 ], [ 77.649119574220904, 13.101630266561401 ], [ 77.649112908676798, 13.101384160839601 ], [ 77.6490698327991, 13.1010729335098 ], [ 77.648842143922806, 13.100519688001601 ], [ 77.648776915900299, 13.1003453262508 ], [ 77.648564610454201, 13.0997761127595 ], [ 77.648396183078205, 13.099323889011 ], [ 77.648225992361205, 13.0988682954255 ], [ 77.648154272906197, 13.098679319913099 ], [ 77.647706030597305, 13.098077522640899 ], [ 77.647633747975505, 13.097889681887301 ], [ 77.647533071234093, 13.097632119789001 ], [ 77.6475126920907, 13.0975577991903 ], [ 77.6472976283912, 13.096899453345999 ], [ 77.647095488189194, 13.096248776085201 ], [ 77.646734009659298, 13.0950871100175 ], [ 77.646119142779099, 13.0939303019668 ], [ 77.645101279056803, 13.091605470937001 ], [ 77.644488874359894, 13.090353774035201 ], [ 77.643350983028697, 13.088221003198599 ], [ 77.642829539215597, 13.087071128212299 ], [ 77.642752485048007, 13.086759116550001 ], [ 77.643282410883003, 13.086652054797501 ], [ 77.643584185005395, 13.086593629317001 ], [ 77.644992269465604, 13.0864109378377 ], [ 77.646130808569296, 13.086338282197399 ], [ 77.646524471106602, 13.0861467894509 ], [ 77.646597158089605, 13.0851861873247 ], [ 77.646602555720605, 13.0851522546656 ], [ 77.646495235124902, 13.085026880416001 ], [ 77.646101400513601, 13.084338694051601 ], [ 77.645519913693306, 13.0833915754943 ], [ 77.645122016708299, 13.082969929893199 ], [ 77.644551167483002, 13.0823174316465 ], [ 77.644460992342701, 13.082125254953301 ], [ 77.6438005251741, 13.080954219817301 ], [ 77.643286763799395, 13.080036888833 ], [ 77.642809194671102, 13.0791643553453 ], [ 77.642528445735294, 13.0786545520173 ], [ 77.642298510722398, 13.078156649696099 ], [ 77.642146389175295, 13.077826208302399 ], [ 77.641690161605894, 13.0774424168261 ], [ 77.641513618072096, 13.077294466339 ], [ 77.6414199220673, 13.0772159450828 ], [ 77.640973693717498, 13.0769596546274 ], [ 77.640237295359896, 13.0769310517272 ], [ 77.639558880393096, 13.076668099197599 ], [ 77.6390155607004, 13.076001750673401 ], [ 77.638308528775696, 13.075159781252699 ], [ 77.638190082385506, 13.0751866274656 ], [ 77.637661545284601, 13.0753064193183 ], [ 77.6368230470962, 13.075479855596701 ], [ 77.636026188712194, 13.075883480961799 ], [ 77.635860594275499, 13.075967357881099 ], [ 77.634935565122404, 13.076444510713999 ], [ 77.634049286976307, 13.0769016706196 ], [ 77.633763787094395, 13.077054859432 ], [ 77.633763447695699, 13.076543328913401 ], [ 77.632174151619296, 13.0774131531973 ], [ 77.631815101067502, 13.0776099169556 ], [ 77.630874403285901, 13.078141222953199 ], [ 77.630403668957101, 13.0783978448023 ], [ 77.630140242986698, 13.078541686359401 ], [ 77.629639726713293, 13.078814420164299 ], [ 77.629368908545899, 13.0789673704616 ], [ 77.629134182912097, 13.079047680385999 ], [ 77.628737922437907, 13.0791578668738 ], [ 77.628592597296205, 13.0791954832473 ], [ 77.627779257681098, 13.079408161333101 ], [ 77.627598908543504, 13.079456297125599 ], [ 77.6273044752283, 13.0796094860211 ], [ 77.627108560289599, 13.079765059596101 ], [ 77.626793666171807, 13.0799986337229 ], [ 77.626186518487998, 13.080428285158501 ], [ 77.625821586675897, 13.080723347638701 ], [ 77.6255132045099, 13.0809737932664 ], [ 77.625116270089904, 13.0812928950968 ], [ 77.624991277376296, 13.0814014463504 ], [ 77.624975053563503, 13.081446781815799 ], [ 77.624973144287793, 13.081484066845 ], [ 77.624971163296493, 13.0815145770387 ], [ 77.625055836790693, 13.0821133531639 ], [ 77.625072723573794, 13.082293863087401 ], [ 77.624675554287705, 13.0824277682761 ], [ 77.623994665429393, 13.082584884991499 ], [ 77.623889052510904, 13.082619836819401 ], [ 77.623637867330402, 13.0827782290903 ], [ 77.623519342341396, 13.082844931413399 ], [ 77.623266421930595, 13.0828938026191 ], [ 77.623570335013298, 13.0828737737466 ], [ 77.623651660939998, 13.082884239448401 ], [ 77.623682230720405, 13.0829426502234 ], [ 77.623690243563601, 13.082992256265101 ], [ 77.623696571527006, 13.083426957698199 ], [ 77.623626407928697, 13.084144752387999 ], [ 77.623607717550897, 13.084338046209499 ], [ 77.623603506853897, 13.084593302183499 ], [ 77.623613257198201, 13.0846982243715 ], [ 77.623671276630205, 13.085118848951399 ], [ 77.623751175187195, 13.0857018646168 ], [ 77.623802090011495, 13.085886545667201 ], [ 77.624106269494405, 13.087088373426001 ], [ 77.624111823546698, 13.087123324020901 ], [ 77.6240955635311, 13.087165272095699 ], [ 77.6240100687573, 13.087250836404399 ], [ 77.623780168682998, 13.0876247019938 ], [ 77.623721069221801, 13.0877551682124 ], [ 77.623747787535294, 13.0878305569495 ], [ 77.623833635997698, 13.0880002300946 ], [ 77.623433399239602, 13.0879273059135 ], [ 77.623066550565895, 13.088249449653199 ], [ 77.6228784726176, 13.088507428567199 ], [ 77.622862616287705, 13.088541141473501 ], [ 77.622742485390006, 13.0885515394947 ], [ 77.622599562476793, 13.088554659580399 ], [ 77.622431097826393, 13.088556372491601 ], [ 77.622264457693404, 13.0885697333807 ], [ 77.621999065881496, 13.0885790986011 ], [ 77.6218685756441, 13.0885953937099 ], [ 77.621744352348699, 13.088625976630601 ], [ 77.621624645211995, 13.0886307112866 ], [ 77.621518736643594, 13.0885813566731 ], [ 77.621293208721994, 13.0885449449036 ], [ 77.621054558321106, 13.0885133585922 ], [ 77.620942805973499, 13.0884751633064 ], [ 77.620692287777899, 13.088374352302701 ], [ 77.620410091200498, 13.0883020501883 ], [ 77.620212415632494, 13.088246202109101 ], [ 77.620137945988205, 13.0882363868859 ], [ 77.620010865405604, 13.088242376423 ], [ 77.619931894495707, 13.0882607987235 ], [ 77.619807485730703, 13.0882926049215 ], [ 77.619704981728304, 13.088240784711299 ], [ 77.6195309992506, 13.0881215577809 ], [ 77.619380485031797, 13.088066701690799 ], [ 77.6193249929659, 13.088053193675799 ], [ 77.619253456299603, 13.0880578888119 ], [ 77.6191198777652, 13.088071150399699 ], [ 77.619125089762306, 13.0881808882471 ], [ 77.619108847844998, 13.0883053952035 ], [ 77.619043453016999, 13.0883020941627 ], [ 77.619043453016999, 13.0883020941627 ], [ 77.618803428823597, 13.088289976408699 ], [ 77.618593698815602, 13.0882432121634 ], [ 77.618445776073699, 13.0882111990821 ], [ 77.618383700930593, 13.0882065921619 ], [ 77.618291761361107, 13.088209620482701 ], [ 77.618163464312403, 13.088213017825099 ], [ 77.617924094116603, 13.0881328131992 ], [ 77.617586113882794, 13.088030597324201 ], [ 77.617315707916902, 13.0879379336609 ], [ 77.6170498691326, 13.0878452233377 ], [ 77.616761946493099, 13.087745500398601 ], [ 77.616689450730107, 13.0877226477152 ], [ 77.6165871238954, 13.087726043665601 ], [ 77.616346259698901, 13.0877249500536 ], [ 77.6161198973534, 13.087728424954699 ], [ 77.615960565798304, 13.0876934797295 ], [ 77.615819951822402, 13.0876591928866 ], [ 77.615514216709002, 13.087623749027999 ], [ 77.615223793803395, 13.0875593532003 ], [ 77.615035798843195, 13.087506721820599 ], [ 77.6149866727675, 13.0874987855803 ], [ 77.614962077000797, 13.087473313743599 ], [ 77.614729306960896, 13.0872542129979 ], [ 77.614718991538695, 13.0872389438127 ], [ 77.614610819106005, 13.087050617644 ], [ 77.614605627079598, 13.0870455182613 ], [ 77.614590079049194, 13.0870200712219 ], [ 77.614574531964394, 13.086994626252901 ], [ 77.614558975115202, 13.0869742553725 ], [ 77.614548664045699, 13.086948828322701 ], [ 77.614522748095197, 13.0869233203261 ], [ 77.614517583365497, 13.086913143964299 ], [ 77.614502107525794, 13.086877540201 ], [ 77.614481372919897, 13.086857131391 ], [ 77.614460651274598, 13.086831650111 ], [ 77.614434702491494, 13.086811216247201 ], [ 77.614413954240902, 13.0867908112085 ], [ 77.614398344064199, 13.0867856625855 ], [ 77.614361999937998, 13.086760096114 ], [ 77.614336001305801, 13.086749810527801 ], [ 77.614310028346594, 13.086734444053 ], [ 77.614268321719805, 13.0867191029098 ], [ 77.614237038509899, 13.086708874414301 ], [ 77.6142162758062, 13.086693536911501 ], [ 77.614179706049299, 13.0866834041422 ], [ 77.614164037579101, 13.086673307912699 ], [ 77.614143185743103, 13.0866631664572 ], [ 77.614127548400305, 13.0866631194066 ], [ 77.614106807899802, 13.086647774251601 ], [ 77.614086013694106, 13.0866425813105 ], [ 77.614077598432104, 13.086640484133801 ], [ 77.614065212733394, 13.0866373974794 ], [ 77.614034021185205, 13.086627083079801 ], [ 77.613992410613307, 13.0866167156135 ], [ 77.613971603302602, 13.0866115315463 ], [ 77.613945586200998, 13.0866063210325 ], [ 77.613919538859804, 13.0866062053487 ], [ 77.6138935162233, 13.0866010096933 ], [ 77.613862282770398, 13.0865957962073 ], [ 77.613805029153696, 13.086585278960101 ], [ 77.613768553848203, 13.0865850313431 ], [ 77.613732068635201, 13.086584783541101 ], [ 77.613695571360594, 13.0865845202082 ], [ 77.613659062223604, 13.0865842561484 ], [ 77.613627768274696, 13.0865840672289 ], [ 77.613591269635293, 13.086583904736701 ], [ 77.613570418423194, 13.086583827795 ], [ 77.613523508600295, 13.086583659175099 ], [ 77.613497450187893, 13.0865835656298 ], [ 77.613450563084399, 13.086583423700199 ], [ 77.613434936442204, 13.0865833769108 ], [ 77.613403735984207, 13.086583367330499 ], [ 77.613377747816997, 13.086583363438301 ], [ 77.613356963693107, 13.0865833602269 ], [ 77.613320605520499, 13.086583354711401 ], [ 77.6132841579104, 13.086583211470501 ], [ 77.613263358863605, 13.086583162987999 ], [ 77.613232165279598, 13.0865830905156 ], [ 77.613211321814404, 13.086588083431399 ], [ 77.613180031943699, 13.0865980935439 ], [ 77.613153983161894, 13.0866030637157 ], [ 77.613138343475399, 13.0866080732653 ], [ 77.613112284279893, 13.086613031994 ], [ 77.613070586507703, 13.0866230000388 ], [ 77.613044535545399, 13.0866228738643 ], [ 77.613002930136801, 13.086627821813201 ], [ 77.612956004143001, 13.086637746900999 ], [ 77.612924620636306, 13.086642601401399 ], [ 77.612903718123405, 13.086642462152099 ], [ 77.612877533262704, 13.0866422549374 ], [ 77.612851330994204, 13.086647131120101 ], [ 77.612817713066207, 13.0866471294914 ], [ 77.612750942217801, 13.086861379993 ], [ 77.612616763093399, 13.087318090695399 ], [ 77.612618000267105, 13.087325692759199 ], [ 77.612541868495796, 13.087519153837301 ], [ 77.612427755091602, 13.0876816544523 ], [ 77.612342985325299, 13.0877362946096 ], [ 77.612197197828195, 13.0877855769528 ], [ 77.612142779387199, 13.0878279582096 ], [ 77.612088801726202, 13.087912165153799 ], [ 77.612052984522805, 13.0879842367126 ], [ 77.611986878814307, 13.088074542201699 ], [ 77.611908645064403, 13.088170946232299 ], [ 77.611654695293595, 13.0883496836102 ], [ 77.611322755983807, 13.0887832986701 ], [ 77.610793479802197, 13.089581039731 ], [ 77.610497395406796, 13.0899461663652 ], [ 77.609981495855806, 13.09062545327 ], [ 77.609729751102293, 13.091033155054699 ], [ 77.609398974726602, 13.0915779054816 ], [ 77.609043693385303, 13.092226880806599 ], [ 77.608897894313998, 13.0926227568873 ], [ 77.608664884377205, 13.093073294912401 ], [ 77.608468823528696, 13.0935593148471 ], [ 77.608290371730007, 13.093983343793299 ], [ 77.608247577674007, 13.094085028286001 ], [ 77.608122037424707, 13.0943466374026 ], [ 77.608001542626099, 13.0944162342835 ], [ 77.6078597865977, 13.094452500422999 ], [ 77.607735245213505, 13.094436344027701 ], [ 77.607530760608796, 13.094420996111699 ], [ 77.606774176134493, 13.094280611679499 ], [ 77.606284163579701, 13.0941462383584 ], [ 77.6060972605449, 13.094113296282201 ], [ 77.606016767758106, 13.094061862385599 ], [ 77.606042590832303, 13.093983229662699 ], [ 77.606109713539198, 13.093608108793401 ], [ 77.606046435998607, 13.0935042533618 ], [ 77.605980934633493, 13.093468830984801 ], [ 77.605980757848798, 13.093452024635701 ], [ 77.606327219310302, 13.0928126350477 ], [ 77.606635786190196, 13.0919969916723 ], [ 77.6065048703299, 13.091885268248999 ], [ 77.606715806382297, 13.091381489485 ], [ 77.606808086783204, 13.0912463156786 ], [ 77.607089534915502, 13.0912787977703 ], [ 77.607516232655499, 13.0900450994406 ], [ 77.607748565368396, 13.0895199080634 ], [ 77.607838017814402, 13.0891162745757 ], [ 77.607871748641301, 13.0888969067117 ], [ 77.607942778527502, 13.0887972722188 ], [ 77.608044317707595, 13.0883654400686 ], [ 77.607946083034605, 13.0883449500328 ], [ 77.607710231144395, 13.0882855904302 ], [ 77.607400924588802, 13.088235110245799 ], [ 77.607018610916199, 13.0881906751777 ], [ 77.605929439221896, 13.0876945634708 ], [ 77.605630981237795, 13.0873859344685 ], [ 77.605371140726405, 13.087285454346899 ], [ 77.605035061979507, 13.0871475083596 ], [ 77.604164140656295, 13.086844138351699 ], [ 77.604161060395001, 13.086843065466301 ], [ 77.603470615388702, 13.0865131720732 ], [ 77.602572634509698, 13.086160419597901 ], [ 77.602143876073697, 13.0859082647716 ], [ 77.5978357047413, 13.0866475618883 ], [ 77.597626361565901, 13.0866831383389 ], [ 77.596499728035596, 13.086877516050199 ], [ 77.5958198575061, 13.0870106105996 ], [ 77.594917390644198, 13.0872404865371 ], [ 77.594797876796804, 13.0872174949812 ], [ 77.594701197995505, 13.087198896514501 ], [ 77.593968089401997, 13.087383299201299 ], [ 77.593909743224899, 13.0867971325917 ], [ 77.593793884644398, 13.0856331591998 ], [ 77.593712250629096, 13.084813010749601 ], [ 77.593721618160501, 13.0846549077852 ], [ 77.593715716898203, 13.084641415679901 ], [ 77.593635943615595, 13.0844491097266 ], [ 77.593537314864093, 13.084216338962401 ], [ 77.593073482237003, 13.083156083838601 ], [ 77.592230124154199, 13.0811645899842 ], [ 77.591921631135193, 13.0804233244756 ], [ 77.591719047424604, 13.0799365408434 ], [ 77.591415510504504, 13.079221361514101 ], [ 77.591010307740007, 13.0782576292769 ], [ 77.590841969958305, 13.0778531554084 ], [ 77.590710760076206, 13.0775378911188 ], [ 77.590294302800899, 13.076543778819101 ], [ 77.590091782788406, 13.0760692506878 ], [ 77.5870603132106, 13.0769511337149 ], [ 77.586458663657197, 13.077142366610399 ], [ 77.586307616285794, 13.077184534539301 ], [ 77.585552966127196, 13.0773964964049 ], [ 77.584883294221598, 13.077582760874799 ], [ 77.583721629397104, 13.0779264036053 ], [ 77.583455757510805, 13.078004727486499 ], [ 77.583137745353199, 13.0781095467027 ], [ 77.582910425692106, 13.078184096386 ], [ 77.582998839678893, 13.0784881213067 ], [ 77.5831153348215, 13.0789443199359 ], [ 77.583136786082207, 13.0790129922398 ], [ 77.583156509532003, 13.0790816818318 ], [ 77.583273980562197, 13.079465595641199 ], [ 77.583505103716007, 13.0801984529785 ], [ 77.583633472504999, 13.080633075562 ], [ 77.583772350092403, 13.081081144307101 ], [ 77.583802135671903, 13.0811757068043 ], [ 77.583805121290496, 13.081185840559399 ], [ 77.583995896838502, 13.0819157129243 ], [ 77.584259116253605, 13.082798443345601 ], [ 77.584464789177105, 13.0836309313369 ], [ 77.583265342578898, 13.0839997999086 ], [ 77.583166560942402, 13.0840278919749 ], [ 77.582967269720697, 13.084084093304099 ], [ 77.582350036363096, 13.084274346835 ], [ 77.581627872125495, 13.084455485361 ], [ 77.580555372322394, 13.084736116576799 ], [ 77.579165598240294, 13.085138491971399 ], [ 77.579318648609501, 13.0854542944766 ], [ 77.579365616132804, 13.0855871949279 ], [ 77.5796079800147, 13.086680979540899 ], [ 77.579637309768799, 13.086813345235001 ], [ 77.579865176111298, 13.087872962434499 ], [ 77.580205755671102, 13.089092372630599 ], [ 77.578800940161798, 13.089340093991799 ], [ 77.577298136419103, 13.089749356506699 ], [ 77.577262172346593, 13.089758349159601 ], [ 77.577262172403294, 13.089758349366701 ], [ 77.576602962672197, 13.0899231713801 ], [ 77.575123260634399, 13.090230679248201 ], [ 77.574174453473304, 13.090437471867 ], [ 77.573331333744406, 13.090827091386 ], [ 77.570294155020093, 13.0923085195588 ], [ 77.569535526272006, 13.0943806661965 ], [ 77.569696468503594, 13.0957054258306 ], [ 77.569958902462801, 13.097865548442201 ], [ 77.5699319602424, 13.098064695618699 ], [ 77.569931959973999, 13.0980646956576 ], [ 77.569836371387794, 13.0980785579937 ], [ 77.569794899946501, 13.098078971460099 ], [ 77.569751124534804, 13.0980794078896 ], [ 77.568974454486906, 13.0980092278144 ], [ 77.568686741419498, 13.097983862543201 ], [ 77.5683961366761, 13.097957396447701 ], [ 77.568119367465599, 13.097931921472201 ], [ 77.568104955939702, 13.0979309357513 ], [ 77.567817795444199, 13.0979033053584 ], [ 77.567244038750303, 13.097846908649601 ], [ 77.567091236769002, 13.0978326201841 ], [ 77.566454626645495, 13.0977700717697 ], [ 77.566415424013897, 13.097767074171999 ], [ 77.566120775627795, 13.097739516368801 ], [ 77.565450757922406, 13.0976772979615 ], [ 77.565104211661406, 13.097644608930899 ], [ 77.564608331083306, 13.0975987242296 ], [ 77.564500503372898, 13.097588503936301 ], [ 77.564329328063806, 13.0975800431096 ], [ 77.564299987465901, 13.0975837229213 ], [ 77.563829894096898, 13.097630910752001 ], [ 77.563824550190105, 13.097631447248499 ], [ 77.563410307682503, 13.0976874331202 ], [ 77.562969712160495, 13.0977636501975 ], [ 77.562849258775401, 13.0977844869974 ], [ 77.562847547891394, 13.097781257919999 ], [ 77.562120727431704, 13.0964094535084 ], [ 77.561509107812697, 13.095198134290801 ], [ 77.561325511246906, 13.094489621603101 ], [ 77.561217590584405, 13.093952511794299 ], [ 77.561096561927599, 13.093350162068001 ], [ 77.560739135530397, 13.091595373455601 ], [ 77.560476021506403, 13.090326380548699 ], [ 77.560071800171599, 13.0879994921427 ], [ 77.561108746970902, 13.087358584317199 ], [ 77.561135848237996, 13.087341833610401 ], [ 77.5630703892475, 13.086194437936999 ], [ 77.560334296618194, 13.084022835565699 ], [ 77.560201123133496, 13.084123536568301 ], [ 77.560135824677801, 13.0841591931995 ] ] ] ] } }
]
}
