{"type": "FeatureCollection", "features": [{"type": "Feature", "properties": {"region_id": "ward_276600-145", "name": "Hombegowda Nagara", "parent": "zone_276600-6", "parent_name": "South"}, "geometry": {"type": "Polygon", "coordinates": [[[77.592277, 12.956107], [77.592396, 12.956017], [77.592402, 12.956018], [77.593354, 12.955323], [77.595187, 12.953936], [77.59554, 12.95367], [77.597149, 12.952378], [77.598892, 12.951023], [77.598818, 12.950949], [77.598841, 12.950928], [77.598935, 12.950841], [77.599115, 12.950694], [77.59971, 12.950205], [77.599756, 12.950172], [77.600113, 12.949907], [77.600189, 12.949862], [77.600272, 12.949814], [77.600307, 12.949788], [77.600332, 12.949775], [77.600359, 12.949761], [77.600381, 12.949759], [77.600432, 12.949752], [77.60047, 12.949747], [77.600576, 12.949768], [77.600979, 12.949881], [77.602277, 12.950219], [77.602979, 12.950406], [77.603357, 12.950507], [77.603435, 12.950506], [77.603434, 12.950503], [77.603416, 12.950438], [77.603208, 12.949694], [77.602876, 12.948845], [77.602681, 12.948314], [77.602584, 12.948054], [77.602563, 12.947976], [77.602512, 12.947788], [77.602484, 12.947586], [77.602469, 12.947392], [77.602459, 12.947231], [77.602458, 12.947092], [77.602473, 12.946881], [77.602515, 12.946373], [77.602577, 12.945636], [77.602582, 12.945604], [77.602611, 12.94524], [77.602755, 12.944631], [77.602841, 12.944425], [77.602872, 12.944099], [77.602893, 12.943688], [77.602878, 12.943368], [77.602874, 12.943187], [77.602824, 12.94283], [77.602667, 12.94216], [77.602188, 12.942261], [77.601905, 12.942306], [77.601487, 12.942393], [77.601233, 12.942446], [77.601074, 12.942465], [77.600766, 12.942505], [77.600396, 12.942565], [77.600091, 12.942614], [77.599822, 12.942662], [77.599444, 12.942736], [77.599058, 12.942802], [77.59872, 12.942843], [77.598495, 12.942882], [77.598264, 12.942924], [77.59806, 12.942974], [77.597625, 12.943103], [77.597245, 12.943202], [77.597139, 12.944039], [77.596943, 12.944827], [77.596541, 12.945346], [77.595918, 12.945695], [77.595552, 12.945933], [77.59527, 12.946166], [77.594892, 12.946494], [77.594721, 12.946659], [77.594573, 12.946813], [77.594426, 12.946997], [77.594343, 12.947105], [77.594244, 12.947256], [77.594171, 12.9474], [77.593933, 12.947913], [77.593691, 12.948453], [77.593442, 12.948919], [77.593338, 12.949113], [77.593226, 12.949368], [77.593166, 12.949472], [77.593044, 12.949705], [77.592877, 12.949976], [77.592836, 12.950052], [77.592748, 12.950147], [77.592506, 12.950386], [77.592191, 12.950698], [77.591905, 12.950946], [77.591784, 12.951041], [77.591728, 12.951077], [77.591695, 12.951094], [77.59166, 12.951118], [77.591443, 12.951205], [77.590912, 12.951412], [77.590272, 12.951634], [77.589412, 12.951949], [77.588661, 12.952199], [77.587439, 12.952626], [77.587095, 12.952752], [77.587015, 12.952796], [77.586974, 12.952826], [77.58693, 12.952864], [77.586823, 12.952936], [77.586611, 12.953119], [77.586369, 12.953355], [77.585743, 12.953857], [77.585628, 12.953949], [77.585495, 12.954011], [77.585421, 12.954047], [77.58546, 12.954544], [77.585661, 12.955289], [77.585966, 12.956645], [77.586226, 12.957661], [77.586484, 12.958474], [77.586805, 12.959077], [77.587215, 12.95895], [77.588025, 12.958693], [77.588932, 12.958402], [77.58984, 12.958125], [77.59064, 12.957891], [77.591185, 12.957725], [77.591356, 12.957631], [77.591434, 12.957567], [77.591677, 12.957137], [77.591865, 12.956779], [77.591946, 12.956501], [77.592014, 12.956253], [77.592277, 12.956107]]]}}]}