{"type": "FeatureCollection", "features": [{"type": "Feature", "properties": {"region_id": "ward_276600-103", "name": "Kaveripura", "parent": "zone_276600-7", "parent_name": "West"}, "geometry": {"type": "Polygon", "coordinates": [[[77.528726, 12.983827], [77.528762, 12.98383], [77.528769, 12.983829], [77.528903, 12.983808], [77.528948, 12.983801], [77.529221, 12.983796], [77.529247, 12.983795], [77.529478, 12.98375], [77.529522, 12.983742], [77.529916, 12.9836], [77.530209, 12.98343], [77.530412, 12.983332], [77.530489, 12.983266], [77.530552, 12.983212], [77.530657, 12.983063], [77.530694, 12.982952], [77.530714, 12.982893], [77.530727, 12.982862], [77.530774, 12.982748], [77.530952, 12.982391], [77.530966, 12.982362], [77.531049, 12.98229], [77.531161, 12.982224], [77.531167, 12.982222], [77.531278, 12.982179], [77.531566, 12.982069], [77.531789, 12.982045], [77.532047, 12.982017], [77.532353, 12.982007], [77.532472, 12.982006], [77.532473, 12.982006], [77.532628, 12.982001], [77.532872, 12.981982], [77.533047, 12.98195], [77.533096, 12.981933], [77.533186, 12.981901], [77.53319, 12.9819], [77.533047, 12.981368], [77.532729, 12.981443], [77.532303, 12.979837], [77.532038, 12.979925], [77.531867, 12.979129], [77.531866, 12.979129], [77.531863, 12.979112], [77.531743, 12.978379], [77.531487, 12.976992], [77.531432, 12.976605], [77.531954, 12.976512], [77.53191, 12.976102], [77.531409, 12.976175], [77.531405, 12.976175], [77.531291, 12.976189], [77.531171, 12.97621], [77.530912, 12.976216], [77.530734, 12.97622], [77.529636, 12.976286], [77.52901, 12.976307], [77.528892, 12.975329], [77.528839, 12.974378], [77.52878, 12.972878], [77.528631, 12.972837], [77.528538, 12.972812], [77.528564, 12.973144], [77.528577, 12.973515], [77.528, 12.973579], [77.527431, 12.973575], [77.527079, 12.973497], [77.526527, 12.973551], [77.526413, 12.973545], [77.526361, 12.973546], [77.526335, 12.973578], [77.526322, 12.973623], [77.526316, 12.973656], [77.52629, 12.973681], [77.526159, 12.973696], [77.52591, 12.973704], [77.525602, 12.973759], [77.525534, 12.973769], [77.525429, 12.973339], [77.523276, 12.973981], [77.523212, 12.974001], [77.522361, 12.974265], [77.522225, 12.973956], [77.522178, 12.974001], [77.521459, 12.9742], [77.520788, 12.974304], [77.520512, 12.974335], [77.520524, 12.974529], [77.52016, 12.974639], [77.519599, 12.974809], [77.518949, 12.975019], [77.518331, 12.975272], [77.518265, 12.975302], [77.518295, 12.975315], [77.518314, 12.975323], [77.518343, 12.975334], [77.518396, 12.97536], [77.518445, 12.975393], [77.518489, 12.975432], [77.518528, 12.975476], [77.518561, 12.975524], [77.518587, 12.975576], [77.518607, 12.975631], [77.518619, 12.975688], [77.518623, 12.975746], [77.51862, 12.975804], [77.518615, 12.975823], [77.518587, 12.97596], [77.518566, 12.976099], [77.518553, 12.976239], [77.518547, 12.976379], [77.518547, 12.976434], [77.518567, 12.97656], [77.51861, 12.976795], [77.51866, 12.977029], [77.518687, 12.977142], [77.518721, 12.977297], [77.518779, 12.977585], [77.51883, 12.977875], [77.518837, 12.977917], [77.518836, 12.978004], [77.518841, 12.978127], [77.518853, 12.97825], [77.518873, 12.978373], [77.5189, 12.978494], [77.518935, 12.978612], [77.518997, 12.978712], [77.519072, 12.978821], [77.519154, 12.978924], [77.519241, 12.979024], [77.519334, 12.979118], [77.519383, 12.979164], [77.519386, 12.979167], [77.519431, 12.979213], [77.519471, 12.979264], [77.519504, 12.979319], [77.51953, 12.979378], [77.51955, 12.979439], [77.519561, 12.979502], [77.519566, 12.979565], [77.519563, 12.979629], [77.519552, 12.979692], [77.519534, 12.979754], [77.519509, 12.979813], [77.519498, 12.979834], [77.519493, 12.979843], [77.51944, 12.979931], [77.519382, 12.980016], [77.519317, 12.980097], [77.519246, 12.980173], [77.51917, 12.980243], [77.519167, 12.980246], [77.51912, 12.980285], [77.519057, 12.980346], [77.518999, 12.980412], [77.518947, 12.980482], [77.518901, 12.980557], [77.518862, 12.980635], [77.518839, 12.980689], [77.518831, 12.980787], [77.518813, 12.980906], [77.518789, 12.981023], [77.518757, 12.981139], [77.518718, 12.981252], [77.518672, 12.981363], [77.518662, 12.981384], [77.518651, 12.981403], [77.51855, 12.981599], [77.518456, 12.981797], [77.518368, 12.981999], [77.518364, 12.982008], [77.518355, 12.982039], [77.518337, 12.982116], [77.518327, 12.982195], [77.518324, 12.982274], [77.518328, 12.982354], [77.51834, 12.982432], [77.51836, 12.982509], [77.518386, 12.982584], [77.51842, 12.982657], [77.51846, 12.982726], [77.5185, 12.982783], [77.518536, 12.982847], [77.51867, 12.983097], [77.518797, 12.983349], [77.51881, 12.983375], [77.518856, 12.983446], [77.518939, 12.983585], [77.519016, 12.983727], [77.519086, 12.983872], [77.519145, 12.984009], [77.519163, 12.984079], [77.519228, 12.984305], [77.519299, 12.984529], [77.519321, 12.984595], [77.519356, 12.984648], [77.519423, 12.98474], [77.519496, 12.984828], [77.519574, 12.984911], [77.51964, 12.984973], [77.519664, 12.985012], [77.519704, 12.985086], [77.519738, 12.985164], [77.519764, 12.985244], [77.519783, 12.985327], [77.519795, 12.98541], [77.519795, 12.985411], [77.519808, 12.985489], [77.51982, 12.985601], [77.519825, 12.985713], [77.519823, 12.985825], [77.519813, 12.985937], [77.519806, 12.985982], [77.519798, 12.986013], [77.51979, 12.986062], [77.519791, 12.986111], [77.519799, 12.986159], [77.519815, 12.986206], [77.519837, 12.986249], [77.519866, 12.986289], [77.519872, 12.986296], [77.51989, 12.986324], [77.51994, 12.986393], [77.519996, 12.986459], [77.520057, 12.986519], [77.520113, 12.986566], [77.52016, 12.986621], [77.520213, 12.986693], [77.520259, 12.98677], [77.5203, 12.986849], [77.52033, 12.986925], [77.520438, 12.986885], [77.520494, 12.986865], [77.520948, 12.986652], [77.521693, 12.986273], [77.52196, 12.986134], [77.522202, 12.986056], [77.522418, 12.985945], [77.522433, 12.985933], [77.522666, 12.985818], [77.522992, 12.985582], [77.523273, 12.985325], [77.523449, 12.98516], [77.523554, 12.985068], [77.523621, 12.985032], [77.523667, 12.985019], [77.523716, 12.985019], [77.523778, 12.985015], [77.523817, 12.985015], [77.523876, 12.985015], [77.523938, 12.985024], [77.524187, 12.98511], [77.524577, 12.985248], [77.524705, 12.985292], [77.525054, 12.985373], [77.525356, 12.985448], [77.525452, 12.985498], [77.525523, 12.985548], [77.525603, 12.985625], [77.525734, 12.985781], [77.52581, 12.985849], [77.525872, 12.985896], [77.525929, 12.985928], [77.525978, 12.985941], [77.526014, 12.985953], [77.526074, 12.98596], [77.526115, 12.985959], [77.526156, 12.985959], [77.526198, 12.985956], [77.526446, 12.985871], [77.526805, 12.985588], [77.527105, 12.98535], [77.527371, 12.985122], [77.527627, 12.984895], [77.527949, 12.984562], [77.528165, 12.984278], [77.528193, 12.984241], [77.528305, 12.984114], [77.528473, 12.983956], [77.528671, 12.983836], [77.52871, 12.983826], [77.528722, 12.983827], [77.528726, 12.983827]]]}}]}