{"type": "FeatureCollection", "features": [{"type": "Feature", "properties": {"region_id": "ward_276600-26", "name": "Ramamurthy Nagar", "parent": "zone_276600-4", "parent_name": "Mahadevapura"}, "geometry": {"type": "Polygon", "coordinates": [[[77.682387, 13.034723], [77.682344, 13.033266], [77.682271, 13.030647], [77.682066, 13.026224], [77.681717, 13.023238], [77.681682, 13.022934], [77.682553, 13.02305], [77.686749, 13.023082], [77.688764, 13.024768], [77.691713, 13.027599], [77.693395, 13.027405], [77.694344, 13.027257], [77.694206, 13.026587], [77.694204, 13.025466], [77.694188, 13.023998], [77.693453, 13.023969], [77.693073, 13.024094], [77.692865, 13.024199], [77.692703, 13.024201], [77.692445, 13.024138], [77.692044, 13.024095], [77.692036, 13.02245], [77.691629, 13.022431], [77.691015, 13.022457], [77.69098, 13.021065], [77.691103, 13.021064], [77.691192, 13.019787], [77.68996, 13.0198], [77.690111, 13.018676], [77.688639, 13.018659], [77.688714, 13.017388], [77.688171, 13.01735], [77.686758, 13.017277], [77.68631, 13.017271], [77.68624, 13.016953], [77.686191, 13.016569], [77.685687, 13.016651], [77.685589, 13.015828], [77.685517, 13.015389], [77.685379, 13.015039], [77.685057, 13.014625], [77.684394, 13.014379], [77.683475, 13.014276], [77.68267, 13.014087], [77.6827, 13.011583], [77.682534, 13.011342], [77.682463, 13.011269], [77.682409, 13.011213], [77.68228, 13.011166], [77.682139, 13.011119], [77.681915, 13.011081], [77.681762, 13.01107], [77.681622, 13.011072], [77.681514, 13.011073], [77.681407, 13.011078], [77.681198, 13.011105], [77.681011, 13.011136], [77.68086, 13.011162], [77.680728, 13.01121], [77.680683, 13.011021], [77.680122, 13.01129], [77.678847, 13.011698], [77.678069, 13.011693], [77.676955, 13.011486], [77.676827, 13.011467], [77.676929, 13.011926], [77.677106, 13.012473], [77.677205, 13.012607], [77.677336, 13.012717], [77.677622, 13.012961], [77.677926, 13.013276], [77.678181, 13.013584], [77.67734, 13.013871], [77.676353, 13.014191], [77.675934, 13.014419], [77.67511, 13.014745], [77.675029, 13.014786], [77.675166, 13.015453], [77.675635, 13.015337], [77.675679, 13.015607], [77.675763, 13.015876], [77.675789, 13.016003], [77.6758, 13.016266], [77.675834, 13.016456], [77.67587, 13.016734], [77.67589, 13.01714], [77.675502, 13.017247], [77.675572, 13.017708], [77.67565, 13.018169], [77.675832, 13.018517], [77.676123, 13.019222], [77.675502, 13.019579], [77.675099, 13.01975], [77.674541, 13.019994], [77.674811, 13.020182], [77.675163, 13.020449], [77.67548, 13.020549], [77.675521, 13.020549], [77.675482, 13.022172], [77.672831, 13.022438], [77.6727, 13.022281], [77.671038, 13.023937], [77.669783, 13.025708], [77.668823, 13.026959], [77.666138, 13.030145], [77.665584, 13.031424], [77.665392, 13.03172], [77.665216, 13.031913], [77.665008, 13.032154], [77.664661, 13.032396], [77.66429, 13.032543], [77.663571, 13.032861], [77.663289, 13.033871], [77.662936, 13.035458], [77.66261, 13.03964], [77.663012, 13.045034], [77.663726, 13.045], [77.66407, 13.044971], [77.664494, 13.04507], [77.664682, 13.04525], [77.665159, 13.045349], [77.665452, 13.045476], [77.665717, 13.045525], [77.666273, 13.045519], [77.666589, 13.045412], [77.666906, 13.045305], [77.667035, 13.045018], [77.667351, 13.044859], [77.667695, 13.044856], [77.668041, 13.045034], [77.668335, 13.04529], [77.668732, 13.045312], [77.668972, 13.045439], [77.669106, 13.045572], [77.669131, 13.04588], [77.669197, 13.046209], [77.669348, 13.046598], [77.669372, 13.046876], [77.669512, 13.047163], [77.669608, 13.047347], [77.669696, 13.047645], [77.669815, 13.048045], [77.669849, 13.048292], [77.669894, 13.048528], [77.669949, 13.048785], [77.669994, 13.049011], [77.670089, 13.049123], [77.670164, 13.049225], [77.670239, 13.049389], [77.670366, 13.049501], [77.670494, 13.049633], [77.670558, 13.049705], [77.670642, 13.049765], [77.670676, 13.04994], [77.67074, 13.050053], [77.670909, 13.050154], [77.6711, 13.050368], [77.671281, 13.050572], [77.671472, 13.050796], [77.671705, 13.050969], [77.671843, 13.051091], [77.672042, 13.051089], [77.672189, 13.051057], [77.672304, 13.050994], [77.672622, 13.05134], [77.672692, 13.051446], [77.673069, 13.051523], [77.674747, 13.051758], [77.675978, 13.052377], [77.677313, 13.05369], [77.677963, 13.054144], [77.67982, 13.053234], [77.680906, 13.052883], [77.682762, 13.052329], [77.683357, 13.051921], [77.683841, 13.050669], [77.684131, 13.046873], [77.684088, 13.042863], [77.683782, 13.040156], [77.683429, 13.038155], [77.682809, 13.03685], [77.682514, 13.0365], [77.682414, 13.035621], [77.682387, 13.034723]]]}}]}