{"type": "FeatureCollection", "features": [{"type": "Feature", "properties": {"region_id": "ward_276600-30", "name": "Kadugondanahalli", "parent": "zone_276600-3", "parent_name": "East"}, "geometry": {"type": "Polygon", "coordinates": [[[77.623284, 13.02134], [77.623342, 13.020969], [77.62341, 13.020532], [77.623457, 13.01971], [77.623442, 13.01918], [77.623326, 13.018095], [77.623119, 13.017132], [77.622779, 13.016251], [77.622454, 13.015527], [77.62214, 13.014821], [77.62198, 13.014477], [77.621709, 13.013894], [77.621703, 13.01387], [77.621698, 13.013862], [77.621668, 13.013777], [77.6214, 13.013233], [77.621045, 13.012411], [77.621023, 13.01238], [77.620948, 13.012248], [77.620728, 13.011684], [77.62063, 13.011183], [77.620635, 13.010826], [77.620659, 13.010452], [77.620784, 13.009948], [77.620891, 13.00975], [77.620589, 13.009525], [77.620394, 13.00938], [77.62027, 13.009269], [77.620181, 13.009201], [77.620014, 13.00916], [77.619846, 13.009144], [77.619714, 13.009085], [77.619608, 13.009052], [77.619467, 13.009001], [77.619308, 13.008968], [77.61915, 13.008996], [77.618992, 13.009041], [77.618817, 13.009137], [77.618739, 13.009241], [77.618697, 13.009388], [77.618339, 13.00952], [77.618004, 13.009629], [77.617502, 13.00981], [77.616797, 13.010088], [77.61616, 13.010316], [77.615316, 13.01077], [77.615448, 13.010977], [77.615462, 13.010999], [77.615636, 13.011269], [77.615768, 13.011474], [77.615838, 13.011633], [77.61614, 13.01216], [77.616504, 13.013008], [77.616872, 13.013939], [77.617019, 13.014312], [77.617607, 13.015646], [77.617678, 13.015848], [77.617844, 13.016229], [77.61821, 13.017273], [77.618493, 13.018167], [77.618549, 13.018326], [77.618554, 13.018352], [77.618557, 13.018359], [77.6187, 13.01891], [77.61896, 13.020208], [77.618998, 13.02108], [77.619033, 13.021293], [77.619168, 13.021582], [77.619214, 13.021704], [77.619274, 13.021932], [77.619305, 13.022135], [77.619377, 13.022099], [77.619565, 13.022029], [77.619844, 13.021964], [77.620151, 13.021955], [77.620318, 13.021912], [77.620632, 13.021874], [77.620967, 13.021837], [77.621294, 13.021731], [77.621538, 13.021667], [77.621747, 13.021623], [77.622061, 13.021593], [77.62241, 13.021528], [77.622675, 13.021484], [77.623023, 13.021405], [77.623284, 13.02134]]]}}]}