{"type": "FeatureCollection", "features": [{"type": "Feature", "properties": {"region_id": "ward_276600-101", "name": "Kamakshipalya", "parent": "zone_276600-7", "parent_name": "West"}, "geometry": {"type": "Polygon", "coordinates": [[[77.538387, 12.991575], [77.538202, 12.991006], [77.538068, 12.990557], [77.537934, 12.990097], [77.537833, 12.989462], [77.537722, 12.988955], [77.537624, 12.988518], [77.537502, 12.988184], [77.537457, 12.987971], [77.537437, 12.987877], [77.537417, 12.987746], [77.537303, 12.986577], [77.537167, 12.985165], [77.537055, 12.984215], [77.537059, 12.983908], [77.537038, 12.983714], [77.537004, 12.983565], [77.537022, 12.983408], [77.537071, 12.983251], [77.537214, 12.982831], [77.53725, 12.98268], [77.537255, 12.982524], [77.537238, 12.982396], [77.537241, 12.982395], [77.537236, 12.982357], [77.537206, 12.982123], [77.537187, 12.981977], [77.537132, 12.98167], [77.536919, 12.981075], [77.536917, 12.981069], [77.536782, 12.980786], [77.536734, 12.980736], [77.536714, 12.980715], [77.536113, 12.980976], [77.534105, 12.981661], [77.533325, 12.981852], [77.53319, 12.9819], [77.533186, 12.981901], [77.533096, 12.981933], [77.533047, 12.98195], [77.532872, 12.981982], [77.532628, 12.982001], [77.532473, 12.982006], [77.532472, 12.982006], [77.532353, 12.982007], [77.532047, 12.982017], [77.531789, 12.982045], [77.531566, 12.982069], [77.531278, 12.982179], [77.531167, 12.982222], [77.531161, 12.982224], [77.531049, 12.98229], [77.530966, 12.982362], [77.530952, 12.982391], [77.530774, 12.982748], [77.530727, 12.982862], [77.530714, 12.982893], [77.530694, 12.982952], [77.530657, 12.983063], [77.530552, 12.983212], [77.530489, 12.983266], [77.530412, 12.983332], [77.530209, 12.98343], [77.529916, 12.9836], [77.529522, 12.983742], [77.529478, 12.98375], [77.529247, 12.983795], [77.529221, 12.983796], [77.528948, 12.983801], [77.528903, 12.983808], [77.528769, 12.983829], [77.528762, 12.98383], [77.528726, 12.983827], [77.528757, 12.983985], [77.528774, 12.98403], [77.528856, 12.984406], [77.529029, 12.984988], [77.529116, 12.985403], [77.529115, 12.985509], [77.529108, 12.9856], [77.529087, 12.985788], [77.529075, 12.985909], [77.529073, 12.98602], [77.529082, 12.986106], [77.529101, 12.986157], [77.529127, 12.986215], [77.529396, 12.986564], [77.529553, 12.98676], [77.529718, 12.986963], [77.529856, 12.987141], [77.529887, 12.987204], [77.52992, 12.987273], [77.530035, 12.987509], [77.530241, 12.987851], [77.530251, 12.987866], [77.530263, 12.987892], [77.530317, 12.988], [77.530458, 12.988148], [77.530494, 12.988185], [77.530588, 12.988329], [77.530625, 12.988415], [77.530792, 12.988802], [77.530877, 12.989052], [77.530982, 12.989286], [77.530988, 12.989299], [77.530997, 12.989313], [77.531093, 12.989465], [77.53117, 12.989657], [77.531206, 12.989747], [77.531227, 12.989783], [77.531283, 12.989881], [77.53133, 12.989984], [77.531351, 12.990184], [77.531401, 12.990656], [77.531429, 12.990883], [77.53148, 12.991293], [77.531545, 12.991801], [77.531564, 12.99195], [77.531591, 12.992137], [77.531652, 12.992558], [77.531653, 12.992565], [77.531653, 12.992566], [77.532481, 12.992478], [77.532777, 12.992447], [77.533553, 12.992321], [77.534045, 12.992254], [77.534429, 12.992201], [77.53581, 12.991982], [77.537061, 12.991777], [77.538349, 12.991569], [77.538357, 12.99157], [77.538387, 12.991575]]]}}]}