{"type": "FeatureCollection", "features": [{"type": "Feature", "properties": {"region_id": "ward_276600-63", "name": "Jayamahal", "parent": "zone_276600-3", "parent_name": "East"}, "geometry": {"type": "Polygon", "coordinates": [[[77.593262, 13.005668], [77.593291, 13.005655], [77.593348, 13.005617], [77.59338, 13.005582], [77.593421, 13.005544], [77.593459, 13.005499], [77.59364, 13.00532], [77.593877, 13.005172], [77.594949, 13.004346], [77.595838, 13.003694], [77.596593, 13.003184], [77.597421, 13.002807], [77.597923, 13.002559], [77.598567, 13.002183], [77.599067, 13.001857], [77.599281, 13.001596], [77.599398, 13.001351], [77.59942, 13.001155], [77.600094, 13.001336], [77.600864, 13.001533], [77.601089, 13.001554], [77.601493, 13.001495], [77.601496, 13.001412], [77.601541, 13.00099], [77.601557, 13.000819], [77.60157, 13.000739], [77.601578, 13.000691], [77.601596, 13.000638], [77.601603, 13.000525], [77.601675, 13.000541], [77.601773, 13.000079], [77.601829, 12.999841], [77.602194, 12.999666], [77.603273, 12.999243], [77.603835, 12.999018], [77.604383, 12.998806], [77.604602, 12.998703], [77.604699, 12.998614], [77.604752, 12.998548], [77.604823, 12.998442], [77.604871, 12.998358], [77.604944, 12.998063], [77.604992, 12.997913], [77.605009, 12.997873], [77.605067, 12.997846], [77.605157, 12.997837], [77.605878, 12.997834], [77.606258, 12.997826], [77.606357, 12.997838], [77.606397, 12.997851], [77.606424, 12.997877], [77.606465, 12.997916], [77.606497, 12.997951], [77.606524, 12.997994], [77.606548, 12.99813], [77.606548, 12.998214], [77.606593, 12.998577], [77.606734, 12.999515], [77.606782, 12.999545], [77.606862, 12.999545], [77.607128, 12.999479], [77.608442, 12.999042], [77.608676, 12.998933], [77.608501, 12.998686], [77.608125, 12.998081], [77.607669, 12.997442], [77.606927, 12.996322], [77.605681, 12.994473], [77.605502, 12.994245], [77.604783, 12.994586], [77.603558, 12.99502], [77.602408, 12.99536], [77.601534, 12.995547], [77.600756, 12.995715], [77.600603, 12.99574], [77.600502, 12.995741], [77.60043, 12.995737], [77.600387, 12.995733], [77.60031, 12.99571], [77.600258, 12.995701], [77.600214, 12.995683], [77.600161, 12.995655], [77.600046, 12.995614], [77.599869, 12.99556], [77.598663, 12.995191], [77.597175, 12.994709], [77.596838, 12.994612], [77.596571, 12.994548], [77.596531, 12.994477], [77.596635, 12.994433], [77.597406, 12.994206], [77.598526, 12.993814], [77.599163, 12.993591], [77.600687, 12.992941], [77.601232, 12.992733], [77.601505, 12.992658], [77.60187, 12.992565], [77.602095, 12.992539], [77.60229, 12.992531], [77.602534, 12.992529], [77.602836, 12.992549], [77.603834, 12.992775], [77.604036, 12.992499], [77.604307, 12.992183], [77.604561, 12.991846], [77.604797, 12.991574], [77.604893, 12.99143], [77.604958, 12.991264], [77.605067, 12.991059], [77.605136, 12.990906], [77.605201, 12.990736], [77.605265, 12.990531], [77.60528, 12.990332], [77.605296, 12.990183], [77.605295, 12.990183], [77.604951, 12.990164], [77.604453, 12.990162], [77.604215, 12.990138], [77.603867, 12.990083], [77.603405, 12.990025], [77.602997, 12.989979], [77.602925, 12.989996], [77.602892, 12.989956], [77.602833, 12.989559], [77.602823, 12.989504], [77.602986, 12.98948], [77.603196, 12.989454], [77.60321, 12.989195], [77.603205, 12.988746], [77.603165, 12.988413], [77.603067, 12.988334], [77.603006, 12.988279], [77.602504, 12.988825], [77.602172, 12.989121], [77.60209, 12.988401], [77.60204, 12.988199], [77.602028, 12.98815], [77.602021, 12.988064], [77.601949, 12.987207], [77.601926, 12.986724], [77.601816, 12.984999], [77.601809, 12.984947], [77.60179, 12.9848], [77.601791, 12.9848], [77.601764, 12.98471], [77.601742, 12.984666], [77.601647, 12.984651], [77.601397, 12.984632], [77.600469, 12.984456], [77.598167, 12.984017], [77.597868, 12.984009], [77.597592, 12.984126], [77.597333, 12.984297], [77.597146, 12.984457], [77.598072, 12.986318], [77.59829, 12.986831], [77.598637, 12.987783], [77.598716, 12.987952], [77.598977, 12.98869], [77.598992, 12.988752], [77.599239, 12.989522], [77.599489, 12.990571], [77.598942, 12.990759], [77.598104, 12.991115], [77.597469, 12.991381], [77.59732, 12.991479], [77.596867, 12.992213], [77.596264, 12.992983], [77.595685, 12.993571], [77.594673, 12.994128], [77.593298, 12.994828], [77.59253, 12.995079], [77.591744, 12.995252], [77.591736, 12.995428], [77.592801, 12.995474], [77.593724, 12.995507], [77.59401, 12.995486], [77.59416, 12.995485], [77.594303, 12.995453], [77.594359, 12.995434], [77.594439, 12.995415], [77.59457, 12.995365], [77.594675, 12.995339], [77.59488, 12.99527], [77.595119, 12.995168], [77.59516, 12.995151], [77.59568, 12.994883], [77.596161, 12.994651], [77.596136, 12.994912], [77.595961, 12.995772], [77.59588, 12.996349], [77.595755, 12.997242], [77.595519, 12.998109], [77.595219, 12.999047], [77.594811, 13.000432], [77.594234, 13.002272], [77.593383, 13.005123], [77.593253, 13.00556], [77.593215, 13.005689], [77.593262, 13.005668]]]}}]}