{"type": "FeatureCollection", "features": [{"type": "Feature", "properties": {"region_id": "ward_276600-172", "name": "Madivala", "parent": "zone_276600-6", "parent_name": "South"}, "geometry": {"type": "Polygon", "coordinates": [[[77.618232, 12.924418], [77.618392, 12.924176], [77.618462, 12.924002], [77.620224, 12.921159], [77.621454, 12.919175], [77.6215, 12.919164], [77.621678, 12.918938], [77.622107, 12.918325], [77.622725, 12.917337], [77.622739, 12.917311], [77.621986, 12.91704], [77.621724, 12.916944], [77.620208, 12.916433], [77.619605, 12.916293], [77.619357, 12.916264], [77.618914, 12.91625], [77.618424, 12.916245], [77.617706, 12.91623], [77.616965, 12.916219], [77.616466, 12.916242], [77.61566, 12.916333], [77.615213, 12.916378], [77.615027, 12.916412], [77.614705, 12.916438], [77.613045, 12.916478], [77.611035, 12.916489], [77.609618, 12.916539], [77.607837, 12.916579], [77.607278, 12.916591], [77.607265, 12.916731], [77.607433, 12.917355], [77.607596, 12.917944], [77.607727, 12.918525], [77.607912, 12.919181], [77.608087, 12.919718], [77.608129, 12.919832], [77.608141, 12.919896], [77.608101, 12.919932], [77.608029, 12.919964], [77.608083, 12.920134], [77.608245, 12.920501], [77.608414, 12.920887], [77.60851, 12.921128], [77.608625, 12.921313], [77.608667, 12.921515], [77.608676, 12.921629], [77.608699, 12.921867], [77.608709, 12.922057], [77.608771, 12.922159], [77.608837, 12.922278], [77.608878, 12.92234], [77.608903, 12.922423], [77.608905, 12.922602], [77.608903, 12.922792], [77.608856, 12.922935], [77.608817, 12.923118], [77.608757, 12.923209], [77.608662, 12.923341], [77.608567, 12.923548], [77.608532, 12.923643], [77.608601, 12.923666], [77.608706, 12.923681], [77.608775, 12.92374], [77.608764, 12.923835], [77.608567, 12.924868], [77.608638, 12.924882], [77.608815, 12.924917], [77.608997, 12.924939], [77.608928, 12.925016], [77.608997, 12.925042], [77.609098, 12.925052], [77.609343, 12.925023], [77.609642, 12.924977], [77.609835, 12.924959], [77.610157, 12.92492], [77.610242, 12.924913], [77.610395, 12.924842], [77.610625, 12.924745], [77.61099, 12.924573], [77.6113, 12.924419], [77.611531, 12.92434], [77.611811, 12.924234], [77.611962, 12.924194], [77.612131, 12.924163], [77.612312, 12.924155], [77.612477, 12.924117], [77.612868, 12.924028], [77.613212, 12.923914], [77.613384, 12.923856], [77.613491, 12.923781], [77.613577, 12.923699], [77.613645, 12.92362], [77.613706, 12.923572], [77.61382, 12.923517], [77.613991, 12.923466], [77.614195, 12.923442], [77.614344, 12.923478], [77.614487, 12.923513], [77.614548, 12.923508], [77.614582, 12.923498], [77.61461, 12.923509], [77.614666, 12.92377], [77.615804, 12.923269], [77.615822, 12.923307], [77.616035, 12.923793], [77.616154, 12.9243], [77.616272, 12.924644], [77.616553, 12.924774], [77.616571, 12.924785], [77.617134, 12.923835], [77.617637, 12.924102], [77.618232, 12.924418]]]}}]}