{"type": "FeatureCollection", "features": [{"type": "Feature", "properties": {"region_id": "ward_276600-182", "name": "Padmanabha Nagar", "parent": "zone_276600-6", "parent_name": "South"}, "geometry": {"type": "Polygon", "coordinates": [[[77.56342, 12.919449], [77.563126, 12.919166], [77.562823, 12.918587], [77.562707, 12.918387], [77.562461, 12.91773], [77.56217, 12.917129], [77.561993, 12.916549], [77.561715, 12.916093], [77.561414, 12.915694], [77.56109, 12.915249], [77.560605, 12.914617], [77.56011, 12.914107], [77.559748, 12.913739], [77.559586, 12.913724], [77.559535, 12.913701], [77.559468, 12.913685], [77.559413, 12.913673], [77.559351, 12.913664], [77.559302, 12.913657], [77.559208, 12.913649], [77.559107, 12.913644], [77.55906, 12.913639], [77.559009, 12.913621], [77.558973, 12.913603], [77.558956, 12.913579], [77.558944, 12.913545], [77.558918, 12.913455], [77.558894, 12.913221], [77.55887, 12.912949], [77.558866, 12.912848], [77.558865, 12.912765], [77.558861, 12.912719], [77.558828, 12.912615], [77.558601, 12.91198], [77.558528, 12.911733], [77.558495, 12.911661], [77.558455, 12.911612], [77.558416, 12.911295], [77.558293, 12.910736], [77.558339, 12.910597], [77.558452, 12.910212], [77.558518, 12.909774], [77.558515, 12.908654], [77.558252, 12.908212], [77.558036, 12.907761], [77.558501, 12.90735], [77.559061, 12.906991], [77.559456, 12.906642], [77.558936, 12.906218], [77.55806, 12.90549], [77.557327, 12.904929], [77.556837, 12.904427], [77.556554, 12.903502], [77.556322, 12.903046], [77.55614, 12.903103], [77.555884, 12.903148], [77.555846, 12.903166], [77.555216, 12.903345], [77.555082, 12.903397], [77.554994, 12.903404], [77.554856, 12.903405], [77.554661, 12.903376], [77.554453, 12.903347], [77.554239, 12.903319], [77.553919, 12.903346], [77.553704, 12.903343], [77.553221, 12.903474], [77.55312, 12.903501], [77.553055, 12.90358], [77.552915, 12.903687], [77.552754, 12.903795], [77.552646, 12.903881], [77.552462, 12.903904], [77.552225, 12.903981], [77.552149, 12.903982], [77.552007, 12.903909], [77.551887, 12.903825], [77.551768, 12.903826], [77.55166, 12.903827], [77.551562, 12.903828], [77.551378, 12.903862], [77.551238, 12.903937], [77.551109, 12.904013], [77.55098, 12.904131], [77.550905, 12.904238], [77.550744, 12.904389], [77.550626, 12.904454], [77.550518, 12.904455], [77.550377, 12.904456], [77.550311, 12.904404], [77.550311, 12.90435], [77.550483, 12.904221], [77.550536, 12.904136], [77.550394, 12.904052], [77.550296, 12.904], [77.550231, 12.90399], [77.550134, 12.903991], [77.549928, 12.904035], [77.549755, 12.904079], [77.549528, 12.904135], [77.549345, 12.904179], [77.549064, 12.904246], [77.548974, 12.90396], [77.548832, 12.903876], [77.548734, 12.903771], [77.548614, 12.903708], [77.548444, 12.903514], [77.548335, 12.903428], [77.548251, 12.903396], [77.548277, 12.903616], [77.54832, 12.903732], [77.54828, 12.903959], [77.548254, 12.904154], [77.548255, 12.904241], [77.548223, 12.90438], [77.548264, 12.904703], [77.548404, 12.905497], [77.54857, 12.906022], [77.548793, 12.90669], [77.549174, 12.90756], [77.549249, 12.907735], [77.549261, 12.907786], [77.549414, 12.907745], [77.549953, 12.907603], [77.55037, 12.90747], [77.551056, 12.907292], [77.551408, 12.907187], [77.551648, 12.90712], [77.552014, 12.906996], [77.552558, 12.906723], [77.553572, 12.906329], [77.553995, 12.907533], [77.55412, 12.907836], [77.554321, 12.908354], [77.554526, 12.90895], [77.554571, 12.90901], [77.554625, 12.90909], [77.554639, 12.909131], [77.55464, 12.909196], [77.554652, 12.90936], [77.554675, 12.909544], [77.554871, 12.909545], [77.554963, 12.909695], [77.555098, 12.909951], [77.555211, 12.910137], [77.555506, 12.910763], [77.555799, 12.911384], [77.555897, 12.91154], [77.555861, 12.911526], [77.55581, 12.91151], [77.55571, 12.911495], [77.555599, 12.911499], [77.555518, 12.911506], [77.555121, 12.911583], [77.554947, 12.911593], [77.554873, 12.911594], [77.554771, 12.911557], [77.554685, 12.911514], [77.554571, 12.911467], [77.554457, 12.91142], [77.554359, 12.911389], [77.554285, 12.911374], [77.554204, 12.911371], [77.554151, 12.911375], [77.554036, 12.911404], [77.553704, 12.911466], [77.552943, 12.911648], [77.552433, 12.91176], [77.552339, 12.911785], [77.55229, 12.911805], [77.552265, 12.911836], [77.55226, 12.911846], [77.552255, 12.911857], [77.552252, 12.911874], [77.552251, 12.911887], [77.552251, 12.911898], [77.552251, 12.911906], [77.552251, 12.911915], [77.552251, 12.911924], [77.552251, 12.911932], [77.552254, 12.911943], [77.552258, 12.911955], [77.55228, 12.91201], [77.552327, 12.912092], [77.55258, 12.912552], [77.552716, 12.912779], [77.552884, 12.913142], [77.553178, 12.913787], [77.553254, 12.913917], [77.553349, 12.914038], [77.55349, 12.914207], [77.553575, 12.914313], [77.553591, 12.914362], [77.553581, 12.91441], [77.553532, 12.91443], [77.55325, 12.914564], [77.552559, 12.914858], [77.552287, 12.914968], [77.551852, 12.915084], [77.55155, 12.915143], [77.550492, 12.915351], [77.550614, 12.915831], [77.550738, 12.916219], [77.551009, 12.916573], [77.551531, 12.917052], [77.551619, 12.917168], [77.551736, 12.91743], [77.551956, 12.917879], [77.551998, 12.918207], [77.551943, 12.918508], [77.551981, 12.918893], [77.552037, 12.919231], [77.552143, 12.91977], [77.552144, 12.919771], [77.552196, 12.919768], [77.552204, 12.919768], [77.552262, 12.919762], [77.552319, 12.919748], [77.552374, 12.919728], [77.552426, 12.919701], [77.552474, 12.919667], [77.552483, 12.91966], [77.552498, 12.919649], [77.552518, 12.91964], [77.552538, 12.919635], [77.55256, 12.919633], [77.552581, 12.919634], [77.552602, 12.91964], [77.552622, 12.919648], [77.552639, 12.91966], [77.552655, 12.919675], [77.552667, 12.919692], [77.552676, 12.919711], [77.552682, 12.919731], [77.552683, 12.919734], [77.552859, 12.920051], [77.552882, 12.920093], [77.552902, 12.920119], [77.552961, 12.920192], [77.553026, 12.92026], [77.553097, 12.920322], [77.553163, 12.920373], [77.553199, 12.920404], [77.553297, 12.920481], [77.5534, 12.920554], [77.553506, 12.92062], [77.553555, 12.920647], [77.553715, 12.920729], [77.554042, 12.920901], [77.554131, 12.920949], [77.554155, 12.92096], [77.55423, 12.920986], [77.554307, 12.921005], [77.554386, 12.921017], [77.554466, 12.921022], [77.554546, 12.921019], [77.554617, 12.921011], [77.554657, 12.920998], [77.554736, 12.920979], [77.554817, 12.920967], [77.554897, 12.920962], [77.554914, 12.92097], [77.55498, 12.920994], [77.555049, 12.921011], [77.555119, 12.921022], [77.55519, 12.921025], [77.555219, 12.921024], [77.55525, 12.921021], [77.555524, 12.921004], [77.555646, 12.920999], [77.555784, 12.921383], [77.555972, 12.92201], [77.556169, 12.922581], [77.556281, 12.922978], [77.556448, 12.922926], [77.55655, 12.92289], [77.556919, 12.922778], [77.557215, 12.922673], [77.557517, 12.922567], [77.558751, 12.922187], [77.559117, 12.922083], [77.559502, 12.922002], [77.560309, 12.921847], [77.561097, 12.921711], [77.561408, 12.921658], [77.561531, 12.921629], [77.561612, 12.92161], [77.561694, 12.921516], [77.561852, 12.921139], [77.562156, 12.920424], [77.562261, 12.920251], [77.562296, 12.920195], [77.562429, 12.920101], [77.562711, 12.919912], [77.563001, 12.919755], [77.563162, 12.919664], [77.563327, 12.919554], [77.56342, 12.919449]]]}}]}