{"type": "FeatureCollection", "features": [{"type": "Feature", "properties": {"region_id": "ward_276600-192", "name": "Begur", "parent": "zone_276600-1", "parent_name": "Bommanahalli"}, "geometry": {"type": "Polygon", "coordinates": [[[77.63811, 12.885055], [77.637329, 12.882457], [77.637325, 12.882379], [77.637283, 12.881942], [77.637298, 12.881772], [77.637307, 12.881677], [77.637314, 12.881629], [77.637317, 12.881592], [77.637345, 12.881554], [77.637365, 12.881523], [77.637345, 12.881327], [77.637265, 12.880639], [77.637201, 12.880108], [77.63718, 12.879907], [77.637191, 12.879855], [77.637219, 12.879804], [77.637266, 12.879737], [77.637562, 12.879234], [77.637751, 12.878945], [77.637807, 12.878862], [77.637866, 12.878822], [77.63795, 12.878762], [77.638076, 12.878658], [77.638122, 12.878592], [77.638141, 12.878564], [77.638706, 12.877814], [77.639038, 12.877378], [77.639385, 12.876844], [77.639714, 12.876323], [77.639783, 12.876187], [77.639811, 12.876147], [77.639846, 12.876052], [77.639966, 12.875673], [77.640195, 12.874908], [77.640301, 12.874569], [77.640354, 12.874411], [77.64037, 12.874363], [77.640947, 12.874251], [77.6414, 12.871631], [77.641414, 12.871465], [77.641392, 12.871308], [77.641244, 12.870855], [77.640859, 12.869998], [77.640859, 12.869997], [77.640801, 12.869816], [77.642146, 12.869586], [77.642815, 12.869828], [77.643816, 12.870052], [77.644104, 12.870136], [77.644172, 12.870515], [77.644843, 12.870422], [77.64658, 12.870236], [77.646894, 12.870991], [77.647038, 12.8713], [77.647058, 12.871845], [77.647803, 12.871872], [77.648315, 12.872377], [77.649495, 12.872312], [77.651701, 12.872257], [77.65296, 12.870747], [77.653835, 12.869607], [77.654017, 12.869708], [77.654941, 12.869736], [77.655331, 12.869743], [77.655966, 12.869734], [77.655904, 12.86905], [77.6559, 12.868994], [77.655961, 12.868988], [77.656136, 12.868952], [77.656267, 12.868936], [77.656521, 12.868951], [77.656815, 12.868979], [77.65683, 12.869551], [77.657339, 12.869551], [77.657338, 12.869071], [77.657897, 12.869087], [77.657932, 12.870378], [77.657815, 12.87039], [77.657827, 12.870448], [77.658024, 12.871402], [77.658719, 12.871871], [77.65905, 12.871702], [77.661803, 12.870162], [77.662472, 12.869561], [77.663833, 12.868936], [77.664607, 12.868503], [77.665277, 12.868004], [77.665755, 12.867371], [77.665941, 12.866978], [77.66634, 12.866119], [77.666172, 12.86574], [77.665498, 12.864716], [77.664488, 12.863263], [77.663941, 12.862473], [77.663005, 12.861516], [77.66172, 12.860174], [77.661117, 12.859895], [77.660025, 12.859188], [77.658711, 12.858176], [77.658397, 12.857898], [77.657931, 12.857607], [77.65771, 12.857462], [77.656965, 12.857267], [77.655303, 12.856823], [77.65414, 12.856564], [77.652719, 12.856294], [77.651982, 12.856065], [77.651657, 12.855929], [77.651506, 12.855669], [77.651173, 12.85551], [77.65106, 12.85524], [77.651111, 12.854833], [77.651193, 12.85445], [77.651324, 12.854071], [77.65129, 12.853475], [77.650983, 12.85318], [77.650651, 12.853184], [77.650376, 12.853268], [77.650188, 12.853676], [77.649723, 12.85425], [77.649448, 12.854334], [77.649003, 12.854095], [77.648695, 12.853691], [77.648414, 12.853233], [77.64805, 12.852811], [77.647963, 12.853142], [77.647723, 12.85324], [77.647642, 12.853404], [77.647422, 12.853515], [77.647173, 12.853463], [77.646977, 12.853167], [77.646866, 12.853141], [77.646814, 12.853412], [77.646569, 12.853794], [77.64635, 12.853959], [77.645963, 12.853963], [77.645165, 12.853817], [77.644575, 12.852888], [77.644399, 12.852352], [77.644147, 12.85203], [77.64376, 12.851979], [77.643478, 12.851521], [77.643284, 12.851388], [77.643149, 12.851687], [77.642936, 12.852448], [77.642754, 12.853589], [77.642329, 12.857822], [77.641979, 12.861322], [77.641973, 12.864078], [77.641808, 12.865313], [77.641646, 12.865661], [77.641353, 12.865736], [77.640372, 12.866045], [77.640095, 12.866139], [77.63954, 12.865874], [77.639425, 12.865441], [77.638972, 12.864388], [77.638386, 12.863825], [77.637555, 12.863644], [77.635952, 12.863633], [77.635508, 12.86342], [77.635034, 12.863018], [77.634864, 12.862614], [77.634445, 12.862184], [77.633613, 12.862117], [77.632703, 12.862066], [77.631678, 12.861805], [77.630704, 12.861056], [77.629528, 12.859577], [77.628715, 12.858446], [77.628354, 12.858315], [77.62805, 12.858318], [77.627582, 12.858404], [77.625155, 12.858807], [77.622697, 12.858968], [77.619024, 12.859086], [77.618029, 12.859014], [77.617696, 12.858909], [77.617611, 12.858693], [77.617358, 12.858262], [77.617324, 12.857612], [77.617126, 12.857207], [77.616646, 12.856553], [77.615954, 12.856053], [77.614871, 12.855603], [77.614094, 12.855204], [77.613815, 12.85499], [77.613656, 12.854397], [77.613645, 12.853329], [77.613668, 12.852591], [77.6133, 12.851164], [77.61287, 12.849633], [77.611814, 12.847254], [77.611738, 12.846965], [77.611462, 12.846952], [77.611264, 12.8473], [77.610835, 12.848081], [77.609265, 12.848774], [77.607195, 12.848892], [77.605156, 12.848682], [77.605039, 12.8487], [77.604916, 12.848738], [77.604325, 12.848809], [77.602154, 12.849155], [77.600908, 12.848983], [77.595957, 12.849487], [77.595215, 12.849301], [77.594718, 12.848919], [77.594123, 12.848586], [77.593576, 12.848156], [77.593419, 12.847286], [77.593204, 12.845595], [77.592885, 12.843275], [77.592677, 12.842261], [77.592368, 12.841006], [77.592153, 12.839266], [77.591736, 12.837093], [77.591822, 12.834941], [77.591536, 12.835169], [77.590921, 12.835531], [77.590762, 12.835585], [77.590692, 12.835591], [77.590511, 12.835588], [77.590393, 12.835583], [77.589912, 12.835478], [77.589228, 12.835328], [77.589024, 12.835208], [77.588714, 12.834945], [77.588234, 12.83452], [77.587427, 12.834089], [77.586811, 12.834012], [77.586048, 12.834148], [77.585664, 12.834296], [77.585053, 12.834861], [77.584938, 12.834965], [77.583821, 12.835971], [77.583513, 12.836218], [77.583341, 12.836351], [77.583112, 12.836527], [77.582944, 12.836647], [77.583012, 12.838068], [77.583507, 12.840293], [77.584981, 12.844783], [77.585103, 12.844933], [77.58593, 12.845228], [77.586246, 12.845491], [77.588071, 12.847583], [77.588989, 12.848737], [77.5902, 12.850374], [77.590842, 12.851379], [77.591132, 12.852048], [77.591515, 12.851974], [77.592305, 12.851754], [77.593067, 12.851683], [77.593392, 12.859057], [77.593611, 12.859193], [77.593889, 12.859494], [77.594125, 12.859954], [77.594811, 12.861023], [77.593261, 12.861369], [77.59163, 12.862034], [77.590574, 12.863362], [77.590471, 12.863486], [77.589737, 12.863453], [77.589255, 12.863416], [77.589075, 12.863686], [77.587729, 12.865451], [77.58618, 12.86726], [77.586357, 12.867568], [77.586596, 12.867974], [77.587396, 12.868986], [77.587628, 12.86927], [77.587838, 12.869377], [77.587907, 12.869359], [77.587944, 12.869359], [77.587992, 12.86937], [77.588065, 12.869401], [77.5882, 12.869471], [77.588688, 12.869736], [77.588957, 12.869853], [77.593267, 12.873688], [77.593555, 12.873321], [77.594374, 12.873067], [77.594444, 12.873092], [77.595742, 12.872949], [77.595856, 12.872937], [77.595981, 12.872912], [77.596033, 12.872884], [77.596123, 12.872835], [77.596165, 12.872801], [77.59622, 12.872756], [77.596244, 12.872718], [77.596299, 12.872625], [77.596468, 12.872083], [77.596848, 12.870745], [77.596928, 12.870375], [77.596933, 12.870255], [77.596947, 12.870214], [77.596981, 12.870166], [77.597012, 12.870121], [77.597057, 12.870042], [77.597182, 12.869665], [77.597253, 12.869469], [77.597277, 12.869428], [77.597308, 12.869386], [77.597332, 12.869359], [77.597387, 12.869297], [77.597422, 12.869259], [77.597453, 12.869234], [77.597505, 12.86922], [77.597595, 12.869171], [77.597682, 12.869112], [77.597723, 12.869081], [77.597747, 12.86904], [77.597757, 12.868999], [77.597774, 12.868899], [77.597843, 12.868492], [77.597907, 12.868323], [77.597944, 12.868224], [77.597979, 12.868155], [77.598002, 12.868104], [77.59803, 12.868028], [77.598042, 12.867929], [77.598048, 12.867802], [77.59805, 12.867585], [77.599952, 12.867475], [77.599946, 12.867296], [77.599898, 12.866817], [77.601899, 12.866759], [77.602672, 12.866724], [77.602898, 12.866438], [77.603162, 12.866081], [77.603916, 12.864812], [77.603986, 12.86482], [77.604189, 12.864917], [77.604367, 12.865039], [77.604497, 12.86541], [77.604613, 12.866869], [77.604817, 12.867065], [77.604919, 12.867188], [77.604973, 12.867584], [77.605155, 12.868077], [77.605694, 12.868914], [77.605773, 12.869116], [77.605912, 12.869312], [77.605987, 12.869436], [77.606061, 12.86956], [77.606145, 12.86966], [77.606209, 12.869731], [77.60629, 12.869805], [77.60637, 12.869889], [77.606399, 12.869926], [77.606473, 12.870013], [77.60657, 12.870124], [77.606664, 12.870292], [77.606694, 12.870357], [77.606688, 12.870432], [77.606698, 12.87047], [77.606727, 12.870507], [77.606743, 12.870547], [77.606712, 12.87061], [77.6067, 12.870663], [77.606716, 12.870701], [77.606739, 12.870744], [77.606768, 12.870753], [77.606819, 12.870743], [77.606847, 12.870771], [77.606864, 12.870812], [77.606871, 12.870855], [77.60689, 12.870918], [77.606936, 12.871008], [77.607355, 12.870903], [77.607487, 12.870883], [77.607612, 12.870832], [77.608267, 12.870651], [77.608622, 12.870554], [77.609044, 12.870433], [77.608981, 12.869813], [77.608963, 12.869448], [77.60891, 12.86911], [77.608809, 12.868835], [77.608758, 12.86867], [77.608757, 12.868553], [77.608756, 12.868443], [77.608798, 12.868351], [77.608943, 12.868336], [77.609322, 12.868333], [77.609667, 12.868304], [77.611405, 12.868233], [77.61336, 12.867934], [77.613477, 12.868161], [77.613993, 12.869177], [77.614108, 12.869362], [77.614307, 12.869581], [77.614428, 12.869731], [77.614543, 12.869971], [77.614586, 12.870102], [77.614658, 12.870253], [77.61478, 12.870619], [77.614501, 12.870989], [77.614559, 12.871436], [77.615198, 12.872603], [77.615401, 12.874939], [77.615394, 12.876226], [77.615731, 12.876244], [77.615762, 12.876262], [77.615786, 12.876263], [77.616008, 12.876251], [77.616644, 12.876171], [77.617443, 12.876057], [77.617772, 12.876011], [77.617853, 12.876266], [77.617911, 12.876402], [77.61781, 12.876765], [77.617772, 12.876972], [77.617804, 12.877149], [77.617947, 12.877413], [77.618242, 12.877813], [77.61831, 12.878589], [77.618484, 12.878872], [77.618071, 12.878963], [77.618102, 12.879176], [77.618115, 12.879293], [77.618119, 12.879353], [77.618348, 12.879355], [77.61863, 12.8795], [77.618796, 12.880029], [77.61893, 12.880402], [77.619024, 12.880764], [77.618978, 12.881119], [77.618828, 12.881209], [77.618659, 12.881323], [77.618551, 12.881371], [77.618411, 12.881427], [77.618406, 12.881402], [77.618391, 12.881352], [77.618245, 12.881426], [77.617738, 12.881633], [77.617653, 12.881676], [77.617635, 12.881697], [77.617634, 12.881712], [77.61765, 12.88175], [77.617668, 12.881771], [77.617689, 12.88181], [77.617713, 12.881859], [77.617732, 12.881912], [77.617744, 12.881996], [77.617753, 12.882107], [77.617753, 12.88214], [77.617753, 12.882171], [77.617751, 12.88222], [77.617728, 12.882317], [77.617726, 12.882441], [77.617727, 12.882513], [77.617744, 12.882754], [77.61776, 12.882907], [77.617772, 12.882965], [77.617772, 12.883012], [77.617781, 12.883068], [77.617782, 12.88314], [77.617773, 12.883321], [77.617748, 12.883713], [77.617764, 12.884024], [77.617769, 12.88408], [77.617789, 12.884151], [77.617813, 12.88427], [77.61785, 12.884524], [77.617877, 12.884697], [77.617895, 12.884722], [77.617921, 12.884737], [77.618129, 12.88473], [77.618212, 12.884731], [77.618237, 12.884744], [77.618261, 12.884789], [77.618279, 12.884845], [77.618325, 12.885029], [77.61839, 12.885268], [77.618443, 12.885447], [77.618474, 12.885628], [77.618619, 12.886222], [77.618624, 12.886247], [77.618679, 12.886497], [77.618717, 12.886689], [77.618808, 12.88699], [77.61893, 12.887315], [77.618977, 12.887383], [77.619017, 12.88745], [77.619072, 12.887572], [77.619166, 12.88786], [77.619251, 12.888129], [77.619283, 12.888185], [77.619309, 12.888218], [77.619395, 12.888323], [77.619498, 12.888447], [77.61982, 12.888781], [77.619902, 12.888839], [77.620092, 12.888825], [77.62052, 12.888774], [77.620979, 12.888694], [77.621149, 12.888664], [77.621313, 12.888652], [77.621362, 12.888659], [77.621422, 12.888695], [77.621471, 12.888764], [77.621484, 12.888811], [77.62153, 12.888831], [77.62159, 12.888827], [77.621925, 12.888782], [77.62237, 12.888727], [77.622747, 12.888698], [77.623098, 12.888639], [77.623384, 12.888597], [77.623608, 12.888559], [77.623769, 12.888543], [77.623937, 12.888547], [77.624059, 12.888552], [77.624286, 12.888574], [77.624768, 12.888589], [77.625193, 12.888582], [77.625608, 12.88855], [77.625603, 12.888401], [77.626123, 12.8884], [77.626472, 12.888407], [77.626673, 12.88839], [77.626756, 12.88839], [77.626976, 12.888319], [77.627083, 12.88829], [77.627403, 12.888209], [77.627867, 12.888107], [77.628088, 12.888058], [77.628255, 12.888059], [77.628664, 12.888082], [77.628677, 12.888141], [77.628699, 12.888538], [77.628712, 12.888833], [77.628683, 12.888994], [77.628649, 12.889159], [77.628643, 12.889224], [77.628661, 12.889727], [77.628694, 12.890097], [77.6287, 12.890147], [77.62875, 12.890209], [77.628885, 12.890394], [77.628955, 12.890493], [77.629118, 12.890678], [77.629204, 12.890742], [77.629292, 12.890798], [77.629336, 12.890864], [77.629379, 12.891026], [77.629385, 12.891094], [77.629443, 12.891349], [77.629487, 12.891693], [77.629522, 12.891754], [77.629635, 12.891861], [77.629736, 12.891948], [77.629767, 12.891976], [77.62981, 12.891992], [77.62985, 12.892001], [77.629926, 12.892019], [77.629948, 12.892037], [77.629981, 12.892086], [77.630008, 12.892164], [77.630109, 12.892342], [77.630177, 12.892465], [77.630216, 12.892549], [77.630234, 12.892643], [77.630245, 12.892768], [77.631015, 12.892736], [77.631811, 12.892664], [77.632978, 12.892454], [77.634358, 12.892136], [77.63435, 12.892107], [77.634323, 12.891981], [77.634213, 12.891242], [77.634188, 12.890486], [77.634208, 12.89009], [77.634211, 12.89], [77.634286, 12.889849], [77.634311, 12.889801], [77.63416, 12.889733], [77.633315, 12.889356], [77.633152, 12.889309], [77.63282, 12.889271], [77.632374, 12.889282], [77.631723, 12.889278], [77.631604, 12.889262], [77.631519, 12.889228], [77.63144, 12.889153], [77.632006, 12.887205], [77.632104, 12.887031], [77.632441, 12.886147], [77.634251, 12.886247], [77.634748, 12.886292], [77.634754, 12.886651], [77.635161, 12.886695], [77.635044, 12.887293], [77.63499, 12.887491], [77.634986, 12.887556], [77.634979, 12.887628], [77.634983, 12.887684], [77.635029, 12.887743], [77.635078, 12.887767], [77.635144, 12.887786], [77.635205, 12.887797], [77.635274, 12.887797], [77.635331, 12.887792], [77.635441, 12.887735], [77.635537, 12.887574], [77.635637, 12.887358], [77.635651, 12.887338], [77.636405, 12.886796], [77.63633, 12.886737], [77.636539, 12.886587], [77.63717, 12.886174], [77.63786, 12.885897], [77.638432, 12.885692], [77.638353, 12.885536], [77.63811, 12.885055]]]}}]}