{"type": "FeatureCollection", "features": [{"type": "Feature", "properties": {"region_id": "ward_276600-180", "name": "Banashankari Temple ward", "parent": "zone_276600-6", "parent_name": "South"}, "geometry": {"type": "Polygon", "coordinates": [[[77.568699, 12.91815], [77.568676, 12.918089], [77.568669, 12.918023], [77.568657, 12.917957], [77.568658, 12.917892], [77.568655, 12.917837], [77.568667, 12.91754], [77.568775, 12.917184], [77.569079, 12.916555], [77.569467, 12.915706], [77.569646, 12.915543], [77.569992, 12.915667], [77.570081, 12.915919], [77.570387, 12.916365], [77.570794, 12.916479], [77.571278, 12.916593], [77.57176, 12.916571], [77.572553, 12.916597], [77.573098, 12.916744], [77.573649, 12.916916], [77.573661, 12.916647], [77.5737, 12.916251], [77.5737, 12.916172], [77.573693, 12.915948], [77.57369, 12.915864], [77.573669, 12.915657], [77.573674, 12.915538], [77.57366, 12.915355], [77.573633, 12.91528], [77.573581, 12.915161], [77.57356, 12.915036], [77.573485, 12.914571], [77.573396, 12.914013], [77.573275, 12.913473], [77.573129, 12.912984], [77.573058, 12.912722], [77.573009, 12.912581], [77.572968, 12.912379], [77.572922, 12.91212], [77.572893, 12.91163], [77.572896, 12.911465], [77.572913, 12.910229], [77.572935, 12.909168], [77.572944, 12.909045], [77.572986, 12.90847], [77.573165, 12.907143], [77.573261, 12.906489], [77.573094, 12.906488], [77.572505, 12.906574], [77.572193, 12.906629], [77.572093, 12.906663], [77.571944, 12.906753], [77.57175, 12.906899], [77.571566, 12.90711], [77.571012, 12.907688], [77.570775, 12.907959], [77.570442, 12.908407], [77.570233, 12.908687], [77.56993, 12.909095], [77.569359, 12.909786], [77.569128, 12.910065], [77.568682, 12.910583], [77.567798, 12.911683], [77.567106, 12.912565], [77.566313, 12.913479], [77.566098, 12.913742], [77.566034, 12.913848], [77.565852, 12.914241], [77.565613, 12.914835], [77.56499, 12.916365], [77.564844, 12.916744], [77.564898, 12.916779], [77.565007, 12.916885], [77.565231, 12.917117], [77.565301, 12.917193], [77.565395, 12.9173], [77.565467, 12.917404], [77.565524, 12.917521], [77.565745, 12.917979], [77.566027, 12.918765], [77.568578, 12.918179], [77.568699, 12.91815]]]}}]}