{"type": "FeatureCollection", "features": [{"type": "Feature", "properties": {"region_id": "ward_276600-178", "name": "Sarakki", "parent": "zone_276600-6", "parent_name": "South"}, "geometry": {"type": "Polygon", "coordinates": [[[77.585704, 12.910568], [77.587911, 12.910473], [77.590227, 12.910404], [77.593322, 12.910228], [77.593173, 12.907467], [77.593615, 12.907404], [77.593584, 12.906358], [77.593564, 12.906333], [77.593563, 12.906298], [77.593456, 12.906303], [77.593417, 12.905316], [77.591754, 12.905405], [77.591747, 12.905629], [77.590281, 12.905717], [77.590149, 12.905103], [77.590091, 12.904811], [77.589931, 12.904835], [77.588539, 12.904969], [77.588576, 12.905188], [77.588288, 12.905251], [77.58829, 12.905296], [77.588288, 12.905732], [77.588085, 12.905727], [77.586686, 12.905741], [77.58648, 12.905742], [77.586475, 12.904626], [77.58576, 12.904621], [77.584979, 12.904641], [77.584961, 12.905168], [77.584562, 12.905165], [77.584248, 12.905235], [77.58306, 12.905368], [77.583032, 12.905513], [77.582517, 12.905523], [77.581714, 12.905599], [77.581706, 12.904815], [77.581729, 12.903811], [77.581284, 12.903893], [77.580855, 12.904007], [77.58045, 12.90412], [77.580343, 12.904172], [77.580311, 12.904208], [77.580312, 12.904251], [77.580326, 12.904345], [77.580327, 12.904417], [77.579616, 12.904556], [77.579637, 12.904771], [77.578701, 12.904991], [77.578734, 12.905553], [77.578176, 12.905545], [77.57747, 12.905554], [77.577243, 12.905547], [77.576895, 12.905546], [77.576906, 12.905314], [77.576938, 12.905125], [77.577002, 12.90489], [77.577038, 12.904689], [77.577031, 12.904479], [77.577049, 12.904301], [77.577185, 12.904075], [77.577254, 12.903901], [77.577011, 12.903857], [77.576908, 12.903925], [77.576824, 12.903997], [77.576598, 12.904169], [77.576347, 12.904319], [77.576059, 12.904476], [77.575893, 12.904652], [77.575622, 12.904908], [77.575481, 12.905054], [77.575481, 12.905183], [77.575485, 12.905882], [77.575487, 12.906468], [77.575407, 12.906469], [77.575116, 12.906472], [77.573261, 12.906489], [77.573165, 12.907143], [77.572986, 12.90847], [77.572944, 12.909045], [77.572935, 12.909168], [77.572913, 12.910229], [77.572896, 12.911465], [77.574183, 12.91132], [77.577675, 12.910918], [77.580599, 12.910714], [77.583134, 12.910514], [77.585704, 12.910568]]]}}]}