{"type": "FeatureCollection", "features": [{"type": "Feature", "properties": {"region_id": "ward_276600-187", "name": "Puttenahalli", "parent": "zone_276600-1", "parent_name": "Bommanahalli"}, "geometry": {"type": "Polygon", "coordinates": [[[77.588023, 12.889093], [77.587514, 12.889181], [77.586672, 12.889294], [77.586519, 12.889298], [77.586244, 12.889338], [77.58601, 12.889399], [77.585683, 12.889477], [77.584866, 12.889725], [77.584029, 12.89003], [77.583603, 12.890154], [77.582998, 12.890332], [77.582534, 12.89053], [77.582396, 12.890683], [77.582168, 12.890945], [77.581982, 12.891198], [77.581938, 12.891273], [77.581919, 12.891317], [77.581908, 12.891347], [77.581902, 12.891473], [77.581856, 12.892129], [77.581764, 12.892128], [77.581214, 12.892109], [77.580893, 12.892113], [77.580842, 12.892111], [77.580796, 12.89231], [77.580727, 12.89253], [77.580696, 12.8926], [77.580625, 12.893192], [77.580377, 12.894013], [77.580187, 12.894699], [77.580026, 12.895095], [77.579456, 12.896806], [77.579388, 12.896874], [77.580185, 12.897385], [77.580867, 12.897796], [77.580976, 12.897864], [77.581697, 12.897845], [77.582411, 12.897837], [77.582714, 12.897845], [77.582667, 12.898511], [77.582668, 12.898611], [77.582725, 12.898666], [77.582838, 12.898687], [77.583071, 12.898724], [77.583512, 12.898708], [77.583828, 12.898633], [77.58381, 12.899138], [77.583723, 12.900043], [77.583701, 12.901153], [77.583618, 12.90192], [77.584164, 12.90217], [77.584794, 12.90243], [77.585305, 12.902613], [77.585802, 12.902765], [77.58576, 12.904621], [77.586475, 12.904626], [77.58648, 12.905742], [77.586686, 12.905741], [77.588085, 12.905727], [77.588288, 12.905732], [77.58829, 12.905296], [77.588288, 12.905251], [77.588576, 12.905188], [77.588539, 12.904969], [77.589931, 12.904835], [77.590091, 12.904811], [77.590149, 12.905103], [77.590281, 12.905717], [77.591747, 12.905629], [77.591754, 12.905405], [77.593417, 12.905316], [77.593517, 12.905225], [77.593661, 12.905094], [77.593764, 12.904862], [77.594025, 12.902712], [77.5942, 12.902692], [77.595284, 12.90266], [77.59592, 12.902617], [77.596156, 12.902579], [77.596256, 12.902574], [77.596375, 12.902565], [77.596674, 12.902493], [77.597459, 12.902177], [77.598173, 12.901837], [77.598681, 12.901573], [77.599272, 12.901263], [77.599329, 12.901213], [77.599376, 12.901202], [77.59941, 12.901196], [77.59944, 12.901193], [77.599465, 12.901214], [77.599477, 12.90125], [77.599477, 12.901274], [77.599469, 12.901329], [77.599434, 12.901408], [77.599391, 12.901539], [77.599315, 12.901703], [77.599266, 12.901802], [77.599209, 12.901947], [77.599088, 12.902337], [77.598981, 12.902937], [77.598918, 12.903292], [77.598911, 12.903401], [77.598931, 12.903507], [77.598937, 12.903534], [77.598937, 12.903559], [77.598938, 12.903586], [77.598946, 12.903621], [77.599016, 12.903697], [77.59912, 12.903766], [77.599178, 12.903777], [77.599231, 12.903795], [77.599284, 12.903825], [77.599326, 12.903851], [77.599376, 12.90387], [77.599432, 12.903872], [77.599479, 12.903869], [77.599512, 12.903863], [77.599639, 12.903794], [77.599697, 12.903788], [77.599803, 12.903757], [77.599866, 12.903724], [77.599957, 12.903687], [77.599999, 12.903687], [77.600057, 12.903711], [77.600074, 12.90371], [77.60009, 12.903695], [77.600106, 12.903689], [77.600116, 12.903686], [77.600131, 12.903689], [77.600149, 12.903694], [77.600171, 12.903717], [77.600194, 12.903704], [77.600197, 12.903694], [77.600197, 12.903685], [77.600188, 12.903681], [77.600178, 12.903677], [77.600163, 12.903661], [77.600162, 12.903647], [77.60017, 12.903634], [77.600296, 12.903612], [77.600329, 12.903596], [77.600371, 12.903574], [77.600406, 12.903562], [77.600449, 12.903553], [77.600645, 12.903524], [77.600871, 12.903497], [77.600962, 12.903477], [77.601055, 12.903447], [77.601168, 12.903421], [77.601254, 12.90339], [77.601301, 12.903381], [77.601464, 12.903344], [77.601381, 12.903023], [77.601212, 12.902322], [77.601118, 12.901905], [77.601079, 12.90138], [77.601037, 12.90081], [77.60097, 12.900288], [77.600865, 12.899857], [77.600731, 12.89933], [77.600519, 12.898734], [77.60028, 12.898073], [77.60008, 12.897369], [77.599736, 12.896133], [77.599467, 12.895225], [77.599247, 12.894369], [77.599089, 12.893613], [77.598967, 12.893068], [77.59882, 12.892418], [77.598438, 12.891344], [77.598124, 12.89058], [77.597791, 12.890632], [77.596025, 12.890952], [77.594436, 12.891157], [77.593981, 12.891228], [77.592544, 12.891429], [77.591195, 12.891903], [77.590327, 12.892214], [77.589847, 12.891206], [77.588807, 12.891756], [77.58862, 12.891744], [77.588444, 12.891641], [77.588282, 12.89155], [77.588183, 12.891052], [77.588053, 12.890053], [77.588023, 12.889093]]]}}]}