{"type": "FeatureCollection", "features": [{"type": "Feature", "properties": {"region_id": "ward_276600-129", "name": "Jnana Bharathi ward", "parent": "zone_276600-5", "parent_name": "Rajarajeshwari Nagar"}, "geometry": {"type": "Polygon", "coordinates": [[[77.505678, 12.989716], [77.50572, 12.98964], [77.506223, 12.989411], [77.506861, 12.989217], [77.507667, 12.989033], [77.508242, 12.988977], [77.508511, 12.988912], [77.508714, 12.988772], [77.509056, 12.988392], [77.509272, 12.988176], [77.509425, 12.988124], [77.509796, 12.988108], [77.510168, 12.98813], [77.510617, 12.988276], [77.510862, 12.988374], [77.511181, 12.988334], [77.511807, 12.988127], [77.512241, 12.987972], [77.512107, 12.98742], [77.511948, 12.986889], [77.511759, 12.986413], [77.511564, 12.98604], [77.511384, 12.985709], [77.51124, 12.985461], [77.511062, 12.985275], [77.510882, 12.984986], [77.510795, 12.984813], [77.51075, 12.98455], [77.510726, 12.984211], [77.510757, 12.983829], [77.510778, 12.98363], [77.510799, 12.98353], [77.510853, 12.983311], [77.510923, 12.983131], [77.511007, 12.982858], [77.511045, 12.982655], [77.511041, 12.982234], [77.511003, 12.981618], [77.510987, 12.980886], [77.51097, 12.980691], [77.510951, 12.980457], [77.510869, 12.980217], [77.510786, 12.979843], [77.510656, 12.979509], [77.510572, 12.979034], [77.510539, 12.978897], [77.51033, 12.978092], [77.510203, 12.977438], [77.510007, 12.976588], [77.509699, 12.975693], [77.509441, 12.974993], [77.509275, 12.974564], [77.509067, 12.97413], [77.508816, 12.97366], [77.508524, 12.973207], [77.508162, 12.972631], [77.507642, 12.971836], [77.507122, 12.971092], [77.506825, 12.970664], [77.506713, 12.970465], [77.506563, 12.970102], [77.506171, 12.96908], [77.505898, 12.968426], [77.505475, 12.967527], [77.505111, 12.966679], [77.504938, 12.966112], [77.504849, 12.965533], [77.504833, 12.964979], [77.504905, 12.964317], [77.50508, 12.963597], [77.505105, 12.963474], [77.505071, 12.963187], [77.504815, 12.962123], [77.504559, 12.961161], [77.504413, 12.960608], [77.504385, 12.96047], [77.504515, 12.960412], [77.504708, 12.960359], [77.504949, 12.960347], [77.505252, 12.960374], [77.508222, 12.960807], [77.510055, 12.961062], [77.510997, 12.961145], [77.511425, 12.961115], [77.51178, 12.96105], [77.512286, 12.960881], [77.513364, 12.960445], [77.514485, 12.960055], [77.515476, 12.959613], [77.515413, 12.959529], [77.515319, 12.959415], [77.515219, 12.959307], [77.51517, 12.959256], [77.515126, 12.959194], [77.515065, 12.959094], [77.51501, 12.958992], [77.514962, 12.958885], [77.514921, 12.958777], [77.514887, 12.958666], [77.51486, 12.958554], [77.51486, 12.958538], [77.514855, 12.958447], [77.514843, 12.958358], [77.514824, 12.958269], [77.514798, 12.958183], [77.514764, 12.958098], [77.514724, 12.958017], [77.514678, 12.95794], [77.514678, 12.95792], [77.514674, 12.95788], [77.514663, 12.957841], [77.514644, 12.957805], [77.514619, 12.957773], [77.514588, 12.957746], [77.514553, 12.957725], [77.514515, 12.957711], [77.514474, 12.957704], [77.514433, 12.957705], [77.514393, 12.957712], [77.514362, 12.957724], [77.514158, 12.957799], [77.513941, 12.957882], [77.513767, 12.958], [77.513584, 12.958132], [77.513565, 12.958146], [77.513492, 12.958145], [77.513413, 12.958152], [77.513334, 12.958165], [77.513257, 12.958186], [77.513205, 12.958205], [77.513165, 12.958238], [77.513093, 12.958307], [77.513026, 12.95838], [77.512965, 12.958458], [77.51291, 12.95854], [77.51287, 12.958609], [77.512823, 12.958669], [77.512765, 12.958732], [77.512702, 12.95879], [77.512634, 12.958843], [77.512561, 12.958889], [77.512487, 12.958928], [77.512434, 12.95898], [77.512353, 12.959049], [77.512267, 12.959112], [77.512178, 12.95917], [77.512084, 12.959221], [77.512034, 12.959245], [77.512022, 12.959253], [77.511994, 12.959266], [77.511964, 12.959274], [77.511933, 12.959277], [77.511901, 12.959275], [77.511871, 12.959267], [77.511842, 12.959255], [77.511816, 12.959237], [77.511794, 12.959216], [77.511776, 12.959191], [77.511764, 12.959168], [77.511762, 12.959152], [77.511757, 12.959095], [77.51176, 12.959039], [77.511771, 12.958983], [77.511789, 12.95893], [77.511814, 12.958879], [77.511846, 12.958832], [77.511883, 12.958789], [77.511892, 12.95878], [77.511907, 12.958768], [77.51195, 12.958726], [77.511987, 12.95868], [77.512018, 12.95863], [77.512043, 12.958576], [77.51206, 12.95852], [77.512071, 12.958462], [77.512074, 12.958403], [77.51207, 12.958344], [77.512058, 12.958286], [77.512039, 12.95823], [77.512038, 12.958227], [77.512026, 12.958128], [77.51199, 12.957865], [77.511947, 12.957603], [77.511897, 12.957342], [77.511894, 12.95733], [77.511881, 12.957257], [77.511873, 12.957172], [77.511872, 12.957088], [77.511878, 12.957003], [77.511888, 12.956943], [77.511914, 12.956904], [77.51196, 12.956827], [77.511999, 12.956746], [77.512032, 12.956663], [77.512057, 12.956577], [77.512075, 12.956489], [77.512079, 12.956461], [77.512063, 12.956399], [77.512037, 12.956319], [77.512003, 12.956241], [77.511963, 12.956167], [77.511916, 12.956096], [77.511863, 12.95603], [77.511848, 12.956013], [77.511822, 12.955962], [77.511799, 12.955902], [77.511784, 12.955839], [77.511776, 12.955775], [77.511775, 12.955711], [77.511782, 12.955647], [77.511796, 12.955585], [77.511817, 12.955524], [77.511846, 12.955466], [77.511881, 12.955412], [77.511921, 12.955362], [77.511968, 12.955317], [77.512019, 12.955277], [77.512075, 12.955243], [77.512094, 12.955233], [77.512116, 12.955213], [77.512159, 12.955164], [77.512197, 12.955111], [77.512229, 12.955054], [77.512254, 12.954993], [77.512271, 12.954931], [77.512282, 12.954866], [77.512285, 12.954802], [77.51228, 12.954737], [77.512269, 12.954673], [77.51225, 12.95461], [77.512224, 12.954551], [77.512191, 12.954494], [77.512168, 12.954461], [77.512121, 12.954415], [77.511907, 12.9542], [77.5117, 12.953979], [77.511557, 12.953822], [77.511518, 12.953775], [77.511465, 12.9537], [77.511417, 12.953621], [77.511376, 12.953539], [77.511342, 12.953454], [77.511315, 12.953366], [77.511296, 12.953276], [77.511284, 12.953185], [77.511279, 12.953094], [77.51128, 12.953028], [77.51128, 12.953026], [77.511271, 12.952931], [77.51127, 12.952836], [77.511277, 12.952741], [77.511291, 12.952647], [77.511313, 12.952554], [77.511341, 12.952463], [77.511342, 12.952462], [77.511402, 12.952302], [77.511475, 12.952134], [77.51156, 12.951894], [77.511564, 12.951699], [77.511509, 12.951557], [77.511412, 12.95139], [77.511388, 12.951248], [77.511345, 12.951095], [77.511245, 12.950895], [77.511179, 12.950767], [77.511155, 12.950572], [77.511125, 12.950364], [77.511115, 12.950276], [77.511117, 12.950155], [77.51116, 12.950017], [77.511249, 12.949959], [77.511494, 12.949764], [77.511741, 12.949534], [77.511914, 12.949391], [77.511871, 12.949348], [77.511923, 12.949304], [77.512062, 12.949195], [77.512204, 12.949091], [77.512351, 12.948993], [77.512502, 12.948901], [77.51259, 12.948852], [77.512619, 12.948836], [77.512678, 12.9488], [77.512733, 12.948757], [77.512782, 12.948708], [77.512826, 12.948655], [77.512864, 12.948598], [77.512896, 12.948537], [77.512921, 12.948473], [77.512939, 12.948406], [77.512949, 12.948339], [77.512952, 12.94827], [77.51295, 12.948222], [77.512933, 12.9482], [77.512911, 12.948163], [77.512896, 12.948123], [77.512888, 12.948081], [77.512888, 12.948038], [77.512895, 12.947996], [77.512909, 12.947955], [77.51293, 12.947917], [77.512957, 12.947884], [77.51299, 12.947855], [77.513027, 12.947832], [77.513067, 12.947816], [77.51311, 12.947806], [77.513117, 12.947806], [77.513127, 12.947802], [77.513301, 12.947736], [77.513472, 12.947664], [77.51364, 12.947585], [77.513744, 12.947532], [77.514452, 12.947217], [77.514453, 12.947217], [77.514919, 12.947006], [77.514951, 12.946986], [77.51503, 12.946931], [77.515104, 12.946869], [77.515174, 12.946803], [77.515238, 12.946731], [77.515296, 12.946654], [77.515348, 12.946574], [77.515381, 12.946514], [77.515417, 12.946473], [77.515649, 12.946201], [77.515649, 12.9462], [77.515875, 12.945924], [77.51596, 12.945817], [77.515985, 12.945777], [77.516058, 12.94567], [77.516137, 12.945567], [77.516222, 12.945469], [77.516313, 12.945376], [77.516408, 12.945288], [77.516509, 12.945206], [77.516531, 12.945189], [77.516598, 12.945152], [77.516676, 12.945101], [77.51675, 12.945044], [77.516818, 12.944982], [77.516882, 12.944914], [77.51694, 12.944842], [77.516992, 12.944765], [77.517038, 12.944685], [77.517077, 12.944601], [77.517097, 12.944549], [77.517112, 12.944501], [77.517122, 12.944446], [77.517126, 12.944389], [77.517121, 12.944333], [77.51711, 12.944277], [77.517091, 12.944224], [77.517065, 12.944173], [77.517033, 12.944126], [77.517004, 12.944092], [77.516993, 12.944085], [77.516941, 12.944061], [77.516886, 12.944043], [77.516829, 12.944032], [77.516771, 12.944029], [77.516714, 12.944034], [77.516657, 12.944045], [77.516603, 12.944064], [77.516599, 12.944065], [77.51659, 12.944071], [77.516551, 12.944087], [77.51651, 12.944097], [77.516468, 12.944099], [77.516426, 12.944094], [77.516386, 12.944082], [77.516349, 12.944062], [77.516316, 12.944037], [77.516287, 12.944006], [77.516266, 12.943971], [77.516254, 12.943944], [77.516206, 12.943851], [77.51615, 12.94373], [77.516101, 12.943605], [77.516059, 12.943479], [77.516025, 12.94335], [77.516005, 12.943259], [77.516003, 12.94323], [77.515991, 12.943069], [77.515971, 12.942909], [77.515943, 12.94275], [77.515908, 12.942593], [77.515878, 12.942478], [77.515873, 12.942464], [77.515847, 12.942399], [77.515814, 12.942337], [77.515775, 12.942278], [77.515729, 12.942224], [77.515678, 12.942175], [77.515622, 12.942132], [77.515562, 12.942094], [77.515498, 12.942063], [77.515431, 12.942038], [77.515429, 12.942038], [77.515363, 12.942043], [77.515251, 12.942046], [77.515139, 12.942041], [77.515028, 12.94203], [77.514917, 12.942011], [77.514905, 12.942008], [77.514869, 12.941984], [77.514837, 12.941954], [77.514811, 12.941918], [77.514792, 12.941879], [77.51478, 12.941837], [77.514776, 12.941793], [77.514779, 12.94175], [77.514783, 12.941733], [77.514785, 12.941669], [77.514787, 12.941499], [77.514782, 12.94133], [77.514769, 12.94116], [77.514749, 12.940992], [77.514749, 12.94099], [77.514748, 12.940986], [77.514737, 12.940937], [77.514718, 12.94089], [77.514692, 12.940846], [77.51466, 12.940806], [77.514628, 12.940776], [77.514614, 12.940748], [77.514599, 12.940703], [77.514592, 12.940656], [77.514591, 12.940609], [77.514598, 12.940562], [77.514612, 12.940516], [77.514633, 12.940474], [77.51466, 12.940435], [77.51469, 12.940403], [77.514719, 12.940348], [77.514744, 12.940284], [77.514761, 12.940218], [77.514772, 12.94015], [77.514775, 12.940082], [77.51477, 12.940013], [77.514758, 12.939946], [77.514739, 12.93988], [77.514713, 12.939817], [77.514693, 12.939777], [77.514572, 12.939596], [77.514377, 12.939315], [77.514176, 12.939038], [77.51409, 12.938923], [77.514061, 12.938863], [77.514021, 12.938796], [77.513975, 12.938732], [77.513923, 12.938673], [77.513866, 12.93862], [77.513804, 12.938571], [77.513737, 12.938529], [77.513667, 12.938493], [77.513594, 12.938464], [77.513518, 12.938441], [77.513441, 12.938426], [77.513362, 12.938417], [77.513345, 12.938416], [77.513298, 12.938416], [77.513201, 12.93841], [77.513106, 12.938396], [77.513011, 12.938375], [77.51297, 12.938364], [77.512965, 12.938362], [77.512928, 12.938343], [77.512896, 12.938318], [77.512868, 12.938287], [77.512846, 12.938253], [77.512831, 12.938215], [77.512824, 12.938175], [77.512823, 12.938134], [77.512826, 12.93811], [77.512856, 12.937924], [77.512895, 12.937727], [77.512941, 12.937533], [77.512969, 12.937426], [77.51297, 12.937425], [77.513046, 12.937291], [77.513129, 12.937161], [77.513218, 12.937035], [77.513312, 12.936913], [77.513334, 12.936887], [77.513422, 12.936766], [77.513523, 12.936618], [77.513617, 12.936466], [77.513702, 12.936313], [77.513716, 12.936273], [77.513766, 12.936145], [77.513822, 12.936019], [77.513885, 12.935896], [77.513928, 12.93582], [77.513781, 12.935769], [77.512822, 12.935495], [77.511656, 12.935157], [77.511476, 12.935073], [77.511297, 12.93498], [77.511122, 12.934882], [77.51095, 12.934777], [77.510782, 12.934666], [77.510619, 12.93455], [77.51046, 12.934427], [77.510306, 12.934299], [77.510223, 12.934227], [77.510095, 12.934127], [77.509868, 12.933945], [77.509646, 12.933757], [77.509429, 12.933563], [77.509217, 12.933365], [77.509108, 12.933258], [77.509107, 12.933258], [77.50903, 12.933176], [77.508961, 12.933104], [77.508809, 12.932955], [77.508651, 12.932811], [77.508489, 12.932673], [77.508322, 12.932541], [77.508151, 12.932414], [77.508064, 12.932353], [77.508047, 12.932342], [77.507297, 12.93187], [77.506753, 12.931533], [77.506704, 12.931503], [77.506617, 12.931442], [77.506534, 12.931375], [77.506456, 12.931303], [77.506384, 12.931225], [77.506317, 12.931143], [77.506256, 12.931057], [77.506202, 12.930966], [77.506154, 12.930872], [77.506118, 12.930789], [77.506111, 12.93077], [77.506055, 12.930629], [77.505993, 12.930491], [77.505924, 12.930356], [77.505848, 12.930224], [77.505766, 12.930097], [77.505678, 12.929973], [77.505673, 12.929966], [77.505628, 12.929899], [77.505575, 12.929835], [77.505517, 12.929775], [77.505454, 12.92972], [77.505386, 12.929672], [77.505314, 12.929629], [77.505269, 12.929606], [77.505123, 12.929537], [77.504955, 12.929465], [77.504784, 12.929399], [77.504611, 12.929341], [77.504435, 12.929289], [77.504339, 12.929263], [77.504245, 12.929246], [77.504111, 12.929215], [77.50398, 12.929176], [77.50385, 12.929131], [77.503724, 12.929079], [77.5036, 12.929021], [77.503541, 12.92899], [77.503523, 12.928976], [77.50343, 12.928897], [77.503341, 12.928814], [77.503258, 12.928725], [77.503181, 12.928631], [77.503109, 12.928532], [77.503044, 12.92843], [77.503021, 12.928391], [77.503013, 12.92838], [77.502897, 12.928217], [77.502774, 12.928059], [77.502646, 12.927905], [77.502588, 12.927839], [77.50248, 12.927725], [77.502296, 12.927544], [77.502077, 12.927387], [77.501858, 12.927308], [77.501133, 12.926814], [77.500436, 12.926332], [77.500006, 12.925991], [77.499639, 12.925672], [77.499311, 12.925377], [77.499137, 12.92522], [77.499009, 12.926045], [77.498939, 12.926004], [77.498718, 12.926879], [77.498592, 12.927712], [77.498519, 12.928655], [77.498534, 12.929212], [77.498634, 12.92987], [77.498638, 12.930256], [77.498571, 12.930834], [77.499104, 12.930749], [77.499313, 12.931826], [77.499674, 12.933987], [77.499802, 12.934814], [77.499941, 12.935454], [77.499082, 12.935725], [77.499594, 12.937902], [77.499476, 12.938202], [77.499378, 12.938378], [77.499127, 12.938551], [77.498952, 12.938661], [77.49845, 12.938958], [77.497882, 12.939382], [77.497213, 12.939878], [77.49719, 12.939896], [77.497167, 12.939933], [77.497167, 12.939962], [77.49717, 12.940012], [77.49746, 12.940612], [77.497635, 12.941012], [77.499372, 12.943586], [77.499899, 12.943391], [77.500102, 12.944311], [77.499201, 12.94466], [77.499207, 12.944677], [77.499606, 12.946385], [77.498881, 12.94657], [77.498894, 12.946632], [77.498822, 12.946668], [77.498083, 12.946837], [77.497534, 12.946875], [77.497147, 12.946908], [77.496585, 12.946973], [77.496649, 12.947086], [77.496699, 12.947191], [77.496747, 12.947323], [77.496424, 12.947321], [77.495804, 12.947323], [77.495352, 12.947377], [77.49455, 12.947498], [77.493469, 12.947604], [77.492846, 12.947636], [77.49237, 12.94762], [77.491921, 12.947584], [77.491253, 12.94757], [77.490588, 12.947562], [77.490511, 12.947554], [77.490277, 12.947492], [77.489474, 12.948189], [77.488636, 12.948986], [77.488715, 12.94914], [77.488708, 12.94919], [77.488712, 12.949275], [77.488705, 12.949352], [77.488662, 12.949407], [77.488157, 12.949705], [77.487469, 12.950195], [77.486748, 12.950677], [77.486369, 12.950967], [77.486001, 12.951198], [77.485652, 12.951329], [77.485478, 12.951356], [77.485436, 12.95137], [77.485133, 12.951396], [77.484807, 12.951445], [77.484669, 12.951584], [77.484816, 12.951723], [77.484899, 12.951765], [77.484959, 12.951873], [77.484976, 12.95195], [77.485079, 12.952034], [77.485084, 12.952111], [77.485071, 12.952386], [77.485061, 12.952556], [77.485093, 12.952644], [77.485196, 12.952732], [77.485315, 12.952816], [77.485391, 12.952862], [77.485497, 12.952903], [77.485545, 12.95298], [77.485619, 12.953235], [77.485637, 12.953505], [77.48559, 12.953892], [77.485588, 12.954066], [77.485563, 12.954394], [77.485625, 12.95468], [77.485626, 12.954757], [77.485623, 12.95483], [77.485666, 12.955044], [77.48502, 12.955417], [77.48505, 12.956401], [77.485517, 12.957864], [77.485902, 12.960911], [77.48609, 12.963146], [77.486233, 12.963233], [77.487182, 12.962833], [77.488604, 12.962282], [77.489927, 12.962041], [77.49005, 12.962991], [77.490181, 12.96299], [77.490497, 12.962881], [77.490921, 12.962766], [77.491042, 12.962745], [77.491502, 12.962638], [77.491791, 12.962593], [77.491792, 12.962465], [77.491783, 12.962345], [77.491798, 12.962287], [77.491837, 12.962198], [77.49188, 12.962147], [77.491974, 12.962115], [77.492025, 12.96213], [77.492042, 12.962211], [77.492048, 12.962389], [77.492084, 12.962524], [77.492243, 12.962646], [77.492402, 12.962741], [77.49273, 12.962842], [77.492923, 12.96286], [77.493137, 12.962862], [77.494386, 12.962515], [77.49492, 12.962327], [77.495228, 12.962395], [77.495428, 12.962717], [77.495806, 12.963707], [77.496338, 12.964352], [77.496449, 12.964418], [77.496522, 12.964427], [77.496591, 12.964426], [77.49668, 12.964431], [77.496759, 12.964471], [77.496802, 12.964533], [77.496809, 12.964682], [77.496784, 12.964811], [77.496655, 12.965049], [77.496555, 12.965149], [77.49654, 12.965164], [77.496467, 12.965226], [77.496363, 12.965305], [77.496322, 12.965444], [77.49646, 12.966128], [77.496741, 12.966831], [77.496794, 12.966918], [77.496822, 12.967073], [77.496817, 12.967129], [77.496829, 12.967217], [77.496814, 12.96731], [77.496732, 12.967584], [77.496712, 12.967682], [77.497046, 12.968032], [77.49722, 12.968209], [77.497476, 12.968356], [77.497925, 12.968601], [77.49825, 12.968628], [77.498373, 12.968686], [77.498807, 12.969459], [77.498059, 12.969765], [77.498469, 12.9702], [77.498145, 12.970262], [77.497762, 12.970283], [77.497077, 12.970205], [77.496413, 12.970004], [77.496104, 12.970043], [77.495566, 12.970142], [77.495535, 12.970144], [77.495377, 12.970177], [77.49442, 12.970376], [77.493728, 12.970454], [77.493042, 12.97048], [77.493041, 12.97049], [77.493141, 12.971748], [77.49307, 12.972542], [77.493163, 12.973474], [77.493166, 12.973731], [77.493136, 12.973876], [77.493031, 12.974413], [77.493038, 12.974526], [77.492831, 12.978853], [77.493093, 12.980849], [77.493835, 12.983141], [77.495023, 12.986687], [77.49562, 12.988006], [77.495738, 12.988211], [77.496615, 12.988481], [77.498193, 12.988858], [77.498883, 12.988919], [77.499125, 12.988915], [77.499344, 12.988911], [77.499547, 12.988907], [77.499857, 12.98892], [77.500095, 12.98898], [77.500544, 12.989166], [77.501443, 12.989524], [77.502817, 12.990017], [77.503961, 12.990207], [77.504135, 12.990211], [77.504288, 12.990209], [77.504372, 12.990203], [77.504498, 12.990176], [77.504881, 12.990033], [77.505573, 12.989722], [77.505652, 12.989716], [77.505678, 12.989716]]]}}]}