{"type": "FeatureCollection", "features": [{"type": "Feature", "properties": {"region_id": "ward_276600-164", "name": "Vidyapeeta ward", "parent": "zone_276600-6", "parent_name": "South"}, "geometry": {"type": "Polygon", "coordinates": [[[77.564492, 12.939284], [77.564492, 12.939157], [77.564539, 12.938601], [77.564555, 12.937994], [77.564497, 12.937447], [77.56425, 12.936917], [77.564043, 12.936652], [77.563863, 12.936698], [77.563652, 12.936042], [77.563511, 12.935547], [77.563202, 12.934825], [77.5629, 12.934043], [77.562659, 12.93338], [77.56268, 12.933157], [77.562837, 12.933037], [77.563618, 12.932682], [77.564, 12.932434], [77.564014, 12.93233], [77.563836, 12.931133], [77.563692, 12.930513], [77.563684, 12.93045], [77.563672, 12.930398], [77.563614, 12.930404], [77.563157, 12.930505], [77.562828, 12.930588], [77.562608, 12.930658], [77.562452, 12.930649], [77.562254, 12.930645], [77.562005, 12.930624], [77.561749, 12.930502], [77.56144, 12.930329], [77.56095, 12.92997], [77.560483, 12.929645], [77.560238, 12.929477], [77.560067, 12.929245], [77.559422, 12.928439], [77.559252, 12.928253], [77.559118, 12.928163], [77.558902, 12.928069], [77.558705, 12.928003], [77.558478, 12.927897], [77.558058, 12.927623], [77.557404, 12.92718], [77.55671, 12.926715], [77.556191, 12.926379], [77.555799, 12.926048], [77.555396, 12.925694], [77.555215, 12.925559], [77.555033, 12.925373], [77.554939, 12.925181], [77.554633, 12.924178], [77.55439, 12.923591], [77.554349, 12.923604], [77.553323, 12.92393], [77.553396, 12.924347], [77.553345, 12.925306], [77.553424, 12.926087], [77.553638, 12.926401], [77.554097, 12.926851], [77.554352, 12.927215], [77.554668, 12.927508], [77.554632, 12.927914], [77.554558, 12.928567], [77.55462, 12.928804], [77.554819, 12.929454], [77.554912, 12.92976], [77.55442, 12.929933], [77.554069, 12.930055], [77.554167, 12.930489], [77.553824, 12.930608], [77.554248, 12.930844], [77.554766, 12.931195], [77.555397, 12.931782], [77.55616, 12.932506], [77.55686, 12.932944], [77.557641, 12.933451], [77.557546, 12.933936], [77.557414, 12.934897], [77.557348, 12.935322], [77.557269, 12.935521], [77.557254, 12.935853], [77.556022, 12.93609], [77.556263, 12.936717], [77.556481, 12.937279], [77.556792, 12.938136], [77.557204, 12.937974], [77.557306, 12.938141], [77.557445, 12.938881], [77.557519, 12.939206], [77.557569, 12.939443], [77.55757, 12.939446], [77.557612, 12.93979], [77.557612, 12.93982], [77.557897, 12.941643], [77.55872, 12.94157], [77.560165, 12.941602], [77.561795, 12.941739], [77.563352, 12.94176], [77.564282, 12.941818], [77.564302, 12.941799], [77.564333, 12.941791], [77.564388, 12.941791], [77.564586, 12.941789], [77.564889, 12.941789], [77.564992, 12.941788], [77.565027, 12.941788], [77.565058, 12.941769], [77.565089, 12.941734], [77.565089, 12.941707], [77.565089, 12.941676], [77.565072, 12.941569], [77.565009, 12.941157], [77.564993, 12.941069], [77.564961, 12.941004], [77.564909, 12.940882], [77.564313, 12.939893], [77.564063, 12.939412], [77.563949, 12.939205], [77.563964, 12.939222], [77.563996, 12.939245], [77.564031, 12.939259], [77.564072, 12.939276], [77.564142, 12.939283], [77.564364, 12.939278], [77.564492, 12.939284]]]}}]}