{"type": "FeatureCollection", "features": [{"type": "Feature", "properties": {"region_id": "ward_276600-137", "name": "Rayapuram", "parent": "zone_276600-7", "parent_name": "West"}, "geometry": {"type": "Polygon", "coordinates": [[[77.561777, 12.964664], [77.560751, 12.963322], [77.560656, 12.963206], [77.560017, 12.962365], [77.559364, 12.961533], [77.559091, 12.961298], [77.559023, 12.961283], [77.558175, 12.961091], [77.557699, 12.960906], [77.557422, 12.960752], [77.55715, 12.960568], [77.556809, 12.961086], [77.556112, 12.961962], [77.555517, 12.962874], [77.555447, 12.96301], [77.556337, 12.962807], [77.556637, 12.964048], [77.556185, 12.964171], [77.555866, 12.964262], [77.555638, 12.964319], [77.555418, 12.964396], [77.555291, 12.964458], [77.55526, 12.96454], [77.555249, 12.964547], [77.555127, 12.964629], [77.554523, 12.964836], [77.553269, 12.965277], [77.551975, 12.965655], [77.551502, 12.965836], [77.551682, 12.966324], [77.550763, 12.96656], [77.55072, 12.966221], [77.550356, 12.966317], [77.550056, 12.966414], [77.550236, 12.966615], [77.550281, 12.966691], [77.550306, 12.966732], [77.550676, 12.967163], [77.550996, 12.967539], [77.551175, 12.967716], [77.551435, 12.967937], [77.551697, 12.968088], [77.551906, 12.968193], [77.552271, 12.968313], [77.552572, 12.968404], [77.552859, 12.968486], [77.553475, 12.968651], [77.55425, 12.968855], [77.55456, 12.96894], [77.555007, 12.969064], [77.555204, 12.969127], [77.554717, 12.967772], [77.554654, 12.967617], [77.5547, 12.967585], [77.554619, 12.967399], [77.555384, 12.967098], [77.55564, 12.967113], [77.555856, 12.967107], [77.55604, 12.967059], [77.556183, 12.966938], [77.556225, 12.966888], [77.556301, 12.966823], [77.55638, 12.966791], [77.556559, 12.966729], [77.556682, 12.966706], [77.556778, 12.966624], [77.556874, 12.966471], [77.556996, 12.966413], [77.557204, 12.966351], [77.557346, 12.9663], [77.557431, 12.966204], [77.557407, 12.966102], [77.557362, 12.965876], [77.55787, 12.965549], [77.558232, 12.965348], [77.558383, 12.965265], [77.558586, 12.965047], [77.558725, 12.964826], [77.558808, 12.964761], [77.558882, 12.964752], [77.559753, 12.966537], [77.559858, 12.966521], [77.560007, 12.966449], [77.560253, 12.9663], [77.560454, 12.96614], [77.560569, 12.966032], [77.560643, 12.965932], [77.560743, 12.965747], [77.560879, 12.965455], [77.560956, 12.9653], [77.561037, 12.965137], [77.561151, 12.964985], [77.56124, 12.964903], [77.561405, 12.964828], [77.561659, 12.964749], [77.561766, 12.964676], [77.561777, 12.964664]]]}}]}