{"type": "FeatureCollection", "features": [{"type": "Feature", "properties": {"region_id": "ward_276600-6", "name": "Thanisandra", "parent": "zone_276600-8", "parent_name": "Yelahanka"}, "geometry": {"type": "Polygon", "coordinates": [[[77.63825, 13.075206], [77.638177, 13.075114], [77.637917, 13.07452], [77.637793, 13.073986], [77.637679, 13.073493], [77.637662, 13.073421], [77.637667, 13.07342], [77.637031, 13.069485], [77.636945, 13.069003], [77.636953, 13.069002], [77.636633, 13.067021], [77.636822, 13.065177], [77.637112, 13.062361], [77.637127, 13.062006], [77.637151, 13.061407], [77.637204, 13.060107], [77.637137, 13.058824], [77.637048, 13.057121], [77.637005, 13.053416], [77.636624, 13.051127], [77.636624, 13.051119], [77.636578, 13.050491], [77.636487, 13.049243], [77.636462, 13.048894], [77.636404, 13.048096], [77.636327, 13.047354], [77.636038, 13.044543], [77.636066, 13.044175], [77.636624, 13.042946], [77.636647, 13.042895], [77.636651, 13.042886], [77.636652, 13.042885], [77.636669, 13.042847], [77.636697, 13.042785], [77.636681, 13.042511], [77.636589, 13.042361], [77.63657, 13.04222], [77.63655, 13.042065], [77.636558, 13.041944], [77.636583, 13.04185], [77.636656, 13.041672], [77.636703, 13.041543], [77.636724, 13.041435], [77.63674, 13.041306], [77.636739, 13.041198], [77.636711, 13.041095], [77.636667, 13.041031], [77.6366, 13.040985], [77.63653, 13.040951], [77.636431, 13.04091], [77.63631, 13.040876], [77.636239, 13.040808], [77.636143, 13.04073], [77.636027, 13.040702], [77.635926, 13.040717], [77.635851, 13.040743], [77.635786, 13.040798], [77.635752, 13.040872], [77.635757, 13.040936], [77.635723, 13.041015], [77.635618, 13.041115], [77.635493, 13.041166], [77.635373, 13.041192], [77.635303, 13.041232], [77.635218, 13.041262], [77.635143, 13.041322], [77.635011, 13.041484], [77.63497, 13.041603], [77.634931, 13.041788], [77.634797, 13.041903], [77.634732, 13.041982], [77.634608, 13.042132], [77.634533, 13.042177], [77.634338, 13.042273], [77.634187, 13.042323], [77.634026, 13.04233], [77.633836, 13.042352], [77.633735, 13.042353], [77.633554, 13.042354], [77.633428, 13.042341], [77.633271, 13.042342], [77.633152, 13.041787], [77.632817, 13.041955], [77.632497, 13.041992], [77.632297, 13.042225], [77.632094, 13.042514], [77.632053, 13.042546], [77.632006, 13.042598], [77.631953, 13.042656], [77.631864, 13.042754], [77.631835, 13.042786], [77.631834, 13.04279], [77.631824, 13.042846], [77.631823, 13.04285], [77.631823, 13.042852], [77.63183, 13.042891], [77.631819, 13.042903], [77.631804, 13.04292], [77.631777, 13.042926], [77.631759, 13.04293], [77.631733, 13.042933], [77.631691, 13.042934], [77.631675, 13.042934], [77.631662, 13.042934], [77.631443, 13.042978], [77.631372, 13.042994], [77.631355, 13.043], [77.631327, 13.043008], [77.63131, 13.042995], [77.631308, 13.042992], [77.631186, 13.042837], [77.63107, 13.042652], [77.63104, 13.04256], [77.631011, 13.042541], [77.630969, 13.042545], [77.630901, 13.042552], [77.630792, 13.042591], [77.630572, 13.042657], [77.630452, 13.042642], [77.630365, 13.042637], [77.630322, 13.042629], [77.630313, 13.042628], [77.6302, 13.042587], [77.630076, 13.042513], [77.630014, 13.042466], [77.629981, 13.042406], [77.629938, 13.042368], [77.629877, 13.042321], [77.629743, 13.042221], [77.629675, 13.042222], [77.629601, 13.042235], [77.629504, 13.042287], [77.629444, 13.042405], [77.6294, 13.042488], [77.629371, 13.042523], [77.629329, 13.042565], [77.629297, 13.042578], [77.629245, 13.042578], [77.629189, 13.042573], [77.629177, 13.042572], [77.629005, 13.042476], [77.62892, 13.042385], [77.628855, 13.04236], [77.628761, 13.042323], [77.628628, 13.042286], [77.628586, 13.04229], [77.628553, 13.042316], [77.628548, 13.042389], [77.628517, 13.042522], [77.628545, 13.042712], [77.628552, 13.042794], [77.628555, 13.042842], [77.628556, 13.042871], [77.628541, 13.042928], [77.628499, 13.043001], [77.628448, 13.043043], [77.628405, 13.043065], [77.628248, 13.043146], [77.628161, 13.043179], [77.628117, 13.043211], [77.628107, 13.043262], [77.628111, 13.043338], [77.628222, 13.043523], [77.628239, 13.043541], [77.628289, 13.043596], [77.628358, 13.043672], [77.628491, 13.043778], [77.628648, 13.043878], [77.6287, 13.043928], [77.628704, 13.043985], [77.628704, 13.044046], [77.628704, 13.044055], [77.628697, 13.044067], [77.628676, 13.044103], [77.628654, 13.044129], [77.628534, 13.044243], [77.628513, 13.044263], [77.628491, 13.044269], [77.628442, 13.044283], [77.628364, 13.044293], [77.628264, 13.044313], [77.628189, 13.044346], [77.628146, 13.044365], [77.628138, 13.044369], [77.628049, 13.044452], [77.627982, 13.044608], [77.62797, 13.044678], [77.627971, 13.04469], [77.627978, 13.044824], [77.627925, 13.044983], [77.627891, 13.045059], [77.627799, 13.045263], [77.62761, 13.045436], [77.627549, 13.045521], [77.627483, 13.045491], [77.627416, 13.045419], [77.62681, 13.044768], [77.626784, 13.044741], [77.626085, 13.043908], [77.625809, 13.043533], [77.625413, 13.042995], [77.624792, 13.041756], [77.624784, 13.041734], [77.624253, 13.040327], [77.623969, 13.039599], [77.623977, 13.039537], [77.623847, 13.039323], [77.623698, 13.03905], [77.623641, 13.038901], [77.62364, 13.038782], [77.623596, 13.038633], [77.623539, 13.038413], [77.623483, 13.038348], [77.623112, 13.038357], [77.62249, 13.038346], [77.622511, 13.038525], [77.622328, 13.038556], [77.622036, 13.038565], [77.621835, 13.038609], [77.621823, 13.039244], [77.621713, 13.039245], [77.621596, 13.039265], [77.621446, 13.039303], [77.621371, 13.038734], [77.620924, 13.038792], [77.620571, 13.038843], [77.620572, 13.038932], [77.620549, 13.039134], [77.619919, 13.039165], [77.620146, 13.040136], [77.620134, 13.040144], [77.620003, 13.040237], [77.619944, 13.040279], [77.61937, 13.040574], [77.61934, 13.04059], [77.619235, 13.040632], [77.618776, 13.040816], [77.618501, 13.040936], [77.61839, 13.040977], [77.618276, 13.040998], [77.618084, 13.040988], [77.617514, 13.040938], [77.617458, 13.040937], [77.61729, 13.040932], [77.617138, 13.040934], [77.617, 13.040959], [77.61676, 13.041012], [77.616373, 13.041098], [77.61616, 13.041153], [77.616029, 13.041187], [77.615767, 13.041261], [77.615759, 13.041264], [77.615325, 13.041407], [77.61486, 13.041563], [77.614622, 13.041634], [77.614482, 13.041699], [77.614304, 13.041786], [77.614176, 13.041867], [77.61397, 13.041997], [77.613741, 13.042103], [77.613674, 13.042135], [77.613353, 13.042681], [77.612897, 13.043115], [77.612556, 13.043638], [77.612265, 13.044386], [77.612225, 13.045042], [77.612072, 13.045789], [77.611732, 13.046357], [77.611482, 13.046676], [77.611369, 13.046903], [77.611558, 13.047353], [77.612233, 13.047911], [77.612034, 13.048749], [77.611765, 13.049474], [77.611301, 13.049524], [77.611, 13.049618], [77.610585, 13.049718], [77.610426, 13.049724], [77.610383, 13.050057], [77.610329, 13.050278], [77.610233, 13.050385], [77.609829, 13.050545], [77.609507, 13.050649], [77.609087, 13.050749], [77.608739, 13.050808], [77.608325, 13.050902], [77.608249, 13.051024], [77.608066, 13.051182], [77.607729, 13.051336], [77.607423, 13.051485], [77.607133, 13.051774], [77.607027, 13.051896], [77.606811, 13.051914], [77.606085, 13.052102], [77.605144, 13.052398], [77.604259, 13.052659], [77.604354, 13.052949], [77.604311, 13.053186], [77.603846, 13.053377], [77.603355, 13.053593], [77.602773, 13.053795], [77.602236, 13.054032], [77.60194, 13.054105], [77.601315, 13.054243], [77.600854, 13.054343], [77.59956, 13.054708], [77.599248, 13.054786], [77.599437, 13.055187], [77.598895, 13.055409], [77.598431, 13.05567], [77.597925, 13.055851], [77.597855, 13.056018], [77.598044, 13.056438], [77.598352, 13.056948], [77.598563, 13.057449], [77.598706, 13.057885], [77.598788, 13.058373], [77.598775, 13.058654], [77.598845, 13.05891], [77.598953, 13.058964], [77.59924, 13.058951], [77.599389, 13.058965], [77.599494, 13.059135], [77.59962, 13.05942], [77.599791, 13.05962], [77.599973, 13.059794], [77.600123, 13.059989], [77.600181, 13.060144], [77.600439, 13.060207], [77.600946, 13.060197], [77.60148, 13.060176], [77.602049, 13.060181], [77.60226, 13.060199], [77.602753, 13.060254], [77.60301, 13.060277], [77.603316, 13.06058], [77.603622, 13.060924], [77.603798, 13.061079], [77.604061, 13.061207], [77.604944, 13.061721], [77.605553, 13.062022], [77.605738, 13.062125], [77.605832, 13.062215], [77.606007, 13.062254], [77.606254, 13.062347], [77.606579, 13.062499], [77.606744, 13.062578], [77.606982, 13.062792], [77.607245, 13.062915], [77.607502, 13.062948], [77.607692, 13.063011], [77.607852, 13.063075], [77.607935, 13.063129], [77.608013, 13.063224], [77.608127, 13.063344], [77.6082, 13.063449], [77.608288, 13.063528], [77.60857, 13.0635], [77.608923, 13.063451], [77.609139, 13.063429], [77.609221, 13.063428], [77.609369, 13.063925], [77.609452, 13.064477], [77.609574, 13.065291], [77.609641, 13.065864], [77.609709, 13.066467], [77.609767, 13.066657], [77.609816, 13.06666], [77.609845, 13.066679], [77.609904, 13.066729], [77.61, 13.067013], [77.610025, 13.067221], [77.610201, 13.067809], [77.610248, 13.067955], [77.610299, 13.068012], [77.610351, 13.06804], [77.6104, 13.068049], [77.610613, 13.068028], [77.611404, 13.067925], [77.612355, 13.067846], [77.612862, 13.067771], [77.612955, 13.067751], [77.613046, 13.067731], [77.613126, 13.067698], [77.613265, 13.067627], [77.613432, 13.067508], [77.613576, 13.067355], [77.613788, 13.066912], [77.613964, 13.066482], [77.614242, 13.065848], [77.614362, 13.065542], [77.614385, 13.065526], [77.615046, 13.065681], [77.615841, 13.065721], [77.616783, 13.065712], [77.617186, 13.065732], [77.617287, 13.065869], [77.617406, 13.066035], [77.617537, 13.066379], [77.617636, 13.066608], [77.617743, 13.06668], [77.618127, 13.066728], [77.618341, 13.066726], [77.618479, 13.066714], [77.618669, 13.066566], [77.618828, 13.06646], [77.619036, 13.066278], [77.619392, 13.066249], [77.619819, 13.066148], [77.620035, 13.065811], [77.620436, 13.065579], [77.620557, 13.06541], [77.621119, 13.06538], [77.622268, 13.065357], [77.622892, 13.065398], [77.623246, 13.065383], [77.623815, 13.065976], [77.624297, 13.066534], [77.624828, 13.06702], [77.62599, 13.06708], [77.62617, 13.067929], [77.626364, 13.068874], [77.626661, 13.070381], [77.626966, 13.07039], [77.627141, 13.070736], [77.627492, 13.071547], [77.627808, 13.072515], [77.627834, 13.072658], [77.628225, 13.072642], [77.628484, 13.075133], [77.62901, 13.075199], [77.630951, 13.074952], [77.631263, 13.076698], [77.632179, 13.076593], [77.63318, 13.076451], [77.633657, 13.076446], [77.633672, 13.076734], [77.633773, 13.077044], [77.636995, 13.075357], [77.637863, 13.075372], [77.63825, 13.075206]]]}}]}