{"type": "FeatureCollection", "features": [{"type": "Feature", "properties": {"region_id": "ward_276600-81", "name": "Vijnana Nagar", "parent": "zone_276600-4", "parent_name": "Mahadevapura"}, "geometry": {"type": "Polygon", "coordinates": [[[77.68849, 12.992072], [77.688566, 12.992035], [77.688769, 12.99191], [77.689253, 12.991782], [77.68977, 12.991669], [77.690271, 12.991694], [77.690819, 12.991612], [77.691335, 12.991422], [77.691881, 12.991201], [77.692208, 12.991013], [77.692769, 12.990685], [77.693581, 12.990369], [77.694191, 12.990301], [77.69449, 12.990344], [77.694819, 12.990371], [77.695461, 12.990288], [77.695836, 12.990192], [77.695893, 12.986778], [77.69584, 12.984734], [77.69564, 12.982705], [77.695578, 12.982414], [77.695537, 12.982296], [77.695532, 12.982286], [77.695443, 12.982078], [77.695441, 12.982074], [77.695264, 12.981739], [77.695193, 12.981546], [77.695164, 12.981431], [77.695142, 12.981348], [77.695092, 12.981158], [77.694854, 12.98124], [77.694527, 12.981322], [77.694402, 12.981371], [77.694338, 12.981447], [77.694284, 12.981522], [77.693721, 12.981574], [77.693457, 12.981488], [77.693155, 12.981984], [77.692439, 12.981894], [77.691811, 12.981763], [77.690322, 12.98187], [77.688879, 12.978826], [77.6887, 12.97851], [77.686927, 12.979483], [77.686658, 12.979295], [77.68544, 12.978293], [77.684727, 12.977593], [77.684296, 12.976829], [77.684085, 12.9762], [77.684112, 12.975754], [77.684687, 12.975333], [77.685486, 12.974703], [77.685696, 12.974318], [77.685731, 12.974152], [77.685742, 12.974093], [77.685921, 12.973926], [77.686099, 12.973759], [77.686398, 12.973544], [77.686851, 12.973161], [77.686776, 12.972926], [77.686709, 12.972325], [77.686596, 12.97189], [77.686435, 12.971443], [77.686246, 12.970655], [77.686062, 12.970268], [77.686059, 12.970044], [77.686215, 12.969995], [77.686396, 12.970005], [77.686273, 12.969782], [77.68639, 12.969486], [77.686652, 12.969259], [77.687336, 12.969087], [77.687925, 12.969073], [77.688142, 12.967165], [77.688563, 12.966945], [77.688636, 12.966453], [77.688965, 12.962241], [77.687966, 12.962163], [77.686371, 12.962063], [77.681625, 12.961662], [77.681867, 12.962789], [77.6821, 12.963479], [77.682151, 12.964112], [77.681693, 12.964175], [77.68109, 12.964246], [77.680679, 12.964276], [77.680395, 12.964331], [77.679544, 12.964704], [77.679089, 12.964943], [77.678527, 12.965137], [77.678094, 12.964927], [77.677568, 12.964679], [77.677349, 12.964642], [77.676654, 12.964773], [77.67621, 12.964816], [77.675667, 12.964822], [77.675156, 12.964814], [77.674419, 12.964718], [77.673921, 12.964645], [77.673728, 12.964601], [77.673559, 12.964621], [77.673569, 12.964768], [77.673599, 12.965214], [77.6736, 12.965904], [77.673574, 12.966379], [77.673564, 12.966919], [77.673541, 12.967124], [77.673475, 12.967296], [77.672752, 12.967002], [77.672663, 12.967091], [77.671605, 12.967305], [77.671085, 12.967424], [77.670027, 12.967656], [77.669759, 12.966151], [77.670289, 12.96611], [77.67026, 12.965071], [77.668667, 12.964867], [77.668526, 12.965908], [77.668068, 12.965992], [77.667396, 12.966193], [77.66693, 12.966295], [77.666588, 12.965364], [77.666578, 12.965276], [77.666471, 12.965427], [77.665971, 12.965644], [77.665551, 12.96593], [77.665491, 12.966177], [77.665486, 12.966574], [77.665513, 12.967429], [77.665561, 12.967693], [77.6655, 12.967834], [77.665565, 12.968107], [77.665413, 12.968179], [77.665472, 12.968584], [77.665736, 12.969824], [77.665908, 12.970774], [77.666041, 12.971372], [77.66604, 12.971514], [77.666083, 12.97151], [77.666126, 12.97151], [77.666176, 12.97153], [77.666234, 12.971586], [77.666352, 12.971741], [77.666354, 12.971742], [77.666431, 12.97183], [77.666553, 12.972467], [77.666823, 12.972565], [77.666991, 12.972637], [77.666992, 12.972727], [77.666979, 12.972861], [77.666828, 12.973042], [77.666675, 12.973128], [77.666681, 12.973146], [77.666683, 12.97315], [77.666738, 12.973297], [77.666783, 12.973432], [77.666811, 12.973574], [77.666828, 12.97368], [77.666861, 12.973874], [77.666913, 12.974238], [77.666917, 12.974262], [77.666922, 12.9743], [77.666922, 12.974339], [77.66692, 12.974366], [77.666918, 12.974382], [77.666912, 12.974395], [77.666897, 12.974411], [77.666878, 12.974429], [77.666839, 12.974443], [77.666751, 12.97445], [77.666742, 12.974451], [77.666639, 12.974455], [77.666621, 12.974458], [77.666619, 12.97446], [77.666615, 12.974465], [77.66661, 12.974476], [77.666586, 12.974753], [77.666584, 12.974776], [77.666555, 12.975073], [77.666511, 12.975329], [77.666509, 12.975342], [77.666509, 12.975359], [77.666534, 12.975379], [77.666627, 12.975418], [77.666785, 12.975464], [77.666785, 12.975466], [77.666936, 12.975513], [77.667213, 12.975558], [77.667305, 12.975566], [77.667354, 12.97557], [77.667475, 12.97558], [77.667529, 12.975578], [77.667849, 12.975562], [77.667915, 12.975559], [77.667959, 12.975552], [77.668262, 12.975505], [77.668536, 12.975462], [77.668799, 12.97542], [77.668934, 12.975377], [77.669143, 12.975287], [77.669211, 12.975258], [77.669442, 12.975177], [77.669885, 12.975023], [77.67046, 12.974804], [77.670649, 12.974733], [77.671036, 12.974619], [77.671246, 12.974559], [77.671403, 12.974514], [77.672361, 12.974202], [77.672819, 12.974043], [77.673289, 12.973879], [77.673481, 12.973822], [77.673871, 12.973707], [77.674067, 12.973641], [77.674435, 12.973518], [77.674588, 12.973472], [77.674954, 12.973375], [77.675548, 12.973247], [77.675846, 12.973199], [77.675976, 12.973178], [77.676301, 12.973095], [77.676673, 12.973018], [77.677684, 12.972808], [77.678104, 12.972742], [77.678122, 12.972807], [77.678186, 12.973033], [77.678192, 12.973032], [77.678219, 12.973192], [77.678235, 12.973283], [77.678261, 12.973358], [77.678404, 12.973769], [77.678734, 12.974748], [77.6793, 12.976267], [77.679306, 12.976298], [77.679326, 12.976407], [77.679323, 12.976503], [77.679314, 12.976615], [77.679264, 12.976814], [77.679263, 12.977012], [77.679263, 12.97705], [77.679263, 12.977056], [77.679281, 12.977319], [77.679291, 12.977464], [77.6793, 12.977598], [77.679334, 12.978095], [77.679379, 12.978484], [77.679427, 12.978739], [77.679577, 12.979413], [77.679643, 12.979685], [77.679684, 12.97991], [77.679804, 12.980552], [77.679809, 12.980581], [77.679819, 12.980625], [77.679856, 12.980792], [77.679939, 12.981084], [77.680105, 12.981614], [77.680258, 12.982131], [77.680347, 12.982434], [77.680376, 12.98255], [77.680391, 12.982628], [77.680398, 12.982665], [77.680403, 12.982751], [77.68037, 12.982849], [77.680362, 12.982874], [77.680303, 12.982967], [77.680253, 12.983046], [77.680145, 12.983206], [77.680088, 12.983301], [77.680063, 12.983343], [77.679972, 12.983466], [77.67988, 12.983558], [77.679811, 12.983634], [77.679808, 12.983639], [77.679807, 12.983664], [77.679075, 12.984033], [77.678628, 12.98414], [77.678487, 12.9843], [77.678203, 12.984453], [77.677929, 12.984643], [77.677587, 12.984833], [77.677019, 12.985119], [77.676508, 12.985452], [77.675703, 12.985937], [77.674888, 12.986431], [77.674481, 12.986624], [77.67427, 12.986754], [77.674142, 12.986923], [77.674664, 12.986934], [77.676002, 12.987477], [77.675838, 12.988574], [77.675853, 12.989976], [77.675845, 12.990121], [77.675678, 12.990123], [77.675742, 12.990666], [77.675791, 12.991064], [77.675477, 12.991225], [77.675564, 12.991508], [77.67602, 12.991384], [77.676284, 12.991303], [77.67663, 12.992567], [77.676353, 12.992648], [77.675914, 12.992651], [77.675878, 12.992687], [77.675879, 12.992743], [77.675864, 12.992835], [77.675803, 12.992993], [77.675784, 12.993116], [77.675812, 12.993273], [77.67586, 12.993441], [77.67596, 12.993603], [77.676192, 12.993865], [77.676502, 12.994203], [77.676749, 12.994481], [77.676976, 12.99486], [77.677124, 12.995078], [77.677264, 12.99503], [77.677554, 12.994925], [77.677595, 12.994926], [77.677822, 12.994872], [77.677993, 12.994858], [77.678255, 12.994853], [77.67861, 12.99481], [77.6791, 12.994729], [77.679579, 12.994733], [77.680394, 12.994778], [77.680667, 12.994796], [77.681212, 12.994823], [77.681988, 12.994865], [77.682128, 12.994914], [77.682128, 12.995005], [77.682278, 12.994996], [77.682963, 12.99503], [77.682999, 12.995107], [77.683042, 12.995165], [77.683067, 12.995226], [77.68308, 12.995364], [77.683085, 12.995437], [77.683077, 12.995499], [77.683078, 12.995553], [77.683083, 12.995618], [77.683087, 12.995695], [77.683104, 12.995775], [77.68314, 12.995894], [77.683189, 12.995986], [77.683304, 12.996123], [77.683422, 12.996226], [77.683486, 12.996271], [77.683673, 12.99638], [77.683936, 12.995945], [77.684613, 12.995022], [77.684878, 12.994667], [77.686007, 12.993064], [77.68743, 12.991197], [77.687636, 12.991349], [77.68777, 12.991401], [77.688011, 12.991519], [77.68849, 12.992072]]]}}]}