{"type": "FeatureCollection", "features": [{"type": "Feature", "properties": {"region_id": "ward_276600-71", "name": "Hegganahalli", "parent": "zone_276600-2", "parent_name": "Dasarahalli"}, "geometry": {"type": "Polygon", "coordinates": [[[77.506127, 13.009876], [77.506094, 13.009823], [77.506001, 13.009621], [77.505721, 13.008417], [77.50551, 13.007476], [77.505334, 13.006588], [77.505151, 13.005684], [77.504983, 13.004627], [77.504978, 13.004574], [77.505837, 13.004382], [77.506339, 13.004306], [77.507192, 13.004212], [77.507098, 13.00353], [77.506791, 13.002439], [77.506588, 13.001279], [77.506425, 13.000376], [77.50641, 13.000253], [77.506389, 13.000179], [77.506372, 13.000062], [77.506287, 12.999973], [77.506199, 12.999884], [77.506134, 12.999795], [77.506113, 12.999717], [77.506091, 12.999567], [77.506063, 12.999353], [77.506002, 12.999042], [77.505978, 12.998922], [77.505971, 12.998884], [77.505958, 12.998777], [77.505823, 12.998166], [77.505598, 12.997396], [77.50545, 12.996988], [77.505303, 12.996493], [77.505142, 12.99588], [77.505048, 12.995514], [77.504959, 12.995368], [77.504868, 12.995285], [77.504759, 12.995238], [77.504699, 12.995216], [77.50465, 12.995214], [77.504596, 12.995214], [77.504521, 12.995215], [77.50449, 12.995215], [77.504165, 12.995244], [77.504067, 12.995247], [77.504049, 12.995245], [77.504024, 12.995238], [77.50402, 12.995202], [77.504005, 12.994952], [77.504025, 12.994668], [77.504124, 12.994492], [77.504204, 12.994318], [77.504243, 12.994279], [77.504299, 12.994278], [77.504441, 12.99428], [77.504466, 12.993953], [77.504621, 12.99298], [77.504649, 12.992127], [77.504646, 12.991791], [77.504647, 12.991762], [77.504653, 12.991414], [77.504751, 12.991201], [77.505354, 12.990411], [77.505628, 12.989969], [77.505694, 12.989752], [77.505678, 12.989716], [77.505652, 12.989716], [77.505573, 12.989722], [77.504881, 12.990033], [77.504498, 12.990176], [77.504372, 12.990203], [77.504288, 12.990209], [77.504135, 12.990211], [77.503961, 12.990207], [77.502817, 12.990017], [77.501443, 12.989524], [77.500544, 12.989166], [77.500095, 12.98898], [77.499857, 12.98892], [77.499547, 12.988907], [77.499344, 12.988911], [77.499337, 12.989801], [77.499304, 12.99132], [77.499293, 12.99179], [77.499349, 12.99214], [77.499345, 12.992269], [77.499283, 12.992373], [77.499258, 12.992435], [77.499258, 12.992536], [77.499348, 12.99281], [77.499601, 12.993628], [77.499883, 12.994656], [77.500097, 12.995451], [77.500272, 12.995988], [77.500264, 12.996031], [77.500144, 12.99608], [77.500207, 12.99619], [77.500271, 12.996329], [77.500669, 12.996968], [77.500869, 12.997221], [77.500822, 12.997311], [77.500555, 12.997484], [77.500294, 12.997661], [77.499793, 12.998024], [77.499869, 12.998373], [77.499878, 12.998435], [77.49987, 12.99849], [77.499839, 12.998525], [77.499433, 12.998676], [77.499065, 12.9988], [77.499112, 12.998899], [77.499128, 12.999026], [77.498712, 12.999094], [77.497935, 12.999205], [77.497329, 12.999465], [77.496409, 12.999843], [77.495629, 13.000075], [77.495349, 13.000144], [77.495037, 13.000225], [77.495069, 13.00037], [77.495133, 13.000642], [77.495134, 13.000696], [77.495595, 13.002077], [77.495137, 13.002187], [77.494987, 13.002243], [77.494151, 13.002351], [77.493864, 13.002354], [77.492882, 13.002856], [77.491739, 13.003185], [77.496679, 13.00856], [77.496808, 13.0087], [77.497474, 13.009424], [77.49778, 13.009261], [77.498008, 13.009164], [77.498517, 13.009004], [77.498945, 13.008715], [77.499418, 13.00852], [77.499971, 13.008377], [77.500654, 13.008068], [77.501126, 13.007693], [77.501704, 13.007446], [77.501993, 13.007331], [77.502215, 13.008329], [77.502355, 13.0092], [77.502446, 13.00957], [77.50312, 13.009628], [77.504016, 13.00971], [77.504711, 13.009771], [77.505284, 13.00982], [77.505565, 13.009829], [77.505991, 13.009895], [77.506074, 13.009898], [77.506108, 13.009889], [77.506127, 13.009876]]]}}]}