{"type": "FeatureCollection", "features": [{"type": "Feature", "properties": {"region_id": "ward_276600-70", "name": "Rajagopal Nagar", "parent": "zone_276600-2", "parent_name": "Dasarahalli"}, "geometry": {"type": "Polygon", "coordinates": [[[77.51858, 13.012713], [77.518572, 13.01265], [77.518634, 13.01258], [77.518653, 13.012512], [77.518628, 13.012431], [77.518607, 13.012349], [77.518606, 13.012224], [77.518643, 13.012056], [77.518682, 13.011964], [77.51872, 13.011882], [77.518743, 13.011752], [77.518767, 13.011641], [77.518854, 13.011582], [77.518897, 13.011471], [77.518916, 13.01139], [77.518954, 13.011274], [77.518993, 13.011201], [77.519012, 13.011119], [77.519011, 13.011023], [77.51901, 13.010932], [77.519018, 13.010821], [77.519037, 13.010725], [77.519041, 13.010648], [77.51905, 13.010552], [77.518986, 13.010495], [77.518901, 13.010419], [77.518857, 13.010361], [77.518832, 13.010333], [77.518772, 13.010189], [77.518732, 13.010108], [77.518682, 13.010007], [77.518617, 13.009883], [77.518567, 13.009802], [77.518527, 13.009725], [77.518491, 13.009615], [77.518406, 13.009433], [77.518381, 13.009361], [77.518316, 13.009247], [77.518286, 13.009184], [77.518241, 13.009103], [77.5181, 13.008939], [77.518086, 13.008912], [77.517912, 13.00876], [77.51784, 13.008681], [77.517431, 13.008424], [77.517343, 13.008357], [77.517315, 13.008324], [77.517298, 13.008299], [77.51728, 13.008272], [77.51728, 13.008258], [77.51728, 13.008219], [77.517304, 13.008133], [77.517376, 13.00792], [77.517383, 13.007792], [77.517432, 13.007526], [77.517432, 13.007368], [77.517434, 13.007293], [77.517436, 13.007218], [77.517456, 13.007114], [77.51743, 13.006899], [77.517395, 13.006808], [77.517356, 13.006778], [77.517327, 13.006726], [77.517315, 13.006668], [77.517295, 13.006615], [77.517311, 13.006568], [77.517339, 13.006513], [77.517367, 13.006471], [77.517411, 13.006393], [77.51745, 13.006331], [77.517506, 13.006262], [77.517567, 13.006203], [77.517604, 13.006167], [77.517629, 13.006122], [77.517648, 13.00608], [77.517656, 13.006014], [77.51769, 13.005268], [77.51769, 13.005251], [77.517674, 13.004686], [77.517698, 13.003979], [77.517735, 13.003874], [77.517778, 13.003679], [77.517875, 13.003476], [77.518018, 13.00325], [77.518146, 13.003055], [77.51822, 13.002867], [77.518241, 13.002658], [77.518186, 13.002531], [77.518032, 13.002383], [77.51794, 13.00229], [77.517863, 13.002213], [77.517847, 13.002123], [77.517838, 13.002004], [77.517911, 13.001696], [77.5179, 13.001412], [77.517865, 13.001222], [77.51799, 13.000799], [77.518252, 13.000321], [77.518254, 13.000321], [77.518255, 13.000318], [77.518407, 13.000204], [77.518573, 13.000113], [77.518794, 13.000021], [77.518845, 13.000015], [77.518953, 13.000061], [77.519037, 13.00006], [77.519066, 13.000031], [77.519089, 12.999955], [77.5191, 12.999855], [77.519105, 12.999744], [77.51914, 12.999626], [77.51921, 12.999503], [77.51931, 12.999379], [77.519363, 12.999302], [77.519416, 12.999197], [77.519415, 12.999097], [77.519414, 12.999009], [77.519413, 12.998904], [77.519364, 12.998811], [77.51931, 12.998765], [77.519232, 12.998736], [77.519161, 12.998731], [77.519113, 12.998755], [77.519072, 12.998796], [77.519018, 12.998838], [77.51897, 12.998809], [77.518952, 12.998762], [77.518921, 12.998681], [77.518909, 12.998605], [77.518861, 12.998564], [77.518812, 12.998518], [77.518806, 12.998436], [77.518805, 12.998336], [77.518804, 12.99829], [77.518809, 12.998202], [77.518808, 12.998114], [77.518808, 12.998061], [77.518818, 12.997932], [77.518787, 12.997827], [77.518715, 12.997752], [77.518655, 12.997688], [77.518588, 12.997607], [77.518475, 12.997502], [77.51829, 12.997373], [77.518055, 12.997326], [77.517378, 12.997372], [77.517406, 12.998428], [77.517438, 12.998577], [77.51752, 12.998586], [77.517682, 12.998535], [77.517693, 12.998625], [77.517603, 12.998725], [77.51743, 12.998787], [77.517388, 12.998791], [77.517281, 12.998726], [77.517161, 12.998715], [77.51706, 12.99874], [77.516956, 12.998861], [77.516865, 12.998952], [77.516842, 12.99897], [77.516776, 12.998971], [77.516686, 12.998936], [77.516447, 12.998903], [77.516286, 12.998893], [77.516179, 12.998924], [77.516042, 12.998989], [77.515979, 12.999083], [77.51593, 12.999154], [77.51583, 12.99922], [77.515711, 12.999268], [77.515628, 12.99938], [77.515534, 12.999468], [77.515385, 12.999534], [77.515171, 12.999653], [77.515071, 12.999771], [77.515043, 12.999912], [77.515063, 13.000158], [77.5151, 13.000263], [77.515071, 13.000368], [77.515054, 13.00045], [77.514989, 13.000509], [77.5149, 13.000569], [77.514816, 13.000577], [77.514692, 13.000588], [77.514554, 13.00059], [77.514435, 13.000573], [77.514315, 13.000498], [77.514206, 13.000417], [77.51411, 13.000331], [77.514032, 13.000244], [77.513941, 13.000186], [77.513762, 13.000153], [77.513523, 13.000137], [77.51332, 13.000128], [77.513272, 13.000093], [77.513208, 12.999661], [77.513014, 12.998738], [77.512732, 12.997974], [77.510322, 12.998575], [77.510076, 12.997714], [77.510049, 12.997561], [77.508009, 12.998144], [77.507934, 12.998177], [77.507247, 12.998431], [77.507275, 12.99852], [77.505978, 12.998922], [77.506002, 12.999042], [77.506063, 12.999353], [77.506091, 12.999567], [77.506113, 12.999717], [77.506134, 12.999795], [77.506199, 12.999884], [77.506287, 12.999973], [77.506372, 13.000062], [77.506389, 13.000179], [77.50641, 13.000253], [77.506425, 13.000376], [77.506588, 13.001279], [77.506791, 13.002439], [77.507098, 13.00353], [77.507192, 13.004212], [77.506339, 13.004306], [77.505837, 13.004382], [77.504978, 13.004574], [77.504983, 13.004627], [77.505151, 13.005684], [77.505334, 13.006588], [77.50551, 13.007476], [77.505721, 13.008417], [77.506001, 13.009621], [77.506094, 13.009823], [77.506127, 13.009876], [77.506238, 13.009927], [77.506529, 13.0104], [77.506637, 13.010537], [77.506982, 13.011011], [77.507289, 13.011111], [77.507837, 13.01137], [77.508285, 13.011566], [77.508572, 13.011745], [77.509115, 13.012414], [77.509576, 13.013005], [77.510058, 13.013685], [77.510428, 13.014188], [77.510942, 13.01524], [77.511155, 13.015661], [77.511324, 13.016018], [77.511411, 13.016202], [77.511635, 13.016134], [77.512216, 13.01588], [77.512578, 13.015729], [77.512805, 13.015633], [77.513394, 13.015373], [77.513638, 13.015308], [77.513902, 13.015233], [77.513935, 13.015134], [77.514192, 13.015202], [77.514479, 13.015278], [77.514879, 13.013688], [77.515094, 13.013624], [77.515796, 13.013387], [77.516432, 13.013136], [77.516412, 13.013021], [77.518017, 13.012781], [77.518049, 13.012775], [77.51858, 13.012713]]]}}]}