{"type": "FeatureCollection", "features": [{"type": "Feature", "properties": {"region_id": "ward_276600-22", "name": "Vishwanath Nagenahalli", "parent": "zone_276600-3", "parent_name": "East"}, "geometry": {"type": "Polygon", "coordinates": [[[77.610257, 13.038199], [77.610226, 13.038131], [77.610141, 13.037923], [77.60999, 13.037555], [77.60991, 13.037207], [77.609844, 13.036981], [77.60964, 13.036281], [77.609308, 13.034833], [77.609277, 13.034689], [77.609205, 13.034355], [77.609146, 13.034138], [77.609097, 13.033967], [77.608821, 13.033012], [77.608433, 13.031695], [77.608169, 13.030655], [77.608083, 13.030219], [77.608071, 13.03016], [77.608006, 13.030001], [77.607943, 13.029875], [77.607831, 13.029738], [77.607791, 13.029689], [77.607617, 13.029492], [77.607473, 13.029224], [77.607469, 13.029217], [77.607256, 13.028748], [77.607067, 13.028332], [77.606774, 13.027713], [77.606393, 13.026806], [77.605924, 13.026983], [77.605098, 13.027248], [77.604363, 13.027408], [77.604357, 13.02741], [77.604268, 13.027414], [77.604258, 13.027406], [77.604213, 13.027371], [77.603185, 13.027565], [77.601982, 13.027713], [77.60182, 13.027733], [77.601382, 13.027796], [77.601098, 13.027837], [77.599625, 13.028041], [77.599494, 13.028274], [77.599372, 13.028512], [77.599374, 13.028688], [77.599407, 13.028894], [77.599512, 13.029244], [77.599569, 13.029526], [77.599596, 13.029839], [77.599653, 13.030091], [77.599763, 13.030373], [77.599927, 13.030545], [77.600112, 13.030762], [77.600182, 13.030853], [77.600205, 13.030926], [77.600216, 13.030999], [77.600228, 13.031078], [77.600229, 13.031113], [77.600231, 13.03116], [77.60025, 13.031313], [77.600229, 13.031692], [77.600189, 13.032022], [77.600184, 13.032144], [77.600185, 13.032201], [77.600163, 13.032266], [77.600159, 13.032323], [77.600154, 13.032372], [77.600151, 13.032412], [77.600149, 13.032464], [77.600158, 13.032526], [77.600158, 13.03258], [77.600156, 13.032626], [77.600154, 13.032667], [77.600149, 13.03274], [77.600275, 13.032756], [77.600626, 13.032719], [77.600932, 13.032705], [77.601272, 13.032657], [77.601611, 13.032609], [77.601951, 13.032606], [77.602392, 13.032535], [77.602505, 13.032522], [77.603116, 13.032416], [77.603569, 13.032356], [77.604055, 13.032262], [77.604632, 13.032212], [77.60479, 13.032177], [77.604786, 13.032833], [77.605069, 13.03283], [77.605658, 13.032791], [77.606293, 13.032795], [77.606485, 13.032816], [77.606475, 13.032894], [77.606369, 13.033595], [77.606327, 13.033962], [77.606294, 13.034017], [77.605988, 13.033998], [77.605501, 13.034003], [77.604968, 13.033975], [77.604651, 13.03399], [77.604629, 13.034068], [77.604621, 13.034357], [77.604645, 13.034534], [77.604658, 13.034689], [77.604637, 13.034823], [77.60415, 13.034883], [77.603517, 13.034968], [77.602962, 13.035018], [77.602408, 13.035101], [77.602207, 13.035122], [77.60181, 13.03513], [77.601403, 13.035059], [77.600989, 13.03503], [77.600591, 13.035034], [77.600152, 13.035105], [77.59988, 13.035155], [77.599228, 13.03525], [77.599062, 13.035276], [77.598904, 13.035313], [77.598825, 13.035346], [77.5988, 13.035378], [77.598557, 13.035444], [77.598228, 13.035531], [77.597738, 13.035627], [77.59735, 13.03568], [77.597114, 13.035741], [77.596995, 13.035852], [77.597042, 13.035848], [77.597075, 13.035848], [77.597104, 13.035865], [77.59714, 13.035921], [77.597192, 13.03602], [77.597255, 13.036153], [77.597347, 13.036396], [77.597462, 13.036643], [77.597491, 13.036667], [77.597452, 13.036806], [77.597405, 13.03695], [77.597324, 13.037007], [77.597162, 13.037105], [77.596975, 13.037154], [77.59687, 13.037267], [77.596798, 13.037396], [77.596711, 13.037644], [77.596664, 13.037821], [77.596569, 13.038085], [77.596482, 13.038294], [77.596443, 13.03851], [77.596276, 13.038927], [77.596225, 13.03922], [77.59635, 13.039189], [77.596373, 13.039297], [77.59643, 13.039469], [77.596509, 13.039641], [77.596722, 13.039942], [77.596887, 13.040082], [77.596935, 13.040117], [77.596991, 13.040314], [77.597052, 13.040617], [77.59726, 13.040581], [77.59743, 13.041209], [77.597986, 13.041194], [77.599402, 13.041151], [77.601074, 13.041104], [77.602413, 13.041064], [77.604248, 13.041011], [77.605205, 13.040984], [77.605204, 13.040978], [77.606516, 13.040939], [77.60674, 13.040917], [77.606963, 13.040897], [77.607068, 13.040888], [77.607101, 13.040879], [77.607677, 13.040734], [77.607789, 13.040693], [77.608066, 13.040593], [77.608214, 13.040516], [77.60851, 13.040362], [77.608562, 13.040334], [77.608587, 13.040316], [77.60903, 13.039989], [77.609472, 13.039546], [77.609476, 13.039542], [77.609477, 13.039541], [77.609478, 13.03954], [77.609725, 13.039235], [77.609852, 13.039035], [77.609946, 13.038888], [77.609992, 13.038793], [77.610028, 13.038719], [77.610131, 13.038507], [77.61023, 13.038264], [77.610257, 13.038199]]]}}]}