{"type": "FeatureCollection", "features": [{"type": "Feature", "properties": {"region_id": "ward_276600-122", "name": "Kempapura Agrahara", "parent": "zone_276600-6", "parent_name": "South"}, "geometry": {"type": "Polygon", "coordinates": [[[77.555204, 12.969127], [77.555007, 12.969064], [77.55456, 12.96894], [77.554432, 12.969023], [77.554232, 12.969074], [77.554241, 12.969076], [77.554078, 12.96913], [77.553691, 12.969229], [77.553296, 12.969304], [77.552965, 12.969355], [77.552426, 12.969502], [77.552032, 12.969704], [77.55163, 12.969914], [77.551556, 12.969945], [77.551669, 12.970065], [77.551818, 12.970213], [77.552008, 12.97045], [77.552232, 12.9707], [77.552417, 12.970894], [77.552571, 12.971076], [77.552769, 12.971237], [77.552941, 12.971427], [77.553025, 12.97155], [77.55306, 12.971648], [77.553119, 12.971852], [77.553146, 12.971925], [77.553226, 12.972112], [77.55329, 12.97235], [77.553374, 12.972525], [77.553472, 12.97269], [77.553583, 12.972928], [77.553664, 12.973188], [77.553754, 12.973452], [77.553817, 12.973664], [77.553886, 12.974014], [77.553962, 12.974257], [77.554096, 12.974554], [77.554278, 12.974924], [77.554408, 12.97529], [77.554496, 12.97556], [77.555694, 12.975607], [77.558543, 12.975764], [77.558704, 12.975765], [77.558687, 12.97557], [77.558655, 12.975325], [77.558576, 12.975142], [77.558516, 12.974995], [77.558443, 12.974743], [77.558326, 12.974452], [77.558057, 12.974004], [77.55793, 12.973786], [77.557932, 12.973663], [77.557957, 12.97319], [77.557935, 12.972877], [77.557732, 12.972024], [77.557545, 12.971063], [77.557383, 12.970246], [77.557166, 12.970302], [77.557159, 12.969992], [77.557117, 12.969466], [77.556985, 12.969482], [77.556709, 12.96947], [77.556378, 12.96943], [77.555994, 12.969354], [77.555655, 12.969268], [77.555563, 12.969239], [77.555385, 12.969184], [77.555204, 12.969127]]]}}]}