{"type": "FeatureCollection", "features": [{"type": "Feature", "properties": {"region_id": "ward_276600-177", "name": "J P Nagar", "parent": "zone_276600-6", "parent_name": "South"}, "geometry": {"type": "Polygon", "coordinates": [[[77.593291, 12.916902], [77.600102, 12.916746], [77.600074, 12.916712], [77.599999, 12.916658], [77.599937, 12.916609], [77.599925, 12.916556], [77.599923, 12.916393], [77.599929, 12.915368], [77.59996, 12.914286], [77.599956, 12.912286], [77.599989, 12.911553], [77.600268, 12.908756], [77.600277, 12.90868], [77.600292, 12.908513], [77.600301, 12.908403], [77.600323, 12.908144], [77.600335, 12.908014], [77.60041, 12.907673], [77.600483, 12.907418], [77.600529, 12.907335], [77.600578, 12.907257], [77.600655, 12.907159], [77.601054, 12.906684], [77.601321, 12.906364], [77.601515, 12.906121], [77.601618, 12.905983], [77.60169, 12.905891], [77.601779, 12.905752], [77.601845, 12.905624], [77.60187, 12.905545], [77.601882, 12.905502], [77.601888, 12.90544], [77.601899, 12.90535], [77.601898, 12.905242], [77.601881, 12.905075], [77.601846, 12.904882], [77.60174, 12.904452], [77.601624, 12.903974], [77.601569, 12.903741], [77.601464, 12.903344], [77.601301, 12.903381], [77.601254, 12.90339], [77.601168, 12.903421], [77.601055, 12.903447], [77.600962, 12.903477], [77.600871, 12.903497], [77.600645, 12.903524], [77.600449, 12.903553], [77.600406, 12.903562], [77.600371, 12.903574], [77.600329, 12.903596], [77.600296, 12.903612], [77.60017, 12.903634], [77.600162, 12.903647], [77.600163, 12.903661], [77.600178, 12.903677], [77.600188, 12.903681], [77.600197, 12.903685], [77.600197, 12.903694], [77.600194, 12.903704], [77.600171, 12.903717], [77.600149, 12.903694], [77.600131, 12.903689], [77.600116, 12.903686], [77.600106, 12.903689], [77.60009, 12.903695], [77.600074, 12.90371], [77.600057, 12.903711], [77.599999, 12.903687], [77.599957, 12.903687], [77.599866, 12.903724], [77.599803, 12.903757], [77.599697, 12.903788], [77.599639, 12.903794], [77.599512, 12.903863], [77.599479, 12.903869], [77.599432, 12.903872], [77.599376, 12.90387], [77.599326, 12.903851], [77.599284, 12.903825], [77.599231, 12.903795], [77.599178, 12.903777], [77.59912, 12.903766], [77.599016, 12.903697], [77.598946, 12.903621], [77.598938, 12.903586], [77.598937, 12.903559], [77.598937, 12.903534], [77.598931, 12.903507], [77.598911, 12.903401], [77.598918, 12.903292], [77.598981, 12.902937], [77.599088, 12.902337], [77.599209, 12.901947], [77.599266, 12.901802], [77.599315, 12.901703], [77.599391, 12.901539], [77.599434, 12.901408], [77.599469, 12.901329], [77.599477, 12.901274], [77.599477, 12.90125], [77.599465, 12.901214], [77.59944, 12.901193], [77.59941, 12.901196], [77.599376, 12.901202], [77.599329, 12.901213], [77.599272, 12.901263], [77.598681, 12.901573], [77.598173, 12.901837], [77.597459, 12.902177], [77.596674, 12.902493], [77.596375, 12.902565], [77.596256, 12.902574], [77.596156, 12.902579], [77.59592, 12.902617], [77.595284, 12.90266], [77.5942, 12.902692], [77.594025, 12.902712], [77.593764, 12.904862], [77.593661, 12.905094], [77.593517, 12.905225], [77.593417, 12.905316], [77.593456, 12.906303], [77.593563, 12.906298], [77.593564, 12.906333], [77.593584, 12.906358], [77.593615, 12.907404], [77.593173, 12.907467], [77.593322, 12.910228], [77.590227, 12.910404], [77.587911, 12.910473], [77.585704, 12.910568], [77.585737, 12.912211], [77.585838, 12.91575], [77.585838, 12.916079], [77.585838, 12.917143], [77.589615, 12.916989], [77.593291, 12.916902]]]}}]}