{"type": "FeatureCollection", "features": [{"type": "Feature", "properties": {"region_id": "ward_276600-181", "name": "Kumaraswamy Layout", "parent": "zone_276600-6", "parent_name": "South"}, "geometry": {"type": "Polygon", "coordinates": [[[77.559629, 12.894195], [77.559144, 12.894284], [77.55905, 12.894865], [77.559017, 12.895065], [77.558979, 12.895137], [77.558953, 12.895167], [77.558903, 12.89519], [77.558827, 12.895217], [77.558666, 12.895241], [77.55857, 12.895254], [77.558516, 12.895254], [77.558458, 12.895251], [77.558428, 12.895232], [77.558376, 12.895086], [77.558345, 12.895003], [77.558333, 12.894958], [77.558286, 12.894906], [77.558228, 12.894892], [77.558171, 12.894907], [77.558064, 12.894953], [77.557854, 12.895053], [77.557395, 12.895257], [77.557051, 12.895408], [77.556955, 12.895446], [77.556703, 12.89552], [77.556511, 12.895571], [77.556442, 12.895579], [77.556108, 12.89572], [77.555295, 12.896078], [77.554922, 12.896368], [77.555162, 12.896673], [77.555311, 12.89685], [77.555547, 12.897133], [77.555645, 12.897249], [77.555787, 12.897412], [77.555665, 12.897496], [77.555294, 12.89775], [77.555693, 12.898042], [77.555698, 12.898537], [77.555724, 12.898888], [77.556335, 12.900853], [77.556702, 12.902126], [77.556186, 12.902249], [77.556359, 12.90299], [77.556322, 12.903046], [77.556554, 12.903502], [77.556837, 12.904427], [77.557327, 12.904929], [77.55806, 12.90549], [77.558936, 12.906218], [77.559456, 12.906642], [77.559061, 12.906991], [77.558501, 12.90735], [77.558036, 12.907761], [77.558252, 12.908212], [77.558515, 12.908654], [77.558518, 12.909774], [77.558452, 12.910212], [77.558339, 12.910597], [77.558293, 12.910736], [77.558416, 12.911295], [77.558455, 12.911612], [77.558495, 12.911661], [77.558528, 12.911733], [77.558601, 12.91198], [77.558828, 12.912615], [77.558861, 12.912719], [77.558865, 12.912765], [77.558866, 12.912848], [77.55887, 12.912949], [77.558894, 12.913221], [77.558918, 12.913455], [77.558944, 12.913545], [77.558956, 12.913579], [77.558973, 12.913603], [77.559009, 12.913621], [77.55906, 12.913639], [77.559107, 12.913644], [77.559208, 12.913649], [77.559302, 12.913657], [77.559351, 12.913664], [77.559413, 12.913673], [77.559468, 12.913685], [77.559535, 12.913701], [77.559586, 12.913724], [77.559748, 12.913739], [77.56011, 12.914107], [77.560605, 12.914617], [77.56109, 12.915249], [77.561414, 12.915694], [77.561715, 12.916093], [77.561993, 12.916549], [77.56217, 12.917129], [77.562461, 12.91773], [77.562707, 12.918387], [77.562823, 12.918587], [77.563126, 12.919166], [77.56342, 12.919449], [77.563525, 12.919332], [77.56365, 12.919172], [77.563895, 12.918809], [77.564069, 12.918533], [77.56422, 12.918257], [77.564387, 12.917915], [77.564456, 12.917752], [77.564721, 12.91708], [77.564844, 12.916744], [77.56499, 12.916365], [77.565613, 12.914835], [77.565852, 12.914241], [77.566034, 12.913848], [77.566098, 12.913742], [77.566313, 12.913479], [77.567106, 12.912565], [77.567798, 12.911683], [77.568682, 12.910583], [77.569128, 12.910065], [77.569359, 12.909786], [77.56993, 12.909095], [77.570233, 12.908687], [77.570213, 12.90867], [77.567466, 12.906568], [77.560338, 12.900671], [77.560135, 12.900499], [77.560107, 12.900252], [77.560983, 12.899501], [77.561234, 12.899286], [77.560088, 12.896249], [77.56017, 12.896178], [77.559915, 12.895777], [77.559856, 12.895476], [77.55975, 12.894932], [77.559721, 12.894586], [77.559652, 12.894295], [77.559629, 12.894195]]]}}]}