{"type": "FeatureCollection", "features": [{"type": "Feature", "properties": {"region_id": "ward_276600-115", "name": "Vannarpet", "parent": "zone_276600-3", "parent_name": "East"}, "geometry": {"type": "Polygon", "coordinates": [[[77.612394, 12.954025], [77.612386, 12.954031], [77.612353, 12.954045], [77.612319, 12.95406], [77.612231, 12.954102], [77.612058, 12.954149], [77.611784, 12.954242], [77.611643, 12.954309], [77.611517, 12.9544], [77.611444, 12.954474], [77.611388, 12.954537], [77.611339, 12.954593], [77.611315, 12.954638], [77.611312, 12.954683], [77.611312, 12.954746], [77.611313, 12.954749], [77.611324, 12.954807], [77.611326, 12.954814], [77.611342, 12.954854], [77.611781, 12.955996], [77.611782, 12.955996], [77.611785, 12.956004], [77.611784, 12.956005], [77.611785, 12.956007], [77.611841, 12.956125], [77.611836, 12.956127], [77.612127, 12.95844], [77.612688, 12.958391], [77.613762, 12.958283], [77.614538, 12.958183], [77.615764, 12.958054], [77.616592, 12.957968], [77.616617, 12.95797], [77.616669, 12.957555], [77.616698, 12.957332], [77.616768, 12.957087], [77.616843, 12.957086], [77.61706, 12.957079], [77.617452, 12.956993], [77.617669, 12.956964], [77.617778, 12.956939], [77.617708, 12.957212], [77.617895, 12.95724], [77.618581, 12.957304], [77.618581, 12.957274], [77.619012, 12.957322], [77.619001, 12.957095], [77.618998, 12.956811], [77.619176, 12.956673], [77.619405, 12.956602], [77.619854, 12.956568], [77.620573, 12.95657], [77.62107, 12.956567], [77.621009, 12.956364], [77.620963, 12.956063], [77.62096, 12.956006], [77.620953, 12.955956], [77.620968, 12.95592], [77.621007, 12.955899], [77.62145, 12.955745], [77.621774, 12.95561], [77.622352, 12.955321], [77.623245, 12.954817], [77.624239, 12.954171], [77.624619, 12.953806], [77.624911, 12.953543], [77.625164, 12.953242], [77.625521, 12.952743], [77.625677, 12.952539], [77.625871, 12.952208], [77.626207, 12.951593], [77.626232, 12.951503], [77.626311, 12.951252], [77.626368, 12.951154], [77.626368, 12.951146], [77.626393, 12.951072], [77.62663, 12.950622], [77.626685, 12.950502], [77.626977, 12.950017], [77.627265, 12.949488], [77.627046, 12.949323], [77.626991, 12.94937], [77.626938, 12.949414], [77.626867, 12.949473], [77.626726, 12.949585], [77.626661, 12.949637], [77.626585, 12.949697], [77.626484, 12.949779], [77.626367, 12.949873], [77.62629, 12.949934], [77.626174, 12.950022], [77.626029, 12.950129], [77.625837, 12.950233], [77.62581, 12.950247], [77.625803, 12.950249], [77.625764, 12.950262], [77.625649, 12.950308], [77.625505, 12.950345], [77.625474, 12.950355], [77.625464, 12.950357], [77.625435, 12.950363], [77.624961, 12.950465], [77.624758, 12.950509], [77.624417, 12.950582], [77.624046, 12.95066], [77.623631, 12.950748], [77.623613, 12.950753], [77.623468, 12.950788], [77.623465, 12.950789], [77.623393, 12.950817], [77.623368, 12.950827], [77.623312, 12.950858], [77.623301, 12.950864], [77.623275, 12.950877], [77.623142, 12.950942], [77.62286, 12.951081], [77.62272, 12.95115], [77.622445, 12.951285], [77.622343, 12.951335], [77.622213, 12.951389], [77.621851, 12.951542], [77.621658, 12.951623], [77.621504, 12.951688], [77.621455, 12.951604], [77.621355, 12.951391], [77.621205, 12.951012], [77.621109, 12.95075], [77.6209, 12.950332], [77.620743, 12.950079], [77.620672, 12.949944], [77.620203, 12.94906], [77.620015, 12.948706], [77.619105, 12.949239], [77.619177, 12.949346], [77.618898, 12.949496], [77.619027, 12.94972], [77.618915, 12.9498], [77.61898, 12.949926], [77.619196, 12.950318], [77.619424, 12.950636], [77.61975, 12.951228], [77.620015, 12.9518], [77.619811, 12.951842], [77.619449, 12.951765], [77.61926, 12.951764], [77.619041, 12.951689], [77.618899, 12.951615], [77.618871, 12.951885], [77.618891, 12.952265], [77.618765, 12.952266], [77.618518, 12.952304], [77.61842, 12.952357], [77.617974, 12.952668], [77.617799, 12.952924], [77.617728, 12.953245], [77.617757, 12.953559], [77.617627, 12.953648], [77.617614, 12.953654], [77.617525, 12.953698], [77.617376, 12.953775], [77.617054, 12.953932], [77.616716, 12.954073], [77.616216, 12.954281], [77.616147, 12.95431], [77.615835, 12.95443], [77.615252, 12.954653], [77.614973, 12.95475], [77.614502, 12.954915], [77.614399, 12.95495], [77.614213, 12.955036], [77.614207, 12.955039], [77.614207, 12.955038], [77.614201, 12.955039], [77.614174, 12.95505], [77.61406, 12.954899], [77.613791, 12.953846], [77.613724, 12.953587], [77.613561, 12.953643], [77.613415, 12.953673], [77.613313, 12.953686], [77.613378, 12.953952], [77.613099, 12.954003], [77.612807, 12.954057], [77.612614, 12.954102], [77.612448, 12.95416], [77.612432, 12.954133], [77.612394, 12.954025]]]}}]}