{"type": "FeatureCollection", "features": [{"type": "Feature", "properties": {"region_id": "ward_276600-11", "name": "Kuvempu Nagar", "parent": "zone_276600-8", "parent_name": "Yelahanka"}, "geometry": {"type": "Polygon", "coordinates": [[[77.558012, 13.085031], [77.557729, 13.08441], [77.557648, 13.084207], [77.557924, 13.084126], [77.558104, 13.084053], [77.558159, 13.084022], [77.558188, 13.083982], [77.558024, 13.083825], [77.557185, 13.08315], [77.55655, 13.082668], [77.556684, 13.082231], [77.556727, 13.082002], [77.556771, 13.081953], [77.556833, 13.081777], [77.556808, 13.081678], [77.556508, 13.081434], [77.556146, 13.081151], [77.556143, 13.081122], [77.556145, 13.081091], [77.555814, 13.081164], [77.555424, 13.081284], [77.554502, 13.081607], [77.553437, 13.081955], [77.553299, 13.081247], [77.553171, 13.080306], [77.55317, 13.080304], [77.553041, 13.080347], [77.552322, 13.078936], [77.552557, 13.078791], [77.552248, 13.078268], [77.551995, 13.077921], [77.551573, 13.077274], [77.551997, 13.076909], [77.553423, 13.075965], [77.553046, 13.075073], [77.55238, 13.073776], [77.5517, 13.072271], [77.55128, 13.071419], [77.555178, 13.069836], [77.554862, 13.069332], [77.554495, 13.06858], [77.554151, 13.068688], [77.553166, 13.066621], [77.553114, 13.06665], [77.551365, 13.067342], [77.550395, 13.065386], [77.550641, 13.065069], [77.550445, 13.064455], [77.550608, 13.064216], [77.55062, 13.064197], [77.550619, 13.064185], [77.550786, 13.063759], [77.550946, 13.063462], [77.550962, 13.063327], [77.550942, 13.063082], [77.550888, 13.062838], [77.55083, 13.062239], [77.551131, 13.06216], [77.551172, 13.061949], [77.551132, 13.061418], [77.551109, 13.060982], [77.551119, 13.06076], [77.551386, 13.060141], [77.55157, 13.059616], [77.551567, 13.059302], [77.551476, 13.058593], [77.551459, 13.05779], [77.55135, 13.057781], [77.550969, 13.05769], [77.550462, 13.057576], [77.550065, 13.057483], [77.549802, 13.057506], [77.549513, 13.057528], [77.549358, 13.057527], [77.548627, 13.057529], [77.548061, 13.057539], [77.547962, 13.055661], [77.547919, 13.055701], [77.547459, 13.056116], [77.546977, 13.056584], [77.546742, 13.056826], [77.54672, 13.056849], [77.546718, 13.056825], [77.546715, 13.05677], [77.54672, 13.056755], [77.54669, 13.056703], [77.546663, 13.056675], [77.546521, 13.056527], [77.545791, 13.055802], [77.545422, 13.05546], [77.545151, 13.05521], [77.544975, 13.055073], [77.54487, 13.055009], [77.544771, 13.054968], [77.544671, 13.054951], [77.544529, 13.054947], [77.54426, 13.054936], [77.543253, 13.05496], [77.542771, 13.054955], [77.54235, 13.054913], [77.54173, 13.054808], [77.541398, 13.054751], [77.539844, 13.054451], [77.539153, 13.05431], [77.538921, 13.054303], [77.538761, 13.054318], [77.538182, 13.054407], [77.537529, 13.054513], [77.537275, 13.054554], [77.537168, 13.054569], [77.537117, 13.054577], [77.536106, 13.05474], [77.535394, 13.054836], [77.535162, 13.055504], [77.535092, 13.055747], [77.535094, 13.055912], [77.535122, 13.056024], [77.535158, 13.056162], [77.535196, 13.056352], [77.53518, 13.056552], [77.535138, 13.056752], [77.53513, 13.056882], [77.53515, 13.057029], [77.535107, 13.057176], [77.534948, 13.05723], [77.53487, 13.057343], [77.534862, 13.057465], [77.535121, 13.057535], [77.535412, 13.057615], [77.53498, 13.058233], [77.534509, 13.058912], [77.534186, 13.059531], [77.533921, 13.059944], [77.534165, 13.06044], [77.534506, 13.061551], [77.534784, 13.062458], [77.535122, 13.063305], [77.534735, 13.063919], [77.534598, 13.064323], [77.53452, 13.064559], [77.534389, 13.06483], [77.534241, 13.065314], [77.534071, 13.065844], [77.533807, 13.06584], [77.533805, 13.065803], [77.53352, 13.065807], [77.533149, 13.065801], [77.533021, 13.065787], [77.532875, 13.065773], [77.532828, 13.06578], [77.532752, 13.065845], [77.532585, 13.066013], [77.532097, 13.06651], [77.531704, 13.06693], [77.53125, 13.067392], [77.530868, 13.067809], [77.530388, 13.068308], [77.530185, 13.068488], [77.529995, 13.068697], [77.529924, 13.068857], [77.529885, 13.069243], [77.529775, 13.069664], [77.529749, 13.069943], [77.529707, 13.070796], [77.52971, 13.07114], [77.529732, 13.071445], [77.529732, 13.071493], [77.529785, 13.071905], [77.530093, 13.071839], [77.530415, 13.071772], [77.530892, 13.071742], [77.531384, 13.07184], [77.531622, 13.072137], [77.531387, 13.072609], [77.531221, 13.073872], [77.531356, 13.075395], [77.531087, 13.07836], [77.530958, 13.080326], [77.530787, 13.081237], [77.530205, 13.081971], [77.529718, 13.082502], [77.528452, 13.083492], [77.528283, 13.08383], [77.528652, 13.084074], [77.528689, 13.084322], [77.528856, 13.084673], [77.529339, 13.085053], [77.529811, 13.085347], [77.53027, 13.085492], [77.530772, 13.085626], [77.531163, 13.08564], [77.532154, 13.086212], [77.53312, 13.08683], [77.534114, 13.087394], [77.535404, 13.088468], [77.536292, 13.08988], [77.536442, 13.090358], [77.536718, 13.090957], [77.538586, 13.088769], [77.540587, 13.086326], [77.541103, 13.086011], [77.542408, 13.085373], [77.543315, 13.084929], [77.543499, 13.084913], [77.543691, 13.084925], [77.54464, 13.084826], [77.545032, 13.084791], [77.545111, 13.084772], [77.545132, 13.084425], [77.545149, 13.084171], [77.545133, 13.083565], [77.546461, 13.083577], [77.546504, 13.083628], [77.547192, 13.083607], [77.547514, 13.083598], [77.547494, 13.083466], [77.547479, 13.083376], [77.547271, 13.082311], [77.547171, 13.081992], [77.548059, 13.081817], [77.5482, 13.081784], [77.548448, 13.081688], [77.548515, 13.081715], [77.548781, 13.082053], [77.548831, 13.082105], [77.548938, 13.082128], [77.549211, 13.082156], [77.549385, 13.082165], [77.549868, 13.082192], [77.550084, 13.082203], [77.550194, 13.082258], [77.550267, 13.082375], [77.550541, 13.08287], [77.550689, 13.083077], [77.550839, 13.083193], [77.550967, 13.083272], [77.551124, 13.083378], [77.551264, 13.083502], [77.551469, 13.083816], [77.551832, 13.084247], [77.552104, 13.084491], [77.552272, 13.084604], [77.55236, 13.084635], [77.552439, 13.084651], [77.552559, 13.084657], [77.552684, 13.08468], [77.552872, 13.084755], [77.553433, 13.085152], [77.553776, 13.085361], [77.554253, 13.085572], [77.554815, 13.085789], [77.555407, 13.086047], [77.555485, 13.08605], [77.555509, 13.086049], [77.555545, 13.086042], [77.555647, 13.086013], [77.556092, 13.085793], [77.557037, 13.085412], [77.557568, 13.085198], [77.55782, 13.085105], [77.558012, 13.085031]]]}}]}