{"type": "FeatureCollection", "features": [{"type": "Feature", "properties": {"region_id": "ward_276600-48", "name": "Muneshwara Nagar", "parent": "zone_276600-3", "parent_name": "East"}, "geometry": {"type": "Polygon", "coordinates": [[[77.61017, 13.018633], [77.610883, 13.018313], [77.610962, 13.018283], [77.610871, 13.018132], [77.611334, 13.017951], [77.612113, 13.01764], [77.612625, 13.017482], [77.612888, 13.017465], [77.612976, 13.017149], [77.613033, 13.016913], [77.613114, 13.016665], [77.613148, 13.016394], [77.61324, 13.016017], [77.613237, 13.015805], [77.613246, 13.015511], [77.613267, 13.015193], [77.613276, 13.014934], [77.613332, 13.014545], [77.613341, 13.014275], [77.613398, 13.013921], [77.613393, 13.013509], [77.613412, 13.01298], [77.613409, 13.012697], [77.613381, 13.012321], [77.613389, 13.011992], [77.613433, 13.011591], [77.613442, 13.011321], [77.613475, 13.011003], [77.613472, 13.01072], [77.613468, 13.010379], [77.61338, 13.009957], [77.613292, 13.009569], [77.613228, 13.009229], [77.613201, 13.008935], [77.613194, 13.008525], [77.612983, 13.008533], [77.61288, 13.008565], [77.612396, 13.008674], [77.611416, 13.008837], [77.610921, 13.008911], [77.610921, 13.008908], [77.610892, 13.008912], [77.610887, 13.008912], [77.610692, 13.008924], [77.610563, 13.008997], [77.610409, 13.009131], [77.610332, 13.009248], [77.610169, 13.009453], [77.610015, 13.009669], [77.609878, 13.00995], [77.609771, 13.010175], [77.609604, 13.010563], [77.609529, 13.010757], [77.609473, 13.010925], [77.60949, 13.011027], [77.609575, 13.01124], [77.609647, 13.011318], [77.609752, 13.011465], [77.609826, 13.011554], [77.609906, 13.011618], [77.609972, 13.011703], [77.610077, 13.011918], [77.610095, 13.011994], [77.610099, 13.012041], [77.610092, 13.012139], [77.610093, 13.012162], [77.610069, 13.012317], [77.610032, 13.012523], [77.610023, 13.012553], [77.610028, 13.012738], [77.610006, 13.01288], [77.609824, 13.013404], [77.609706, 13.013762], [77.609701, 13.013774], [77.60966, 13.013906], [77.6095, 13.014241], [77.609436, 13.014337], [77.609427, 13.014356], [77.609257, 13.01463], [77.609212, 13.014776], [77.609197, 13.01488], [77.609212, 13.015122], [77.609118, 13.015123], [77.608527, 13.015116], [77.60856, 13.015767], [77.608543, 13.015962], [77.608527, 13.016166], [77.608511, 13.016243], [77.608472, 13.016276], [77.608417, 13.016294], [77.60832, 13.016307], [77.608075, 13.016318], [77.60781, 13.01633], [77.607698, 13.016415], [77.607634, 13.016517], [77.607565, 13.016756], [77.607487, 13.017029], [77.60749, 13.017278], [77.60751, 13.017463], [77.607541, 13.017667], [77.607592, 13.018028], [77.607643, 13.018379], [77.607664, 13.018611], [77.607704, 13.018814], [77.607735, 13.019018], [77.607795, 13.019369], [77.607827, 13.019541], [77.607873, 13.019529], [77.608224, 13.019376], [77.608643, 13.019212], [77.609083, 13.019053], [77.609173, 13.019017], [77.609693, 13.018823], [77.610117, 13.018657], [77.61017, 13.018633]]]}}]}