{"type": "FeatureCollection", "features": [{"type": "Feature", "properties": {"region_id": "ward_276600-193", "name": "Arakere", "parent": "zone_276600-1", "parent_name": "Bommanahalli"}, "geometry": {"type": "Polygon", "coordinates": [[[77.588957, 12.869853], [77.588947, 12.869897], [77.588748, 12.872597], [77.58759, 12.872931], [77.587213, 12.873083], [77.587014, 12.873308], [77.586689, 12.873633], [77.586388, 12.873809], [77.586137, 12.87401], [77.58614, 12.874282], [77.586853, 12.874919], [77.588657, 12.87609], [77.589159, 12.876452], [77.589656, 12.876856], [77.589688, 12.877196], [77.589685, 12.877632], [77.589743, 12.877836], [77.590019, 12.878351], [77.590428, 12.879581], [77.590639, 12.88058], [77.590735, 12.88109], [77.590751, 12.881288], [77.590717, 12.881383], [77.590688, 12.881429], [77.590586, 12.88219], [77.590558, 12.882563], [77.590594, 12.882751], [77.590737, 12.883101], [77.591091, 12.883882], [77.591208, 12.88417], [77.591297, 12.884511], [77.59142, 12.885064], [77.591586, 12.885816], [77.59165, 12.886365], [77.591676, 12.886711], [77.591708, 12.88731], [77.591746, 12.887982], [77.591754, 12.888282], [77.59175, 12.888311], [77.591738, 12.888326], [77.591712, 12.888333], [77.591678, 12.888342], [77.591427, 12.88842], [77.590993, 12.888587], [77.590838, 12.88863], [77.590697, 12.888661], [77.590579, 12.888673], [77.588764, 12.888914], [77.588231, 12.88901], [77.588052, 12.889042], [77.588044, 12.889089], [77.588023, 12.889093], [77.588053, 12.890053], [77.588183, 12.891052], [77.588282, 12.89155], [77.588444, 12.891641], [77.58862, 12.891744], [77.588807, 12.891756], [77.589847, 12.891206], [77.590327, 12.892214], [77.591195, 12.891903], [77.592544, 12.891429], [77.593981, 12.891228], [77.594436, 12.891157], [77.596025, 12.890952], [77.597791, 12.890632], [77.598124, 12.89058], [77.598995, 12.890437], [77.599533, 12.890349], [77.599885, 12.890076], [77.600404, 12.889879], [77.600988, 12.88966], [77.601562, 12.889473], [77.602255, 12.889221], [77.602623, 12.8891], [77.603152, 12.888785], [77.603163, 12.888828], [77.603166, 12.889084], [77.603201, 12.88935], [77.603234, 12.889403], [77.60331, 12.889402], [77.603408, 12.889401], [77.603495, 12.889432], [77.60355, 12.889485], [77.603819, 12.889814], [77.604, 12.889715], [77.604226, 12.889599], [77.604464, 12.889488], [77.604701, 12.889414], [77.605045, 12.889297], [77.606267, 12.888871], [77.60749, 12.888464], [77.608451, 12.888311], [77.6084, 12.887624], [77.608428, 12.886747], [77.608962, 12.886753], [77.60957, 12.886772], [77.610505, 12.886847], [77.610203, 12.885597], [77.610106, 12.884538], [77.610843, 12.884354], [77.612471, 12.883946], [77.612228, 12.886904], [77.612503, 12.886915], [77.613169, 12.886932], [77.61376, 12.886926], [77.614303, 12.886921], [77.614845, 12.886837], [77.615257, 12.886728], [77.615262, 12.886826], [77.615264, 12.887049], [77.615314, 12.887606], [77.615994, 12.887479], [77.615917, 12.886768], [77.61588, 12.886508], [77.616309, 12.886352], [77.616645, 12.886333], [77.616868, 12.886331], [77.617346, 12.886209], [77.617418, 12.886478], [77.618624, 12.886247], [77.618619, 12.886222], [77.618474, 12.885628], [77.618443, 12.885447], [77.61839, 12.885268], [77.618325, 12.885029], [77.618279, 12.884845], [77.618261, 12.884789], [77.618237, 12.884744], [77.618212, 12.884731], [77.618129, 12.88473], [77.617921, 12.884737], [77.617895, 12.884722], [77.617877, 12.884697], [77.61785, 12.884524], [77.617813, 12.88427], [77.617789, 12.884151], [77.617769, 12.88408], [77.617764, 12.884024], [77.617748, 12.883713], [77.617773, 12.883321], [77.617782, 12.88314], [77.617781, 12.883068], [77.617772, 12.883012], [77.617772, 12.882965], [77.61776, 12.882907], [77.617744, 12.882754], [77.617727, 12.882513], [77.617726, 12.882441], [77.617728, 12.882317], [77.617751, 12.88222], [77.617753, 12.882171], [77.617753, 12.88214], [77.617753, 12.882107], [77.617744, 12.881996], [77.617732, 12.881912], [77.617713, 12.881859], [77.617689, 12.88181], [77.617668, 12.881771], [77.61765, 12.88175], [77.617634, 12.881712], [77.617635, 12.881697], [77.617653, 12.881676], [77.617738, 12.881633], [77.618245, 12.881426], [77.618391, 12.881352], [77.618406, 12.881402], [77.618411, 12.881427], [77.618551, 12.881371], [77.618659, 12.881323], [77.618828, 12.881209], [77.618978, 12.881119], [77.619024, 12.880764], [77.61893, 12.880402], [77.618796, 12.880029], [77.61863, 12.8795], [77.618348, 12.879355], [77.618119, 12.879353], [77.618115, 12.879293], [77.618102, 12.879176], [77.618071, 12.878963], [77.618484, 12.878872], [77.61831, 12.878589], [77.618242, 12.877813], [77.617947, 12.877413], [77.617804, 12.877149], [77.617772, 12.876972], [77.61781, 12.876765], [77.617911, 12.876402], [77.617853, 12.876266], [77.617772, 12.876011], [77.617443, 12.876057], [77.616644, 12.876171], [77.616008, 12.876251], [77.615786, 12.876263], [77.615762, 12.876262], [77.615731, 12.876244], [77.615394, 12.876226], [77.615401, 12.874939], [77.615198, 12.872603], [77.614559, 12.871436], [77.614501, 12.870989], [77.61478, 12.870619], [77.614658, 12.870253], [77.614586, 12.870102], [77.614543, 12.869971], [77.614428, 12.869731], [77.614307, 12.869581], [77.614108, 12.869362], [77.613993, 12.869177], [77.613477, 12.868161], [77.61336, 12.867934], [77.611405, 12.868233], [77.609667, 12.868304], [77.609322, 12.868333], [77.608943, 12.868336], [77.608798, 12.868351], [77.608756, 12.868443], [77.608757, 12.868553], [77.608758, 12.86867], [77.608809, 12.868835], [77.60891, 12.86911], [77.608963, 12.869448], [77.608981, 12.869813], [77.609044, 12.870433], [77.608622, 12.870554], [77.608267, 12.870651], [77.607612, 12.870832], [77.607487, 12.870883], [77.607355, 12.870903], [77.606936, 12.871008], [77.60689, 12.870918], [77.606871, 12.870855], [77.606864, 12.870812], [77.606847, 12.870771], [77.606819, 12.870743], [77.606768, 12.870753], [77.606739, 12.870744], [77.606716, 12.870701], [77.6067, 12.870663], [77.606712, 12.87061], [77.606743, 12.870547], [77.606727, 12.870507], [77.606698, 12.87047], [77.606688, 12.870432], [77.606694, 12.870357], [77.606664, 12.870292], [77.60657, 12.870124], [77.606473, 12.870013], [77.606399, 12.869926], [77.60637, 12.869889], [77.60629, 12.869805], [77.606209, 12.869731], [77.606145, 12.86966], [77.606061, 12.86956], [77.605987, 12.869436], [77.605912, 12.869312], [77.605773, 12.869116], [77.605694, 12.868914], [77.605155, 12.868077], [77.604973, 12.867584], [77.604919, 12.867188], [77.604817, 12.867065], [77.604613, 12.866869], [77.604497, 12.86541], [77.604367, 12.865039], [77.604189, 12.864917], [77.603986, 12.86482], [77.603916, 12.864812], [77.603162, 12.866081], [77.602898, 12.866438], [77.602672, 12.866724], [77.601899, 12.866759], [77.599898, 12.866817], [77.599946, 12.867296], [77.599952, 12.867475], [77.59805, 12.867585], [77.598048, 12.867802], [77.598042, 12.867929], [77.59803, 12.868028], [77.598002, 12.868104], [77.597979, 12.868155], [77.597944, 12.868224], [77.597907, 12.868323], [77.597843, 12.868492], [77.597774, 12.868899], [77.597757, 12.868999], [77.597747, 12.86904], [77.597723, 12.869081], [77.597682, 12.869112], [77.597595, 12.869171], [77.597505, 12.86922], [77.597453, 12.869234], [77.597422, 12.869259], [77.597387, 12.869297], [77.597332, 12.869359], [77.597308, 12.869386], [77.597277, 12.869428], [77.597253, 12.869469], [77.597182, 12.869665], [77.597057, 12.870042], [77.597012, 12.870121], [77.596981, 12.870166], [77.596947, 12.870214], [77.596933, 12.870255], [77.596928, 12.870375], [77.596848, 12.870745], [77.596468, 12.872083], [77.596299, 12.872625], [77.596244, 12.872718], [77.59622, 12.872756], [77.596165, 12.872801], [77.596123, 12.872835], [77.596033, 12.872884], [77.595981, 12.872912], [77.595856, 12.872937], [77.595742, 12.872949], [77.594444, 12.873092], [77.594374, 12.873067], [77.593555, 12.873321], [77.593267, 12.873688], [77.588957, 12.869853]]]}}]}