{"type": "FeatureCollection", "features": [{"type": "Feature", "properties": {"region_id": "ward_276600-25", "name": "Horamavu", "parent": "zone_276600-4", "parent_name": "Mahadevapura"}, "geometry": {"type": "Polygon", "coordinates": [[[77.655676, 13.075123], [77.656467, 13.074659], [77.657882, 13.072769], [77.65881, 13.070103], [77.660072, 13.068839], [77.664688, 13.068166], [77.666593, 13.067365], [77.66686, 13.065688], [77.666839, 13.065668], [77.66655, 13.064287], [77.666024, 13.063641], [77.66532, 13.062629], [77.664958, 13.061189], [77.664764, 13.059322], [77.664383, 13.058788], [77.664233, 13.058224], [77.664364, 13.057033], [77.664377, 13.055561], [77.663728, 13.054237], [77.663397, 13.052966], [77.663015, 13.052376], [77.662861, 13.051471], [77.662879, 13.05048], [77.664488, 13.050441], [77.666346, 13.049755], [77.667347, 13.049655], [77.669636, 13.049821], [77.671198, 13.050999], [77.671739, 13.051782], [77.672692, 13.051446], [77.672622, 13.05134], [77.672304, 13.050994], [77.672189, 13.051057], [77.672042, 13.051089], [77.671843, 13.051091], [77.671705, 13.050969], [77.671472, 13.050796], [77.671281, 13.050572], [77.6711, 13.050368], [77.670909, 13.050154], [77.67074, 13.050053], [77.670676, 13.04994], [77.670642, 13.049765], [77.670558, 13.049705], [77.670494, 13.049633], [77.670366, 13.049501], [77.670239, 13.049389], [77.670164, 13.049225], [77.670089, 13.049123], [77.669994, 13.049011], [77.669949, 13.048785], [77.669894, 13.048528], [77.669849, 13.048292], [77.669815, 13.048045], [77.669696, 13.047645], [77.669608, 13.047347], [77.669512, 13.047163], [77.669372, 13.046876], [77.669348, 13.046598], [77.669197, 13.046209], [77.669131, 13.04588], [77.669106, 13.045572], [77.668972, 13.045439], [77.668732, 13.045312], [77.668335, 13.04529], [77.668041, 13.045034], [77.667695, 13.044856], [77.667351, 13.044859], [77.667035, 13.045018], [77.666906, 13.045305], [77.666589, 13.045412], [77.666273, 13.045519], [77.665717, 13.045525], [77.665452, 13.045476], [77.665159, 13.045349], [77.664682, 13.04525], [77.664494, 13.04507], [77.66407, 13.044971], [77.663726, 13.045], [77.663012, 13.045034], [77.66261, 13.03964], [77.662936, 13.035458], [77.663289, 13.033871], [77.663571, 13.032861], [77.66429, 13.032543], [77.664661, 13.032396], [77.665008, 13.032154], [77.665216, 13.031913], [77.665392, 13.03172], [77.665584, 13.031424], [77.666138, 13.030145], [77.668823, 13.026959], [77.669783, 13.025708], [77.671038, 13.023937], [77.6727, 13.022281], [77.672831, 13.022438], [77.675482, 13.022172], [77.675521, 13.020549], [77.67548, 13.020549], [77.675163, 13.020449], [77.674811, 13.020182], [77.674541, 13.019994], [77.675099, 13.01975], [77.675502, 13.019579], [77.676123, 13.019222], [77.675832, 13.018517], [77.67565, 13.018169], [77.675572, 13.017708], [77.675502, 13.017247], [77.67589, 13.01714], [77.67587, 13.016734], [77.675834, 13.016456], [77.6758, 13.016266], [77.675789, 13.016003], [77.675763, 13.015876], [77.675679, 13.015607], [77.675635, 13.015337], [77.675166, 13.015453], [77.675029, 13.014786], [77.67511, 13.014745], [77.675934, 13.014419], [77.676353, 13.014191], [77.67734, 13.013871], [77.678181, 13.013584], [77.677926, 13.013276], [77.677622, 13.012961], [77.677336, 13.012717], [77.677205, 13.012607], [77.677106, 13.012473], [77.676929, 13.011926], [77.676827, 13.011467], [77.676349, 13.011394], [77.675726, 13.0114], [77.673826, 13.011516], [77.672253, 13.011565], [77.670868, 13.011632], [77.669578, 13.011776], [77.668984, 13.011885], [77.668381, 13.01198], [77.667412, 13.012085], [77.666462, 13.012255], [77.666392, 13.01227], [77.665492, 13.012434], [77.663474, 13.012965], [77.66265, 13.01315], [77.66224, 13.013279], [77.662232, 13.013539], [77.662226, 13.013742], [77.662189, 13.014596], [77.662159, 13.014872], [77.662099, 13.015444], [77.662071, 13.015676], [77.662043, 13.015868], [77.662009, 13.015984], [77.662, 13.016016], [77.661993, 13.016038], [77.661962, 13.016098], [77.661913, 13.01619], [77.661875, 13.01625], [77.661866, 13.016264], [77.661803, 13.016345], [77.661732, 13.016402], [77.661703, 13.016425], [77.661698, 13.016429], [77.661655, 13.016451], [77.661612, 13.016473], [77.661521, 13.01652], [77.661205, 13.016656], [77.660603, 13.016894], [77.660202, 13.017069], [77.660056, 13.017133], [77.660045, 13.017138], [77.659467, 13.017397], [77.658218, 13.017934], [77.657503, 13.018238], [77.656778, 13.018556], [77.656002, 13.018902], [77.655768, 13.018994], [77.655519, 13.019092], [77.654778, 13.019319], [77.653901, 13.019623], [77.653541, 13.019753], [77.651868, 13.020486], [77.64978, 13.021403], [77.647323, 13.022458], [77.645415, 13.0233], [77.643555, 13.024108], [77.641844, 13.024868], [77.640365, 13.025522], [77.639925, 13.025694], [77.639794, 13.025745], [77.639413, 13.025839], [77.639328, 13.025854], [77.638208, 13.026055], [77.637266, 13.026242], [77.636272, 13.026436], [77.635357, 13.02667], [77.634727, 13.026879], [77.634307, 13.027018], [77.633502, 13.02735], [77.633361, 13.027415], [77.632841, 13.027655], [77.632772, 13.027665], [77.632701, 13.027663], [77.632653, 13.027632], [77.632737, 13.027759], [77.632725, 13.027764], [77.632729, 13.02777], [77.632766, 13.027829], [77.632954, 13.028087], [77.633013, 13.028169], [77.633086, 13.028254], [77.633196, 13.028382], [77.633458, 13.028688], [77.633482, 13.028715], [77.633615, 13.028647], [77.633667, 13.02863], [77.633807, 13.028585], [77.634273, 13.028473], [77.634387, 13.028446], [77.634555, 13.028406], [77.63486, 13.02833], [77.635138, 13.028216], [77.63521, 13.028186], [77.635614, 13.028016], [77.635833, 13.027924], [77.636138, 13.027843], [77.636188, 13.027836], [77.636353, 13.027812], [77.636595, 13.027816], [77.637036, 13.027885], [77.637429, 13.027985], [77.637506, 13.028238], [77.637563, 13.028706], [77.637633, 13.029225], [77.637767, 13.029668], [77.637897, 13.029993], [77.6379, 13.030002], [77.637914, 13.030045], [77.637959, 13.030135], [77.638056, 13.030254], [77.638329, 13.030525], [77.638519, 13.03073], [77.638827, 13.031009], [77.639306, 13.031454], [77.639449, 13.031661], [77.639459, 13.031675], [77.639559, 13.031853], [77.639615, 13.031952], [77.639616, 13.031955], [77.639619, 13.031961], [77.639694, 13.032194], [77.639696, 13.032198], [77.639813, 13.032504], [77.63986, 13.0326], [77.639876, 13.032631], [77.640064, 13.032866], [77.640111, 13.032919], [77.640141, 13.032954], [77.640264, 13.033148], [77.640411, 13.03333], [77.640572, 13.033474], [77.640676, 13.033591], [77.640806, 13.033836], [77.640873, 13.033992], [77.6409, 13.034055], [77.641001, 13.034266], [77.641017, 13.034293], [77.641039, 13.034328], [77.641047, 13.03434], [77.641077, 13.034363], [77.641105, 13.034363], [77.641146, 13.034344], [77.641279, 13.034284], [77.641694, 13.03415], [77.64171, 13.034145], [77.641716, 13.034144], [77.642017, 13.034052], [77.642056, 13.034038], [77.642173, 13.033997], [77.642185, 13.033997], [77.642303, 13.034001], [77.642376, 13.03403], [77.642549, 13.034052], [77.643099, 13.034061], [77.643198, 13.034063], [77.643241, 13.034063], [77.64326, 13.034064], [77.643268, 13.034067], [77.643268, 13.034075], [77.643268, 13.034084], [77.64325, 13.034154], [77.643248, 13.03416], [77.643216, 13.034684], [77.643176, 13.035121], [77.643152, 13.035403], [77.643205, 13.035754], [77.643236, 13.035928], [77.644377, 13.035852], [77.64497, 13.035846], [77.644957, 13.035912], [77.644899, 13.035957], [77.644676, 13.036065], [77.644491, 13.036172], [77.644446, 13.036213], [77.644409, 13.036273], [77.64438, 13.036348], [77.644365, 13.036444], [77.644358, 13.036493], [77.644347, 13.036513], [77.644321, 13.03656], [77.644299, 13.03662], [77.644269, 13.036672], [77.644258, 13.036706], [77.644207, 13.036881], [77.644178, 13.037001], [77.644179, 13.037075], [77.644179, 13.037124], [77.644179, 13.037161], [77.64418, 13.037209], [77.644181, 13.037265], [77.644181, 13.037336], [77.64415, 13.037538], [77.644148, 13.037551], [77.644142, 13.037589], [77.644056, 13.038059], [77.64402, 13.038178], [77.644001, 13.038227], [77.643899, 13.038405], [77.643865, 13.038518], [77.643858, 13.038653], [77.643864, 13.038791], [77.643882, 13.03903], [77.643797, 13.039], [77.643752, 13.038985], [77.643624, 13.038979], [77.64341, 13.038969], [77.643091, 13.038972], [77.643031, 13.038973], [77.642954, 13.038982], [77.642649, 13.039016], [77.642335, 13.039039], [77.642166, 13.039089], [77.642118, 13.039116], [77.642018, 13.039173], [77.64189, 13.03934], [77.641875, 13.03936], [77.641863, 13.039368], [77.641697, 13.039487], [77.641667, 13.039508], [77.641526, 13.039557], [77.641475, 13.039609], [77.641469, 13.039886], [77.641477, 13.04019], [77.641472, 13.040253], [77.641441, 13.040652], [77.641427, 13.040778], [77.641404, 13.040988], [77.641393, 13.04108], [77.641408, 13.041324], [77.641428, 13.041446], [77.64143, 13.041456], [77.641434, 13.041482], [77.641496, 13.041632], [77.64158, 13.041744], [77.641725, 13.042005], [77.641779, 13.042186], [77.641715, 13.042231], [77.641666, 13.042262], [77.641596, 13.042311], [77.641526, 13.042363], [77.641482, 13.042412], [77.641443, 13.042477], [77.641382, 13.042556], [77.641312, 13.042639], [77.641193, 13.042679], [77.641065, 13.042737], [77.640863, 13.042817], [77.640775, 13.042861], [77.640603, 13.042924], [77.640338, 13.043026], [77.639959, 13.043117], [77.639787, 13.043179], [77.63954, 13.043251], [77.639328, 13.043318], [77.639059, 13.043347], [77.638807, 13.04335], [77.638479, 13.043318], [77.638102, 13.043253], [77.637831, 13.04316], [77.637622, 13.043054], [77.637439, 13.042913], [77.637401, 13.042874], [77.637159, 13.042782], [77.636983, 13.042702], [77.636806, 13.042604], [77.636681, 13.042511], [77.636697, 13.042785], [77.636669, 13.042847], [77.636652, 13.042885], [77.636651, 13.042886], [77.636647, 13.042895], [77.636624, 13.042946], [77.636066, 13.044175], [77.636038, 13.044543], [77.636327, 13.047354], [77.636404, 13.048096], [77.636462, 13.048894], [77.636487, 13.049243], [77.636578, 13.050491], [77.636624, 13.051119], [77.636624, 13.051127], [77.637005, 13.053416], [77.637048, 13.057121], [77.637137, 13.058824], [77.637204, 13.060107], [77.637151, 13.061407], [77.637127, 13.062006], [77.637112, 13.062361], [77.636822, 13.065177], [77.636633, 13.067021], [77.636953, 13.069002], [77.636945, 13.069003], [77.637031, 13.069485], [77.637667, 13.07342], [77.637662, 13.073421], [77.637679, 13.073493], [77.637793, 13.073986], [77.637917, 13.07452], [77.638177, 13.075114], [77.63825, 13.075206], [77.638501, 13.075523], [77.639283, 13.076398], [77.640714, 13.077855], [77.642012, 13.077777], [77.642073, 13.077773], [77.642515, 13.078702], [77.642516, 13.078705], [77.642644, 13.078974], [77.642788, 13.079233], [77.643742, 13.08094], [77.644122, 13.08158], [77.644602, 13.082388], [77.644646, 13.082408], [77.644859, 13.082502], [77.645141, 13.082971], [77.646498, 13.085228], [77.648867, 13.082502], [77.648901, 13.082211], [77.649023, 13.081182], [77.649312, 13.078533], [77.649931, 13.077009], [77.650211, 13.076643], [77.650648, 13.07652], [77.650722, 13.076398], [77.650788, 13.075992], [77.650846, 13.075867], [77.650912, 13.075684], [77.65092, 13.075519], [77.650823, 13.07536], [77.650699, 13.075046], [77.650427, 13.074414], [77.650213, 13.07366], [77.650199, 13.072337], [77.650239, 13.072096], [77.650392, 13.07201], [77.650419, 13.07195], [77.650449, 13.071434], [77.650462, 13.071132], [77.650463, 13.071049], [77.650463, 13.07057], [77.650663, 13.070563], [77.650932, 13.06994], [77.650927, 13.069383], [77.650962, 13.068909], [77.651014, 13.068842], [77.650998, 13.068392], [77.650965, 13.068331], [77.650861, 13.067929], [77.650854, 13.067317], [77.650939, 13.066734], [77.65093, 13.066493], [77.650853, 13.065406], [77.65099, 13.065409], [77.651001, 13.065134], [77.650965, 13.065114], [77.650937, 13.065097], [77.650919, 13.065079], [77.650891, 13.065061], [77.650864, 13.065035], [77.650823, 13.064979], [77.650791, 13.064522], [77.650756, 13.064031], [77.650733, 13.062872], [77.650729, 13.062487], [77.650764, 13.062085], [77.650823, 13.062036], [77.650835, 13.061871], [77.650814, 13.061642], [77.650808, 13.061573], [77.650873, 13.060819], [77.6509, 13.060502], [77.65093, 13.060157], [77.650934, 13.060117], [77.650941, 13.060033], [77.650922, 13.059845], [77.650904, 13.059818], [77.650862, 13.05981], [77.650572, 13.059857], [77.650382, 13.05988], [77.650055, 13.059862], [77.650048, 13.05986], [77.649304, 13.05996], [77.648759, 13.059983], [77.648421, 13.059952], [77.648424, 13.059731], [77.648379, 13.058788], [77.648366, 13.058298], [77.648383, 13.058192], [77.647794, 13.058108], [77.647436, 13.057295], [77.647212, 13.05691], [77.6469, 13.056562], [77.646608, 13.056208], [77.646366, 13.055872], [77.64627, 13.055719], [77.646153, 13.055364], [77.646262, 13.055018], [77.646397, 13.054666], [77.646552, 13.054449], [77.646714, 13.054263], [77.646872, 13.054096], [77.647043, 13.053703], [77.647187, 13.053334], [77.647244, 13.053124], [77.647255, 13.053106], [77.647256, 13.053078], [77.647283, 13.052016], [77.647117, 13.051278], [77.646554, 13.050584], [77.646623, 13.049649], [77.646976, 13.049218], [77.647689, 13.049094], [77.648204, 13.049049], [77.648955, 13.048769], [77.649865, 13.048449], [77.651762, 13.04769], [77.652753, 13.047641], [77.653389, 13.047673], [77.653984, 13.047667], [77.654343, 13.047819], [77.654629, 13.048633], [77.654995, 13.049408], [77.654803, 13.050032], [77.654612, 13.050735], [77.654616, 13.051085], [77.65474, 13.051551], [77.654468, 13.052137], [77.654434, 13.052643], [77.654436, 13.052877], [77.654798, 13.053301], [77.654841, 13.053573], [77.654687, 13.054002], [77.654491, 13.054277], [77.654561, 13.054476], [77.654696, 13.054483], [77.654735, 13.054681], [77.654746, 13.054884], [77.654756, 13.055179], [77.654806, 13.055688], [77.654841, 13.055979], [77.654647, 13.055973], [77.65452, 13.055951], [77.654508, 13.055967], [77.654517, 13.05601], [77.654553, 13.056314], [77.654553, 13.056349], [77.654603, 13.056578], [77.654674, 13.056775], [77.654716, 13.056932], [77.654719, 13.057076], [77.654657, 13.057193], [77.654574, 13.05721], [77.654526, 13.057238], [77.654536, 13.057418], [77.65454, 13.057491], [77.654541, 13.057586], [77.65453, 13.057665], [77.654515, 13.05774], [77.654491, 13.057812], [77.65446, 13.057844], [77.654376, 13.057874], [77.654319, 13.058109], [77.65436, 13.058342], [77.654413, 13.058417], [77.654462, 13.058452], [77.654507, 13.058479], [77.654547, 13.05851], [77.654584, 13.058601], [77.65461, 13.058695], [77.654634, 13.058723], [77.654658, 13.058738], [77.654707, 13.058742], [77.65482, 13.058741], [77.654848, 13.058772], [77.654849, 13.058831], [77.654781, 13.058911], [77.654752, 13.05903], [77.654777, 13.059155], [77.654807, 13.059309], [77.654816, 13.05936], [77.654979, 13.062315], [77.65515, 13.065396], [77.655164, 13.065519], [77.655209, 13.066008], [77.65529, 13.067184], [77.655389, 13.068491], [77.65544, 13.069533], [77.65548, 13.070264], [77.655498, 13.070978], [77.655457, 13.071026], [77.655448, 13.071053], [77.655448, 13.071067], [77.655463, 13.071067], [77.655705, 13.071061], [77.65564, 13.07267], [77.655331, 13.073451], [77.655256, 13.073802], [77.655537, 13.07415], [77.655663, 13.074771], [77.655676, 13.075123]]]}}]}