{"type": "FeatureCollection", "features": [{"type": "Feature", "properties": {"region_id": "ward_276600-64", "name": "Rajamahal Guttahalli", "parent": "zone_276600-7", "parent_name": "West"}, "geometry": {"type": "Polygon", "coordinates": [[[77.58417, 12.999338], [77.584057, 12.999381], [77.583878, 12.99939], [77.58361, 12.999376], [77.583284, 12.999346], [77.58315, 12.999315], [77.582865, 12.999211], [77.582503, 12.998969], [77.582047, 12.998556], [77.58165, 12.998134], [77.581044, 12.997472], [77.580858, 12.997269], [77.580413, 12.997301], [77.579987, 12.997335], [77.579808, 12.997334], [77.579663, 12.997336], [77.579611, 12.99734], [77.579422, 12.997347], [77.579407, 12.997143], [77.57906, 12.997141], [77.579061, 12.997201], [77.578286, 12.997225], [77.578301, 12.997811], [77.578374, 12.998855], [77.578409, 12.999094], [77.578414, 12.999128], [77.578406, 12.999154], [77.578391, 12.999171], [77.578367, 12.999182], [77.578339, 12.999187], [77.578236, 12.999225], [77.578155, 12.999264], [77.578097, 12.999269], [77.578007, 12.999262], [77.577606, 12.999148], [77.577181, 12.999019], [77.577048, 12.998986], [77.576881, 12.998949], [77.576729, 12.998939], [77.576492, 12.998919], [77.576029, 12.998923], [77.575633, 12.998927], [77.575155, 12.998924], [77.574871, 12.998916], [77.574081, 12.998921], [77.573911, 12.998922], [77.57389, 12.999655], [77.573886, 12.999785], [77.573834, 13.000566], [77.57381, 13.001016], [77.573724, 13.001018], [77.573537, 13.001017], [77.572567, 13.001008], [77.572559, 13.001253], [77.572555, 13.001632], [77.572558, 13.001865], [77.572532, 13.001865], [77.57225, 13.001862], [77.572254, 13.002205], [77.572209, 13.002854], [77.572208, 13.002871], [77.573116, 13.002841], [77.574416, 13.002809], [77.576821, 13.002776], [77.576831, 13.003736], [77.57855, 13.00372], [77.578569, 13.004582], [77.578604, 13.005622], [77.578621, 13.00572], [77.578638, 13.005842], [77.578729, 13.006081], [77.57882, 13.006297], [77.57883, 13.006344], [77.580141, 13.005637], [77.5816, 13.004805], [77.583277, 13.003855], [77.58362, 13.003612], [77.583936, 13.003294], [77.584063, 13.002917], [77.584053, 13.001201], [77.58417, 12.999338]]]}}]}