{"type": "FeatureCollection", "features": [{"type": "Feature", "properties": {"region_id": "ward_276600-134", "name": "Bapuji Nagar", "parent": "zone_276600-6", "parent_name": "South"}, "geometry": {"type": "Polygon", "coordinates": [[[77.545741, 12.961411], [77.54592, 12.961136], [77.546185, 12.960654], [77.546303, 12.960423], [77.546481, 12.960074], [77.546807, 12.95957], [77.54706, 12.959093], [77.547406, 12.958414], [77.547783, 12.95774], [77.548155, 12.957067], [77.548362, 12.956693], [77.548411, 12.95661], [77.548016, 12.956518], [77.547988, 12.956512], [77.547785, 12.956473], [77.547444, 12.956408], [77.54722, 12.956366], [77.546914, 12.956295], [77.546647, 12.956204], [77.546336, 12.956055], [77.545876, 12.955787], [77.545509, 12.955569], [77.545273, 12.955407], [77.544761, 12.955015], [77.544384, 12.954696], [77.544035, 12.954345], [77.543791, 12.954145], [77.543579, 12.95401], [77.543432, 12.953934], [77.543276, 12.953877], [77.543125, 12.95382], [77.54287, 12.953741], [77.542595, 12.953685], [77.542476, 12.95364], [77.542332, 12.953563], [77.542137, 12.95346], [77.542017, 12.953375], [77.541928, 12.953294], [77.541684, 12.953028], [77.540941, 12.953219], [77.540786, 12.953285], [77.540753, 12.95335], [77.540756, 12.953567], [77.540776, 12.954002], [77.539964, 12.954091], [77.538831, 12.954207], [77.538975, 12.955438], [77.539051, 12.956461], [77.539227, 12.957571], [77.539275, 12.958044], [77.539781, 12.958615], [77.540229, 12.95912], [77.540706, 12.95976], [77.541374, 12.960704], [77.541894, 12.961446], [77.542582, 12.962424], [77.54301, 12.963017], [77.543344, 12.963489], [77.543524, 12.963717], [77.543742, 12.963951], [77.543816, 12.964026], [77.544412, 12.963312], [77.544488, 12.963366], [77.544569, 12.96328], [77.544637, 12.963212], [77.544735, 12.963119], [77.544845, 12.963053], [77.544973, 12.962996], [77.545111, 12.962938], [77.545268, 12.962874], [77.545427, 12.962785], [77.545513, 12.962723], [77.545558, 12.962686], [77.54557, 12.962642], [77.545572, 12.962588], [77.545553, 12.962524], [77.545503, 12.962463], [77.545442, 12.962399], [77.545357, 12.962343], [77.545257, 12.962298], [77.545183, 12.962255], [77.54532, 12.962081], [77.545584, 12.961654], [77.545741, 12.961411]]]}}]}