{"type": "FeatureCollection", "features": [{"type": "Feature", "properties": {"region_id": "ward_276600-109", "name": "Chickpete", "parent": "zone_276600-7", "parent_name": "West"}, "geometry": {"type": "Polygon", "coordinates": [[[77.58101, 12.973047], [77.58142, 12.972855], [77.581858, 12.972615], [77.581953, 12.972563], [77.582402, 12.972276], [77.582768, 12.972042], [77.582766, 12.971786], [77.582769, 12.971751], [77.582795, 12.970378], [77.582946, 12.970172], [77.582911, 12.97007], [77.582707, 12.969537], [77.582242, 12.96832], [77.581979, 12.967821], [77.58157, 12.967104], [77.581281, 12.966542], [77.581222, 12.966577], [77.581216, 12.966584], [77.581216, 12.966583], [77.581153, 12.966602], [77.581064, 12.96668], [77.580494, 12.967], [77.579861, 12.967334], [77.578651, 12.967994], [77.578502, 12.967704], [77.578328, 12.967364], [77.578071, 12.966873], [77.578069, 12.966863], [77.578029, 12.966778], [77.578012, 12.966742], [77.576981, 12.967204], [77.576303, 12.967576], [77.574853, 12.96838], [77.573603, 12.969017], [77.572212, 12.969751], [77.571899, 12.969917], [77.571708, 12.969996], [77.571411, 12.969999], [77.570477, 12.970102], [77.570223, 12.970105], [77.57027, 12.971279], [77.570294, 12.972994], [77.570558, 12.972973], [77.570865, 12.972988], [77.571188, 12.973001], [77.571459, 12.972982], [77.571669, 12.972971], [77.571851, 12.972875], [77.571999, 12.972779], [77.572242, 12.972605], [77.57232, 12.972527], [77.572578, 12.972971], [77.572925, 12.973843], [77.573685, 12.973699], [77.574383, 12.973472], [77.574473, 12.973382], [77.574658, 12.973249], [77.574871, 12.973152], [77.575132, 12.973611], [77.575219, 12.973619], [77.575291, 12.973671], [77.575376, 12.973805], [77.575418, 12.973907], [77.57544, 12.973963], [77.577538, 12.973283], [77.578291, 12.974256], [77.579493, 12.973709], [77.58101, 12.973047]]]}}]}