{"type": "FeatureCollection", "features": [{"type": "Feature", "properties": {"region_id": "ward_276600-106", "name": "Dr. Raj Kumar Ward", "parent": "zone_276600-7", "parent_name": "West"}, "geometry": {"type": "Polygon", "coordinates": [[[77.545185, 12.985013], [77.548122, 12.98454], [77.548805, 12.9844], [77.548811, 12.984394], [77.548812, 12.984395], [77.548823, 12.984396], [77.549046, 12.984301], [77.549046, 12.984298], [77.549003, 12.981409], [77.548998, 12.980919], [77.548997, 12.980889], [77.548997, 12.980878], [77.549011, 12.980836], [77.54907, 12.980836], [77.550506, 12.980791], [77.552724, 12.98068], [77.553643, 12.980633], [77.553669, 12.980638], [77.553696, 12.980639], [77.553842, 12.980631], [77.55388, 12.980607], [77.553814, 12.98021], [77.553819, 12.98021], [77.553794, 12.97998], [77.554679, 12.980047], [77.555043, 12.980105], [77.555251, 12.980118], [77.555197, 12.979906], [77.554958, 12.97909], [77.55477, 12.978458], [77.554766, 12.978448], [77.554728, 12.978354], [77.554698, 12.978257], [77.554674, 12.978158], [77.554659, 12.978058], [77.554651, 12.977978], [77.554653, 12.977957], [77.554655, 12.977859], [77.554651, 12.977761], [77.554639, 12.977664], [77.554619, 12.977568], [77.554593, 12.977473], [77.554559, 12.977381], [77.554533, 12.977321], [77.554817, 12.977197], [77.555092, 12.977079], [77.555169, 12.977012], [77.555137, 12.976945], [77.555019, 12.976619], [77.554902, 12.976419], [77.554664, 12.975959], [77.554493, 12.97556], [77.554351, 12.975555], [77.554348, 12.975547], [77.553992, 12.975546], [77.553431, 12.975524], [77.552937, 12.975379], [77.552512, 12.975119], [77.551389, 12.974232], [77.55118, 12.974095], [77.551179, 12.974094], [77.551114, 12.974028], [77.551045, 12.973967], [77.55097, 12.973912], [77.550891, 12.973863], [77.550809, 12.97382], [77.550723, 12.973784], [77.550635, 12.973755], [77.550545, 12.973732], [77.550453, 12.973717], [77.55036, 12.973709], [77.550267, 12.973708], [77.550173, 12.973714], [77.550081, 12.973728], [77.54999, 12.973748], [77.549902, 12.973776], [77.549815, 12.973811], [77.549732, 12.973852], [77.549652, 12.9739], [77.549577, 12.973953], [77.549506, 12.974012], [77.549461, 12.974055], [77.54858, 12.974835], [77.548381, 12.975043], [77.548364, 12.97506], [77.548179, 12.975253], [77.547557, 12.975927], [77.547474, 12.976021], [77.546903, 12.976602], [77.546488, 12.97691], [77.545893, 12.977354], [77.545593, 12.97761], [77.545327, 12.977761], [77.545097, 12.977865], [77.544802, 12.977979], [77.544418, 12.978121], [77.54403, 12.978237], [77.54418, 12.978953], [77.544255, 12.979227], [77.544341, 12.980804], [77.542774, 12.980846], [77.542841, 12.981249], [77.542859, 12.981658], [77.542788, 12.98224], [77.542662, 12.982821], [77.542565, 12.983294], [77.542029, 12.983169], [77.541897, 12.983784], [77.541844, 12.984379], [77.541803, 12.984741], [77.541808, 12.98492], [77.54181, 12.985036], [77.541818, 12.985128], [77.541834, 12.985193], [77.541879, 12.985233], [77.541938, 12.985232], [77.542057, 12.985209], [77.542383, 12.985119], [77.542423, 12.985595], [77.542428, 12.985678], [77.542453, 12.98567], [77.542874, 12.985539], [77.542919, 12.985521], [77.5433, 12.985405], [77.54409, 12.985222], [77.545185, 12.985011], [77.545185, 12.985013]]]}}]}