{"type": "FeatureCollection", "features": [{"type": "Feature", "properties": {"region_id": "ward_276600-174", "name": "HSR Layout", "parent": "zone_276600-1", "parent_name": "Bommanahalli"}, "geometry": {"type": "Polygon", "coordinates": [[[77.654662, 12.897985], [77.654014, 12.897941], [77.653286, 12.897992], [77.652773, 12.898063], [77.652253, 12.898163], [77.65163, 12.898279], [77.651519, 12.898404], [77.65116, 12.898919], [77.65076, 12.899076], [77.649975, 12.899434], [77.649212, 12.899741], [77.649138, 12.899742], [77.648853, 12.899504], [77.648694, 12.900002], [77.648584, 12.900842], [77.648576, 12.901528], [77.648516, 12.902201], [77.648559, 12.902755], [77.648733, 12.90353], [77.648794, 12.903822], [77.648403, 12.90383], [77.647996, 12.903838], [77.64797, 12.903907], [77.647598, 12.903929], [77.647509, 12.903915], [77.64751, 12.904021], [77.647251, 12.9041], [77.646896, 12.904206], [77.646691, 12.904243], [77.646347, 12.904284], [77.646121, 12.90434], [77.645815, 12.904415], [77.645313, 12.904532], [77.644785, 12.904653], [77.644257, 12.904773], [77.643787, 12.904865], [77.643156, 12.905001], [77.642408, 12.905225], [77.641968, 12.905316], [77.64163, 12.905377], [77.641131, 12.905425], [77.640632, 12.905503], [77.640279, 12.905578], [77.639619, 12.905672], [77.639119, 12.905705], [77.638943, 12.90575], [77.638665, 12.905854], [77.638108, 12.906076], [77.63761, 12.906269], [77.636981, 12.906549], [77.636424, 12.906743], [77.635795, 12.907066], [77.635238, 12.90727], [77.635116, 12.907314], [77.634669, 12.907194], [77.633935, 12.906983], [77.633263, 12.906646], [77.632594, 12.906622], [77.632527, 12.906622], [77.63255, 12.906047], [77.632558, 12.905473], [77.632468, 12.905013], [77.632556, 12.904387], [77.632378, 12.904124], [77.632334, 12.904003], [77.632314, 12.903938], [77.632253, 12.903962], [77.631962, 12.903904], [77.631718, 12.903725], [77.631004, 12.903641], [77.630682, 12.904162], [77.629762, 12.905667], [77.629372, 12.906301], [77.629014, 12.906884], [77.628291, 12.908039], [77.62756, 12.909243], [77.626829, 12.910422], [77.626102, 12.911614], [77.625144, 12.913173], [77.624458, 12.914266], [77.624245, 12.914641], [77.624023, 12.915024], [77.62326, 12.916388], [77.622772, 12.917246], [77.62277, 12.917249], [77.622741, 12.917306], [77.622739, 12.917311], [77.622725, 12.917337], [77.622777, 12.917369], [77.622812, 12.917306], [77.62297, 12.917356], [77.623387, 12.917434], [77.623656, 12.917476], [77.62398, 12.917537], [77.624394, 12.917608], [77.62458, 12.917637], [77.624771, 12.917653], [77.625071, 12.917665], [77.625364, 12.917665], [77.625576, 12.917654], [77.625777, 12.917622], [77.626084, 12.91754], [77.626871, 12.917287], [77.627671, 12.917055], [77.628166, 12.916905], [77.628332, 12.916861], [77.628446, 12.916823], [77.628529, 12.916804], [77.628643, 12.916794], [77.62896, 12.916769], [77.629956, 12.916717], [77.631152, 12.916654], [77.631396, 12.916627], [77.631929, 12.91657], [77.632869, 12.916476], [77.633602, 12.916408], [77.634804, 12.916296], [77.635993, 12.916184], [77.636757, 12.916095], [77.637472, 12.915988], [77.637996, 12.915946], [77.638125, 12.915945], [77.638202, 12.915944], [77.638214, 12.916458], [77.638286, 12.917707], [77.638344, 12.919315], [77.638401, 12.919996], [77.638468, 12.920341], [77.638658, 12.920977], [77.63869, 12.921099], [77.638835, 12.921532], [77.639055, 12.92196], [77.639398, 12.922616], [77.639782, 12.923459], [77.639974, 12.923835], [77.640458, 12.92367], [77.640887, 12.923504], [77.641109, 12.923419], [77.641204, 12.923392], [77.641278, 12.923386], [77.641347, 12.92338], [77.641437, 12.923389], [77.641544, 12.923414], [77.642129, 12.923586], [77.642869, 12.923771], [77.644046, 12.924097], [77.644749, 12.92433], [77.644919, 12.924385], [77.645073, 12.92443], [77.645212, 12.924455], [77.645429, 12.924474], [77.645658, 12.924476], [77.645865, 12.924474], [77.646311, 12.92448], [77.64681, 12.924506], [77.647516, 12.924583], [77.648058, 12.924619], [77.648558, 12.924661], [77.649067, 12.924692], [77.649322, 12.924689], [77.649688, 12.924644], [77.650048, 12.924557], [77.65018, 12.924509], [77.650286, 12.924471], [77.650561, 12.924411], [77.650868, 12.924361], [77.651298, 12.924315], [77.651494, 12.924282], [77.651567, 12.924272], [77.651624, 12.924264], [77.65166, 12.92426], [77.651698, 12.924253], [77.651725, 12.924235], [77.651743, 12.924206], [77.651754, 12.924177], [77.651748, 12.924048], [77.651658, 12.92356], [77.651599, 12.92327], [77.65157, 12.923136], [77.651551, 12.923034], [77.651532, 12.922928], [77.651519, 12.922838], [77.651512, 12.922677], [77.651523, 12.922355], [77.651544, 12.92178], [77.651557, 12.921323], [77.651562, 12.921241], [77.651565, 12.921203], [77.651582, 12.92118], [77.651615, 12.921159], [77.651663, 12.921152], [77.651934, 12.921126], [77.652697, 12.921022], [77.652972, 12.920996], [77.653121, 12.920997], [77.653261, 12.920999], [77.653458, 12.920982], [77.653577, 12.920966], [77.653631, 12.920954], [77.653661, 12.92093], [77.653672, 12.920892], [77.653675, 12.920854], [77.653673, 12.920803], [77.653672, 12.92077], [77.653672, 12.920736], [77.653672, 12.920719], [77.653673, 12.920703], [77.653675, 12.920688], [77.653695, 12.920678], [77.653708, 12.920671], [77.653744, 12.920666], [77.653794, 12.920663], [77.654868, 12.920575], [77.65687, 12.919114], [77.660513, 12.916532], [77.662209, 12.918314], [77.662807, 12.920314], [77.66284, 12.920956], [77.662843, 12.921222], [77.66212, 12.921414], [77.661422, 12.921568], [77.661336, 12.921586], [77.661289, 12.9216], [77.661268, 12.92162], [77.661242, 12.92166], [77.661218, 12.921697], [77.661212, 12.921728], [77.661282, 12.921908], [77.661554, 12.922602], [77.661564, 12.922628], [77.661759, 12.923135], [77.661975, 12.923863], [77.662261, 12.924734], [77.662497, 12.92569], [77.662836, 12.926492], [77.663277, 12.927534], [77.663394, 12.927758], [77.663486, 12.927859], [77.663566, 12.927977], [77.663588, 12.928107], [77.66369, 12.928171], [77.66396, 12.927984], [77.664225, 12.927981], [77.664533, 12.927978], [77.664714, 12.927976], [77.66485, 12.927984], [77.664904, 12.928001], [77.664986, 12.928044], [77.665132, 12.92822], [77.665299, 12.928547], [77.665587, 12.929316], [77.665773, 12.929819], [77.665785, 12.930023], [77.665796, 12.930073], [77.665846, 12.930218], [77.665896, 12.930303], [77.665922, 12.930338], [77.665937, 12.930388], [77.666036, 12.930563], [77.666092, 12.930695], [77.666167, 12.930748], [77.666276, 12.930813], [77.666447, 12.93089], [77.66666, 12.930967], [77.667033, 12.931056], [77.667488, 12.931065], [77.668043, 12.931014], [77.668355, 12.931022], [77.668756, 12.931041], [77.668867, 12.931045], [77.669116, 12.930998], [77.669273, 12.930953], [77.669257, 12.93023], [77.669308, 12.929813], [77.669302, 12.929793], [77.669322, 12.928883], [77.66935, 12.928831], [77.66933, 12.928568], [77.669271, 12.927415], [77.669276, 12.927323], [77.669275, 12.927277], [77.66931, 12.927225], [77.668109, 12.924334], [77.667693, 12.923794], [77.667068, 12.922807], [77.666215, 12.922035], [77.664855, 12.920673], [77.664173, 12.919773], [77.663141, 12.918069], [77.662722, 12.918039], [77.662001, 12.916024], [77.661231, 12.915895], [77.661193, 12.915587], [77.661188, 12.915141], [77.660931, 12.913978], [77.660171, 12.911518], [77.657025, 12.911447], [77.655574, 12.906388], [77.654775, 12.903482], [77.654806, 12.903139], [77.655046, 12.902759], [77.655944, 12.901688], [77.656041, 12.901601], [77.656387, 12.9012], [77.656758, 12.900912], [77.657063, 12.900739], [77.657177, 12.900426], [77.657071, 12.900248], [77.657016, 12.899713], [77.656821, 12.899496], [77.656607, 12.899746], [77.656436, 12.899748], [77.65625, 12.899735], [77.656027, 12.899694], [77.655861, 12.899557], [77.655783, 12.899193], [77.655905, 12.898717], [77.655871, 12.898382], [77.65584, 12.898192], [77.655499, 12.898356], [77.655365, 12.898372], [77.655216, 12.898345], [77.65465, 12.898263], [77.654662, 12.897985]]]}}]}