{"type": "FeatureCollection", "features": [{"type": "Feature", "properties": {"region_id": "ward_276600-104", "name": "Govindaraja Nagar", "parent": "zone_276600-7", "parent_name": "West"}, "geometry": {"type": "Polygon", "coordinates": [[[77.536714, 12.980715], [77.537914, 12.98019], [77.539247, 12.979602], [77.53929, 12.979585], [77.53967, 12.979426], [77.540121, 12.979224], [77.540208, 12.979185], [77.54026, 12.979163], [77.540507, 12.97906], [77.540797, 12.978939], [77.540584, 12.97715], [77.541347, 12.977053], [77.542357, 12.976919], [77.54216, 12.975501], [77.54207, 12.974622], [77.542208, 12.973805], [77.541472, 12.973651], [77.539591, 12.973255], [77.538697, 12.972942], [77.538646, 12.972907], [77.538163, 12.973149], [77.537793, 12.973284], [77.53733, 12.97344], [77.536601, 12.973679], [77.535584, 12.974033], [77.535432, 12.974092], [77.535111, 12.974181], [77.534848, 12.974236], [77.534617, 12.974285], [77.534516, 12.974291], [77.534329, 12.974329], [77.534172, 12.974357], [77.533804, 12.974425], [77.53295, 12.974615], [77.532446, 12.974721], [77.532822, 12.975899], [77.532757, 12.975909], [77.532378, 12.975999], [77.53191, 12.976102], [77.531954, 12.976512], [77.531432, 12.976605], [77.531487, 12.976992], [77.531743, 12.978379], [77.531863, 12.979112], [77.531866, 12.979129], [77.531867, 12.979129], [77.532038, 12.979925], [77.532303, 12.979837], [77.532729, 12.981443], [77.533047, 12.981368], [77.53319, 12.9819], [77.533325, 12.981852], [77.534105, 12.981661], [77.536113, 12.980976], [77.536714, 12.980715]]]}}]}