{"type": "FeatureCollection", "features": [{"type": "Feature", "properties": {"region_id": "ward_276600-69", "name": "Laggere", "parent": "zone_276600-5", "parent_name": "Rajarajeshwari Nagar"}, "geometry": {"type": "Polygon", "coordinates": [[[77.527602, 13.010515], [77.527738, 13.010403], [77.527805, 13.010302], [77.527862, 13.010197], [77.527909, 13.010059], [77.527937, 13.009958], [77.527938, 13.009844], [77.527989, 13.009756], [77.528044, 13.009648], [77.528199, 13.009485], [77.528406, 13.009304], [77.528579, 13.009149], [77.528621, 13.009087], [77.528677, 13.009], [77.528718, 13.008977], [77.528762, 13.008949], [77.528808, 13.008941], [77.528862, 13.00894], [77.529047, 13.008963], [77.529178, 13.008967], [77.52943, 13.008936], [77.529697, 13.008928], [77.530026, 13.008873], [77.530201, 13.008815], [77.530259, 13.008747], [77.53029, 13.008711], [77.530328, 13.008663], [77.530356, 13.008607], [77.5304, 13.008379], [77.530417, 13.008325], [77.530414, 13.008234], [77.530397, 13.008131], [77.530391, 13.008062], [77.530391, 13.007969], [77.530343, 13.007838], [77.530288, 13.007808], [77.530234, 13.007773], [77.530177, 13.007738], [77.530114, 13.007686], [77.53007, 13.007625], [77.530019, 13.007504], [77.530013, 13.007385], [77.530035, 13.007304], [77.530001, 13.007008], [77.529921, 13.006665], [77.52987, 13.006248], [77.529888, 13.005974], [77.529891, 13.00589], [77.529894, 13.005791], [77.5299, 13.005789], [77.529904, 13.005745], [77.529858, 13.005697], [77.529831, 13.005644], [77.529786, 13.005575], [77.529743, 13.005507], [77.529698, 13.005438], [77.529668, 13.005344], [77.529638, 13.005278], [77.529612, 13.005206], [77.529582, 13.005112], [77.529556, 13.005008], [77.529532, 13.004895], [77.529534, 13.004773], [77.529545, 13.004641], [77.529573, 13.004474], [77.529601, 13.004385], [77.529603, 13.004341], [77.529603, 13.004303], [77.529602, 13.004263], [77.529602, 13.004203], [77.529581, 13.004162], [77.5295, 13.004069], [77.529356, 13.003966], [77.529291, 13.003917], [77.529236, 13.003864], [77.529168, 13.003789], [77.529103, 13.003723], [77.529064, 13.00368], [77.529028, 13.003636], [77.528999, 13.003577], [77.528972, 13.003461], [77.528974, 13.003316], [77.528995, 13.00314], [77.529003, 13.003039], [77.529043, 13.002881], [77.529119, 13.002723], [77.529185, 13.002603], [77.529213, 13.002493], [77.529205, 13.002367], [77.529143, 13.002267], [77.529045, 13.002117], [77.528874, 13.001996], [77.528657, 13.001841], [77.528406, 13.001702], [77.528142, 13.001597], [77.527997, 13.00153], [77.52791, 13.001477], [77.527848, 13.001418], [77.527828, 13.001324], [77.527824, 13.001232], [77.527832, 13.001122], [77.527866, 13.000955], [77.527877, 13.000811], [77.527885, 13.00066], [77.527874, 13.000499], [77.527873, 13.000364], [77.527872, 13.000245], [77.527848, 13.0001], [77.527859, 12.999984], [77.527862, 12.999892], [77.527864, 12.999801], [77.527845, 12.999693], [77.527352, 12.999879], [77.526165, 13.000437], [77.526157, 13.000441], [77.526282, 13.00071], [77.524061, 13.001716], [77.523443, 13.001651], [77.52365, 13.00244], [77.523512, 13.00248], [77.522366, 13.00278], [77.521292, 13.003075], [77.521293, 13.003247], [77.521342, 13.003525], [77.521008, 13.003567], [77.520977, 13.00328], [77.52016, 13.003389], [77.520029, 13.00283], [77.519879, 13.002354], [77.519211, 13.002312], [77.518582, 13.002259], [77.518111, 13.002248], [77.51794, 13.00229], [77.518032, 13.002383], [77.518186, 13.002531], [77.518241, 13.002658], [77.51822, 13.002867], [77.518146, 13.003055], [77.518018, 13.00325], [77.517875, 13.003476], [77.517778, 13.003679], [77.517735, 13.003874], [77.517698, 13.003979], [77.517674, 13.004686], [77.51769, 13.005251], [77.51769, 13.005268], [77.517656, 13.006014], [77.517648, 13.00608], [77.517629, 13.006122], [77.517604, 13.006167], [77.517567, 13.006203], [77.517506, 13.006262], [77.51745, 13.006331], [77.517411, 13.006393], [77.517367, 13.006471], [77.517339, 13.006513], [77.517311, 13.006568], [77.517295, 13.006615], [77.517315, 13.006668], [77.517327, 13.006726], [77.517356, 13.006778], [77.517395, 13.006808], [77.51743, 13.006899], [77.517456, 13.007114], [77.517436, 13.007218], [77.517434, 13.007293], [77.517432, 13.007368], [77.517432, 13.007526], [77.517383, 13.007792], [77.517376, 13.00792], [77.517304, 13.008133], [77.51728, 13.008219], [77.51728, 13.008258], [77.51728, 13.008272], [77.517298, 13.008299], [77.517315, 13.008324], [77.517343, 13.008357], [77.517431, 13.008424], [77.51784, 13.008681], [77.517912, 13.00876], [77.518086, 13.008912], [77.5181, 13.008939], [77.518241, 13.009103], [77.518286, 13.009184], [77.518316, 13.009247], [77.518381, 13.009361], [77.518406, 13.009433], [77.518491, 13.009615], [77.518527, 13.009725], [77.518567, 13.009802], [77.518617, 13.009883], [77.518682, 13.010007], [77.518732, 13.010108], [77.518772, 13.010189], [77.518832, 13.010333], [77.518857, 13.010361], [77.518901, 13.010419], [77.518986, 13.010495], [77.51905, 13.010552], [77.519041, 13.010648], [77.519037, 13.010725], [77.519018, 13.010821], [77.51901, 13.010932], [77.519011, 13.011023], [77.519012, 13.011119], [77.518993, 13.011201], [77.518954, 13.011274], [77.518916, 13.01139], [77.518897, 13.011471], [77.518854, 13.011582], [77.518767, 13.011641], [77.518743, 13.011752], [77.51872, 13.011882], [77.518682, 13.011964], [77.518643, 13.012056], [77.518606, 13.012224], [77.518607, 13.012349], [77.518628, 13.012431], [77.518653, 13.012512], [77.518634, 13.01258], [77.518572, 13.01265], [77.51858, 13.012713], [77.518885, 13.012706], [77.519119, 13.012702], [77.519452, 13.012676], [77.519618, 13.012654], [77.519769, 13.01261], [77.519915, 13.01256], [77.520021, 13.012519], [77.52024, 13.012482], [77.520422, 13.012477], [77.520711, 13.012493], [77.520891, 13.012529], [77.521068, 13.012586], [77.521103, 13.012596], [77.521153, 13.012618], [77.521167, 13.012625], [77.521206, 13.01265], [77.521241, 13.01266], [77.521377, 13.012481], [77.521455, 13.012406], [77.521478, 13.012385], [77.5215, 13.012383], [77.521722, 13.012457], [77.521737, 13.012401], [77.521746, 13.012393], [77.52176, 13.012393], [77.522074, 13.012429], [77.522323, 13.012433], [77.522475, 13.012436], [77.522693, 13.01245], [77.522759, 13.012452], [77.522831, 13.012458], [77.522892, 13.012562], [77.522911, 13.012634], [77.522924, 13.012621], [77.522922, 13.012755], [77.522946, 13.012799], [77.523017, 13.012919], [77.523026, 13.012975], [77.523009, 13.013027], [77.522861, 13.013486], [77.522565, 13.014269], [77.522383, 13.014833], [77.52226, 13.015433], [77.5225, 13.015463], [77.523174, 13.015558], [77.523897, 13.015675], [77.52442, 13.015678], [77.525187, 13.015585], [77.52605, 13.015483], [77.526409, 13.015752], [77.526995, 13.015715], [77.527746, 13.015591], [77.528296, 13.015444], [77.528277, 13.015346], [77.528243, 13.015289], [77.528083, 13.015095], [77.527898, 13.014845], [77.527704, 13.014569], [77.527578, 13.014359], [77.527493, 13.014213], [77.527359, 13.01406], [77.527199, 13.013874], [77.527065, 13.013753], [77.526964, 13.013616], [77.526837, 13.013462], [77.526745, 13.013333], [77.526744, 13.013235], [77.526718, 13.013113], [77.526716, 13.012999], [77.526715, 13.01282], [77.526713, 13.012681], [77.526712, 13.012567], [77.526711, 13.01247], [77.526735, 13.012337], [77.526743, 13.0123], [77.526747, 13.012241], [77.526763, 13.01199], [77.526757, 13.011899], [77.526767, 13.011828], [77.526817, 13.011716], [77.52692, 13.011583], [77.527001, 13.01147], [77.527243, 13.011191], [77.527443, 13.010862], [77.527602, 13.010515]]]}}]}