{"type": "FeatureCollection", "features": [{"type": "Feature", "properties": {"region_id": "ward_276600-1", "name": "Kempegowda Ward", "parent": "zone_276600-8", "parent_name": "Yelahanka"}, "geometry": {"type": "Polygon", "coordinates": [[[77.615154, 13.131169], [77.614936, 13.130732], [77.614647, 13.129646], [77.614637, 13.129466], [77.614546, 13.129077], [77.61437, 13.128486], [77.61396, 13.127739], [77.613514, 13.126762], [77.613214, 13.126058], [77.61286, 13.125176], [77.612265, 13.123622], [77.612, 13.123134], [77.611801, 13.122722], [77.611574, 13.122202], [77.611493, 13.12191], [77.611455, 13.121782], [77.611412, 13.121643], [77.61148, 13.12126], [77.611415, 13.120694], [77.611317, 13.120026], [77.611276, 13.119236], [77.611238, 13.118651], [77.611064, 13.117557], [77.610938, 13.116768], [77.610962, 13.11594], [77.611022, 13.115442], [77.611122, 13.115085], [77.61117, 13.114122], [77.611153, 13.113683], [77.611077, 13.113301], [77.610923, 13.112673], [77.610839, 13.112491], [77.610642, 13.111943], [77.61046, 13.111525], [77.610275, 13.111141], [77.610077, 13.11082], [77.610022, 13.110667], [77.609822, 13.110583], [77.609742, 13.110536], [77.609738, 13.110474], [77.609767, 13.110408], [77.609829, 13.110228], [77.609832, 13.11003], [77.60973, 13.11002], [77.60986, 13.108603], [77.609895, 13.108313], [77.609894, 13.108226], [77.609804, 13.108101], [77.609424, 13.107711], [77.609243, 13.107525], [77.608739, 13.107452], [77.608687, 13.107445], [77.608699, 13.107223], [77.608698, 13.107002], [77.608725, 13.106722], [77.608756, 13.105988], [77.608773, 13.105594], [77.608868, 13.105039], [77.608899, 13.10459], [77.608634, 13.104585], [77.608354, 13.104575], [77.608371, 13.104485], [77.608448, 13.103602], [77.60847, 13.103117], [77.608496, 13.103046], [77.608502, 13.102467], [77.608502, 13.10243], [77.608503, 13.10237], [77.608502, 13.102371], [77.608504, 13.102207], [77.608506, 13.102068], [77.608273, 13.102061], [77.607951, 13.102052], [77.606588, 13.102018], [77.604761, 13.102111], [77.604058, 13.102147], [77.603797, 13.10216], [77.603481, 13.102176], [77.603204, 13.102191], [77.603103, 13.102186], [77.60231, 13.102922], [77.601397, 13.103123], [77.6012, 13.103072], [77.60046, 13.102907], [77.600419, 13.102876], [77.600147, 13.102863], [77.600093, 13.102629], [77.599997, 13.102206], [77.599842, 13.101641], [77.599724, 13.101218], [77.599513, 13.100441], [77.599355, 13.099841], [77.599506, 13.099822], [77.601341, 13.099352], [77.601706, 13.099312], [77.602195, 13.099354], [77.602373, 13.099007], [77.602325, 13.098959], [77.602206, 13.09884], [77.602176, 13.098624], [77.602284, 13.09836], [77.602367, 13.09828], [77.602434, 13.098217], [77.602542, 13.098026], [77.60254, 13.09781], [77.602421, 13.097643], [77.602324, 13.097624], [77.602007, 13.097627], [77.60178, 13.097609], [77.601602, 13.097639], [77.601526, 13.097652], [77.60125, 13.097668], [77.601016, 13.097671], [77.600905, 13.09757], [77.600732, 13.097484], [77.600468, 13.097264], [77.600283, 13.097077], [77.600167, 13.097013], [77.600088, 13.097015], [77.599923, 13.097003], [77.599784, 13.096976], [77.59973, 13.096959], [77.599685, 13.096916], [77.599689, 13.096894], [77.5997, 13.096872], [77.599729, 13.096821], [77.599885, 13.09659], [77.600021, 13.09638], [77.600078, 13.096305], [77.600129, 13.096239], [77.600166, 13.096129], [77.600305, 13.0957], [77.600439, 13.095331], [77.600531, 13.095104], [77.600626, 13.09483], [77.600738, 13.094401], [77.600793, 13.094107], [77.60082, 13.093732], [77.60085, 13.093412], [77.600873, 13.093224], [77.600911, 13.093026], [77.600995, 13.092738], [77.601154, 13.092333], [77.601292, 13.091999], [77.601377, 13.091843], [77.601443, 13.09175], [77.601514, 13.091662], [77.601712, 13.09139], [77.602084, 13.090889], [77.602413, 13.090465], [77.602662, 13.090101], [77.602842, 13.089782], [77.602962, 13.089542], [77.603148, 13.089139], [77.603211, 13.088965], [77.603286, 13.088712], [77.603361, 13.088203], [77.603418, 13.087837], [77.603443, 13.087699], [77.603463, 13.087644], [77.603494, 13.087595], [77.603522, 13.087558], [77.603578, 13.087509], [77.603757, 13.087328], [77.603965, 13.087104], [77.604081, 13.08699], [77.604116, 13.086904], [77.604142, 13.086801], [77.604177, 13.086526], [77.60404, 13.086561], [77.603842, 13.086563], [77.60366, 13.086508], [77.603345, 13.086414], [77.603212, 13.08631], [77.603012, 13.08619], [77.602871, 13.086052], [77.602863, 13.086022], [77.602851, 13.08597], [77.602748, 13.085544], [77.602706, 13.085367], [77.602587, 13.084597], [77.602414, 13.083797], [77.602317, 13.083338], [77.602252, 13.083031], [77.601565, 13.083125], [77.601355, 13.083149], [77.600487, 13.083239], [77.599951, 13.083292], [77.599734, 13.083338], [77.599407, 13.083429], [77.598702, 13.083594], [77.598337, 13.083663], [77.598326, 13.083664], [77.598218, 13.083667], [77.597879, 13.083672], [77.597385, 13.083686], [77.597195, 13.083719], [77.5966, 13.083852], [77.596027, 13.083993], [77.595762, 13.084079], [77.595154, 13.084309], [77.594493, 13.084513], [77.594276, 13.084574], [77.594205, 13.084605], [77.594156, 13.084623], [77.59413, 13.084624], [77.593651, 13.084697], [77.594935, 13.087561], [77.595872, 13.089817], [77.596305, 13.09178], [77.596113, 13.093996], [77.595595, 13.09581], [77.595224, 13.096359], [77.594441, 13.095172], [77.593606, 13.095848], [77.592294, 13.097196], [77.59301, 13.09884], [77.593598, 13.10024], [77.592826, 13.101916], [77.593572, 13.102079], [77.594245, 13.102336], [77.594611, 13.10238], [77.594699, 13.102606], [77.594738, 13.102821], [77.594741, 13.103131], [77.594708, 13.103407], [77.594722, 13.103657], [77.595052, 13.103654], [77.59544, 13.103483], [77.595781, 13.103456], [77.596488, 13.103448], [77.596843, 13.103564], [77.597234, 13.103656], [77.597031, 13.104052], [77.596728, 13.104175], [77.596289, 13.104191], [77.596088, 13.104238], [77.59601, 13.104539], [77.595974, 13.104675], [77.595494, 13.105045], [77.595488, 13.105051], [77.595327, 13.105329], [77.595334, 13.105485], [77.595357, 13.106003], [77.595306, 13.106583], [77.595099, 13.10721], [77.594809, 13.107572], [77.594617, 13.108094], [77.594184, 13.108712], [77.593773, 13.109324], [77.593386, 13.110019], [77.592592, 13.110712], [77.591774, 13.111256], [77.591127, 13.111803], [77.590928, 13.111776], [77.590749, 13.111844], [77.590649, 13.111944], [77.590628, 13.112087], [77.590658, 13.112339], [77.590491, 13.112552], [77.589709, 13.112742], [77.589567, 13.112102], [77.590429, 13.111485], [77.590465, 13.111115], [77.58972, 13.110989], [77.589463, 13.111551], [77.588521, 13.111223], [77.588344, 13.11155], [77.588351, 13.111558], [77.588339, 13.111558], [77.588331, 13.111574], [77.588238, 13.111746], [77.587847, 13.112389], [77.587426, 13.113148], [77.587247, 13.113555], [77.587058, 13.11411], [77.586982, 13.114446], [77.5869, 13.114976], [77.586779, 13.115873], [77.586665, 13.116766], [77.586544, 13.117706], [77.586437, 13.11851], [77.586317, 13.119563], [77.586291, 13.119768], [77.586816, 13.120061], [77.587445, 13.12069], [77.587922, 13.121702], [77.587944, 13.123785], [77.587782, 13.125667], [77.587779, 13.126668], [77.588065, 13.127175], [77.588318, 13.129272], [77.587885, 13.130298], [77.586617, 13.130821], [77.5851, 13.131631], [77.58325, 13.134811], [77.583629, 13.134825], [77.584318, 13.134835], [77.584854, 13.134865], [77.585212, 13.134931], [77.58582, 13.13496], [77.586463, 13.134988], [77.587034, 13.134983], [77.58757, 13.134977], [77.588177, 13.134971], [77.588619, 13.134987], [77.589019, 13.135024], [77.589437, 13.135079], [77.589803, 13.135125], [77.590134, 13.135122], [77.590619, 13.1351], [77.590993, 13.135096], [77.591257, 13.135119], [77.591619, 13.134815], [77.592333, 13.134808], [77.593175, 13.134799], [77.594328, 13.134817], [77.595135, 13.134784], [77.595682, 13.134827], [77.595711, 13.134809], [77.595798, 13.134802], [77.59586, 13.134801], [77.596513, 13.134809], [77.597789, 13.134808], [77.599034, 13.13479], [77.599724, 13.134799], [77.599876, 13.134789], [77.600542, 13.13478], [77.601919, 13.134752], [77.603466, 13.134748], [77.603647, 13.134743], [77.604019, 13.134619], [77.604808, 13.134411], [77.605019, 13.134267], [77.605322, 13.134161], [77.605337, 13.134144], [77.605414, 13.134128], [77.60545, 13.134121], [77.605558, 13.134122], [77.605632, 13.13412], [77.605749, 13.134116], [77.606533, 13.134108], [77.607656, 13.134097], [77.607853, 13.134096], [77.608435, 13.13409], [77.609725, 13.134077], [77.610094, 13.134116], [77.610265, 13.134115], [77.610593, 13.134091], [77.610982, 13.134052], [77.611447, 13.134044], [77.6118, 13.133874], [77.612323, 13.133596], [77.612464, 13.133502], [77.612449, 13.133494], [77.613105, 13.133043], [77.613666, 13.132613], [77.613666, 13.132623], [77.613933, 13.132398], [77.614429, 13.131984], [77.614576, 13.131862], [77.615114, 13.131218], [77.615171, 13.131206], [77.615154, 13.131169]]]}}]}