{"type": "FeatureCollection", "features": [{"type": "Feature", "properties": {"region_id": "ward_276600-94", "name": "Gandhinagar", "parent": "zone_276600-7", "parent_name": "West"}, "geometry": {"type": "Polygon", "coordinates": [[[77.577125, 12.993605], [77.577805, 12.992302], [77.577893, 12.992118], [77.577668, 12.991872], [77.57755, 12.991744], [77.579795, 12.990951], [77.579683, 12.990692], [77.579237, 12.99], [77.577941, 12.988059], [77.577411, 12.987281], [77.576611, 12.986108], [77.576324, 12.985703], [77.575908, 12.985136], [77.575802, 12.985025], [77.575742, 12.984961], [77.575622, 12.984834], [77.575348, 12.98463], [77.575024, 12.984437], [77.574631, 12.984262], [77.574711, 12.984013], [77.576134, 12.983807], [77.577296, 12.983572], [77.576964, 12.983321], [77.576912, 12.983258], [77.576844, 12.983165], [77.576783, 12.983067], [77.576728, 12.982966], [77.57668, 12.982862], [77.576638, 12.982755], [77.576604, 12.982646], [77.576577, 12.982535], [77.576557, 12.982422], [77.576545, 12.982308], [77.57654, 12.982194], [77.576542, 12.982079], [77.576552, 12.981965], [77.57657, 12.981852], [77.576594, 12.98174], [77.576627, 12.98163], [77.576666, 12.981522], [77.576712, 12.981417], [77.576765, 12.981315], [77.576824, 12.981217], [77.57689, 12.981122], [77.576962, 12.981032], [77.57704, 12.980946], [77.577123, 12.980866], [77.577211, 12.980791], [77.577304, 12.980721], [77.577401, 12.980658], [77.577502, 12.980601], [77.577572, 12.980566], [77.578419, 12.9805], [77.579113, 12.980412], [77.57983, 12.980301], [77.579965, 12.980287], [77.580162, 12.980259], [77.580357, 12.980225], [77.580551, 12.980183], [77.580744, 12.980134], [77.580934, 12.980078], [77.581122, 12.980016], [77.581308, 12.979946], [77.58149, 12.97987], [77.58167, 12.979787], [77.581846, 12.979697], [77.582019, 12.979601], [77.582188, 12.979499], [77.582353, 12.97939], [77.582514, 12.979276], [77.582671, 12.979156], [77.582704, 12.979129], [77.582728, 12.97911], [77.58295, 12.978938], [77.583177, 12.978772], [77.583408, 12.978611], [77.583643, 12.978456], [77.583882, 12.978308], [77.584126, 12.978166], [77.584372, 12.97803], [77.584404, 12.978013], [77.583922, 12.977266], [77.582892, 12.975669], [77.581702, 12.974163], [77.581269, 12.973372], [77.581038, 12.973082], [77.581011, 12.973048], [77.58101, 12.973047], [77.579493, 12.973709], [77.578291, 12.974256], [77.577538, 12.973283], [77.57544, 12.973963], [77.575418, 12.973907], [77.575376, 12.973805], [77.575291, 12.973671], [77.575219, 12.973619], [77.575132, 12.973611], [77.574871, 12.973152], [77.574658, 12.973249], [77.574473, 12.973382], [77.574383, 12.973472], [77.573685, 12.973699], [77.572925, 12.973843], [77.572578, 12.972971], [77.57232, 12.972527], [77.572242, 12.972605], [77.571999, 12.972779], [77.571851, 12.972875], [77.571669, 12.972971], [77.571459, 12.972982], [77.571188, 12.973001], [77.570865, 12.972988], [77.570558, 12.972973], [77.570294, 12.972994], [77.570277, 12.972995], [77.570277, 12.972979], [77.569938, 12.972971], [77.569641, 12.973017], [77.569115, 12.973206], [77.569336, 12.973708], [77.569648, 12.974587], [77.570023, 12.974663], [77.57049, 12.974704], [77.570641, 12.974733], [77.570998, 12.975883], [77.570993, 12.976771], [77.570924, 12.977236], [77.57094, 12.978751], [77.570977, 12.980044], [77.570979, 12.98033], [77.570611, 12.980814], [77.570323, 12.98116], [77.570126, 12.981311], [77.570045, 12.981415], [77.570216, 12.981665], [77.570274, 12.98174], [77.570277, 12.981748], [77.570754, 12.982397], [77.571423, 12.983368], [77.571913, 12.984538], [77.572306, 12.985864], [77.572229, 12.988056], [77.571851, 12.990075], [77.57164, 12.990958], [77.571572, 12.992093], [77.571501, 12.992955], [77.571483, 12.993415], [77.571965, 12.993456], [77.572915, 12.993567], [77.573444, 12.993692], [77.573896, 12.993862], [77.573938, 12.993692], [77.573959, 12.993487], [77.574002, 12.993215], [77.574046, 12.993033], [77.574058, 12.993015], [77.574058, 12.992957], [77.574095, 12.992859], [77.574156, 12.992766], [77.574618, 12.99244], [77.575092, 12.992125], [77.575318, 12.992003], [77.575396, 12.991975], [77.575501, 12.991996], [77.575631, 12.992152], [77.575984, 12.992519], [77.57657, 12.993076], [77.577125, 12.993605]]]}}]}