{"type": "FeatureCollection", "features": [{"type": "Feature", "properties": {"region_id": "ward_276600-10", "name": "Dodda Bommasandra", "parent": "zone_276600-8", "parent_name": "Yelahanka"}, "geometry": {"type": "Polygon", "coordinates": [[[77.56925, 13.054623], [77.568869, 13.053764], [77.568335, 13.052849], [77.567952, 13.052114], [77.567949, 13.052063], [77.567654, 13.051546], [77.566359, 13.049675], [77.56518, 13.047535], [77.56432, 13.045665], [77.564198, 13.045514], [77.563797, 13.044888], [77.563123, 13.043679], [77.562972, 13.043423], [77.562904, 13.043308], [77.562133, 13.042], [77.561779, 13.041359], [77.561695, 13.041206], [77.561483, 13.040838], [77.561365, 13.040634], [77.561269, 13.040469], [77.561237, 13.040425], [77.561053, 13.040165], [77.561009, 13.040104], [77.560612, 13.040508], [77.560438, 13.040468], [77.560339, 13.040457], [77.560083, 13.040467], [77.559927, 13.040505], [77.559805, 13.040535], [77.559718, 13.040601], [77.55966, 13.040677], [77.559587, 13.040798], [77.559479, 13.041112], [77.559346, 13.041415], [77.558998, 13.041692], [77.558301, 13.042132], [77.558113, 13.042296], [77.557739, 13.042549], [77.557451, 13.042735], [77.557405, 13.042735], [77.557347, 13.04271], [77.557256, 13.042659], [77.557157, 13.042618], [77.557106, 13.042618], [77.557096, 13.042618], [77.557083, 13.042626], [77.557072, 13.042637], [77.556991, 13.043101], [77.556926, 13.043781], [77.556886, 13.044217], [77.556837, 13.044702], [77.556755, 13.044971], [77.556526, 13.045451], [77.556414, 13.045629], [77.556141, 13.045893], [77.555708, 13.046658], [77.555501, 13.047024], [77.555298, 13.047301], [77.554964, 13.047864], [77.554697, 13.048292], [77.55447, 13.048729], [77.553047, 13.05052], [77.552602, 13.050956], [77.552557, 13.050988], [77.552513, 13.051025], [77.552424, 13.051153], [77.552161, 13.0515], [77.551781, 13.052104], [77.550909, 13.053251], [77.550728, 13.053431], [77.55057, 13.053582], [77.550106, 13.053922], [77.549372, 13.054464], [77.549137, 13.054625], [77.548795, 13.054913], [77.548312, 13.055334], [77.547962, 13.055661], [77.548061, 13.057539], [77.548627, 13.057529], [77.549358, 13.057527], [77.549513, 13.057528], [77.549802, 13.057506], [77.550065, 13.057483], [77.550462, 13.057576], [77.550969, 13.05769], [77.55135, 13.057781], [77.551459, 13.05779], [77.551476, 13.058593], [77.551567, 13.059302], [77.55157, 13.059616], [77.551386, 13.060141], [77.551119, 13.06076], [77.551109, 13.060982], [77.551132, 13.061418], [77.551172, 13.061949], [77.551131, 13.06216], [77.55083, 13.062239], [77.550888, 13.062838], [77.550942, 13.063082], [77.550962, 13.063327], [77.550946, 13.063462], [77.550786, 13.063759], [77.550619, 13.064185], [77.55062, 13.064197], [77.550608, 13.064216], [77.550445, 13.064455], [77.550641, 13.065069], [77.550395, 13.065386], [77.551365, 13.067342], [77.553114, 13.06665], [77.553166, 13.066621], [77.554151, 13.068688], [77.554495, 13.06858], [77.554862, 13.069332], [77.555178, 13.069836], [77.555286, 13.070059], [77.555544, 13.070507], [77.556101, 13.071671], [77.556586, 13.072622], [77.556928, 13.072567], [77.557583, 13.072186], [77.557973, 13.071678], [77.558243, 13.071043], [77.558146, 13.070604], [77.558645, 13.070354], [77.558024, 13.068939], [77.557997, 13.068875], [77.560297, 13.068342], [77.560515, 13.068752], [77.560726, 13.068859], [77.560945, 13.068907], [77.561255, 13.06897], [77.561847, 13.068998], [77.562677, 13.069018], [77.56337, 13.068945], [77.563537, 13.068797], [77.563571, 13.068775], [77.563597, 13.068754], [77.563629, 13.068718], [77.563649, 13.068696], [77.563678, 13.068664], [77.563701, 13.068617], [77.563739, 13.068468], [77.563833, 13.068196], [77.5639, 13.06798], [77.563918, 13.067955], [77.563939, 13.067933], [77.563963, 13.06791], [77.563983, 13.067884], [77.563986, 13.067854], [77.563987, 13.06782], [77.563987, 13.067788], [77.564007, 13.067754], [77.564035, 13.067684], [77.564143, 13.067438], [77.564361, 13.066928], [77.564582, 13.066414], [77.564762, 13.066099], [77.564833, 13.065943], [77.564928, 13.065762], [77.565023, 13.06559], [77.565074, 13.065545], [77.565116, 13.065522], [77.565179, 13.065521], [77.565245, 13.065521], [77.565287, 13.065517], [77.565313, 13.065511], [77.565342, 13.065498], [77.565365, 13.065478], [77.565387, 13.065453], [77.565403, 13.065418], [77.565422, 13.065373], [77.565487, 13.065144], [77.565603, 13.064709], [77.565681, 13.064495], [77.565729, 13.064441], [77.565829, 13.064414], [77.565917, 13.064414], [77.566056, 13.064432], [77.566056, 13.06443], [77.56608, 13.064435], [77.566202, 13.064458], [77.56626, 13.064458], [77.566298, 13.06441], [77.566314, 13.064362], [77.566222, 13.06413], [77.566138, 13.063961], [77.566157, 13.063897], [77.566354, 13.063822], [77.567289, 13.063531], [77.568099, 13.063186], [77.568294, 13.063077], [77.56822, 13.062887], [77.568072, 13.062882], [77.567726, 13.062921], [77.56759, 13.062919], [77.567428, 13.062895], [77.567136, 13.062822], [77.566996, 13.062769], [77.566604, 13.06265], [77.566451, 13.062588], [77.566252, 13.06239], [77.566, 13.062117], [77.565712, 13.061809], [77.565421, 13.061491], [77.565302, 13.061277], [77.565267, 13.061071], [77.565254, 13.060678], [77.565274, 13.060446], [77.565317, 13.05996], [77.565432, 13.059747], [77.565577, 13.059419], [77.565646, 13.05892], [77.565633, 13.058888], [77.565565, 13.058873], [77.56533, 13.058958], [77.565221, 13.059064], [77.565184, 13.05921], [77.565042, 13.059307], [77.565259, 13.059569], [77.564982, 13.059906], [77.564796, 13.06017], [77.564751, 13.060512], [77.564487, 13.060961], [77.563896, 13.061401], [77.563157, 13.062153], [77.562427, 13.062698], [77.561847, 13.063024], [77.561727, 13.063052], [77.561457, 13.062013], [77.56135, 13.062014], [77.561199, 13.061392], [77.561324, 13.061353], [77.561133, 13.060579], [77.560912, 13.06061], [77.560891, 13.060506], [77.56041, 13.060567], [77.560257, 13.059765], [77.559736, 13.059818], [77.55928, 13.059662], [77.559336, 13.059444], [77.559321, 13.059147], [77.559283, 13.058907], [77.56037, 13.059022], [77.561352, 13.059173], [77.561924, 13.05919], [77.562297, 13.059129], [77.56278, 13.059022], [77.562812, 13.058984], [77.562886, 13.058958], [77.563073, 13.058899], [77.563376, 13.058775], [77.563472, 13.058717], [77.563751, 13.058496], [77.563982, 13.058284], [77.564472, 13.057823], [77.564687, 13.057614], [77.565228, 13.057063], [77.565699, 13.056669], [77.565973, 13.05652], [77.566066, 13.056462], [77.566163, 13.05641], [77.566316, 13.056269], [77.566928, 13.055673], [77.56732, 13.055365], [77.567818, 13.055078], [77.568114, 13.054967], [77.568554, 13.054893], [77.568886, 13.054804], [77.569057, 13.054726], [77.569057, 13.054725], [77.569078, 13.054716], [77.569134, 13.054693], [77.569205, 13.054652], [77.56925, 13.054623]]]}}]}