{"type": "FeatureCollection", "features": [{"type": "Feature", "properties": {"region_id": "ward_276600-4", "name": "Yelahanka Satellite Town", "parent": "zone_276600-8", "parent_name": "Yelahanka"}, "geometry": {"type": "Polygon", "coordinates": [[[77.592294, 13.097196], [77.593606, 13.095848], [77.594441, 13.095172], [77.595224, 13.096359], [77.595595, 13.09581], [77.596113, 13.093996], [77.596305, 13.09178], [77.595872, 13.089817], [77.594935, 13.087561], [77.593651, 13.084697], [77.593504, 13.084298], [77.59344, 13.084122], [77.593375, 13.083971], [77.592951, 13.082982], [77.59256, 13.08204], [77.592133, 13.081039], [77.59166, 13.079899], [77.5912, 13.078825], [77.590772, 13.077801], [77.590654, 13.077523], [77.59045, 13.077044], [77.590256, 13.076578], [77.590039, 13.076069], [77.590024, 13.076074], [77.589921, 13.076111], [77.589878, 13.076151], [77.589831, 13.07622], [77.589828, 13.076223], [77.589568, 13.076295], [77.588511, 13.0766], [77.587349, 13.076945], [77.586393, 13.077232], [77.586271, 13.077268], [77.585157, 13.077589], [77.584263, 13.077843], [77.583461, 13.078097], [77.583143, 13.078194], [77.583086, 13.078206], [77.583048, 13.078212], [77.583015, 13.078212], [77.582973, 13.078213], [77.58292, 13.078222], [77.582881, 13.07824], [77.582849, 13.078267], [77.582849, 13.078281], [77.582945, 13.078627], [77.582969, 13.078704], [77.58302, 13.078874], [77.583263, 13.079704], [77.583532, 13.08056], [77.58373, 13.08113], [77.583899, 13.081729], [77.584151, 13.082533], [77.584357, 13.083205], [77.584491, 13.083609], [77.584491, 13.083629], [77.584491, 13.083649], [77.584489, 13.083668], [77.584476, 13.083679], [77.584465, 13.083691], [77.584436, 13.083704], [77.584238, 13.08376], [77.58349, 13.083985], [77.582986, 13.084108], [77.582443, 13.084269], [77.582062, 13.08438], [77.581458, 13.084528], [77.58078, 13.084704], [77.579806, 13.08497], [77.579073, 13.085203], [77.579841, 13.086783], [77.579874, 13.086915], [77.580113, 13.08783], [77.577543, 13.088477], [77.577031, 13.08859], [77.576938, 13.088549], [77.575729, 13.088677], [77.573287, 13.088998], [77.572092, 13.088845], [77.570724, 13.089015], [77.568961, 13.089263], [77.569184, 13.091132], [77.569058, 13.091516], [77.569314, 13.093312], [77.569501, 13.094973], [77.569691, 13.096441], [77.569765, 13.097224], [77.569754, 13.097244], [77.5696, 13.097357], [77.569094, 13.097413], [77.567377, 13.09747], [77.565052, 13.097676], [77.565027, 13.097713], [77.565036, 13.09771], [77.565179, 13.097726], [77.565472, 13.09774], [77.566275, 13.097832], [77.567066, 13.097887], [77.567922, 13.097973], [77.568618, 13.09806], [77.569389, 13.098126], [77.569784, 13.098122], [77.56988, 13.098121], [77.570213, 13.098084], [77.572647, 13.09857], [77.575747, 13.099106], [77.578677, 13.100012], [77.584071, 13.101432], [77.586514, 13.102033], [77.586904, 13.101727], [77.58712, 13.101557], [77.587331, 13.101375], [77.58908, 13.100057], [77.590945, 13.098422], [77.592294, 13.097196]]]}}]}