{"type": "FeatureCollection", "features": [{"type": "Feature", "properties": {"region_id": "ward_276600-77", "name": "Dattatreya Temple", "parent": "zone_276600-7", "parent_name": "West"}, "geometry": {"type": "Polygon", "coordinates": [[[77.572208, 13.002871], [77.572209, 13.002854], [77.572254, 13.002205], [77.57225, 13.001862], [77.572532, 13.001865], [77.572558, 13.001865], [77.572555, 13.001632], [77.572559, 13.001253], [77.572567, 13.001008], [77.573537, 13.001017], [77.573724, 13.001018], [77.57381, 13.001016], [77.573834, 13.000566], [77.573886, 12.999785], [77.57389, 12.999655], [77.573911, 12.998922], [77.574081, 12.998921], [77.574871, 12.998916], [77.575155, 12.998924], [77.575633, 12.998927], [77.576029, 12.998923], [77.576492, 12.998919], [77.576729, 12.998939], [77.576881, 12.998949], [77.577048, 12.998986], [77.577181, 12.999019], [77.577606, 12.999148], [77.578007, 12.999262], [77.578097, 12.999269], [77.578155, 12.999264], [77.578236, 12.999225], [77.578339, 12.999187], [77.578367, 12.999182], [77.578391, 12.999171], [77.578406, 12.999154], [77.578414, 12.999128], [77.578409, 12.999094], [77.578374, 12.998855], [77.578301, 12.997811], [77.578286, 12.997225], [77.579061, 12.997201], [77.57906, 12.997141], [77.579407, 12.997143], [77.579422, 12.997347], [77.579611, 12.99734], [77.579663, 12.997336], [77.579808, 12.997334], [77.579987, 12.997335], [77.580413, 12.997301], [77.580858, 12.997269], [77.580163, 12.996509], [77.579402, 12.995665], [77.578768, 12.995032], [77.577816, 12.994205], [77.57726, 12.993736], [77.577122, 12.993612], [77.577125, 12.993605], [77.57657, 12.993076], [77.575984, 12.992519], [77.575631, 12.992152], [77.575501, 12.991996], [77.575396, 12.991975], [77.575318, 12.992003], [77.575092, 12.992125], [77.574618, 12.99244], [77.574156, 12.992766], [77.574095, 12.992859], [77.574058, 12.992957], [77.574058, 12.993015], [77.574046, 12.993033], [77.574002, 12.993215], [77.573959, 12.993487], [77.573938, 12.993692], [77.573896, 12.993862], [77.573444, 12.993692], [77.572915, 12.993567], [77.571965, 12.993456], [77.571483, 12.993415], [77.570372, 12.99332], [77.569596, 12.993267], [77.569526, 12.993496], [77.569363, 12.994025], [77.569274, 12.994343], [77.569125, 12.994826], [77.5689, 12.995326], [77.568735, 12.995795], [77.568631, 12.996067], [77.568571, 12.996294], [77.568544, 12.996611], [77.568546, 12.996782], [77.568641, 12.996781], [77.569184, 12.996775], [77.570133, 12.996766], [77.571396, 12.996833], [77.571402, 12.997333], [77.57136, 12.999415], [77.571319, 13.002114], [77.571292, 13.00335], [77.571355, 13.003349], [77.571486, 13.00336], [77.57173, 13.00337], [77.571973, 13.003391], [77.572065, 13.003396], [77.572108, 13.003387], [77.572165, 13.003353], [77.57218, 13.003338], [77.572186, 13.003317], [77.572189, 13.003278], [77.572208, 13.002871]]]}}]}