{"type": "FeatureCollection", "features": [{"type": "Feature", "properties": {"region_id": "ward_276600-190", "name": "Mangammanapalya", "parent": "zone_276600-1", "parent_name": "Bommanahalli"}, "geometry": {"type": "Polygon", "coordinates": [[[77.654662, 12.897985], [77.655193, 12.896128], [77.657203, 12.894087], [77.657166, 12.894045], [77.657237, 12.894052], [77.656993, 12.893823], [77.65678, 12.893756], [77.656384, 12.893746], [77.656059, 12.893805], [77.655636, 12.89392], [77.655269, 12.893979], [77.654875, 12.89415], [77.654495, 12.894376], [77.654016, 12.894575], [77.653493, 12.894608], [77.653041, 12.89464], [77.652474, 12.894521], [77.65219, 12.894455], [77.651863, 12.894292], [77.651464, 12.89399], [77.650979, 12.893634], [77.650523, 12.893264], [77.65028, 12.893059], [77.649964, 12.892646], [77.649619, 12.892066], [77.649387, 12.891541], [77.649172, 12.891238], [77.648701, 12.889817], [77.648535, 12.889871], [77.647151, 12.890121], [77.646375, 12.890295], [77.645344, 12.890458], [77.643861, 12.890626], [77.643785, 12.890629], [77.643521, 12.888191], [77.641104, 12.887327], [77.641158, 12.887122], [77.64061, 12.886958], [77.639806, 12.886741], [77.639729, 12.886729], [77.639438, 12.885982], [77.639402, 12.885874], [77.639213, 12.885353], [77.639167, 12.885252], [77.639089, 12.88508], [77.638956, 12.884789], [77.63811, 12.885055], [77.638353, 12.885536], [77.638432, 12.885692], [77.63786, 12.885897], [77.63717, 12.886174], [77.636539, 12.886587], [77.63633, 12.886737], [77.636405, 12.886796], [77.635651, 12.887338], [77.635637, 12.887358], [77.635537, 12.887574], [77.635441, 12.887735], [77.635331, 12.887792], [77.635274, 12.887797], [77.635205, 12.887797], [77.635144, 12.887786], [77.635078, 12.887767], [77.635029, 12.887743], [77.634983, 12.887684], [77.634979, 12.887628], [77.634986, 12.887556], [77.63499, 12.887491], [77.635044, 12.887293], [77.635161, 12.886695], [77.634754, 12.886651], [77.634748, 12.886292], [77.634251, 12.886247], [77.632441, 12.886147], [77.632104, 12.887031], [77.632006, 12.887205], [77.63144, 12.889153], [77.631519, 12.889228], [77.631604, 12.889262], [77.631723, 12.889278], [77.632374, 12.889282], [77.63282, 12.889271], [77.633152, 12.889309], [77.633315, 12.889356], [77.63416, 12.889733], [77.634311, 12.889801], [77.634286, 12.889849], [77.634211, 12.89], [77.634208, 12.89009], [77.634188, 12.890486], [77.634213, 12.891242], [77.634323, 12.891981], [77.63435, 12.892107], [77.634358, 12.892136], [77.632978, 12.892454], [77.631811, 12.892664], [77.631015, 12.892736], [77.630245, 12.892768], [77.630303, 12.893141], [77.62952, 12.893204], [77.629607, 12.89425], [77.630852, 12.893918], [77.631626, 12.893761], [77.631862, 12.893724], [77.632035, 12.893722], [77.632187, 12.893721], [77.63232, 12.893754], [77.632521, 12.893806], [77.632611, 12.893805], [77.632764, 12.89381], [77.633451, 12.895204], [77.633623, 12.895108], [77.634099, 12.894899], [77.634335, 12.894849], [77.634695, 12.894859], [77.634918, 12.894979], [77.635328, 12.89505], [77.635967, 12.895193], [77.636163, 12.895241], [77.636071, 12.895391], [77.635229, 12.89676], [77.634412, 12.898084], [77.633635, 12.899346], [77.632946, 12.900492], [77.632457, 12.901271], [77.632373, 12.901408], [77.63309, 12.9009], [77.633901, 12.900551], [77.634452, 12.900268], [77.634982, 12.900092], [77.634956, 12.9007], [77.635001, 12.901557], [77.634512, 12.90152], [77.634562, 12.902245], [77.634799, 12.902256], [77.634858, 12.90295], [77.634858, 12.903288], [77.634919, 12.904848], [77.634945, 12.905374], [77.634835, 12.905402], [77.634893, 12.905988], [77.634901, 12.906103], [77.634777, 12.906104], [77.635081, 12.907237], [77.635238, 12.90727], [77.635795, 12.907066], [77.636424, 12.906743], [77.636981, 12.906549], [77.63761, 12.906269], [77.638108, 12.906076], [77.638665, 12.905854], [77.638943, 12.90575], [77.639119, 12.905705], [77.639619, 12.905672], [77.640279, 12.905578], [77.640632, 12.905503], [77.641131, 12.905425], [77.64163, 12.905377], [77.641968, 12.905316], [77.642408, 12.905225], [77.643156, 12.905001], [77.643787, 12.904865], [77.644257, 12.904773], [77.644785, 12.904653], [77.645313, 12.904532], [77.645815, 12.904415], [77.646121, 12.90434], [77.646347, 12.904284], [77.646691, 12.904243], [77.646896, 12.904206], [77.647251, 12.9041], [77.64751, 12.904021], [77.647509, 12.903915], [77.647598, 12.903929], [77.64797, 12.903907], [77.647996, 12.903838], [77.648403, 12.90383], [77.648794, 12.903822], [77.648733, 12.90353], [77.648559, 12.902755], [77.648516, 12.902201], [77.648576, 12.901528], [77.648584, 12.900842], [77.648694, 12.900002], [77.648853, 12.899504], [77.649138, 12.899742], [77.649212, 12.899741], [77.649975, 12.899434], [77.65076, 12.899076], [77.65116, 12.898919], [77.651519, 12.898404], [77.65163, 12.898279], [77.652253, 12.898163], [77.652773, 12.898063], [77.653286, 12.897992], [77.654014, 12.897941], [77.654662, 12.897985]]]}}]}