{"type": "FeatureCollection", "features": [{"type": "Feature", "properties": {"region_id": "ward_276600-195", "name": "Konankunte", "parent": "zone_276600-1", "parent_name": "Bommanahalli"}, "geometry": {"type": "Polygon", "coordinates": [[[77.579388, 12.896874], [77.579456, 12.896806], [77.580026, 12.895095], [77.580187, 12.894699], [77.580377, 12.894013], [77.580625, 12.893192], [77.580696, 12.8926], [77.580727, 12.89253], [77.580796, 12.89231], [77.580842, 12.892111], [77.580893, 12.892113], [77.581214, 12.892109], [77.581764, 12.892128], [77.581856, 12.892129], [77.581902, 12.891473], [77.581908, 12.891347], [77.581919, 12.891317], [77.581938, 12.891273], [77.581982, 12.891198], [77.582168, 12.890945], [77.582396, 12.890683], [77.582534, 12.89053], [77.582998, 12.890332], [77.583603, 12.890154], [77.584029, 12.89003], [77.584866, 12.889725], [77.585683, 12.889477], [77.58601, 12.889399], [77.586244, 12.889338], [77.586519, 12.889298], [77.586672, 12.889294], [77.587514, 12.889181], [77.588023, 12.889093], [77.588044, 12.889089], [77.588052, 12.889042], [77.588231, 12.88901], [77.588764, 12.888914], [77.590579, 12.888673], [77.590697, 12.888661], [77.590838, 12.88863], [77.590993, 12.888587], [77.591427, 12.88842], [77.591678, 12.888342], [77.591712, 12.888333], [77.591738, 12.888326], [77.59175, 12.888311], [77.591754, 12.888282], [77.591746, 12.887982], [77.591708, 12.88731], [77.591676, 12.886711], [77.59165, 12.886365], [77.591586, 12.885816], [77.59142, 12.885064], [77.591297, 12.884511], [77.591208, 12.88417], [77.591091, 12.883882], [77.590737, 12.883101], [77.590594, 12.882751], [77.590558, 12.882563], [77.590586, 12.88219], [77.590688, 12.881429], [77.590594, 12.881401], [77.589786, 12.880979], [77.58705, 12.879445], [77.585524, 12.878571], [77.585426, 12.877667], [77.585572, 12.877462], [77.585599, 12.87717], [77.585508, 12.877025], [77.585166, 12.87697], [77.58414, 12.877023], [77.583473, 12.877161], [77.582909, 12.877254], [77.582508, 12.877331], [77.582386, 12.877012], [77.582234, 12.876751], [77.582053, 12.876461], [77.581944, 12.876009], [77.581805, 12.875427], [77.581685, 12.875341], [77.581223, 12.875258], [77.580777, 12.875248], [77.580181, 12.875122], [77.579614, 12.874953], [77.579216, 12.875263], [77.578698, 12.875502], [77.578402, 12.87568], [77.578196, 12.875901], [77.578152, 12.875916], [77.577945, 12.876049], [77.577753, 12.876124], [77.577472, 12.876258], [77.577339, 12.87639], [77.577341, 12.876617], [77.577341, 12.876624], [77.577285, 12.876916], [77.577169, 12.877194], [77.57692, 12.877547], [77.576716, 12.877986], [77.576586, 12.878367], [77.57656, 12.878747], [77.576564, 12.879155], [77.576524, 12.879593], [77.576424, 12.879959], [77.576294, 12.880295], [77.576238, 12.880675], [77.576092, 12.880939], [77.575963, 12.881422], [77.575773, 12.881774], [77.575686, 12.881906], [77.575285, 12.881983], [77.574601, 12.882004], [77.573947, 12.882011], [77.573749, 12.882049], [77.573546, 12.882087], [77.57324, 12.882177], [77.572859, 12.882206], [77.572957, 12.883005], [77.572008, 12.883047], [77.572061, 12.883332], [77.571953, 12.883343], [77.571196, 12.883453], [77.570781, 12.88353], [77.570647, 12.883575], [77.569935, 12.883684], [77.570103, 12.884105], [77.570195, 12.88444], [77.570273, 12.884731], [77.570447, 12.885267], [77.570268, 12.88529], [77.568991, 12.885409], [77.567872, 12.885462], [77.566925, 12.885565], [77.566812, 12.885685], [77.566575, 12.886253], [77.566662, 12.886249], [77.567085, 12.88622], [77.567146, 12.886636], [77.567852, 12.886675], [77.568443, 12.886665], [77.568808, 12.886613], [77.568801, 12.886927], [77.568772, 12.88719], [77.568714, 12.887718], [77.568704, 12.888237], [77.568655, 12.888858], [77.569579, 12.888887], [77.569425, 12.890051], [77.570066, 12.890169], [77.570075, 12.890223], [77.570478, 12.890266], [77.571555, 12.890274], [77.571922, 12.891313], [77.572084, 12.892139], [77.571902, 12.893137], [77.571795, 12.894228], [77.571884, 12.89422], [77.57189, 12.894515], [77.572448, 12.894524], [77.572753, 12.894661], [77.573148, 12.894095], [77.573238, 12.893966], [77.573402, 12.894036], [77.573354, 12.894123], [77.573262, 12.89429], [77.574221, 12.894573], [77.574636, 12.894729], [77.575175, 12.895082], [77.576402, 12.895774], [77.577721, 12.896534], [77.57891, 12.897203], [77.579265, 12.897338], [77.579388, 12.896874]]]}}]}