{"type": "FeatureCollection", "features": [{"type": "Feature", "properties": {"region_id": "ward_276600-54", "name": "Hudi", "parent": "zone_276600-4", "parent_name": "Mahadevapura"}, "geometry": {"type": "MultiPolygon", "coordinates": [[[[77.760031, 13.005317], [77.759823, 13.004165], [77.759634, 13.003332], [77.75947, 13.002652], [77.757946, 13.002734], [77.757179, 13.002347], [77.757412, 13.001113], [77.756853, 13.001251], [77.755911, 13.001173], [77.75477, 13.001405], [77.754214, 13.001603], [77.753746, 13.000053], [77.75369, 12.998998], [77.753385, 12.997975], [77.752015, 12.997376], [77.751811, 12.997391], [77.747561, 12.998228], [77.74409, 12.998638], [77.743194, 12.998648], [77.741444, 12.998556], [77.735985, 12.997493], [77.731229, 12.996466], [77.731246, 12.996193], [77.731322, 12.995638], [77.731311, 12.995461], [77.731386, 12.995427], [77.731435, 12.995421], [77.731505, 12.995269], [77.731587, 12.995053], [77.731785, 12.994789], [77.732402, 12.993859], [77.732621, 12.993351], [77.732747, 12.992536], [77.732976, 12.990951], [77.73325, 12.989321], [77.733458, 12.987868], [77.736772, 12.987503], [77.739665, 12.987583], [77.740592, 12.9874], [77.740589, 12.987316], [77.740595, 12.987262], [77.740586, 12.987214], [77.740555, 12.987132], [77.740405, 12.987006], [77.740198, 12.986948], [77.740007, 12.98689], [77.739626, 12.98673], [77.738488, 12.986338], [77.738453, 12.985148], [77.738036, 12.985131], [77.737929, 12.98507], [77.737872, 12.985051], [77.737325, 12.985057], [77.737058, 12.985076], [77.737067, 12.984926], [77.736041, 12.98492], [77.736041, 12.984916], [77.734463, 12.984901], [77.733517, 12.984928], [77.733506, 12.985284], [77.733512, 12.985504], [77.733488, 12.985579], [77.733426, 12.985619], [77.73339, 12.985627], [77.733285, 12.985628], [77.732521, 12.985666], [77.73226, 12.985697], [77.732135, 12.985793], [77.73167, 12.98649], [77.731674, 12.986492], [77.731665, 12.98651], [77.731645, 12.986609], [77.731606, 12.986727], [77.731587, 12.986861], [77.73159, 12.987068], [77.731608, 12.987221], [77.73159, 12.987428], [77.731579, 12.987608], [77.731581, 12.987762], [77.731595, 12.987902], [77.731608, 12.988125], [77.731552, 12.988135], [77.730512, 12.988302], [77.728687, 12.988638], [77.727424, 12.988886], [77.726983, 12.988996], [77.726932, 12.989009], [77.726681, 12.989062], [77.726145, 12.989198], [77.72589, 12.989266], [77.725763, 12.989334], [77.725324, 12.989637], [77.725044, 12.989784], [77.724727, 12.98994], [77.724382, 12.990058], [77.724375, 12.990067], [77.724372, 12.990065], [77.723741, 12.990248], [77.723129, 12.990422], [77.722947, 12.990491], [77.722941, 12.990471], [77.722846, 12.990501], [77.722526, 12.990611], [77.72242, 12.990632], [77.722298, 12.990659], [77.722084, 12.990704], [77.721957, 12.990748], [77.721693, 12.99085], [77.721436, 12.990973], [77.721198, 12.991103], [77.721196, 12.991099], [77.720837, 12.991305], [77.720574, 12.991463], [77.720038, 12.991794], [77.719665, 12.992007], [77.719537, 12.992059], [77.719531, 12.992069], [77.719531, 12.992068], [77.719418, 12.992122], [77.719273, 12.992148], [77.719127, 12.992165], [77.718623, 12.992177], [77.718314, 12.992161], [77.718133, 12.992163], [77.718133, 12.992162], [77.717885, 12.992166], [77.71715, 12.992188], [77.716534, 12.992203], [77.716527, 12.992201], [77.716528, 12.992205], [77.716383, 12.992194], [77.716263, 12.992196], [77.716081, 12.992198], [77.715787, 12.992148], [77.715357, 12.991755], [77.715356, 12.991755], [77.714491, 12.990949], [77.713549, 12.990151], [77.713066, 12.990292], [77.711887, 12.99056], [77.711554, 12.990644], [77.71137, 12.99069], [77.71111, 12.990744], [77.711149, 12.990896], [77.711372, 12.991678], [77.711646, 12.992521], [77.71115, 12.992642], [77.71086, 12.992712], [77.710634, 12.992766], [77.710039, 12.992817], [77.708829, 12.992824], [77.707406, 12.992872], [77.706131, 12.992928], [77.705096, 12.992988], [77.704786, 12.993024], [77.704818, 12.994121], [77.704963, 12.995261], [77.705044, 12.995445], [77.705142, 12.995749], [77.705241, 12.996022], [77.705429, 12.996057], [77.705621, 12.996083], [77.705811, 12.996114], [77.706129, 12.996169], [77.706296, 12.99621], [77.706547, 12.996287], [77.706645, 12.996322], [77.706803, 12.996335], [77.707007, 12.996335], [77.707118, 12.996349], [77.707257, 12.996391], [77.707406, 12.996451], [77.707546, 12.996499], [77.707618, 12.996542], [77.707665, 12.996592], [77.707752, 12.996666], [77.707887, 12.996792], [77.707898, 12.996808], [77.707763, 12.99694], [77.707722, 12.996983], [77.70783, 12.997107], [77.708005, 12.997258], [77.708111, 12.997334], [77.708217, 12.997442], [77.708257, 12.997471], [77.7083, 12.997483], [77.708377, 12.997512], [77.708434, 12.997557], [77.708476, 12.997621], [77.708505, 12.997709], [77.708512, 12.997803], [77.708498, 12.997866], [77.708477, 12.997896], [77.708463, 12.997927], [77.708459, 12.997962], [77.708462, 12.998014], [77.708475, 12.998056], [77.708487, 12.998098], [77.70849, 12.998185], [77.708499, 12.9983], [77.708536, 12.998469], [77.708569, 12.998651], [77.707543, 12.99892], [77.70607, 12.999279], [77.706399, 13.000749], [77.706475, 13.001085], [77.706594, 13.001794], [77.70677, 13.002297], [77.706949, 13.002776], [77.707064, 13.00315], [77.707166, 13.003774], [77.707235, 13.004153], [77.707246, 13.004204], [77.707247, 13.004243], [77.70722, 13.004285], [77.70724, 13.004284], [77.707602, 13.004243], [77.708533, 13.004258], [77.709043, 13.004268], [77.709641, 13.004269], [77.71036, 13.004292], [77.710956, 13.004315], [77.711546, 13.00436], [77.712031, 13.00441], [77.712327, 13.004428], [77.712671, 13.004504], [77.713167, 13.004581], [77.713534, 13.004605], [77.713944, 13.004593], [77.714516, 13.004536], [77.715244, 13.004473], [77.715551, 13.004455], [77.716249, 13.004446], [77.716497, 13.004445], [77.717207, 13.004486], [77.717791, 13.004513], [77.718185, 13.004532], [77.718266, 13.00471], [77.718712, 13.00565], [77.718912, 13.006063], [77.718946, 13.006128], [77.718959, 13.006445], [77.71904, 13.006953], [77.719138, 13.007592], [77.719222, 13.00843], [77.719267, 13.00869], [77.71932, 13.008829], [77.719342, 13.009117], [77.719319, 13.009273], [77.719291, 13.009391], [77.719269, 13.009524], [77.719236, 13.009776], [77.719218, 13.010021], [77.719239, 13.010056], [77.719257, 13.01008], [77.719375, 13.01009], [77.719583, 13.010063], [77.719839, 13.010047], [77.720088, 13.010032], [77.720133, 13.010032], [77.720326, 13.010401], [77.720632, 13.010621], [77.72091, 13.011735], [77.723574, 13.012248], [77.724774, 13.01257], [77.728026, 13.01211], [77.728412, 13.012052], [77.72902, 13.012045], [77.732889, 13.012113], [77.733883, 13.011994], [77.735826, 13.012787], [77.736089, 13.011592], [77.735967, 13.010563], [77.735961, 13.010021], [77.736014, 13.009804], [77.736675, 13.00958], [77.740154, 13.009327], [77.740591, 13.008943], [77.741363, 13.008718], [77.746338, 13.008828], [77.747113, 13.008982], [77.747186, 13.010553], [77.748566, 13.01043], [77.75161, 13.010831], [77.751866, 13.010874], [77.751968, 13.010828], [77.752051, 13.010791], [77.752089, 13.010786], [77.752119, 13.010784], [77.752148, 13.010775], [77.752168, 13.010764], [77.752195, 13.010753], [77.752219, 13.010729], [77.752236, 13.010685], [77.75224, 13.010672], [77.75226, 13.010662], [77.7523, 13.01065], [77.752353, 13.010657], [77.752411, 13.010663], [77.75251, 13.01064], [77.752564, 13.010613], [77.752645, 13.010536], [77.752685, 13.010468], [77.752686, 13.010441], [77.752695, 13.010419], [77.752717, 13.010372], [77.752794, 13.010324], [77.752901, 13.010248], [77.753031, 13.01017], [77.753093, 13.010111], [77.753146, 13.01005], [77.75318, 13.010007], [77.753207, 13.009972], [77.753225, 13.009948], [77.753248, 13.009929], [77.753285, 13.009895], [77.753317, 13.009874], [77.753368, 13.009848], [77.75346, 13.009817], [77.753509, 13.009794], [77.753545, 13.009761], [77.753625, 13.009689], [77.753671, 13.009652], [77.753704, 13.009626], [77.753828, 13.009528], [77.753872, 13.009491], [77.753908, 13.009461], [77.753956, 13.009419], [77.754019, 13.009341], [77.754055, 13.009276], [77.754077, 13.009252], [77.754108, 13.009176], [77.754121, 13.009134], [77.754124, 13.009115], [77.754187, 13.009001], [77.754222, 13.008947], [77.754251, 13.008899], [77.754265, 13.008889], [77.754282, 13.008883], [77.754298, 13.008885], [77.754313, 13.008887], [77.754337, 13.008885], [77.754358, 13.008879], [77.754375, 13.008871], [77.754398, 13.008855], [77.754409, 13.008841], [77.75443, 13.008826], [77.754461, 13.008799], [77.754492, 13.008795], [77.754517, 13.0088], [77.754544, 13.008812], [77.754573, 13.008848], [77.754593, 13.008865], [77.754619, 13.00889], [77.75464, 13.008902], [77.754647, 13.008902], [77.754665, 13.008901], [77.754688, 13.008887], [77.754707, 13.008885], [77.754719, 13.008901], [77.754728, 13.00893], [77.754737, 13.008952], [77.754737, 13.00897], [77.75473, 13.008977], [77.754719, 13.008986], [77.754714, 13.008998], [77.754717, 13.009008], [77.754756, 13.009053], [77.7548, 13.009118], [77.754872, 13.00922], [77.754902, 13.009267], [77.754905, 13.009284], [77.754906, 13.009292], [77.754908, 13.00931], [77.754907, 13.009335], [77.754905, 13.009361], [77.754903, 13.009437], [77.754902, 13.009484], [77.754915, 13.00957], [77.754916, 13.009589], [77.75492, 13.009604], [77.754975, 13.009794], [77.755063, 13.010172], [77.755122, 13.010255], [77.755188, 13.010284], [77.755279, 13.010295], [77.755358, 13.010294], [77.755463, 13.010248], [77.755684, 13.010165], [77.755944, 13.010059], [77.756188, 13.009921], [77.756494, 13.009745], [77.756619, 13.009608], [77.756778, 13.009497], [77.756844, 13.009422], [77.756906, 13.009317], [77.756974, 13.009219], [77.757048, 13.009037], [77.757084, 13.008987], [77.757167, 13.008924], [77.757204, 13.008905], [77.757411, 13.008808], [77.757612, 13.008717], [77.757893, 13.008646], [77.758115, 13.008567], [77.758301, 13.008396], [77.758336, 13.008336], [77.758344, 13.008247], [77.758347, 13.008221], [77.758371, 13.008191], [77.758452, 13.008128], [77.758533, 13.008074], [77.75858, 13.008023], [77.758586, 13.007996], [77.758616, 13.007966], [77.758712, 13.007918], [77.758787, 13.007881], [77.75885, 13.007839], [77.758899, 13.007833], [77.75899, 13.007853], [77.759059, 13.007873], [77.759156, 13.007866], [77.759186, 13.007859], [77.75933, 13.007793], [77.759393, 13.007712], [77.759448, 13.007551], [77.759488, 13.007264], [77.759487, 13.007193], [77.759495, 13.007139], [77.759497, 13.007071], [77.759437, 13.006805], [77.759418, 13.006725], [77.759355, 13.006456], [77.759304, 13.006282], [77.759279, 13.006202], [77.75927, 13.00614], [77.75926, 13.006108], [77.759268, 13.006031], [77.759277, 13.005968], [77.759303, 13.005903], [77.759378, 13.005828], [77.759657, 13.005615], [77.759866, 13.005447], [77.759953, 13.005357], [77.760031, 13.005317]]], [[[77.69436, 13.02726], [77.694344, 13.027257], [77.693395, 13.027405], [77.691713, 13.027599], [77.688764, 13.024768], [77.686749, 13.023082], [77.682553, 13.02305], [77.681682, 13.022934], [77.681717, 13.023238], [77.682066, 13.026224], [77.682271, 13.030647], [77.682344, 13.033266], [77.682387, 13.034723], [77.685268, 13.034852], [77.688196, 13.034405], [77.690282, 13.032671], [77.692962, 13.029965], [77.69436, 13.02726]]], [[[77.672692, 13.051446], [77.671739, 13.051782], [77.671198, 13.050999], [77.669636, 13.049821], [77.667347, 13.049655], [77.666346, 13.049755], [77.664488, 13.050441], [77.662879, 13.05048], [77.662861, 13.051471], [77.663015, 13.052376], [77.663397, 13.052966], [77.663728, 13.054237], [77.664377, 13.055561], [77.664364, 13.057033], [77.664233, 13.058224], [77.664383, 13.058788], [77.664764, 13.059322], [77.664958, 13.061189], [77.66532, 13.062629], [77.666024, 13.063641], [77.66655, 13.064287], [77.666839, 13.065668], [77.66686, 13.065688], [77.668374, 13.067141], [77.66915, 13.06735], [77.669815, 13.067506], [77.6707, 13.067497], [77.674066, 13.06692], [77.67611, 13.066791], [77.676493, 13.066407], [77.676703, 13.065375], [77.67835, 13.064329], [77.678667, 13.06297], [77.678648, 13.061236], [77.678438, 13.059177], [77.678339, 13.058205], [77.677877, 13.056367], [77.677873, 13.055988], [77.677869, 13.055608], [77.677862, 13.055012], [77.677857, 13.054491], [77.677856, 13.05447], [77.677963, 13.054144], [77.677313, 13.05369], [77.675978, 13.052377], [77.674747, 13.051758], [77.673069, 13.051523], [77.672692, 13.051446]]], [[[77.648867, 13.082502], [77.648817, 13.08292], [77.650138, 13.083262], [77.652516, 13.083401], [77.653456, 13.083391], [77.65362, 13.083172], [77.653618, 13.08301], [77.653612, 13.082468], [77.654077, 13.079374], [77.654767, 13.076766], [77.655254, 13.075731], [77.655686, 13.075406], [77.655676, 13.075123], [77.655663, 13.074771], [77.655537, 13.07415], [77.655256, 13.073802], [77.655331, 13.073451], [77.65564, 13.07267], [77.655705, 13.071061], [77.655463, 13.071067], [77.655448, 13.071067], [77.655448, 13.071053], [77.655457, 13.071026], [77.655498, 13.070978], [77.65548, 13.070264], [77.65544, 13.069533], [77.655389, 13.068491], [77.65529, 13.067184], [77.655209, 13.066008], [77.655164, 13.065519], [77.65515, 13.065396], [77.654979, 13.062315], [77.654816, 13.05936], [77.654807, 13.059309], [77.654777, 13.059155], [77.654752, 13.05903], [77.654781, 13.058911], [77.654849, 13.058831], [77.654848, 13.058772], [77.65482, 13.058741], [77.654707, 13.058742], [77.654658, 13.058738], [77.654634, 13.058723], [77.65461, 13.058695], [77.654584, 13.058601], [77.654547, 13.05851], [77.654507, 13.058479], [77.654462, 13.058452], [77.654413, 13.058417], [77.65436, 13.058342], [77.654319, 13.058109], [77.654376, 13.057874], [77.65446, 13.057844], [77.654491, 13.057812], [77.654515, 13.05774], [77.65453, 13.057665], [77.654541, 13.057586], [77.65454, 13.057491], [77.654536, 13.057418], [77.654526, 13.057238], [77.654574, 13.05721], [77.654657, 13.057193], [77.654719, 13.057076], [77.654716, 13.056932], [77.654674, 13.056775], [77.654603, 13.056578], [77.654553, 13.056349], [77.654553, 13.056314], [77.654517, 13.05601], [77.654508, 13.055967], [77.65452, 13.055951], [77.654647, 13.055973], [77.654841, 13.055979], [77.654806, 13.055688], [77.654756, 13.055179], [77.654746, 13.054884], [77.654735, 13.054681], [77.654696, 13.054483], [77.654561, 13.054476], [77.654491, 13.054277], [77.654687, 13.054002], [77.654841, 13.053573], [77.654798, 13.053301], [77.654436, 13.052877], [77.654434, 13.052643], [77.654468, 13.052137], [77.65474, 13.051551], [77.654616, 13.051085], [77.654612, 13.050735], [77.654803, 13.050032], [77.654995, 13.049408], [77.654629, 13.048633], [77.654343, 13.047819], [77.653984, 13.047667], [77.653389, 13.047673], [77.652753, 13.047641], [77.651762, 13.04769], [77.649865, 13.048449], [77.648955, 13.048769], [77.648204, 13.049049], [77.647689, 13.049094], [77.646976, 13.049218], [77.646623, 13.049649], [77.646554, 13.050584], [77.647117, 13.051278], [77.647283, 13.052016], [77.647256, 13.053078], [77.647255, 13.053106], [77.647244, 13.053124], [77.647187, 13.053334], [77.647043, 13.053703], [77.646872, 13.054096], [77.646714, 13.054263], [77.646552, 13.054449], [77.646397, 13.054666], [77.646262, 13.055018], [77.646153, 13.055364], [77.64627, 13.055719], [77.646366, 13.055872], [77.646608, 13.056208], [77.6469, 13.056562], [77.647212, 13.05691], [77.647436, 13.057295], [77.647794, 13.058108], [77.648383, 13.058192], [77.648366, 13.058298], [77.648379, 13.058788], [77.648424, 13.059731], [77.648421, 13.059952], [77.648759, 13.059983], [77.649304, 13.05996], [77.650048, 13.05986], [77.650055, 13.059862], [77.650382, 13.05988], [77.650572, 13.059857], [77.650862, 13.05981], [77.650904, 13.059818], [77.650922, 13.059845], [77.650941, 13.060033], [77.650934, 13.060117], [77.65093, 13.060157], [77.6509, 13.060502], [77.650873, 13.060819], [77.650808, 13.061573], [77.650814, 13.061642], [77.650835, 13.061871], [77.650823, 13.062036], [77.650764, 13.062085], [77.650729, 13.062487], [77.650733, 13.062872], [77.650756, 13.064031], [77.650791, 13.064522], [77.650823, 13.064979], [77.650864, 13.065035], [77.650891, 13.065061], [77.650919, 13.065079], [77.650937, 13.065097], [77.650965, 13.065114], [77.651001, 13.065134], [77.65099, 13.065409], [77.650853, 13.065406], [77.65093, 13.066493], [77.650939, 13.066734], [77.650854, 13.067317], [77.650861, 13.067929], [77.650965, 13.068331], [77.650998, 13.068392], [77.651014, 13.068842], [77.650962, 13.068909], [77.650927, 13.069383], [77.650932, 13.06994], [77.650663, 13.070563], [77.650463, 13.07057], [77.650463, 13.071049], [77.650462, 13.071132], [77.650449, 13.071434], [77.650419, 13.07195], [77.650392, 13.07201], [77.650239, 13.072096], [77.650199, 13.072337], [77.650213, 13.07366], [77.650427, 13.074414], [77.650699, 13.075046], [77.650823, 13.07536], [77.65092, 13.075519], [77.650912, 13.075684], [77.650846, 13.075867], [77.650788, 13.075992], [77.650722, 13.076398], [77.650648, 13.07652], [77.650211, 13.076643], [77.649931, 13.077009], [77.649312, 13.078533], [77.649023, 13.081182], [77.648901, 13.082211], [77.648867, 13.082502]]]]}}]}