{"type": "FeatureCollection", "features": [{"type": "Feature", "properties": {"region_id": "ward_276600-42", "name": "Lakshmi Devi Nagar", "parent": "zone_276600-5", "parent_name": "Rajarajeshwari Nagar"}, "geometry": {"type": "Polygon", "coordinates": [[[77.544212, 13.026349], [77.543812, 13.025691], [77.543247, 13.024828], [77.542691, 13.023914], [77.54268, 13.023895], [77.542363, 13.023356], [77.541569, 13.02195], [77.541104, 13.021209], [77.540548, 13.020259], [77.540229, 13.019726], [77.540158, 13.019608], [77.539888, 13.019156], [77.539801, 13.019028], [77.539778, 13.019021], [77.539748, 13.019028], [77.539588, 13.019123], [77.539511, 13.019167], [77.538894, 13.019517], [77.538067, 13.019997], [77.537756, 13.020186], [77.537547, 13.020311], [77.536879, 13.020702], [77.536029, 13.021188], [77.535671, 13.021391], [77.535294, 13.021588], [77.535154, 13.021666], [77.534941, 13.02172], [77.534685, 13.021742], [77.53436, 13.021783], [77.533856, 13.021858], [77.533722, 13.021888], [77.532999, 13.02203], [77.532646, 13.022102], [77.532626, 13.022097], [77.532598, 13.022088], [77.532581, 13.022074], [77.532561, 13.02204], [77.532524, 13.021935], [77.532379, 13.021354], [77.532329, 13.021156], [77.532186, 13.020412], [77.532037, 13.019584], [77.531904, 13.018885], [77.531661, 13.017923], [77.531344, 13.016864], [77.531041, 13.015844], [77.530652, 13.014783], [77.530429, 13.014292], [77.530013, 13.013518], [77.529573, 13.012874], [77.529098, 13.012175], [77.528548, 13.011509], [77.527807, 13.010771], [77.527602, 13.010515], [77.527443, 13.010862], [77.527243, 13.011191], [77.527001, 13.01147], [77.52692, 13.011583], [77.526817, 13.011716], [77.526767, 13.011828], [77.526757, 13.011899], [77.526763, 13.01199], [77.526747, 13.012241], [77.526743, 13.0123], [77.526735, 13.012337], [77.526711, 13.01247], [77.526712, 13.012567], [77.526713, 13.012681], [77.526715, 13.01282], [77.526716, 13.012999], [77.526718, 13.013113], [77.526744, 13.013235], [77.526745, 13.013333], [77.526837, 13.013462], [77.526964, 13.013616], [77.527065, 13.013753], [77.527199, 13.013874], [77.527359, 13.01406], [77.527493, 13.014213], [77.527578, 13.014359], [77.527704, 13.014569], [77.527898, 13.014845], [77.528083, 13.015095], [77.528243, 13.015289], [77.528277, 13.015346], [77.528296, 13.015444], [77.527746, 13.015591], [77.526995, 13.015715], [77.526409, 13.015752], [77.52605, 13.015483], [77.525187, 13.015585], [77.52442, 13.015678], [77.523897, 13.015675], [77.523174, 13.015558], [77.5225, 13.015463], [77.52226, 13.015433], [77.522155, 13.015943], [77.52203, 13.016954], [77.521948, 13.018108], [77.521932, 13.018194], [77.521944, 13.018268], [77.522009, 13.018314], [77.522221, 13.018432], [77.522841, 13.018988], [77.522952, 13.019033], [77.523, 13.019061], [77.523047, 13.019072], [77.523111, 13.019112], [77.524324, 13.019846], [77.525535, 13.020631], [77.525614, 13.020682], [77.526327, 13.021163], [77.526583, 13.021367], [77.52681, 13.021518], [77.527077, 13.021419], [77.5275, 13.021272], [77.527781, 13.021185], [77.52813, 13.021058], [77.52832, 13.021022], [77.528403, 13.020995], [77.528438, 13.020997], [77.528604, 13.021356], [77.528826, 13.021813], [77.529036, 13.022271], [77.52922, 13.022666], [77.529422, 13.023066], [77.529596, 13.023449], [77.529793, 13.023883], [77.529964, 13.024259], [77.530157, 13.024717], [77.530384, 13.025201], [77.530593, 13.025678], [77.530808, 13.026129], [77.531012, 13.026609], [77.532766, 13.025711], [77.534017, 13.024999], [77.537871, 13.022876], [77.537889, 13.023938], [77.538015, 13.024314], [77.538276, 13.025056], [77.538393, 13.02546], [77.538406, 13.025846], [77.538409, 13.026131], [77.538663, 13.026221], [77.538908, 13.026301], [77.539068, 13.026364], [77.539154, 13.026501], [77.539395, 13.027275], [77.539889, 13.028503], [77.539928, 13.02884], [77.540642, 13.028419], [77.541327, 13.02802], [77.542093, 13.027628], [77.542873, 13.027175], [77.543611, 13.026684], [77.543658, 13.026658], [77.544212, 13.026349]]]}}]}