{"type": "FeatureCollection", "features": [{"type": "Feature", "properties": {"region_id": "ward_276600-136", "name": "Jagajivanaramnagar", "parent": "zone_276600-7", "parent_name": "West"}, "geometry": {"type": "Polygon", "coordinates": [[[77.55715, 12.960568], [77.557012, 12.960475], [77.556515, 12.960126], [77.556094, 12.959786], [77.555935, 12.959642], [77.555856, 12.959544], [77.555795, 12.959413], [77.555673, 12.959215], [77.555523, 12.958995], [77.555382, 12.958797], [77.55532, 12.958731], [77.555237, 12.958644], [77.555088, 12.958501], [77.554907, 12.958349], [77.55473, 12.958228], [77.554558, 12.958144], [77.554495, 12.958113], [77.554438, 12.958086], [77.552993, 12.95763], [77.552206, 12.957393], [77.551872, 12.957292], [77.551123, 12.957082], [77.550794, 12.957004], [77.550549, 12.956961], [77.550248, 12.956919], [77.548926, 12.956705], [77.548834, 12.956688], [77.548411, 12.95661], [77.548362, 12.956693], [77.548155, 12.957067], [77.547783, 12.95774], [77.547406, 12.958414], [77.54706, 12.959093], [77.546807, 12.95957], [77.546481, 12.960074], [77.546303, 12.960423], [77.546185, 12.960654], [77.54592, 12.961136], [77.545741, 12.961411], [77.546343, 12.961226], [77.54666, 12.961163], [77.547805, 12.960935], [77.548703, 12.960863], [77.549074, 12.961942], [77.549244, 12.962243], [77.549592, 12.962056], [77.549743, 12.962382], [77.549866, 12.962274], [77.550549, 12.962127], [77.550592, 12.962217], [77.550992, 12.963662], [77.551093, 12.96394], [77.551137, 12.964063], [77.551234, 12.964126], [77.551322, 12.964188], [77.551409, 12.964309], [77.55152, 12.964408], [77.551629, 12.964444], [77.551788, 12.964468], [77.55201, 12.964466], [77.552225, 12.964464], [77.552545, 12.964461], [77.552782, 12.964447], [77.553196, 12.964395], [77.553407, 12.964382], [77.553644, 12.964365], [77.553847, 12.964341], [77.554087, 12.964298], [77.554328, 12.96424], [77.554512, 12.964227], [77.554648, 12.964219], [77.554818, 12.964254], [77.554954, 12.964304], [77.555094, 12.964362], [77.555291, 12.964458], [77.555418, 12.964396], [77.555638, 12.964319], [77.555866, 12.964262], [77.556185, 12.964171], [77.556637, 12.964048], [77.556337, 12.962807], [77.555447, 12.96301], [77.555517, 12.962874], [77.556112, 12.961962], [77.556809, 12.961086], [77.55715, 12.960568]]]}}]}