{"type": "FeatureCollection", "features": [{"type": "Feature", "properties": {"region_id": "ward_276600-165", "name": "Ganesh Mandir ward", "parent": "zone_276600-6", "parent_name": "South"}, "geometry": {"type": "Polygon", "coordinates": [[[77.563692, 12.930513], [77.564, 12.930449], [77.564907, 12.93027], [77.565376, 12.930191], [77.566333, 12.930024], [77.566673, 12.92996], [77.567105, 12.929955], [77.567824, 12.929956], [77.568575, 12.929941], [77.56934, 12.929919], [77.569724, 12.929907], [77.571009, 12.929824], [77.571137, 12.929811], [77.571033, 12.929204], [77.570807, 12.927721], [77.570696, 12.926457], [77.569771, 12.92648], [77.569536, 12.926451], [77.569699, 12.926343], [77.570047, 12.926092], [77.57053, 12.925331], [77.570481, 12.924657], [77.570218, 12.923587], [77.569735, 12.921611], [77.569152, 12.919458], [77.568699, 12.91815], [77.568578, 12.918179], [77.566027, 12.918765], [77.565745, 12.917979], [77.565524, 12.917521], [77.565467, 12.917404], [77.565395, 12.9173], [77.565301, 12.917193], [77.565231, 12.917117], [77.565007, 12.916885], [77.564898, 12.916779], [77.564844, 12.916744], [77.564721, 12.91708], [77.564456, 12.917752], [77.564387, 12.917915], [77.56422, 12.918257], [77.564069, 12.918533], [77.563895, 12.918809], [77.56365, 12.919172], [77.563525, 12.919332], [77.56342, 12.919449], [77.563327, 12.919554], [77.563162, 12.919664], [77.563001, 12.919755], [77.562711, 12.919912], [77.562429, 12.920101], [77.562296, 12.920195], [77.562261, 12.920251], [77.562156, 12.920424], [77.561852, 12.921139], [77.561694, 12.921516], [77.561612, 12.92161], [77.561531, 12.921629], [77.561408, 12.921658], [77.561097, 12.921711], [77.560309, 12.921847], [77.559502, 12.922002], [77.559117, 12.922083], [77.558751, 12.922187], [77.557517, 12.922567], [77.557215, 12.922673], [77.556919, 12.922778], [77.55655, 12.92289], [77.556448, 12.922926], [77.556281, 12.922978], [77.555354, 12.923269], [77.55439, 12.923591], [77.554633, 12.924178], [77.554939, 12.925181], [77.555033, 12.925373], [77.555215, 12.925559], [77.555396, 12.925694], [77.555799, 12.926048], [77.556191, 12.926379], [77.55671, 12.926715], [77.557404, 12.92718], [77.558058, 12.927623], [77.558478, 12.927897], [77.558705, 12.928003], [77.558902, 12.928069], [77.559118, 12.928163], [77.559252, 12.928253], [77.559422, 12.928439], [77.560067, 12.929245], [77.560238, 12.929477], [77.560483, 12.929645], [77.56095, 12.92997], [77.56144, 12.930329], [77.561749, 12.930502], [77.562005, 12.930624], [77.562254, 12.930645], [77.562452, 12.930649], [77.562608, 12.930658], [77.562828, 12.930588], [77.563157, 12.930505], [77.563614, 12.930404], [77.563672, 12.930398], [77.563684, 12.93045], [77.563692, 12.930513]]]}}]}