{"type": "FeatureCollection", "features": [{"type": "Feature", "properties": {"region_id": "ward_276600-194", "name": "Gottigere", "parent": "zone_276600-1", "parent_name": "Bommanahalli"}, "geometry": {"type": "Polygon", "coordinates": [[[77.588957, 12.869853], [77.588688, 12.869736], [77.5882, 12.869471], [77.588065, 12.869401], [77.587992, 12.86937], [77.587944, 12.869359], [77.587907, 12.869359], [77.587838, 12.869377], [77.587628, 12.86927], [77.587396, 12.868986], [77.586596, 12.867974], [77.586357, 12.867568], [77.58618, 12.86726], [77.587729, 12.865451], [77.589075, 12.863686], [77.589255, 12.863416], [77.589737, 12.863453], [77.590471, 12.863486], [77.590574, 12.863362], [77.59163, 12.862034], [77.593261, 12.861369], [77.594811, 12.861023], [77.594125, 12.859954], [77.593889, 12.859494], [77.593611, 12.859193], [77.593392, 12.859057], [77.593067, 12.851683], [77.592305, 12.851754], [77.591515, 12.851974], [77.591132, 12.852048], [77.590842, 12.851379], [77.5902, 12.850374], [77.588989, 12.848737], [77.588071, 12.847583], [77.586246, 12.845491], [77.58593, 12.845228], [77.585103, 12.844933], [77.584981, 12.844783], [77.583507, 12.840293], [77.583012, 12.838068], [77.582944, 12.836647], [77.58268, 12.836836], [77.582249, 12.837175], [77.581352, 12.837581], [77.580609, 12.837862], [77.579183, 12.83812], [77.576052, 12.838791], [77.574613, 12.839119], [77.576156, 12.843481], [77.576839, 12.844689], [77.577129, 12.845264], [77.577461, 12.845958], [77.577934, 12.846611], [77.578183, 12.847047], [77.580492, 12.854457], [77.582044, 12.860055], [77.578034, 12.860306], [77.57512, 12.860611], [77.572187, 12.860767], [77.57213, 12.86082], [77.572124, 12.861053], [77.572149, 12.861461], [77.572195, 12.862405], [77.572261, 12.863724], [77.572301, 12.864223], [77.572325, 12.864432], [77.572397, 12.866035], [77.571842, 12.866069], [77.570156, 12.86617], [77.569953, 12.866172], [77.569532, 12.866476], [77.569637, 12.866839], [77.569774, 12.867628], [77.569974, 12.868291], [77.570436, 12.869298], [77.570539, 12.869962], [77.570544, 12.870404], [77.570423, 12.871196], [77.57043, 12.871861], [77.570535, 12.872745], [77.570541, 12.873346], [77.570676, 12.873851], [77.570617, 12.874453], [77.570654, 12.874864], [77.57066, 12.875465], [77.570829, 12.876285], [77.570873, 12.876648], [77.570891, 12.876893], [77.571004, 12.877258], [77.57161, 12.87716], [77.571687, 12.877144], [77.571948, 12.877117], [77.57208, 12.87706], [77.572224, 12.876972], [77.572513, 12.876765], [77.572888, 12.87647], [77.572994, 12.876333], [77.573063, 12.876283], [77.573214, 12.876238], [77.573737, 12.876127], [77.574172, 12.876024], [77.574355, 12.876034], [77.574488, 12.876089], [77.574585, 12.876261], [77.574682, 12.876446], [77.574796, 12.876532], [77.574967, 12.876574], [77.575232, 12.876552], [77.575679, 12.87643], [77.576215, 12.876357], [77.576468, 12.876379], [77.576803, 12.87645], [77.577101, 12.87654], [77.577228, 12.876589], [77.577341, 12.876617], [77.577339, 12.87639], [77.577472, 12.876258], [77.577753, 12.876124], [77.577945, 12.876049], [77.578152, 12.875916], [77.578196, 12.875901], [77.578402, 12.87568], [77.578698, 12.875502], [77.579216, 12.875263], [77.579614, 12.874953], [77.580181, 12.875122], [77.580777, 12.875248], [77.581223, 12.875258], [77.581685, 12.875341], [77.581805, 12.875427], [77.581944, 12.876009], [77.582053, 12.876461], [77.582234, 12.876751], [77.582386, 12.877012], [77.582508, 12.877331], [77.582909, 12.877254], [77.583473, 12.877161], [77.58414, 12.877023], [77.585166, 12.87697], [77.585508, 12.877025], [77.585599, 12.87717], [77.585572, 12.877462], [77.585426, 12.877667], [77.585524, 12.878571], [77.58705, 12.879445], [77.589786, 12.880979], [77.590594, 12.881401], [77.590688, 12.881429], [77.590717, 12.881383], [77.590751, 12.881288], [77.590735, 12.88109], [77.590639, 12.88058], [77.590428, 12.879581], [77.590019, 12.878351], [77.589743, 12.877836], [77.589685, 12.877632], [77.589688, 12.877196], [77.589656, 12.876856], [77.589159, 12.876452], [77.588657, 12.87609], [77.586853, 12.874919], [77.58614, 12.874282], [77.586137, 12.87401], [77.586388, 12.873809], [77.586689, 12.873633], [77.587014, 12.873308], [77.587213, 12.873083], [77.58759, 12.872931], [77.588748, 12.872597], [77.588947, 12.869897], [77.588957, 12.869853]]]}}]}