{"type": "FeatureCollection", "features": [{"type": "Feature", "properties": {"region_id": "ward_276600-144", "name": "Siddapura", "parent": "zone_276600-6", "parent_name": "South"}, "geometry": {"type": "Polygon", "coordinates": [[[77.597245, 12.943202], [77.597366, 12.942334], [77.597505, 12.941427], [77.597564, 12.940556], [77.597598, 12.940206], [77.597638, 12.93999], [77.597315, 12.939938], [77.596388, 12.93985], [77.595439, 12.939719], [77.594613, 12.93957], [77.594217, 12.939516], [77.593837, 12.939363], [77.593456, 12.939126], [77.593191, 12.938862], [77.593148, 12.938794], [77.592627, 12.937978], [77.592594, 12.938842], [77.592572, 12.939303], [77.592527, 12.939816], [77.592515, 12.940135], [77.592513, 12.94015], [77.592528, 12.940365], [77.592538, 12.940419], [77.592553, 12.940494], [77.59257, 12.940567], [77.592588, 12.940604], [77.592608, 12.940642], [77.592666, 12.940709], [77.592842, 12.940882], [77.592939, 12.940986], [77.593248, 12.941304], [77.593442, 12.941524], [77.592971, 12.941659], [77.591709, 12.942023], [77.591206, 12.942169], [77.591234, 12.942283], [77.591263, 12.942455], [77.591215, 12.942477], [77.590667, 12.942739], [77.590096, 12.943092], [77.589867, 12.943002], [77.589716, 12.942922], [77.589659, 12.942875], [77.589588, 12.942845], [77.589527, 12.942843], [77.589438, 12.942851], [77.589415, 12.942864], [77.589341, 12.942893], [77.589268, 12.942938], [77.589234, 12.942967], [77.589201, 12.942995], [77.589152, 12.943075], [77.589136, 12.94314], [77.589104, 12.943353], [77.589073, 12.943566], [77.58901, 12.943758], [77.587053, 12.943764], [77.5871, 12.94516], [77.587038, 12.94595], [77.587144, 12.94599], [77.587753, 12.946168], [77.587895, 12.946197], [77.588413, 12.946261], [77.589219, 12.946285], [77.589707, 12.9463], [77.590144, 12.946587], [77.590916, 12.94738], [77.591331, 12.947625], [77.592269, 12.948063], [77.592994, 12.948524], [77.593442, 12.948919], [77.593691, 12.948453], [77.593933, 12.947913], [77.594171, 12.9474], [77.594244, 12.947256], [77.594343, 12.947105], [77.594426, 12.946997], [77.594573, 12.946813], [77.594721, 12.946659], [77.594892, 12.946494], [77.59527, 12.946166], [77.595552, 12.945933], [77.595918, 12.945695], [77.596541, 12.945346], [77.596943, 12.944827], [77.597139, 12.944039], [77.597245, 12.943202]]]}}]}