{"type": "FeatureCollection", "features": [{"type": "Feature", "properties": {"region_id": "ward_276600-156", "name": "Srinagar", "parent": "zone_276600-6", "parent_name": "South"}, "geometry": {"type": "Polygon", "coordinates": [[[77.555745, 12.950374], [77.555581, 12.949576], [77.555444, 12.94892], [77.555155, 12.947471], [77.555289, 12.9473], [77.555638, 12.946855], [77.555906, 12.946502], [77.556083, 12.946283], [77.556475, 12.945791], [77.556978, 12.945147], [77.557433, 12.944539], [77.557501, 12.944454], [77.557005, 12.944415], [77.556521, 12.941719], [77.557867, 12.941645], [77.557897, 12.941643], [77.557612, 12.93982], [77.557612, 12.93979], [77.55757, 12.939446], [77.557569, 12.939443], [77.555566, 12.939624], [77.555406, 12.938382], [77.555045, 12.9384], [77.554583, 12.938425], [77.55409, 12.93848], [77.553546, 12.938566], [77.553104, 12.938601], [77.552812, 12.938655], [77.552477, 12.938804], [77.552473, 12.938805], [77.552331, 12.938847], [77.552199, 12.938878], [77.552175, 12.93889], [77.552158, 12.938907], [77.552141, 12.938931], [77.552139, 12.938952], [77.552131, 12.938984], [77.552135, 12.939057], [77.55216, 12.939176], [77.552238, 12.93943], [77.552317, 12.939765], [77.552332, 12.939928], [77.552393, 12.940353], [77.552457, 12.940874], [77.55253, 12.940874], [77.552581, 12.941426], [77.552618, 12.941939], [77.552691, 12.941934], [77.552765, 12.942431], [77.552833, 12.942875], [77.552916, 12.943318], [77.552768, 12.943375], [77.552627, 12.943439], [77.552443, 12.943489], [77.552309, 12.943504], [77.552189, 12.94352], [77.552225, 12.944109], [77.552257, 12.944654], [77.550726, 12.94483], [77.549475, 12.945012], [77.549469, 12.945043], [77.549471, 12.945217], [77.549479, 12.945506], [77.549501, 12.945652], [77.549564, 12.945957], [77.549574, 12.946069], [77.549569, 12.94615], [77.549573, 12.946249], [77.549619, 12.946602], [77.549659, 12.946854], [77.549707, 12.947364], [77.549645, 12.947376], [77.549516, 12.947407], [77.549557, 12.947478], [77.549591, 12.947536], [77.549644, 12.947574], [77.549664, 12.9476], [77.549651, 12.947652], [77.549619, 12.947691], [77.549573, 12.947769], [77.549574, 12.947821], [77.549575, 12.947892], [77.549642, 12.948008], [77.549735, 12.94813], [77.549809, 12.948246], [77.54985, 12.948336], [77.549851, 12.948439], [77.549819, 12.948517], [77.549806, 12.948615], [77.549801, 12.948731], [77.549802, 12.948822], [77.549849, 12.948918], [77.54989, 12.949015], [77.549923, 12.949105], [77.549944, 12.949208], [77.549965, 12.949286], [77.550005, 12.949357], [77.550006, 12.949434], [77.549988, 12.949596], [77.549983, 12.949719], [77.549997, 12.94981], [77.550011, 12.9499], [77.550031, 12.949991], [77.550069, 12.950159], [77.550078, 12.950228], [77.550079, 12.950294], [77.55008, 12.950347], [77.550056, 12.950441], [77.550043, 12.950847], [77.549944, 12.950913], [77.549768, 12.951003], [77.549549, 12.951134], [77.549429, 12.951172], [77.549414, 12.951177], [77.549598, 12.952277], [77.550705, 12.952205], [77.551454, 12.952248], [77.551569, 12.952111], [77.551643, 12.952043], [77.551975, 12.951673], [77.552287, 12.951237], [77.552354, 12.951144], [77.55237, 12.951121], [77.552589, 12.950816], [77.55267, 12.950703], [77.552791, 12.950557], [77.553281, 12.950884], [77.553464, 12.950857], [77.553637, 12.95076], [77.553841, 12.950657], [77.553928, 12.950616], [77.554044, 12.950535], [77.554222, 12.950403], [77.5544, 12.950271], [77.55446, 12.9502], [77.5545, 12.950054], [77.554524, 12.949943], [77.554579, 12.949757], [77.554742, 12.94968], [77.554991, 12.950561], [77.55556, 12.950413], [77.555619, 12.950396], [77.555714, 12.950378], [77.555745, 12.950374]]]}}]}