{"type": "FeatureCollection", "features": [{"type": "Feature", "properties": {"region_id": "ward_276600-150", "name": "Bellanduru", "parent": "zone_276600-4", "parent_name": "Mahadevapura"}, "geometry": {"type": "Polygon", "coordinates": [[[77.704479, 12.956815], [77.706651, 12.941378], [77.706544, 12.941456], [77.702626, 12.9431], [77.699396, 12.944207], [77.699438, 12.944034], [77.699413, 12.943691], [77.699369, 12.943121], [77.698364, 12.938182], [77.697464, 12.933671], [77.69915, 12.933504], [77.701295, 12.933245], [77.70313, 12.932731], [77.704613, 12.932028], [77.705789, 12.931306], [77.70657, 12.930546], [77.707199, 12.929981], [77.707525, 12.929762], [77.70772, 12.929502], [77.707806, 12.929329], [77.708106, 12.928767], [77.710337, 12.926315], [77.710833, 12.925579], [77.7103, 12.924896], [77.707792, 12.921934], [77.705581, 12.920151], [77.705374, 12.919898], [77.703671, 12.917807], [77.704128, 12.917501], [77.705325, 12.916779], [77.706566, 12.915971], [77.707502, 12.915402], [77.708831, 12.914715], [77.709071, 12.91459], [77.709158, 12.914482], [77.709418, 12.914393], [77.70923, 12.908734], [77.707784, 12.90374], [77.701597, 12.904739], [77.688763, 12.908145], [77.686355, 12.905832], [77.676389, 12.892788], [77.673966, 12.892827], [77.673639, 12.892869], [77.673341, 12.892922], [77.671498, 12.893251], [77.67057, 12.893416], [77.669827, 12.893556], [77.669837, 12.893641], [77.669596, 12.893697], [77.668381, 12.893868], [77.668251, 12.893887], [77.666959, 12.894051], [77.66597, 12.894176], [77.664961, 12.894319], [77.664717, 12.894349], [77.663478, 12.894276], [77.663471, 12.894273], [77.663438, 12.894273], [77.663385, 12.894286], [77.663302, 12.894323], [77.663129, 12.894394], [77.66301, 12.894424], [77.662672, 12.894504], [77.662279, 12.894541], [77.662027, 12.894563], [77.661254, 12.894644], [77.66075, 12.894694], [77.660647, 12.894695], [77.660531, 12.894696], [77.66042, 12.894698], [77.660324, 12.894694], [77.660238, 12.894691], [77.660113, 12.894664], [77.659935, 12.894625], [77.659093, 12.894419], [77.658691, 12.89433], [77.658272, 12.894228], [77.657808, 12.894136], [77.657468, 12.894078], [77.657237, 12.894052], [77.657166, 12.894045], [77.657203, 12.894087], [77.655193, 12.896128], [77.654662, 12.897985], [77.65465, 12.898263], [77.655216, 12.898345], [77.655365, 12.898372], [77.655499, 12.898356], [77.65584, 12.898192], [77.655871, 12.898382], [77.655905, 12.898717], [77.655783, 12.899193], [77.655861, 12.899557], [77.656027, 12.899694], [77.65625, 12.899735], [77.656436, 12.899748], [77.656607, 12.899746], [77.656821, 12.899496], [77.657016, 12.899713], [77.657071, 12.900248], [77.657177, 12.900426], [77.657063, 12.900739], [77.656758, 12.900912], [77.656387, 12.9012], [77.656041, 12.901601], [77.655944, 12.901688], [77.655046, 12.902759], [77.654806, 12.903139], [77.654775, 12.903482], [77.655574, 12.906388], [77.657025, 12.911447], [77.660171, 12.911518], [77.660931, 12.913978], [77.661188, 12.915141], [77.661193, 12.915587], [77.661231, 12.915895], [77.662001, 12.916024], [77.662722, 12.918039], [77.663141, 12.918069], [77.664173, 12.919773], [77.664855, 12.920673], [77.666215, 12.922035], [77.667068, 12.922807], [77.667693, 12.923794], [77.668109, 12.924334], [77.66931, 12.927225], [77.669275, 12.927277], [77.669276, 12.927323], [77.669271, 12.927415], [77.66933, 12.928568], [77.66935, 12.928831], [77.669322, 12.928883], [77.669302, 12.929793], [77.669308, 12.929813], [77.669257, 12.93023], [77.669273, 12.930953], [77.669116, 12.930998], [77.668867, 12.931045], [77.668756, 12.931041], [77.668355, 12.931022], [77.668043, 12.931014], [77.667488, 12.931065], [77.667033, 12.931056], [77.66666, 12.930967], [77.666447, 12.93089], [77.666276, 12.930813], [77.666167, 12.930748], [77.666092, 12.930695], [77.666036, 12.930563], [77.665937, 12.930388], [77.665922, 12.930338], [77.665896, 12.930303], [77.665846, 12.930218], [77.665796, 12.930073], [77.665785, 12.930023], [77.665773, 12.929819], [77.665587, 12.929316], [77.665299, 12.928547], [77.665132, 12.92822], [77.664986, 12.928044], [77.664904, 12.928001], [77.66485, 12.927984], [77.664714, 12.927976], [77.664533, 12.927978], [77.664225, 12.927981], [77.66396, 12.927984], [77.66369, 12.928171], [77.663588, 12.928107], [77.663545, 12.9282], [77.663471, 12.928324], [77.663372, 12.928436], [77.663242, 12.928591], [77.663136, 12.928696], [77.663056, 12.928777], [77.662665, 12.929163], [77.662484, 12.929306], [77.662354, 12.929461], [77.662255, 12.929585], [77.662006, 12.92976], [77.66185, 12.929848], [77.661626, 12.929967], [77.661438, 12.930049], [77.661138, 12.930089], [77.660943, 12.930066], [77.660641, 12.929995], [77.660402, 12.929918], [77.660113, 12.929872], [77.659723, 12.929789], [77.659579, 12.929785], [77.65914, 12.929764], [77.655222, 12.935115], [77.658093, 12.936686], [77.660505, 12.938112], [77.660544, 12.938143], [77.66054, 12.938234], [77.660541, 12.938276], [77.660511, 12.938308], [77.660454, 12.938352], [77.659074, 12.938327], [77.659026, 12.938127], [77.659014, 12.937907], [77.658208, 12.937949], [77.65818, 12.938508], [77.658166, 12.938773], [77.658068, 12.93878], [77.657856, 12.938793], [77.657696, 12.938852], [77.65754, 12.939143], [77.657333, 12.939483], [77.657084, 12.939708], [77.656725, 12.939934], [77.656733, 12.939942], [77.656498, 12.940103], [77.656265, 12.940186], [77.65587, 12.940215], [77.655702, 12.940217], [77.654715, 12.940221], [77.653954, 12.940529], [77.652534, 12.941243], [77.649998, 12.942519], [77.648023, 12.943739], [77.647467, 12.944245], [77.647473, 12.944795], [77.646564, 12.945554], [77.642419, 12.948997], [77.639793, 12.951597], [77.639939, 12.951828], [77.639939, 12.951835], [77.639945, 12.951832], [77.640435, 12.952686], [77.640439, 12.952692], [77.640772, 12.953272], [77.640929, 12.953269], [77.641021, 12.953269], [77.641535, 12.953434], [77.64174, 12.953509], [77.641792, 12.953539], [77.641833, 12.953588], [77.641871, 12.953634], [77.641918, 12.953705], [77.641987, 12.953776], [77.642074, 12.95386], [77.642207, 12.953921], [77.642362, 12.953955], [77.642416, 12.953955], [77.642471, 12.953954], [77.642576, 12.953949], [77.642639, 12.953948], [77.64268, 12.953934], [77.642721, 12.953916], [77.642825, 12.953852], [77.643024, 12.95377], [77.643673, 12.95354], [77.643991, 12.953443], [77.644087, 12.953422], [77.64414, 12.95341], [77.644209, 12.953392], [77.644272, 12.953338], [77.64428, 12.953293], [77.644284, 12.953239], [77.644331, 12.952877], [77.644459, 12.952081], [77.64458, 12.951526], [77.644636, 12.951204], [77.644777, 12.950712], [77.644985, 12.95021], [77.645163, 12.949851], [77.645351, 12.949545], [77.645558, 12.949244], [77.646056, 12.948561], [77.646325, 12.948165], [77.646464, 12.947976], [77.646563, 12.947863], [77.646689, 12.947768], [77.646997, 12.947587], [77.647667, 12.947267], [77.647821, 12.947172], [77.648253, 12.946761], [77.648898, 12.94613], [77.649083, 12.946003], [77.649179, 12.946554], [77.649228, 12.946736], [77.649273, 12.946853], [77.649283, 12.946882], [77.649414, 12.947271], [77.649433, 12.947346], [77.649424, 12.947387], [77.649393, 12.947427], [77.649359, 12.947467], [77.649394, 12.94743], [77.649416, 12.947411], [77.64945, 12.947389], [77.649478, 12.94737], [77.649511, 12.94735], [77.649536, 12.947342], [77.649561, 12.947331], [77.649647, 12.947318], [77.649822, 12.947316], [77.649988, 12.947331], [77.650636, 12.947403], [77.651297, 12.947462], [77.652184, 12.947546], [77.6533, 12.947646], [77.654187, 12.947709], [77.654608, 12.947718], [77.654776, 12.947701], [77.654866, 12.947675], [77.654924, 12.947645], [77.654967, 12.947619], [77.655021, 12.947601], [77.655313, 12.947507], [77.655758, 12.947399], [77.655971, 12.947376], [77.656079, 12.947371], [77.656466, 12.947398], [77.657411, 12.94745], [77.658436, 12.947509], [77.659236, 12.947563], [77.659864, 12.947596], [77.659964, 12.947589], [77.660039, 12.947573], [77.660112, 12.947551], [77.660559, 12.947399], [77.661264, 12.947146], [77.661818, 12.946952], [77.6624, 12.946733], [77.662503, 12.946683], [77.662576, 12.946648], [77.662606, 12.946597], [77.662608, 12.94657], [77.662624, 12.946039], [77.662609, 12.945495], [77.662596, 12.945041], [77.662585, 12.944637], [77.662595, 12.94459], [77.662606, 12.944565], [77.662621, 12.944537], [77.662631, 12.94452], [77.662644, 12.944503], [77.662659, 12.944488], [77.662674, 12.944471], [77.662714, 12.944449], [77.662891, 12.94445], [77.66398, 12.944451], [77.664097, 12.944452], [77.664147, 12.944452], [77.664185, 12.944457], [77.664226, 12.944468], [77.664266, 12.944491], [77.664279, 12.944501], [77.66429, 12.944514], [77.664303, 12.944532], [77.664327, 12.944581], [77.664333, 12.944609], [77.664449, 12.945108], [77.664577, 12.945602], [77.664624, 12.945739], [77.664661, 12.945802], [77.664692, 12.945842], [77.664709, 12.945865], [77.664739, 12.945882], [77.66474, 12.945882], [77.664783, 12.945886], [77.66485, 12.945898], [77.665057, 12.945908], [77.665428, 12.945925], [77.666622, 12.946015], [77.666617, 12.946142], [77.666612, 12.946215], [77.666607, 12.946288], [77.6666, 12.94644], [77.666635, 12.946438], [77.666766, 12.946436], [77.666796, 12.946426], [77.66683, 12.946443], [77.667356, 12.946474], [77.668128, 12.94653], [77.66841, 12.946551], [77.668393, 12.946689], [77.668358, 12.946991], [77.668622, 12.946992], [77.668626, 12.946999], [77.670614, 12.947092], [77.670927, 12.947112], [77.670933, 12.947349], [77.67093, 12.947352], [77.670932, 12.947352], [77.670939, 12.947446], [77.670932, 12.948059], [77.671188, 12.948046], [77.671215, 12.948039], [77.671472, 12.948047], [77.672066, 12.948054], [77.672575, 12.948099], [77.672588, 12.948102], [77.672589, 12.948102], [77.672874, 12.948158], [77.673, 12.948175], [77.673147, 12.948188], [77.673027, 12.948059], [77.672979, 12.947909], [77.672947, 12.94776], [77.672938, 12.947588], [77.672912, 12.947386], [77.672971, 12.947168], [77.673007, 12.946966], [77.673003, 12.946614], [77.67304, 12.946479], [77.673246, 12.946432], [77.673595, 12.946241], [77.673777, 12.946119], [77.674256, 12.945995], [77.674942, 12.945815], [77.675345, 12.945691], [77.675656, 12.945524], [77.675997, 12.94534], [77.676553, 12.945155], [77.677663, 12.944732], [77.678904, 12.944412], [77.679383, 12.944265], [77.679725, 12.944134], [77.679984, 12.944057], [77.680168, 12.944115], [77.68032, 12.944135], [77.680417, 12.943925], [77.680545, 12.943751], [77.680766, 12.943697], [77.681459, 12.943525], [77.68202, 12.94313], [77.682861, 12.942604], [77.683728, 12.942244], [77.684251, 12.941939], [77.684759, 12.941634], [77.685108, 12.941458], [77.685389, 12.941291], [77.685493, 12.941212], [77.686807, 12.941739], [77.688032, 12.941914], [77.688673, 12.941007], [77.68971, 12.941521], [77.691713, 12.942926], [77.693486, 12.944257], [77.694757, 12.945107], [77.695562, 12.945323], [77.697049, 12.944895], [77.697964, 12.944804], [77.698026, 12.944954], [77.698195, 12.945659], [77.698321, 12.946171], [77.698571, 12.946935], [77.698804, 12.947596], [77.699034, 12.948364], [77.699216, 12.949224], [77.699292, 12.949641], [77.700015, 12.953566], [77.701059, 12.956911], [77.704479, 12.956815]]]}}]}