{"type": "FeatureCollection", "features": [{"type": "Feature", "properties": {"region_id": "ward_276600-127", "name": "Mudalapalya", "parent": "zone_276600-7", "parent_name": "West"}, "geometry": {"type": "Polygon", "coordinates": [[[77.528538, 12.972812], [77.528524, 12.972622], [77.528433, 12.972352], [77.528267, 12.971925], [77.528236, 12.971902], [77.528181, 12.971855], [77.528129, 12.971846], [77.52807, 12.971846], [77.528036, 12.971853], [77.527995, 12.971857], [77.527947, 12.971876], [77.527895, 12.971875], [77.527878, 12.971868], [77.527017, 12.972011], [77.52686, 12.97171], [77.526789, 12.971402], [77.526691, 12.970907], [77.526602, 12.970659], [77.526558, 12.970587], [77.526453, 12.970552], [77.52617, 12.970597], [77.525714, 12.970698], [77.525221, 12.970788], [77.525054, 12.970759], [77.524949, 12.970663], [77.524822, 12.970362], [77.524714, 12.970072], [77.524644, 12.969879], [77.524642, 12.96968], [77.524627, 12.969426], [77.524594, 12.96919], [77.52448, 12.968828], [77.524397, 12.968641], [77.524253, 12.968346], [77.523975, 12.967774], [77.523698, 12.967184], [77.523565, 12.966822], [77.523507, 12.966604], [77.523467, 12.966308], [77.523427, 12.966054], [77.523376, 12.965898], [77.523288, 12.965705], [77.52325, 12.965584], [77.523247, 12.965342], [77.523331, 12.965057], [77.523469, 12.964735], [77.523548, 12.964528], [77.52363, 12.964152], [77.523671, 12.963916], [77.523692, 12.96351], [77.523647, 12.963341], [77.523527, 12.963064], [77.523307, 12.962715], [77.523262, 12.962476], [77.523238, 12.962306], [77.523109, 12.962271], [77.523054, 12.962256], [77.523032, 12.96225], [77.522903, 12.962203], [77.522615, 12.962097], [77.522235, 12.961885], [77.522127, 12.961825], [77.522072, 12.961795], [77.522034, 12.961786], [77.522016, 12.961786], [77.521607, 12.961786], [77.521023, 12.961816], [77.520871, 12.961817], [77.520802, 12.961818], [77.520771, 12.961811], [77.520672, 12.961817], [77.520685, 12.962214], [77.520808, 12.963168], [77.520826, 12.963374], [77.520757, 12.963411], [77.520569, 12.96345], [77.520456, 12.963478], [77.520457, 12.963588], [77.52048, 12.963731], [77.520365, 12.963767], [77.520223, 12.963328], [77.520147, 12.963329], [77.519653, 12.963457], [77.519681, 12.963553], [77.519265, 12.963619], [77.519221, 12.963479], [77.518995, 12.963522], [77.518234, 12.963647], [77.51754, 12.963661], [77.517539, 12.96369], [77.51756, 12.96372], [77.517585, 12.963763], [77.517602, 12.96378], [77.517713, 12.96387], [77.517772, 12.963896], [77.517841, 12.963919], [77.5179, 12.963953], [77.517962, 12.964017], [77.518192, 12.96425], [77.518336, 12.96462], [77.518348, 12.964664], [77.51844, 12.96501], [77.518474, 12.965314], [77.518475, 12.965381], [77.518475, 12.965425], [77.518431, 12.965496], [77.518233, 12.965623], [77.51814, 12.965647], [77.518065, 12.965648], [77.517921, 12.965707], [77.517568, 12.96592], [77.51745, 12.966093], [77.517404, 12.966292], [77.517408, 12.96637], [77.517412, 12.966441], [77.51745, 12.966487], [77.517502, 12.966524], [77.517634, 12.966638], [77.518026, 12.96691], [77.518102, 12.967001], [77.518178, 12.967688], [77.518062, 12.967774], [77.517946, 12.967903], [77.51764, 12.968244], [77.517552, 12.968416], [77.517539, 12.968498], [77.51754, 12.968595], [77.517607, 12.969111], [77.517608, 12.969216], [77.517633, 12.969306], [77.517703, 12.969424], [77.518194, 12.969969], [77.518449, 12.970388], [77.518493, 12.970607], [77.518493, 12.970651], [77.51847, 12.970753], [77.518471, 12.970786], [77.518464, 12.970847], [77.518444, 12.970925], [77.518391, 12.971067], [77.518385, 12.971145], [77.518376, 12.971273], [77.518329, 12.971371], [77.518206, 12.971521], [77.518145, 12.971609], [77.518088, 12.971735], [77.518014, 12.971921], [77.517995, 12.972022], [77.517992, 12.97209], [77.517989, 12.972181], [77.518053, 12.972332], [77.518102, 12.97243], [77.518189, 12.97256], [77.518221, 12.972624], [77.518238, 12.972664], [77.518253, 12.972728], [77.518253, 12.972766], [77.518233, 12.972837], [77.518166, 12.972986], [77.518108, 12.973054], [77.518026, 12.973095], [77.517961, 12.973099], [77.517708, 12.973153], [77.51769, 12.973171], [77.517618, 12.97318], [77.517508, 12.973255], [77.517478, 12.973299], [77.517461, 12.97336], [77.517493, 12.973761], [77.517528, 12.973869], [77.517653, 12.974303], [77.517792, 12.974788], [77.517841, 12.974885], [77.517869, 12.974942], [77.517879, 12.97496], [77.517923, 12.975026], [77.517972, 12.975088], [77.518028, 12.975145], [77.518088, 12.975196], [77.518153, 12.975242], [77.518222, 12.975282], [77.518265, 12.975302], [77.518331, 12.975272], [77.518949, 12.975019], [77.519599, 12.974809], [77.52016, 12.974639], [77.520524, 12.974529], [77.520512, 12.974335], [77.520788, 12.974304], [77.521459, 12.9742], [77.522178, 12.974001], [77.522225, 12.973956], [77.522361, 12.974265], [77.523212, 12.974001], [77.523276, 12.973981], [77.525429, 12.973339], [77.525534, 12.973769], [77.525602, 12.973759], [77.52591, 12.973704], [77.526159, 12.973696], [77.52629, 12.973681], [77.526316, 12.973656], [77.526322, 12.973623], [77.526335, 12.973578], [77.526361, 12.973546], [77.526413, 12.973545], [77.526527, 12.973551], [77.527079, 12.973497], [77.527431, 12.973575], [77.528, 12.973579], [77.528577, 12.973515], [77.528564, 12.973144], [77.528538, 12.972812]]]}}]}