{"type": "FeatureCollection", "features": [{"type": "Feature", "properties": {"region_id": "ward_276600-12", "name": "Shettihalli", "parent": "zone_276600-2", "parent_name": "Dasarahalli"}, "geometry": {"type": "Polygon", "coordinates": [[[77.528283, 13.08383], [77.528452, 13.083492], [77.529718, 13.082502], [77.530205, 13.081971], [77.530787, 13.081237], [77.530958, 13.080326], [77.531087, 13.07836], [77.531356, 13.075395], [77.531221, 13.073872], [77.531387, 13.072609], [77.531622, 13.072137], [77.531384, 13.07184], [77.530892, 13.071742], [77.530415, 13.071772], [77.530093, 13.071839], [77.529785, 13.071905], [77.529732, 13.071493], [77.529732, 13.071445], [77.52971, 13.07114], [77.529707, 13.070796], [77.529749, 13.069943], [77.529775, 13.069664], [77.529885, 13.069243], [77.529924, 13.068857], [77.529995, 13.068697], [77.530185, 13.068488], [77.530388, 13.068308], [77.530868, 13.067809], [77.53125, 13.067392], [77.531704, 13.06693], [77.532097, 13.06651], [77.532585, 13.066013], [77.532752, 13.065845], [77.532828, 13.06578], [77.532875, 13.065773], [77.533021, 13.065787], [77.533149, 13.065801], [77.53352, 13.065807], [77.533805, 13.065803], [77.533807, 13.06584], [77.534071, 13.065844], [77.534241, 13.065314], [77.534389, 13.06483], [77.53452, 13.064559], [77.534598, 13.064323], [77.534735, 13.063919], [77.535122, 13.063305], [77.534784, 13.062458], [77.534506, 13.061551], [77.534165, 13.06044], [77.533921, 13.059944], [77.534186, 13.059531], [77.534509, 13.058912], [77.53498, 13.058233], [77.535412, 13.057615], [77.535121, 13.057535], [77.534862, 13.057465], [77.53487, 13.057343], [77.534948, 13.05723], [77.535107, 13.057176], [77.53515, 13.057029], [77.53513, 13.056882], [77.535138, 13.056752], [77.53518, 13.056552], [77.535196, 13.056352], [77.535158, 13.056162], [77.535122, 13.056024], [77.535094, 13.055912], [77.535092, 13.055747], [77.535162, 13.055504], [77.535394, 13.054836], [77.534677, 13.054887], [77.534336, 13.054886], [77.53383, 13.05488], [77.533524, 13.054853], [77.533376, 13.054811], [77.533136, 13.054731], [77.532902, 13.054664], [77.532741, 13.054617], [77.532352, 13.054612], [77.531868, 13.054575], [77.531395, 13.054505], [77.53126, 13.054446], [77.531177, 13.054337], [77.531011, 13.054037], [77.530671, 13.053388], [77.530471, 13.053156], [77.530305, 13.053029], [77.529954, 13.052813], [77.529446, 13.052443], [77.528752, 13.051876], [77.528368, 13.051624], [77.528054, 13.051521], [77.527338, 13.051325], [77.526896, 13.051193], [77.526634, 13.051019], [77.526083, 13.050566], [77.525592, 13.050196], [77.525012, 13.049782], [77.52435, 13.049414], [77.523939, 13.049134], [77.523772, 13.048933], [77.523517, 13.048483], [77.523207, 13.047696], [77.52299, 13.047153], [77.522595, 13.046501], [77.522199, 13.045889], [77.521899, 13.046078], [77.520452, 13.047095], [77.519229, 13.047955], [77.518594, 13.048425], [77.519364, 13.050076], [77.519953, 13.052666], [77.520052, 13.053239], [77.518839, 13.053779], [77.519436, 13.054876], [77.519795, 13.055585], [77.519544, 13.056254], [77.519266, 13.056578], [77.519357, 13.056961], [77.519472, 13.056997], [77.51967, 13.057208], [77.519775, 13.057348], [77.519796, 13.057429], [77.519746, 13.05753], [77.519698, 13.057884], [77.520108, 13.058699], [77.52036, 13.059171], [77.520102, 13.059123], [77.519597, 13.059166], [77.519264, 13.059488], [77.518796, 13.059795], [77.5184, 13.060078], [77.517979, 13.060282], [77.517691, 13.060374], [77.517238, 13.060518], [77.516096, 13.060731], [77.515731, 13.060774], [77.515438, 13.060825], [77.515163, 13.060899], [77.514717, 13.061063], [77.514336, 13.061218], [77.514157, 13.061235], [77.513946, 13.061063], [77.513508, 13.060712], [77.513372, 13.060616], [77.51295, 13.060315], [77.512268, 13.059944], [77.512014, 13.05979], [77.51168, 13.0599], [77.511646, 13.059921], [77.511486, 13.059977], [77.51148, 13.059899], [77.51138, 13.059408], [77.511329, 13.059098], [77.511263, 13.058808], [77.510946, 13.058869], [77.510587, 13.058929], [77.510154, 13.059011], [77.509686, 13.059204], [77.509335, 13.059282], [77.508682, 13.059329], [77.508046, 13.059398], [77.507527, 13.060202], [77.507128, 13.060849], [77.506984, 13.061061], [77.506849, 13.061325], [77.506666, 13.061589], [77.506386, 13.06188], [77.506055, 13.062379], [77.505517, 13.063231], [77.505305, 13.06357], [77.50396, 13.065748], [77.50274, 13.067646], [77.501055, 13.070093], [77.499537, 13.072202], [77.498992, 13.072836], [77.498844, 13.073132], [77.498692, 13.074218], [77.498585, 13.074515], [77.498667, 13.074511], [77.500857, 13.077027], [77.500873, 13.077105], [77.501625, 13.077989], [77.501678, 13.077988], [77.501695, 13.077989], [77.503295, 13.079826], [77.503842, 13.080525], [77.503851, 13.080523], [77.503854, 13.08054], [77.504561, 13.081441], [77.504706, 13.081446], [77.50494, 13.081425], [77.505333, 13.081324], [77.505629, 13.081215], [77.505748, 13.081151], [77.505926, 13.080967], [77.506073, 13.080604], [77.506186, 13.080316], [77.506266, 13.080019], [77.506769, 13.079543], [77.507261, 13.07879], [77.508028, 13.077945], [77.509935, 13.077034], [77.511701, 13.076542], [77.512459, 13.076416], [77.514433, 13.07571], [77.516543, 13.074956], [77.51678, 13.074962], [77.516871, 13.075024], [77.516996, 13.075433], [77.517089, 13.075922], [77.5175, 13.077376], [77.517649, 13.078635], [77.517338, 13.080092], [77.517302, 13.080953], [77.518654, 13.082508], [77.520648, 13.085227], [77.521645, 13.08701], [77.524101, 13.086099], [77.524108, 13.08595], [77.52432, 13.085886], [77.525143, 13.085648], [77.52534, 13.085522], [77.525973, 13.085532], [77.526106, 13.085547], [77.526398, 13.085415], [77.527095, 13.085019], [77.527376, 13.084931], [77.52748, 13.084936], [77.527595, 13.084941], [77.527681, 13.084934], [77.527738, 13.084894], [77.527818, 13.084809], [77.527873, 13.084571], [77.527944, 13.084448], [77.527942, 13.084297], [77.527827, 13.084008], [77.528164, 13.083734], [77.528283, 13.08383]]]}}]}