{"type": "FeatureCollection", "features": [{"type": "Feature", "properties": {"region_id": "ward_276600-185", "name": "Yelchenahalli", "parent": "zone_276600-1", "parent_name": "Bommanahalli"}, "geometry": {"type": "Polygon", "coordinates": [[[77.573261, 12.906489], [77.5733, 12.906249], [77.573354, 12.905918], [77.573376, 12.90558], [77.573369, 12.905367], [77.573361, 12.904985], [77.573308, 12.904587], [77.573255, 12.904193], [77.573236, 12.904008], [77.573231, 12.903875], [77.57323, 12.903759], [77.573244, 12.903574], [77.573313, 12.903078], [77.57341, 12.90257], [77.573456, 12.902248], [77.573475, 12.902054], [77.573464, 12.901841], [77.573382, 12.901432], [77.573228, 12.900794], [77.573137, 12.900417], [77.572986, 12.899943], [77.572854, 12.899542], [77.572816, 12.899446], [77.57275, 12.899322], [77.572504, 12.89895], [77.572158, 12.898458], [77.571896, 12.898095], [77.571177, 12.897164], [77.570799, 12.896718], [77.570646, 12.89655], [77.570036, 12.895856], [77.569256, 12.894995], [77.56868, 12.894381], [77.56847, 12.894182], [77.568361, 12.89408], [77.568128, 12.893806], [77.568091, 12.893826], [77.567482, 12.893822], [77.565785, 12.893888], [77.564449, 12.894038], [77.563422, 12.894156], [77.562414, 12.894254], [77.561935, 12.89421], [77.561811, 12.893849], [77.561502, 12.893891], [77.561418, 12.893922], [77.561276, 12.893604], [77.561032, 12.893658], [77.560983, 12.893236], [77.560805, 12.893259], [77.560603, 12.893294], [77.559484, 12.893491], [77.559629, 12.894195], [77.559652, 12.894295], [77.559721, 12.894586], [77.55975, 12.894932], [77.559856, 12.895476], [77.559915, 12.895777], [77.56017, 12.896178], [77.560088, 12.896249], [77.561234, 12.899286], [77.560983, 12.899501], [77.560107, 12.900252], [77.560135, 12.900499], [77.560338, 12.900671], [77.567466, 12.906568], [77.570213, 12.90867], [77.570233, 12.908687], [77.570442, 12.908407], [77.570775, 12.907959], [77.571012, 12.907688], [77.571566, 12.90711], [77.57175, 12.906899], [77.571944, 12.906753], [77.572093, 12.906663], [77.572193, 12.906629], [77.572505, 12.906574], [77.573094, 12.906488], [77.573261, 12.906489]]]}}]}