{"type": "FeatureCollection", "features": [{"type": "Feature", "properties": {"region_id": "ward_276600-83", "name": "Kadugodi", "parent": "zone_276600-4", "parent_name": "Mahadevapura"}, "geometry": {"type": "Polygon", "coordinates": [[[77.778499, 12.977077], [77.765349, 12.978302], [77.765323, 12.978969], [77.765411, 12.979424], [77.765514, 12.979748], [77.765651, 12.980121], [77.765653, 12.980316], [77.757625, 12.980418], [77.756917, 12.976725], [77.755204, 12.976743], [77.753932, 12.974541], [77.752744, 12.974612], [77.751964, 12.97469], [77.750464, 12.974846], [77.750477, 12.975023], [77.749265, 12.974692], [77.749253, 12.974604], [77.74889, 12.974475], [77.748889, 12.974375], [77.748538, 12.974268], [77.746451, 12.974605], [77.746443, 12.974621], [77.746123, 12.975236], [77.745236, 12.975683], [77.744346, 12.97575], [77.743361, 12.975411], [77.741216, 12.976033], [77.74153, 12.977076], [77.741788, 12.977715], [77.741895, 12.978282], [77.742001, 12.978725], [77.742131, 12.979143], [77.743751, 12.982308], [77.743881, 12.982677], [77.743857, 12.982825], [77.743735, 12.983148], [77.743591, 12.983766], [77.744727, 12.986341], [77.743779, 12.986595], [77.742086, 12.987006], [77.741208, 12.987237], [77.741183, 12.987229], [77.740592, 12.9874], [77.739665, 12.987583], [77.736772, 12.987503], [77.733458, 12.987868], [77.73325, 12.989321], [77.732976, 12.990951], [77.732747, 12.992536], [77.732621, 12.993351], [77.732402, 12.993859], [77.731785, 12.994789], [77.731587, 12.995053], [77.731505, 12.995269], [77.731435, 12.995421], [77.731386, 12.995427], [77.731311, 12.995461], [77.731322, 12.995638], [77.731246, 12.996193], [77.731229, 12.996466], [77.735985, 12.997493], [77.741444, 12.998556], [77.743194, 12.998648], [77.74409, 12.998638], [77.747561, 12.998228], [77.751811, 12.997391], [77.752015, 12.997376], [77.753385, 12.997975], [77.75369, 12.998998], [77.753746, 13.000053], [77.754214, 13.001603], [77.75477, 13.001405], [77.755911, 13.001173], [77.756853, 13.001251], [77.757412, 13.001113], [77.757179, 13.002347], [77.757946, 13.002734], [77.75947, 13.002652], [77.759634, 13.003332], [77.759823, 13.004165], [77.760031, 13.005317], [77.760181, 13.005215], [77.760217, 13.005179], [77.76034, 13.005089], [77.760436, 13.005041], [77.760493, 13.005022], [77.760577, 13.005015], [77.76068, 13.005014], [77.760801, 13.00501], [77.760907, 13.00503], [77.761153, 13.005119], [77.76148, 13.005195], [77.761582, 13.005194], [77.762107, 13.004826], [77.762514, 13.004661], [77.763667, 13.004351], [77.764711, 13.00388], [77.765669, 13.00366], [77.766189, 13.003481], [77.767417, 13.003245], [77.767871, 13.003098], [77.76862, 13.00298], [77.768944, 13.003248], [77.76926, 13.003978], [77.769382, 13.004964], [77.769659, 13.005905], [77.769461, 13.007008], [77.769034, 13.007815], [77.769072, 13.007906], [77.76904, 13.008031], [77.769024, 13.008224], [77.769075, 13.008442], [77.769071, 13.008682], [77.769062, 13.008914], [77.769092, 13.009221], [77.76921, 13.009472], [77.769307, 13.009746], [77.769383, 13.010074], [77.769466, 13.010506], [77.769502, 13.010755], [77.769535, 13.011231], [77.769531, 13.011753], [77.769539, 13.011939], [77.769547, 13.012102], [77.769533, 13.012206], [77.769449, 13.012473], [77.769335, 13.012809], [77.769286, 13.012909], [77.769221, 13.012968], [77.769186, 13.01303], [77.769187, 13.013119], [77.76925, 13.013345], [77.769378, 13.013698], [77.769449, 13.013833], [77.769571, 13.013956], [77.769876, 13.014246], [77.770475, 13.01488], [77.771009, 13.015591], [77.771447, 13.016106], [77.773032, 13.015541], [77.773026, 13.015506], [77.773017, 13.015388], [77.772881, 13.015172], [77.772898, 13.014891], [77.772953, 13.014701], [77.772975, 13.014515], [77.772985, 13.014373], [77.772909, 13.014054], [77.772903, 13.013837], [77.772934, 13.013746], [77.773037, 13.013579], [77.773225, 13.01345], [77.773381, 13.013389], [77.773578, 13.013367], [77.773643, 13.013363], [77.773732, 13.013378], [77.773865, 13.013443], [77.773914, 13.013466], [77.774043, 13.013477], [77.774111, 13.013456], [77.774171, 13.013428], [77.774219, 13.013368], [77.774246, 13.013301], [77.774262, 13.013226], [77.774301, 13.013174], [77.774273, 13.013166], [77.77426, 13.013123], [77.77419, 13.012966], [77.773904, 13.012602], [77.773827, 13.012535], [77.773778, 13.012476], [77.773764, 13.01235], [77.773775, 13.012236], [77.773822, 13.012065], [77.773779, 13.011852], [77.773752, 13.011584], [77.773666, 13.011451], [77.773637, 13.011364], [77.773627, 13.011238], [77.773697, 13.01104], [77.773757, 13.010952], [77.773852, 13.010852], [77.773912, 13.010781], [77.773935, 13.010638], [77.773914, 13.010559], [77.773869, 13.010512], [77.77382, 13.01045], [77.773735, 13.010391], [77.773436, 13.01032], [77.773359, 13.010297], [77.773298, 13.010258], [77.773213, 13.010203], [77.773168, 13.010145], [77.773143, 13.010078], [77.773166, 13.009998], [77.773214, 13.009939], [77.773286, 13.009863], [77.773329, 13.009744], [77.773348, 13.0097], [77.773355, 13.009613], [77.773355, 13.009578], [77.773277, 13.009496], [77.773152, 13.009406], [77.773098, 13.009336], [77.773057, 13.009245], [77.773062, 13.008917], [77.773122, 13.008545], [77.773129, 13.00847], [77.77314, 13.008375], [77.773211, 13.008217], [77.773266, 13.008121], [77.773298, 13.008069], [77.773353, 13.007919], [77.773372, 13.007836], [77.773375, 13.007761], [77.773374, 13.007666], [77.773364, 13.007504], [77.773316, 13.007375], [77.773307, 13.007319], [77.773281, 13.007201], [77.773271, 13.007064], [77.773286, 13.006845], [77.773277, 13.006522], [77.773272, 13.006416], [77.773289, 13.006315], [77.773375, 13.006166], [77.773408, 13.006121], [77.77345, 13.0061], [77.773541, 13.006078], [77.773631, 13.006074], [77.773719, 13.006088], [77.773828, 13.00614], [77.773883, 13.006169], [77.773917, 13.006204], [77.773941, 13.006246], [77.773981, 13.006295], [77.774015, 13.00634], [77.774051, 13.006357], [77.774088, 13.006357], [77.774209, 13.006367], [77.774251, 13.006367], [77.774332, 13.006345], [77.774383, 13.006318], [77.774488, 13.006252], [77.774554, 13.006206], [77.774618, 13.006144], [77.774724, 13.006085], [77.774818, 13.006063], [77.774899, 13.00604], [77.775045, 13.006028], [77.77514, 13.006031], [77.775246, 13.00603], [77.775429, 13.006006], [77.77552, 13.005987], [77.775581, 13.005947], [77.775648, 13.005906], [77.775726, 13.005837], [77.775775, 13.00572], [77.775773, 13.005603], [77.775722, 13.005487], [77.775661, 13.005351], [77.775599, 13.005147], [77.775527, 13.004924], [77.775526, 13.004777], [77.775524, 13.004631], [77.775532, 13.004456], [77.775547, 13.004037], [77.775505, 13.003833], [77.775484, 13.003677], [77.775342, 13.003435], [77.775241, 13.003271], [77.77508, 13.003136], [77.7749, 13.003031], [77.77479, 13.002964], [77.77463, 13.002868], [77.774471, 13.00286], [77.774372, 13.0029], [77.774134, 13.002932], [77.774005, 13.002943], [77.773707, 13.002965], [77.773401, 13.003095], [77.773202, 13.003078], [77.772983, 13.003012], [77.772744, 13.002976], [77.772544, 13.0029], [77.772414, 13.002765], [77.772342, 13.0026], [77.772359, 13.002347], [77.772457, 13.002229], [77.772595, 13.002071], [77.772731, 13.001865], [77.77292, 13.001854], [77.773119, 13.001861], [77.773298, 13.001859], [77.773466, 13.001828], [77.773555, 13.001749], [77.773573, 13.001642], [77.773572, 13.001506], [77.773619, 13.00131], [77.773698, 13.001212], [77.773807, 13.001172], [77.774005, 13.001121], [77.774194, 13.001119], [77.774362, 13.001098], [77.774551, 13.001086], [77.77465, 13.001056], [77.774738, 13.000948], [77.774787, 13.000898], [77.774786, 13.000801], [77.774695, 13.000685], [77.774634, 13.000559], [77.774602, 13.000374], [77.77457, 13.000151], [77.774577, 12.999887], [77.774624, 12.999663], [77.774653, 12.999526], [77.77474, 12.999301], [77.774807, 12.999096], [77.774833, 12.998755], [77.774831, 12.998608], [77.774889, 12.998413], [77.774886, 12.998199], [77.774825, 12.998005], [77.774743, 12.997859], [77.774623, 12.997753], [77.774413, 12.997639], [77.774332, 12.997523], [77.774341, 12.997415], [77.774378, 12.997191], [77.774377, 12.997025], [77.774364, 12.996821], [77.774362, 12.996616], [77.77432, 12.996393], [77.774288, 12.996198], [77.774287, 12.996091], [77.774838, 12.995802], [77.775068, 12.995599], [77.775223, 12.995312], [77.775192, 12.994925], [77.775239, 12.994432], [77.775499, 12.994067], [77.775836, 12.993495], [77.775913, 12.993338], [77.775911, 12.993157], [77.775722, 12.992771], [77.77556, 12.992437], [77.775379, 12.992023], [77.775499, 12.991661], [77.775519, 12.991117], [77.775557, 12.990721], [77.775536, 12.990237], [77.775585, 12.989901], [77.775791, 12.989484], [77.775945, 12.989069], [77.775941, 12.988706], [77.775948, 12.988113], [77.775722, 12.987755], [77.775685, 12.987053], [77.775679, 12.98651], [77.775755, 12.986224], [77.776378, 12.985312], [77.776576, 12.984865], [77.776367, 12.984277], [77.776202, 12.983735], [77.776062, 12.983012], [77.775878, 12.982444], [77.775898, 12.982348], [77.775974, 12.982066], [77.776151, 12.981485], [77.776411, 12.981172], [77.776934, 12.980752], [77.777194, 12.980413], [77.777321, 12.97992], [77.777552, 12.979374], [77.778023, 12.978981], [77.778179, 12.978598], [77.778355, 12.977968], [77.778507, 12.977423], [77.778538, 12.977126], [77.778521, 12.977124], [77.778505, 12.977111], [77.778499, 12.977077]]]}}]}