{"type": "FeatureCollection", "features": [{"type": "Feature", "properties": {"region_id": "ward_276600-93", "name": "Vasanth Nagar", "parent": "zone_276600-3", "parent_name": "East"}, "geometry": {"type": "Polygon", "coordinates": [[[77.58417, 12.999338], [77.584219, 12.999288], [77.584235, 12.99923], [77.584242, 12.999083], [77.584295, 12.998431], [77.584352, 12.997779], [77.585389, 12.997686], [77.586113, 12.997615], [77.586248, 12.997604], [77.586365, 12.997585], [77.586439, 12.997566], [77.586621, 12.99749], [77.586732, 12.997429], [77.586955, 12.997268], [77.587301, 12.996983], [77.587715, 12.996655], [77.588254, 12.996332], [77.589085, 12.99592], [77.589327, 12.995808], [77.589564, 12.9956], [77.589746, 12.995352], [77.590625, 12.99538], [77.591435, 12.995415], [77.591736, 12.995428], [77.591744, 12.995252], [77.59253, 12.995079], [77.593298, 12.994828], [77.594673, 12.994128], [77.595685, 12.993571], [77.596264, 12.992983], [77.596867, 12.992213], [77.59732, 12.991479], [77.597469, 12.991381], [77.598104, 12.991115], [77.598942, 12.990759], [77.599489, 12.990571], [77.599239, 12.989522], [77.598992, 12.988752], [77.598977, 12.98869], [77.598716, 12.987952], [77.598637, 12.987783], [77.59829, 12.986831], [77.598072, 12.986318], [77.597146, 12.984457], [77.597019, 12.984605], [77.596839, 12.984824], [77.595507, 12.986372], [77.594093, 12.988149], [77.593355, 12.989119], [77.592815, 12.989748], [77.590496, 12.986982], [77.590021, 12.986536], [77.58954, 12.985967], [77.589014, 12.986494], [77.588823, 12.986333], [77.588738, 12.986021], [77.588641, 12.985802], [77.588532, 12.985548], [77.588387, 12.985249], [77.588301, 12.984971], [77.588216, 12.984694], [77.588013, 12.984465], [77.588178, 12.984428], [77.587668, 12.983292], [77.586991, 12.982071], [77.585915, 12.980421], [77.584888, 12.978886], [77.584404, 12.978013], [77.584372, 12.97803], [77.584126, 12.978166], [77.583882, 12.978308], [77.583643, 12.978456], [77.583408, 12.978611], [77.583177, 12.978772], [77.58295, 12.978938], [77.582728, 12.97911], [77.582704, 12.979129], [77.582671, 12.979156], [77.582514, 12.979276], [77.582353, 12.97939], [77.582188, 12.979499], [77.582019, 12.979601], [77.581846, 12.979697], [77.58167, 12.979787], [77.58149, 12.97987], [77.581308, 12.979946], [77.581122, 12.980016], [77.580934, 12.980078], [77.580744, 12.980134], [77.580551, 12.980183], [77.580357, 12.980225], [77.580162, 12.980259], [77.579965, 12.980287], [77.57983, 12.980301], [77.579113, 12.980412], [77.578419, 12.9805], [77.577572, 12.980566], [77.577502, 12.980601], [77.577401, 12.980658], [77.577304, 12.980721], [77.577211, 12.980791], [77.577123, 12.980866], [77.57704, 12.980946], [77.576962, 12.981032], [77.57689, 12.981122], [77.576824, 12.981217], [77.576765, 12.981315], [77.576712, 12.981417], [77.576666, 12.981522], [77.576627, 12.98163], [77.576594, 12.98174], [77.57657, 12.981852], [77.576552, 12.981965], [77.576542, 12.982079], [77.57654, 12.982194], [77.576545, 12.982308], [77.576557, 12.982422], [77.576577, 12.982535], [77.576604, 12.982646], [77.576638, 12.982755], [77.57668, 12.982862], [77.576728, 12.982966], [77.576783, 12.983067], [77.576844, 12.983165], [77.576912, 12.983258], [77.576964, 12.983321], [77.577296, 12.983572], [77.576134, 12.983807], [77.574711, 12.984013], [77.574631, 12.984262], [77.575024, 12.984437], [77.575348, 12.98463], [77.575622, 12.984834], [77.575742, 12.984961], [77.575802, 12.985025], [77.575908, 12.985136], [77.576324, 12.985703], [77.576611, 12.986108], [77.577411, 12.987281], [77.577941, 12.988059], [77.579237, 12.99], [77.579683, 12.990692], [77.579795, 12.990951], [77.57755, 12.991744], [77.577668, 12.991872], [77.577893, 12.992118], [77.577805, 12.992302], [77.577125, 12.993605], [77.577122, 12.993612], [77.57726, 12.993736], [77.577816, 12.994205], [77.578768, 12.995032], [77.579402, 12.995665], [77.580163, 12.996509], [77.580858, 12.997269], [77.581044, 12.997472], [77.58165, 12.998134], [77.582047, 12.998556], [77.582503, 12.998969], [77.582865, 12.999211], [77.58315, 12.999315], [77.583284, 12.999346], [77.58361, 12.999376], [77.583878, 12.99939], [77.584057, 12.999381], [77.58417, 12.999338]]]}}]}