{"type": "FeatureCollection", "features": [{"type": "Feature", "properties": {"region_id": "ward_276600-91", "name": "Bharathi Nagar", "parent": "zone_276600-3", "parent_name": "East"}, "geometry": {"type": "Polygon", "coordinates": [[[77.617254, 12.988626], [77.617244, 12.988616], [77.616604, 12.987755], [77.61582, 12.986605], [77.615098, 12.985507], [77.614307, 12.984465], [77.6143, 12.984438], [77.614264, 12.984367], [77.614087, 12.9841], [77.613381, 12.983372], [77.613376, 12.983366], [77.612966, 12.982938], [77.612906, 12.982875], [77.61276, 12.982722], [77.612578, 12.982933], [77.612361, 12.983122], [77.611854, 12.983311], [77.611128, 12.98357], [77.610975, 12.983612], [77.61079, 12.983321], [77.610647, 12.983053], [77.610167, 12.983181], [77.609823, 12.98329], [77.609442, 12.983436], [77.608669, 12.983691], [77.608153, 12.983888], [77.607656, 12.984049], [77.607236, 12.984144], [77.606845, 12.984208], [77.606635, 12.983757], [77.606569, 12.983739], [77.605644, 12.983985], [77.605038, 12.984106], [77.604503, 12.984111], [77.603547, 12.984132], [77.603414, 12.984146], [77.602684, 12.98433], [77.601998, 12.984506], [77.601742, 12.984666], [77.601842, 12.984683], [77.601835, 12.98472], [77.602075, 12.984833], [77.603012, 12.985023], [77.605331, 12.985517], [77.605399, 12.985454], [77.605571, 12.985354], [77.60561, 12.985491], [77.605643, 12.985559], [77.606076, 12.986782], [77.606155, 12.98681], [77.606501, 12.986825], [77.606988, 12.98682], [77.607133, 12.986769], [77.607279, 12.986794], [77.607771, 12.98667], [77.608339, 12.986444], [77.608453, 12.986603], [77.608586, 12.987201], [77.608709, 12.987774], [77.608728, 12.987906], [77.608819, 12.988382], [77.608989, 12.989259], [77.609206, 12.990152], [77.609376, 12.991076], [77.609618, 12.992093], [77.609785, 12.992678], [77.609864, 12.992619], [77.610316, 12.99228], [77.611048, 12.991807], [77.611278, 12.9917], [77.611692, 12.991515], [77.611781, 12.991491], [77.611899, 12.991449], [77.611976, 12.991442], [77.612113, 12.991412], [77.612355, 12.991363], [77.612503, 12.991321], [77.612592, 12.991308], [77.612799, 12.991213], [77.612876, 12.991177], [77.613053, 12.991082], [77.613248, 12.99097], [77.613697, 12.990732], [77.613914, 12.990592], [77.615004, 12.989993], [77.616247, 12.989299], [77.616715, 12.989014], [77.617121, 12.988731], [77.617121, 12.98873], [77.617254, 12.988626]]]}}]}