{"type": "FeatureCollection", "features": [{"type": "Feature", "properties": {"region_id": "ward_276600-133", "name": "Hampi Nagar", "parent": "zone_276600-6", "parent_name": "South"}, "geometry": {"type": "Polygon", "coordinates": [[[77.543816, 12.964026], [77.543742, 12.963951], [77.543524, 12.963717], [77.543344, 12.963489], [77.54301, 12.963017], [77.542582, 12.962424], [77.541894, 12.961446], [77.541374, 12.960704], [77.540706, 12.95976], [77.540229, 12.95912], [77.539781, 12.958615], [77.539275, 12.958044], [77.539227, 12.957571], [77.539051, 12.956461], [77.538975, 12.955438], [77.538831, 12.954207], [77.539964, 12.954091], [77.540776, 12.954002], [77.540756, 12.953567], [77.540753, 12.95335], [77.540786, 12.953285], [77.540941, 12.953219], [77.541684, 12.953028], [77.54141, 12.952712], [77.541294, 12.952584], [77.541206, 12.952492], [77.54105, 12.952388], [77.540682, 12.952154], [77.540075, 12.951774], [77.539534, 12.951351], [77.539456, 12.951304], [77.539027, 12.951045], [77.538856, 12.950972], [77.53872, 12.950931], [77.538561, 12.950886], [77.538407, 12.950862], [77.538171, 12.950796], [77.538113, 12.95078], [77.537932, 12.950678], [77.537794, 12.95059], [77.537735, 12.950565], [77.537705, 12.950559], [77.537653, 12.950556], [77.537617, 12.950569], [77.537594, 12.950589], [77.537572, 12.950614], [77.537556, 12.950663], [77.537527, 12.950723], [77.53739, 12.951074], [77.537156, 12.951839], [77.536908, 12.952521], [77.536815, 12.952858], [77.536753, 12.953055], [77.536693, 12.953165], [77.536623, 12.953275], [77.536564, 12.953355], [77.536259, 12.953644], [77.536008, 12.953916], [77.53587, 12.954051], [77.535838, 12.954083], [77.535605, 12.954313], [77.535614, 12.95432], [77.535251, 12.954675], [77.534949, 12.954954], [77.534799, 12.955162], [77.534698, 12.955578], [77.534404, 12.956685], [77.534325, 12.957007], [77.534038, 12.957643], [77.533453, 12.958891], [77.533145, 12.959768], [77.533077, 12.96001], [77.533057, 12.960344], [77.533227, 12.960895], [77.534105, 12.963048], [77.534661, 12.96429], [77.534669, 12.964297], [77.53469, 12.964344], [77.534723, 12.964419], [77.535461, 12.966083], [77.536155, 12.967468], [77.536177, 12.967525], [77.536649, 12.968763], [77.536659, 12.968791], [77.53879, 12.968171], [77.538557, 12.966829], [77.538285, 12.965452], [77.538188, 12.965066], [77.538815, 12.964865], [77.539417, 12.96468], [77.540101, 12.964463], [77.540506, 12.964362], [77.541133, 12.964258], [77.54172, 12.964212], [77.542415, 12.964213], [77.542945, 12.964297], [77.543392, 12.964333], [77.543541, 12.964356], [77.543816, 12.964026]]]}}]}