{"type": "FeatureCollection", "features": [{"type": "Feature", "properties": {"region_id": "ward_276600-142", "name": "Sunkenahalli", "parent": "zone_276600-6", "parent_name": "South"}, "geometry": {"type": "Polygon", "coordinates": [[[77.573754, 12.944539], [77.573773, 12.943694], [77.573617, 12.943686], [77.573436, 12.943684], [77.572306, 12.943679], [77.5711, 12.943664], [77.570164, 12.943671], [77.568332, 12.943668], [77.568078, 12.943649], [77.567991, 12.943614], [77.567932, 12.943579], [77.567871, 12.943528], [77.567861, 12.9434], [77.567853, 12.943015], [77.567839, 12.942806], [77.567807, 12.942692], [77.567764, 12.942608], [77.567708, 12.942525], [77.567645, 12.942438], [77.567154, 12.94183], [77.566961, 12.941618], [77.566827, 12.941429], [77.566768, 12.9413], [77.56674, 12.94122], [77.566727, 12.941148], [77.566714, 12.941003], [77.566659, 12.940223], [77.566186, 12.940212], [77.566107, 12.940167], [77.566025, 12.940073], [77.565974, 12.939994], [77.56593, 12.93988], [77.565897, 12.939739], [77.565916, 12.939327], [77.565267, 12.939315], [77.564742, 12.939295], [77.564492, 12.939284], [77.564364, 12.939278], [77.564142, 12.939283], [77.564072, 12.939276], [77.564031, 12.939259], [77.563996, 12.939245], [77.563964, 12.939222], [77.563949, 12.939205], [77.564063, 12.939412], [77.564313, 12.939893], [77.564909, 12.940882], [77.564961, 12.941004], [77.564993, 12.941069], [77.565009, 12.941157], [77.565072, 12.941569], [77.565089, 12.941676], [77.565089, 12.941707], [77.565089, 12.941734], [77.565058, 12.941769], [77.565027, 12.941788], [77.564992, 12.941788], [77.564889, 12.941789], [77.564586, 12.941789], [77.564388, 12.941791], [77.564333, 12.941791], [77.564302, 12.941799], [77.564282, 12.941818], [77.564271, 12.941861], [77.56427, 12.941895], [77.564268, 12.942721], [77.564255, 12.943701], [77.564231, 12.945527], [77.564233, 12.946529], [77.564212, 12.947111], [77.564229, 12.947627], [77.564265, 12.948117], [77.564256, 12.948362], [77.564241, 12.948476], [77.564222, 12.948511], [77.564199, 12.948542], [77.564168, 12.948573], [77.564145, 12.948592], [77.56408, 12.948633], [77.563909, 12.948651], [77.563746, 12.948683], [77.563386, 12.94882], [77.56303, 12.94897], [77.562967, 12.949006], [77.56289, 12.949029], [77.562827, 12.949061], [77.56276, 12.949079], [77.562665, 12.949084], [77.562579, 12.94909], [77.562484, 12.949077], [77.562411, 12.949051], [77.562257, 12.948982], [77.562147, 12.948908], [77.561867, 12.949108], [77.561576, 12.949322], [77.561573, 12.949376], [77.56159, 12.94944], [77.561629, 12.949514], [77.561765, 12.949624], [77.561972, 12.949775], [77.562065, 12.949849], [77.562141, 12.949933], [77.562202, 12.950059], [77.562242, 12.950287], [77.562233, 12.950462], [77.562241, 12.950764], [77.562221, 12.950859], [77.5622, 12.950923], [77.562093, 12.951078], [77.56196, 12.951281], [77.56187, 12.951451], [77.561812, 12.951616], [77.561787, 12.951738], [77.561772, 12.951892], [77.561774, 12.952035], [77.561753, 12.952375], [77.561746, 12.952496], [77.561692, 12.953037], [77.56169, 12.953319], [77.561689, 12.953392], [77.562062, 12.953408], [77.562237, 12.953417], [77.562311, 12.953435], [77.562379, 12.95347], [77.562499, 12.953593], [77.562634, 12.953705], [77.562731, 12.953758], [77.562776, 12.953791], [77.562799, 12.953798], [77.562809, 12.953801], [77.562861, 12.953808], [77.562958, 12.953829], [77.563115, 12.953882], [77.56336, 12.953934], [77.563405, 12.953945], [77.563424, 12.953977], [77.563424, 12.954006], [77.563425, 12.954054], [77.563426, 12.954192], [77.563412, 12.954975], [77.563371, 12.956437], [77.563353, 12.95687], [77.563358, 12.956943], [77.563362, 12.956987], [77.563392, 12.957012], [77.563444, 12.957026], [77.563496, 12.957025], [77.564963, 12.957033], [77.564978, 12.956743], [77.56495, 12.956288], [77.564588, 12.956308], [77.564569, 12.956069], [77.564496, 12.955653], [77.56443, 12.955282], [77.565036, 12.955095], [77.565665, 12.954982], [77.566259, 12.955048], [77.567482, 12.955107], [77.567519, 12.953967], [77.569796, 12.954015], [77.56986, 12.953255], [77.571156, 12.953254], [77.572342, 12.95323], [77.573728, 12.953191], [77.573754, 12.951853], [77.573743, 12.948548], [77.573715, 12.946251], [77.573754, 12.944539]]]}}]}