{"type": "FeatureCollection", "features": [{"type": "Feature", "properties": {"region_id": "ward_276600-179", "name": "Shakambari Nagar", "parent": "zone_276600-6", "parent_name": "South"}, "geometry": {"type": "Polygon", "coordinates": [[[77.579742, 12.923427], [77.579928, 12.923407], [77.580902, 12.923415], [77.582382, 12.923405], [77.584255, 12.923373], [77.585957, 12.923352], [77.585907, 12.920822], [77.585838, 12.917314], [77.585838, 12.917143], [77.585838, 12.916079], [77.585838, 12.91575], [77.585737, 12.912211], [77.585704, 12.910568], [77.583134, 12.910514], [77.580599, 12.910714], [77.577675, 12.910918], [77.574183, 12.91132], [77.572896, 12.911465], [77.572893, 12.91163], [77.572922, 12.91212], [77.572968, 12.912379], [77.573009, 12.912581], [77.573058, 12.912722], [77.573129, 12.912984], [77.573275, 12.913473], [77.573396, 12.914013], [77.573485, 12.914571], [77.57356, 12.915036], [77.573581, 12.915161], [77.573633, 12.91528], [77.57366, 12.915355], [77.573674, 12.915538], [77.573669, 12.915657], [77.57369, 12.915864], [77.573693, 12.915948], [77.5737, 12.916172], [77.5737, 12.916251], [77.573661, 12.916647], [77.573649, 12.916916], [77.573614, 12.91773], [77.573617, 12.918006], [77.573684, 12.918204], [77.573773, 12.918408], [77.574054, 12.919128], [77.574181, 12.919544], [77.574288, 12.919896], [77.574362, 12.920201], [77.574385, 12.920395], [77.574395, 12.920499], [77.574406, 12.92071], [77.574394, 12.920805], [77.574369, 12.92083], [77.574344, 12.920851], [77.574222, 12.920914], [77.574167, 12.920935], [77.573972, 12.92098], [77.573565, 12.921037], [77.573569, 12.921115], [77.573573, 12.922207], [77.573601, 12.923555], [77.574813, 12.923535], [77.576126, 12.923512], [77.577262, 12.923488], [77.579029, 12.92347], [77.57965, 12.923437], [77.579699, 12.923431], [77.579742, 12.923427]]]}}]}