{"type": "FeatureCollection", "features": [{"type": "Feature", "properties": {"region_id": "ward_276600-149", "name": "Varthuru", "parent": "zone_276600-4", "parent_name": "Mahadevapura"}, "geometry": {"type": "Polygon", "coordinates": [[[77.70923, 12.908734], [77.709418, 12.914393], [77.709158, 12.914482], [77.709071, 12.91459], [77.708831, 12.914715], [77.707502, 12.915402], [77.706566, 12.915971], [77.705325, 12.916779], [77.704128, 12.917501], [77.703671, 12.917807], [77.705374, 12.919898], [77.705581, 12.920151], [77.707792, 12.921934], [77.7103, 12.924896], [77.710833, 12.925579], [77.710337, 12.926315], [77.708106, 12.928767], [77.707806, 12.929329], [77.70772, 12.929502], [77.707525, 12.929762], [77.707199, 12.929981], [77.70657, 12.930546], [77.705789, 12.931306], [77.704613, 12.932028], [77.70313, 12.932731], [77.701295, 12.933245], [77.69915, 12.933504], [77.697464, 12.933671], [77.698364, 12.938182], [77.699369, 12.943121], [77.699413, 12.943691], [77.699438, 12.944034], [77.699396, 12.944207], [77.702626, 12.9431], [77.706544, 12.941456], [77.706651, 12.941378], [77.704479, 12.956815], [77.706615, 12.956583], [77.709972, 12.956279], [77.71452, 12.955962], [77.714626, 12.954554], [77.714879, 12.954413], [77.715017, 12.954078], [77.715351, 12.950968], [77.715794, 12.947496], [77.717198, 12.943576], [77.718436, 12.944615], [77.719464, 12.945156], [77.721255, 12.945388], [77.723003, 12.946347], [77.724997, 12.946402], [77.725113, 12.946538], [77.725463, 12.946948], [77.725473, 12.947123], [77.726339, 12.947241], [77.727653, 12.947227], [77.72859, 12.947808], [77.730317, 12.947951], [77.731385, 12.94794], [77.732019, 12.947786], [77.732378, 12.947752], [77.73265, 12.947776], [77.732636, 12.947922], [77.732602, 12.947921], [77.732537, 12.948575], [77.73275, 12.948576], [77.732745, 12.948808], [77.733018, 12.948843], [77.733029, 12.94928], [77.733128, 12.949402], [77.733525, 12.949519], [77.733525, 12.949533], [77.733525, 12.949556], [77.733603, 12.949574], [77.733629, 12.949574], [77.733911, 12.949571], [77.733986, 12.949582], [77.734186, 12.949242], [77.734186, 12.949247], [77.734186, 12.949278], [77.734186, 12.949309], [77.734179, 12.949327], [77.734174, 12.949353], [77.73419, 12.949368], [77.734216, 12.949398], [77.734183, 12.94945], [77.734185, 12.949473], [77.734209, 12.949506], [77.734246, 12.949518], [77.734288, 12.949521], [77.73433, 12.949523], [77.734353, 12.949525], [77.734354, 12.949525], [77.734421, 12.949529], [77.734484, 12.949516], [77.734563, 12.949541], [77.734718, 12.949616], [77.734804, 12.949666], [77.734881, 12.949717], [77.73491, 12.94975], [77.735026, 12.949841], [77.735076, 12.949876], [77.735134, 12.949889], [77.735204, 12.949901], [77.735254, 12.949939], [77.735265, 12.949976], [77.735287, 12.949982], [77.735305, 12.950019], [77.735399, 12.950153], [77.735413, 12.950166], [77.73544, 12.950166], [77.73547, 12.950163], [77.735522, 12.950165], [77.735564, 12.950193], [77.735603, 12.950224], [77.735775, 12.950358], [77.735821, 12.950383], [77.735874, 12.950415], [77.735911, 12.950416], [77.735947, 12.950408], [77.735966, 12.950412], [77.735996, 12.950452], [77.736045, 12.950486], [77.736083, 12.950509], [77.736099, 12.950528], [77.736121, 12.950541], [77.736146, 12.950554], [77.736178, 12.950554], [77.736221, 12.950552], [77.736264, 12.950572], [77.736296, 12.950591], [77.736333, 12.950616], [77.736368, 12.950621], [77.7364, 12.950615], [77.736511, 12.950682], [77.736618, 12.950745], [77.736635, 12.950745], [77.736653, 12.950755], [77.736661, 12.95077], [77.736662, 12.950771], [77.736663, 12.950772], [77.736682, 12.950803], [77.736719, 12.95083], [77.736759, 12.950843], [77.73678, 12.950861], [77.736808, 12.950894], [77.736817, 12.950906], [77.736836, 12.95096], [77.736881, 12.95098], [77.736906, 12.950978], [77.736928, 12.950984], [77.736951, 12.951017], [77.736975, 12.951044], [77.736998, 12.951051], [77.737019, 12.951052], [77.737047, 12.951057], [77.73706, 12.951072], [77.737075, 12.951077], [77.7371, 12.951074], [77.737121, 12.95106], [77.73713, 12.951067], [77.73719, 12.951043], [77.73726, 12.951043], [77.737319, 12.951057], [77.737358, 12.951076], [77.737386, 12.951095], [77.737404, 12.951097], [77.737427, 12.951073], [77.737443, 12.951068], [77.737474, 12.951071], [77.737526, 12.951124], [77.737593, 12.951227], [77.737607, 12.95126], [77.737614, 12.951261], [77.737739, 12.951453], [77.737816, 12.951557], [77.737919, 12.951733], [77.737941, 12.95175], [77.737931, 12.951894], [77.737995, 12.952077], [77.738046, 12.95208], [77.738113, 12.952112], [77.738133, 12.952122], [77.738168, 12.952121], [77.738223, 12.952142], [77.738245, 12.952155], [77.738279, 12.952184], [77.738291, 12.952222], [77.738297, 12.952243], [77.738323, 12.952268], [77.738366, 12.952288], [77.738382, 12.952311], [77.738396, 12.952313], [77.738415, 12.952296], [77.738431, 12.952282], [77.738452, 12.952284], [77.738474, 12.952287], [77.738515, 12.95231], [77.738543, 12.95231], [77.738555, 12.952306], [77.738576, 12.95229], [77.738598, 12.95229], [77.738621, 12.952295], [77.738657, 12.952308], [77.738676, 12.952314], [77.738688, 12.952308], [77.738705, 12.952281], [77.738732, 12.952248], [77.738746, 12.952231], [77.738787, 12.952222], [77.738818, 12.952222], [77.738898, 12.952196], [77.738935, 12.952182], [77.738961, 12.952165], [77.739018, 12.952164], [77.739076, 12.952131], [77.739103, 12.952119], [77.739123, 12.952105], [77.739128, 12.952078], [77.73915, 12.952065], [77.739175, 12.952064], [77.739197, 12.95207], [77.739217, 12.952114], [77.739229, 12.952129], [77.739257, 12.952158], [77.739275, 12.952185], [77.739331, 12.952338], [77.739363, 12.95238], [77.739395, 12.952412], [77.739416, 12.952429], [77.73944, 12.95245], [77.739496, 12.952524], [77.739532, 12.952553], [77.739569, 12.952578], [77.739648, 12.95264], [77.739703, 12.952678], [77.739798, 12.952689], [77.739902, 12.952726], [77.739967, 12.952775], [77.740005, 12.952798], [77.740024, 12.952811], [77.74005, 12.952813], [77.740079, 12.952812], [77.740097, 12.952812], [77.740107, 12.952818], [77.740152, 12.952866], [77.740178, 12.952877], [77.740204, 12.95288], [77.740249, 12.952886], [77.740278, 12.952891], [77.740276, 12.952905], [77.7403, 12.952924], [77.74032, 12.952931], [77.740341, 12.952937], [77.740367, 12.952936], [77.740386, 12.952936], [77.740424, 12.952938], [77.740461, 12.952937], [77.740494, 12.952939], [77.740581, 12.952951], [77.740614, 12.952951], [77.740647, 12.952951], [77.740677, 12.952952], [77.740706, 12.952956], [77.740736, 12.952948], [77.740759, 12.952932], [77.740774, 12.952921], [77.740812, 12.952916], [77.740872, 12.95292], [77.740926, 12.95293], [77.740979, 12.952951], [77.741042, 12.952966], [77.741065, 12.952987], [77.741087, 12.953008], [77.741111, 12.953013], [77.74114, 12.953013], [77.741209, 12.953001], [77.74126, 12.95301], [77.74134, 12.95303], [77.741378, 12.953047], [77.741433, 12.953046], [77.741455, 12.953054], [77.741456, 12.953051], [77.741526, 12.953051], [77.741589, 12.95305], [77.741654, 12.953047], [77.741704, 12.953044], [77.741775, 12.953058], [77.741838, 12.953109], [77.741891, 12.953144], [77.741943, 12.953167], [77.742014, 12.953202], [77.742072, 12.953235], [77.742117, 12.953252], [77.742169, 12.953275], [77.742224, 12.953305], [77.742267, 12.95334], [77.742301, 12.953368], [77.742346, 12.953404], [77.742369, 12.953408], [77.742416, 12.953426], [77.742435, 12.953444], [77.742506, 12.953494], [77.742561, 12.953532], [77.742638, 12.953582], [77.742667, 12.953605], [77.742678, 12.953636], [77.742704, 12.953669], [77.742738, 12.953702], [77.742762, 12.95374], [77.742868, 12.953875], [77.742934, 12.953913], [77.742979, 12.95393], [77.743008, 12.95395], [77.743071, 12.954034], [77.743098, 12.954062], [77.743103, 12.954084], [77.743201, 12.954151], [77.74318, 12.954232], [77.743132, 12.954311], [77.74316, 12.954355], [77.743213, 12.954393], [77.743245, 12.954461], [77.743354, 12.954846], [77.743396, 12.954883], [77.743435, 12.954913], [77.743498, 12.955005], [77.743588, 12.955274], [77.743635, 12.955355], [77.74371, 12.955601], [77.743774, 12.955662], [77.743834, 12.9557], [77.743841, 12.955736], [77.743852, 12.955756], [77.743863, 12.955808], [77.74386, 12.955849], [77.743895, 12.95593], [77.743955, 12.955977], [77.744025, 12.956021], [77.74404, 12.956069], [77.744048, 12.956147], [77.744236, 12.95648], [77.744296, 12.956521], [77.744334, 12.956527], [77.744369, 12.956568], [77.744422, 12.956639], [77.744461, 12.956639], [77.744527, 12.956638], [77.744576, 12.956637], [77.744672, 12.956643], [77.744674, 12.956647], [77.744678, 12.956655], [77.744729, 12.95666], [77.744848, 12.956703], [77.745017, 12.956811], [77.745038, 12.956846], [77.745117, 12.956908], [77.745397, 12.957184], [77.745452, 12.95724], [77.745484, 12.957247], [77.745502, 12.957237], [77.745504, 12.957216], [77.745504, 12.957157], [77.745503, 12.957111], [77.745511, 12.957029], [77.746665, 12.95875], [77.747736, 12.958429], [77.748209, 12.958362], [77.748053, 12.955887], [77.748065, 12.955875], [77.74833, 12.955821], [77.74839, 12.95581], [77.748704, 12.955799], [77.749049, 12.955813], [77.749214, 12.955794], [77.749486, 12.955809], [77.749501, 12.955809], [77.749771, 12.956765], [77.750437, 12.956975], [77.753259, 12.957844], [77.755771, 12.95861], [77.756065, 12.958757], [77.756524, 12.958947], [77.756779, 12.959084], [77.756866, 12.959117], [77.756874, 12.95912], [77.756919, 12.959052], [77.756968, 12.959024], [77.75703, 12.959041], [77.757087, 12.959105], [77.757154, 12.959152], [77.757238, 12.959172], [77.757412, 12.95918], [77.757503, 12.959227], [77.757556, 12.959271], [77.757588, 12.959325], [77.757602, 12.959401], [77.757625, 12.95941], [77.759018, 12.959947], [77.759055, 12.959961], [77.765665, 12.962516], [77.767635, 12.963487], [77.767946, 12.96305], [77.770307, 12.962688], [77.770487, 12.961944], [77.770275, 12.961054], [77.769054, 12.960323], [77.767309, 12.960292], [77.765563, 12.960767], [77.76537, 12.960656], [77.765354, 12.960647], [77.765392, 12.960281], [77.765507, 12.959507], [77.76546, 12.95898], [77.765167, 12.958698], [77.764539, 12.958136], [77.764297, 12.957945], [77.764463, 12.955389], [77.765411, 12.948563], [77.765569, 12.946585], [77.765477, 12.945256], [77.765428, 12.944727], [77.765309, 12.942103], [77.765494, 12.937026], [77.765816, 12.936226], [77.766318, 12.935365], [77.766343, 12.934951], [77.766068, 12.934512], [77.765941, 12.933923], [77.765602, 12.933219], [77.765679, 12.932008], [77.764681, 12.928802], [77.763627, 12.928637], [77.762119, 12.928298], [77.760187, 12.92767], [77.757076, 12.926522], [77.754693, 12.925869], [77.752551, 12.925361], [77.75249, 12.925017], [77.752359, 12.924409], [77.751797, 12.922342], [77.751545, 12.921979], [77.751167, 12.921577], [77.750669, 12.92146], [77.749675, 12.92147], [77.749177, 12.921476], [77.748555, 12.921401], [77.747888, 12.921042], [77.747303, 12.920601], [77.746718, 12.92016], [77.746217, 12.9198], [77.745249, 12.918388], [77.74499, 12.917455], [77.744853, 12.916319], [77.734615, 12.915939], [77.728272, 12.915558], [77.727031, 12.908174], [77.719479, 12.910935], [77.71652, 12.909299], [77.715368, 12.910083], [77.70923, 12.908734]]]}}]}