{"type": "FeatureCollection", "features": [{"type": "Feature", "properties": {"region_id": "ward_276600-21", "name": "Hebbala", "parent": "zone_276600-3", "parent_name": "East"}, "geometry": {"type": "Polygon", "coordinates": [[[77.596225, 13.03922], [77.596276, 13.038927], [77.596443, 13.03851], [77.596482, 13.038294], [77.596569, 13.038085], [77.596664, 13.037821], [77.596711, 13.037644], [77.596798, 13.037396], [77.59687, 13.037267], [77.596975, 13.037154], [77.597162, 13.037105], [77.597324, 13.037007], [77.597405, 13.03695], [77.597452, 13.036806], [77.597491, 13.036667], [77.597462, 13.036643], [77.597347, 13.036396], [77.597255, 13.036153], [77.597192, 13.03602], [77.59714, 13.035921], [77.597104, 13.035865], [77.597075, 13.035848], [77.597042, 13.035848], [77.596995, 13.035852], [77.597114, 13.035741], [77.59735, 13.03568], [77.597738, 13.035627], [77.598228, 13.035531], [77.598557, 13.035444], [77.5988, 13.035378], [77.598825, 13.035346], [77.598904, 13.035313], [77.599062, 13.035276], [77.599228, 13.03525], [77.59988, 13.035155], [77.600152, 13.035105], [77.600591, 13.035034], [77.600989, 13.03503], [77.601403, 13.035059], [77.60181, 13.03513], [77.602207, 13.035122], [77.602141, 13.035066], [77.602077, 13.035002], [77.602046, 13.03492], [77.601978, 13.034718], [77.601965, 13.03461], [77.601964, 13.034499], [77.601964, 13.034462], [77.601961, 13.034432], [77.601952, 13.034391], [77.601935, 13.034351], [77.601885, 13.034292], [77.601804, 13.034228], [77.601637, 13.034118], [77.601543, 13.034049], [77.60149, 13.034009], [77.601434, 13.033961], [77.601392, 13.033926], [77.601362, 13.033899], [77.601289, 13.03383], [77.601239, 13.033792], [77.601117, 13.033734], [77.601045, 13.033718], [77.601012, 13.033719], [77.600987, 13.033719], [77.600896, 13.033701], [77.600854, 13.033669], [77.600813, 13.033637], [77.600726, 13.03354], [77.600673, 13.033498], [77.600606, 13.033441], [77.60054, 13.033407], [77.600498, 13.033394], [77.600473, 13.033381], [77.60044, 13.033357], [77.600376, 13.033319], [77.600246, 13.03328], [77.600215, 13.033277], [77.600155, 13.033276], [77.59981, 13.033248], [77.599495, 13.033263], [77.599192, 13.033266], [77.598901, 13.033269], [77.598694, 13.033188], [77.598463, 13.033119], [77.598232, 13.033014], [77.598098, 13.032909], [77.597975, 13.032779], [77.597828, 13.032638], [77.597683, 13.032592], [77.597476, 13.032523], [77.597343, 13.032524], [77.597003, 13.032528], [77.596616, 13.032532], [77.596495, 13.032533], [77.596361, 13.032534], [77.596215, 13.032441], [77.596093, 13.032335], [77.595765, 13.032255], [77.595666, 13.032113], [77.595616, 13.031912], [77.595565, 13.031699], [77.595538, 13.031414], [77.595558, 13.031022], [77.595568, 13.030796], [77.595564, 13.030446], [77.596475, 13.03041], [77.596487, 13.030059], [77.596118, 13.030077], [77.596002, 13.030092], [77.596007, 13.029924], [77.596001, 13.029366], [77.595887, 13.028892], [77.595847, 13.028488], [77.595797, 13.028358], [77.595449, 13.028416], [77.595383, 13.02843], [77.595067, 13.028501], [77.594805, 13.028546], [77.59439, 13.028595], [77.59416, 13.028588], [77.593676, 13.028587], [77.593655, 13.028509], [77.592634, 13.028713], [77.592633, 13.028713], [77.592235, 13.028792], [77.591872, 13.028896], [77.591837, 13.028774], [77.591646, 13.027779], [77.59108, 13.027707], [77.590628, 13.02769], [77.590529, 13.027901], [77.590308, 13.028357], [77.589996, 13.028826], [77.590133, 13.028913], [77.590327, 13.029144], [77.590453, 13.029286], [77.590836, 13.029216], [77.590874, 13.029636], [77.590175, 13.029688], [77.588493, 13.029815], [77.588233, 13.028721], [77.587679, 13.028661], [77.587415, 13.028649], [77.587409, 13.028563], [77.58656, 13.028536], [77.586187, 13.028545], [77.586208, 13.028594], [77.586455, 13.029206], [77.586886, 13.030313], [77.587292, 13.031238], [77.587867, 13.032559], [77.588166, 13.033178], [77.588216, 13.033312], [77.588266, 13.033477], [77.588392, 13.034026], [77.588496, 13.034407], [77.588638, 13.034821], [77.588766, 13.035225], [77.589106, 13.036089], [77.589156, 13.036221], [77.589195, 13.036389], [77.589202, 13.036768], [77.589237, 13.037612], [77.589228, 13.037845], [77.589265, 13.038266], [77.589335, 13.03859], [77.58937, 13.038838], [77.589463, 13.03928], [77.589638, 13.040229], [77.589847, 13.040173], [77.590321, 13.040136], [77.590738, 13.040023], [77.590925, 13.040022], [77.590992, 13.040075], [77.59107, 13.040182], [77.591182, 13.040332], [77.591382, 13.040428], [77.591504, 13.040513], [77.591614, 13.040512], [77.59169, 13.040392], [77.591766, 13.040294], [77.591875, 13.040217], [77.591985, 13.040184], [77.592183, 13.04016], [77.5927, 13.040079], [77.593118, 13.039989], [77.59358, 13.039909], [77.594263, 13.039826], [77.594724, 13.039681], [77.59513, 13.039526], [77.595537, 13.039392], [77.596119, 13.039246], [77.596225, 13.03922]]]}}]}