{"type": "FeatureCollection", "features": [{"type": "Feature", "properties": {"region_id": "ward_276600-41", "name": "Peenya Industrial Area", "parent": "zone_276600-2", "parent_name": "Dasarahalli"}, "geometry": {"type": "Polygon", "coordinates": [[[77.51971, 13.02846], [77.519943, 13.027893], [77.520286, 13.027034], [77.520594, 13.026235], [77.520859, 13.025578], [77.521133, 13.024878], [77.521385, 13.0242], [77.52151, 13.023962], [77.521566, 13.023884], [77.521692, 13.02375], [77.52191, 13.023568], [77.522848, 13.02298], [77.522995, 13.022888], [77.523813, 13.022518], [77.524687, 13.022212], [77.525662, 13.02188], [77.526636, 13.021582], [77.52672, 13.021551], [77.52681, 13.021518], [77.526583, 13.021367], [77.526327, 13.021163], [77.525614, 13.020682], [77.525535, 13.020631], [77.524324, 13.019846], [77.523111, 13.019112], [77.523047, 13.019072], [77.523, 13.019061], [77.522952, 13.019033], [77.522841, 13.018988], [77.522221, 13.018432], [77.522009, 13.018314], [77.521944, 13.018268], [77.521932, 13.018194], [77.521948, 13.018108], [77.52203, 13.016954], [77.522155, 13.015943], [77.52226, 13.015433], [77.522383, 13.014833], [77.522565, 13.014269], [77.522861, 13.013486], [77.523009, 13.013027], [77.523026, 13.012975], [77.523017, 13.012919], [77.522946, 13.012799], [77.522922, 13.012755], [77.522924, 13.012621], [77.522911, 13.012634], [77.522892, 13.012562], [77.522831, 13.012458], [77.522759, 13.012452], [77.522693, 13.01245], [77.522475, 13.012436], [77.522323, 13.012433], [77.522074, 13.012429], [77.52176, 13.012393], [77.521746, 13.012393], [77.521737, 13.012401], [77.521722, 13.012457], [77.5215, 13.012383], [77.521478, 13.012385], [77.521455, 13.012406], [77.521377, 13.012481], [77.521241, 13.01266], [77.521206, 13.01265], [77.521167, 13.012625], [77.521153, 13.012618], [77.521103, 13.012596], [77.521068, 13.012586], [77.520891, 13.012529], [77.520711, 13.012493], [77.520422, 13.012477], [77.52024, 13.012482], [77.520021, 13.012519], [77.519915, 13.01256], [77.519769, 13.01261], [77.519618, 13.012654], [77.519452, 13.012676], [77.519119, 13.012702], [77.518885, 13.012706], [77.51858, 13.012713], [77.518049, 13.012775], [77.518017, 13.012781], [77.516412, 13.013021], [77.516432, 13.013136], [77.515796, 13.013387], [77.515094, 13.013624], [77.514879, 13.013688], [77.514479, 13.015278], [77.514192, 13.015202], [77.513935, 13.015134], [77.513902, 13.015233], [77.513638, 13.015308], [77.513394, 13.015373], [77.512805, 13.015633], [77.512578, 13.015729], [77.512216, 13.01588], [77.511635, 13.016134], [77.511411, 13.016202], [77.511324, 13.016018], [77.511155, 13.015661], [77.510942, 13.01524], [77.510428, 13.014188], [77.510058, 13.013685], [77.509576, 13.013005], [77.509115, 13.012414], [77.508572, 13.011745], [77.508285, 13.011566], [77.507837, 13.01137], [77.507289, 13.011111], [77.506982, 13.011011], [77.506637, 13.010537], [77.506529, 13.0104], [77.506238, 13.009927], [77.506127, 13.009876], [77.506108, 13.009889], [77.506074, 13.009898], [77.505991, 13.009895], [77.505565, 13.009829], [77.505284, 13.00982], [77.504711, 13.009771], [77.504016, 13.00971], [77.50312, 13.009628], [77.502446, 13.00957], [77.502355, 13.0092], [77.502215, 13.008329], [77.501993, 13.007331], [77.501704, 13.007446], [77.501126, 13.007693], [77.500654, 13.008068], [77.499971, 13.008377], [77.499418, 13.00852], [77.498945, 13.008715], [77.498517, 13.009004], [77.498008, 13.009164], [77.49778, 13.009261], [77.497474, 13.009424], [77.498187, 13.0102], [77.498273, 13.010294], [77.499756, 13.011907], [77.499873, 13.012022], [77.499874, 13.012117], [77.499847, 13.012226], [77.499815, 13.012443], [77.499692, 13.012621], [77.499519, 13.01298], [77.499023, 13.013915], [77.498754, 13.014648], [77.498455, 13.015438], [77.498273, 13.016048], [77.497698, 13.017637], [77.497662, 13.017731], [77.4976, 13.017774], [77.49738, 13.017837], [77.497181, 13.017904], [77.497061, 13.017844], [77.496956, 13.017819], [77.496833, 13.017838], [77.496702, 13.017873], [77.496527, 13.017935], [77.496378, 13.018006], [77.496225, 13.018059], [77.496024, 13.018112], [77.495914, 13.018135], [77.495744, 13.018223], [77.495644, 13.018292], [77.495601, 13.018349], [77.495591, 13.018441], [77.49536, 13.019302], [77.495269, 13.019832], [77.495092, 13.020096], [77.494948, 13.020205], [77.4948, 13.020344], [77.494691, 13.020418], [77.494216, 13.020763], [77.494064, 13.020894], [77.493903, 13.020998], [77.493806, 13.020999], [77.493771, 13.021], [77.493701, 13.021005], [77.493614, 13.021066], [77.493549, 13.021152], [77.493541, 13.021299], [77.493707, 13.021676], [77.493814, 13.021774], [77.494026, 13.021909], [77.494225, 13.022037], [77.494393, 13.022241], [77.494692, 13.022677], [77.494794, 13.022818], [77.494889, 13.02311], [77.494979, 13.023294], [77.495086, 13.023483], [77.495169, 13.023852], [77.495407, 13.024912], [77.495726, 13.026037], [77.496071, 13.027221], [77.496296, 13.028161], [77.496313, 13.028225], [77.496535, 13.028293], [77.496734, 13.028388], [77.497118, 13.028731], [77.49778, 13.02899], [77.498289, 13.029189], [77.499423, 13.029586], [77.500185, 13.029871], [77.501275, 13.03034], [77.50213, 13.030801], [77.502803, 13.031158], [77.503675, 13.031584], [77.504253, 13.031508], [77.504993, 13.031403], [77.505607, 13.031291], [77.50613, 13.031108], [77.507346, 13.030689], [77.508311, 13.030396], [77.509231, 13.030192], [77.510224, 13.029996], [77.510509, 13.031968], [77.51238, 13.031533], [77.515373, 13.030866], [77.515109, 13.029423], [77.514791, 13.027661], [77.514614, 13.026451], [77.515179, 13.026694], [77.516091, 13.027069], [77.517706, 13.027718], [77.517807, 13.027759], [77.518973, 13.028199], [77.51971, 13.02846]]]}}]}