{"type": "FeatureCollection", "features": [{"type": "Feature", "properties": {"region_id": "ward_276600-138", "name": "Chalavadipalya", "parent": "zone_276600-7", "parent_name": "West"}, "geometry": {"type": "Polygon", "coordinates": [[[77.568043, 12.968214], [77.568044, 12.968173], [77.568048, 12.968095], [77.568099, 12.967277], [77.568093, 12.967135], [77.568096, 12.966973], [77.568101, 12.96669], [77.568203, 12.965102], [77.56834, 12.963719], [77.566927, 12.963169], [77.566093, 12.962947], [77.565157, 12.962636], [77.563937, 12.96223], [77.562489, 12.96169], [77.561123, 12.961639], [77.560873, 12.961629], [77.560119, 12.961529], [77.55982, 12.961451], [77.559223, 12.961325], [77.559091, 12.961298], [77.559364, 12.961533], [77.560017, 12.962365], [77.560656, 12.963206], [77.560751, 12.963322], [77.561777, 12.964664], [77.562114, 12.965079], [77.562454, 12.965572], [77.562784, 12.966033], [77.563142, 12.96667], [77.56362, 12.96739], [77.564149, 12.968114], [77.564353, 12.968385], [77.564962, 12.968191], [77.565067, 12.968142], [77.565205, 12.96793], [77.565319, 12.967704], [77.565567, 12.967491], [77.565576, 12.967419], [77.56554, 12.967261], [77.565503, 12.967092], [77.565524, 12.966849], [77.565534, 12.966736], [77.56577, 12.966765], [77.56602, 12.966794], [77.566164, 12.966775], [77.566312, 12.966729], [77.566406, 12.966714], [77.566446, 12.967152], [77.567, 12.966977], [77.567756, 12.966974], [77.567755, 12.967215], [77.567931, 12.967223], [77.567868, 12.968224], [77.568043, 12.968214]]]}}]}