{"type": "FeatureCollection", "features": [{"type": "Feature", "properties": {"region_id": "ward_276600-197", "name": "Vasanthpura", "parent": "zone_276600-1", "parent_name": "Bommanahalli"}, "geometry": {"type": "MultiPolygon", "coordinates": [[[[77.553221, 12.903474], [77.553704, 12.903343], [77.553919, 12.903346], [77.554239, 12.903319], [77.554453, 12.903347], [77.554661, 12.903376], [77.554856, 12.903405], [77.554994, 12.903404], [77.555082, 12.903397], [77.555216, 12.903345], [77.555846, 12.903166], [77.555884, 12.903148], [77.55614, 12.903103], [77.556322, 12.903046], [77.556359, 12.90299], [77.556186, 12.902249], [77.556702, 12.902126], [77.556335, 12.900853], [77.555724, 12.898888], [77.555698, 12.898537], [77.555693, 12.898042], [77.555294, 12.89775], [77.555665, 12.897496], [77.555787, 12.897412], [77.555645, 12.897249], [77.555547, 12.897133], [77.555311, 12.89685], [77.555162, 12.896673], [77.554922, 12.896368], [77.555295, 12.896078], [77.556108, 12.89572], [77.556442, 12.895579], [77.556511, 12.895571], [77.556703, 12.89552], [77.556955, 12.895446], [77.557051, 12.895408], [77.557395, 12.895257], [77.557854, 12.895053], [77.558064, 12.894953], [77.558171, 12.894907], [77.558228, 12.894892], [77.558286, 12.894906], [77.558333, 12.894958], [77.558345, 12.895003], [77.558376, 12.895086], [77.558428, 12.895232], [77.558458, 12.895251], [77.558516, 12.895254], [77.55857, 12.895254], [77.558666, 12.895241], [77.558827, 12.895217], [77.558903, 12.89519], [77.558953, 12.895167], [77.558979, 12.895137], [77.559017, 12.895065], [77.55905, 12.894865], [77.559144, 12.894284], [77.559629, 12.894195], [77.559484, 12.893491], [77.560603, 12.893294], [77.560805, 12.893259], [77.560983, 12.893236], [77.561032, 12.893658], [77.561276, 12.893604], [77.561418, 12.893922], [77.561502, 12.893891], [77.561811, 12.893849], [77.561935, 12.89421], [77.562414, 12.894254], [77.563422, 12.894156], [77.564449, 12.894038], [77.565785, 12.893888], [77.567482, 12.893822], [77.568091, 12.893826], [77.568128, 12.893806], [77.568361, 12.89408], [77.568424, 12.894067], [77.5687, 12.89399], [77.570647, 12.89416], [77.571795, 12.894228], [77.571902, 12.893137], [77.572084, 12.892139], [77.571922, 12.891313], [77.571555, 12.890274], [77.570478, 12.890266], [77.570075, 12.890223], [77.570066, 12.890169], [77.569425, 12.890051], [77.569579, 12.888887], [77.568655, 12.888858], [77.568704, 12.888237], [77.568714, 12.887718], [77.568772, 12.88719], [77.568801, 12.886927], [77.568808, 12.886613], [77.568443, 12.886665], [77.567852, 12.886675], [77.567146, 12.886636], [77.567085, 12.88622], [77.566662, 12.886249], [77.566575, 12.886253], [77.566812, 12.885685], [77.566925, 12.885565], [77.566911, 12.885283], [77.566919, 12.884883], [77.566819, 12.884519], [77.566729, 12.883943], [77.566498, 12.883593], [77.56629, 12.883218], [77.566142, 12.88282], [77.566079, 12.88255], [77.565864, 12.882564], [77.565122, 12.882724], [77.564739, 12.88281], [77.563806, 12.883031], [77.563387, 12.883106], [77.563111, 12.883097], [77.562893, 12.882875], [77.562746, 12.882535], [77.562683, 12.882242], [77.562662, 12.881985], [77.562988, 12.881773], [77.563023, 12.881434], [77.563079, 12.881264], [77.563193, 12.881225], [77.563347, 12.881261], [77.563405, 12.881261], [77.563654, 12.881277], [77.563768, 12.881201], [77.563983, 12.881088], [77.56454, 12.880977], [77.564934, 12.880773], [77.565232, 12.880617], [77.565554, 12.880449], [77.565806, 12.880388], [77.566111, 12.880357], [77.566012, 12.879468], [77.566042, 12.879053], [77.567322, 12.878823], [77.567411, 12.879043], [77.5675, 12.879171], [77.567525, 12.879256], [77.567746, 12.879192], [77.567657, 12.87898], [77.567698, 12.878969], [77.567888, 12.878838], [77.567995, 12.878684], [77.567956, 12.87839], [77.567832, 12.878003], [77.567732, 12.877675], [77.567536, 12.87723], [77.567364, 12.876832], [77.567254, 12.876633], [77.566807, 12.876526], [77.565145, 12.877107], [77.563846, 12.877514], [77.563725, 12.877519], [77.563194, 12.877539], [77.562945, 12.877523], [77.562464, 12.877377], [77.561613, 12.876615], [77.561342, 12.876335], [77.561167, 12.876111], [77.560814, 12.875325], [77.560718, 12.875307], [77.560431, 12.87531], [77.56003, 12.875539], [77.559269, 12.876092], [77.559059, 12.876151], [77.558829, 12.876115], [77.558426, 12.876119], [77.556503, 12.875896], [77.556334, 12.875876], [77.555912, 12.875843], [77.555645, 12.875902], [77.555474, 12.876129], [77.555362, 12.876356], [77.554717, 12.877058], [77.554679, 12.877115], [77.554373, 12.877118], [77.552073, 12.877178], [77.551329, 12.876762], [77.551315, 12.876793], [77.551226, 12.876989], [77.551145, 12.877189], [77.55107, 12.87739], [77.551003, 12.877594], [77.550942, 12.877801], [77.550889, 12.878009], [77.550843, 12.878218], [77.550803, 12.878429], [77.550772, 12.878642], [77.550747, 12.878855], [77.55073, 12.879069], [77.55072, 12.879283], [77.550718, 12.879498], [77.550723, 12.879712], [77.550735, 12.879926], [77.550754, 12.88014], [77.550774, 12.880265], [77.550787, 12.880391], [77.550794, 12.880517], [77.550794, 12.880643], [77.550787, 12.880769], [77.550774, 12.880895], [77.550755, 12.881019], [77.550729, 12.881143], [77.550697, 12.881265], [77.550658, 12.881386], [77.550614, 12.881504], [77.550563, 12.88162], [77.550506, 12.881734], [77.550444, 12.881844], [77.550376, 12.881951], [77.550302, 12.882055], [77.55023, 12.882111], [77.550163, 12.882173], [77.5501, 12.882239], [77.550043, 12.88231], [77.549992, 12.882385], [77.549946, 12.882463], [77.549907, 12.882545], [77.549874, 12.882629], [77.549847, 12.882716], [77.549828, 12.882804], [77.549815, 12.882893], [77.54981, 12.882984], [77.549811, 12.883074], [77.549819, 12.883164], [77.549835, 12.883253], [77.549857, 12.883341], [77.549886, 12.883426], [77.549938, 12.883509], [77.549984, 12.883594], [77.550024, 12.883683], [77.550057, 12.883774], [77.550083, 12.883867], [77.550103, 12.883962], [77.550116, 12.884058], [77.550121, 12.884155], [77.55012, 12.884251], [77.550112, 12.884348], [77.550096, 12.884443], [77.550074, 12.884538], [77.550045, 12.88463], [77.550009, 12.88472], [77.549967, 12.884808], [77.549918, 12.884892], [77.549864, 12.884973], [77.549803, 12.885049], [77.549738, 12.885122], [77.549667, 12.885189], [77.549592, 12.885251], [77.549512, 12.885308], [77.549428, 12.885359], [77.549341, 12.885405], [77.54925, 12.885444], [77.548978, 12.88561], [77.548703, 12.885771], [77.548424, 12.885926], [77.548143, 12.886076], [77.547858, 12.88622], [77.54757, 12.886358], [77.549928, 12.888874], [77.549242, 12.889707], [77.548503, 12.891135], [77.548438, 12.892049], [77.548064, 12.893067], [77.548108, 12.894473], [77.548323, 12.895283], [77.549458, 12.897954], [77.550147, 12.900282], [77.550149, 12.90047], [77.550268, 12.900556], [77.550357, 12.90054], [77.550519, 12.90051], [77.550624, 12.900639], [77.550655, 12.900828], [77.550539, 12.901046], [77.550452, 12.901192], [77.550454, 12.901366], [77.550455, 12.901482], [77.550538, 12.901692], [77.550639, 12.901635], [77.550796, 12.901466], [77.550998, 12.901163], [77.551154, 12.900872], [77.551199, 12.900782], [77.551243, 12.900703], [77.55131, 12.900547], [77.551343, 12.900424], [77.551512, 12.900333], [77.551683, 12.900309], [77.551741, 12.900464], [77.551743, 12.900643], [77.551643, 12.900867], [77.55153, 12.900979], [77.55135, 12.901115], [77.551137, 12.901385], [77.551083, 12.901664], [77.551109, 12.902054], [77.551292, 12.902119], [77.551587, 12.902116], [77.551882, 12.902069], [77.552201, 12.902077], [77.552439, 12.902074], [77.552745, 12.901982], [77.553221, 12.903474]]], [[[77.550614, 12.915831], [77.550492, 12.915351], [77.55155, 12.915143], [77.551852, 12.915084], [77.552287, 12.914968], [77.552559, 12.914858], [77.55325, 12.914564], [77.553532, 12.91443], [77.553581, 12.91441], [77.553591, 12.914362], [77.553575, 12.914313], [77.55349, 12.914207], [77.553349, 12.914038], [77.553254, 12.913917], [77.553178, 12.913787], [77.552884, 12.913142], [77.552716, 12.912779], [77.55258, 12.912552], [77.552327, 12.912092], [77.55228, 12.91201], [77.552258, 12.911955], [77.552254, 12.911943], [77.552251, 12.911932], [77.552251, 12.911924], [77.552251, 12.911915], [77.552251, 12.911906], [77.552251, 12.911898], [77.552251, 12.911887], [77.552252, 12.911874], [77.552255, 12.911857], [77.55226, 12.911846], [77.552265, 12.911836], [77.55229, 12.911805], [77.552339, 12.911785], [77.552433, 12.91176], [77.552943, 12.911648], [77.553704, 12.911466], [77.554036, 12.911404], [77.554151, 12.911375], [77.554204, 12.911371], [77.554285, 12.911374], [77.554359, 12.911389], [77.554457, 12.91142], [77.554571, 12.911467], [77.554685, 12.911514], [77.554771, 12.911557], [77.554873, 12.911594], [77.554947, 12.911593], [77.555121, 12.911583], [77.555518, 12.911506], [77.555599, 12.911499], [77.55571, 12.911495], [77.55581, 12.91151], [77.555861, 12.911526], [77.555897, 12.91154], [77.555799, 12.911384], [77.555506, 12.910763], [77.555211, 12.910137], [77.555098, 12.909951], [77.554963, 12.909695], [77.554871, 12.909545], [77.554675, 12.909544], [77.554652, 12.90936], [77.55464, 12.909196], [77.554639, 12.909131], [77.554625, 12.90909], [77.554571, 12.90901], [77.554526, 12.90895], [77.554321, 12.908354], [77.55412, 12.907836], [77.553995, 12.907533], [77.553572, 12.906329], [77.552558, 12.906723], [77.552014, 12.906996], [77.551648, 12.90712], [77.551408, 12.907187], [77.551056, 12.907292], [77.55037, 12.90747], [77.549953, 12.907603], [77.549414, 12.907745], [77.549261, 12.907786], [77.549765, 12.908946], [77.549766, 12.909031], [77.549586, 12.909369], [77.549219, 12.909151], [77.548301, 12.909451], [77.547675, 12.909624], [77.547083, 12.909748], [77.547129, 12.910017], [77.547103, 12.910851], [77.546405, 12.910631], [77.545681, 12.91036], [77.54551, 12.910446], [77.545399, 12.91043], [77.545191, 12.910314], [77.544907, 12.910207], [77.544799, 12.910145], [77.54458, 12.910057], [77.544409, 12.910126], [77.544376, 12.910217], [77.544682, 12.911717], [77.54499, 12.911672], [77.5451, 12.912345], [77.545426, 12.912283], [77.545829, 12.912212], [77.545945, 12.912615], [77.546373, 12.912493], [77.546568, 12.913156], [77.546738, 12.913761], [77.547033, 12.914929], [77.546073, 12.915124], [77.545783, 12.915312], [77.545312, 12.915409], [77.545334, 12.915775], [77.545324, 12.915966], [77.545747, 12.915884], [77.546003, 12.916252], [77.546375, 12.916855], [77.54654, 12.917291], [77.546729, 12.918049], [77.546777, 12.918247], [77.54679, 12.918326], [77.547032, 12.918282], [77.547414, 12.918209], [77.547528, 12.918175], [77.547687, 12.918174], [77.547851, 12.918167], [77.548091, 12.918132], [77.548451, 12.918085], [77.548601, 12.918068], [77.548584, 12.917991], [77.548574, 12.917947], [77.54853, 12.917813], [77.54848, 12.917585], [77.548455, 12.917468], [77.548397, 12.917216], [77.548185, 12.917241], [77.548135, 12.917129], [77.548108, 12.917046], [77.54805, 12.916798], [77.547999, 12.91658], [77.547999, 12.916526], [77.548001, 12.916502], [77.54801, 12.916487], [77.548034, 12.916469], [77.548079, 12.916462], [77.548183, 12.916451], [77.548387, 12.91643], [77.548457, 12.916426], [77.548499, 12.91642], [77.548536, 12.916415], [77.548676, 12.916367], [77.54888, 12.916313], [77.549168, 12.916219], [77.549472, 12.916131], [77.550472, 12.915871], [77.550614, 12.915831]]]]}}]}