{"type": "FeatureCollection", "features": [{"type": "Feature", "properties": {"region_id": "ward_276600-184", "name": "Uttarahalli", "parent": "zone_276600-1", "parent_name": "Bommanahalli"}, "geometry": {"type": "Polygon", "coordinates": [[[77.538974, 12.920194], [77.538963, 12.920158], [77.538955, 12.920101], [77.538849, 12.919884], [77.538816, 12.919787], [77.538801, 12.919745], [77.538777, 12.919722], [77.538753, 12.9197], [77.538724, 12.919679], [77.538694, 12.919639], [77.538657, 12.919573], [77.538625, 12.919493], [77.538612, 12.91942], [77.538605, 12.91937], [77.538611, 12.919318], [77.538651, 12.919237], [77.538728, 12.919135], [77.538785, 12.919042], [77.538808, 12.918951], [77.538841, 12.918875], [77.53886, 12.918837], [77.538869, 12.918792], [77.538864, 12.918738], [77.538832, 12.918686], [77.538798, 12.918651], [77.538632, 12.918475], [77.538546, 12.918402], [77.538515, 12.918376], [77.538476, 12.918367], [77.538447, 12.918368], [77.538425, 12.918365], [77.538396, 12.918349], [77.538389, 12.918323], [77.538388, 12.918273], [77.538383, 12.918245], [77.538383, 12.918207], [77.538382, 12.918167], [77.538384, 12.918134], [77.538406, 12.918098], [77.538478, 12.918043], [77.538718, 12.917906], [77.53891, 12.917809], [77.53903, 12.917732], [77.539098, 12.917673], [77.539142, 12.917631], [77.539231, 12.917602], [77.539251, 12.917602], [77.539289, 12.917602], [77.539354, 12.917601], [77.539396, 12.917605], [77.539531, 12.917637], [77.539667, 12.917697], [77.539902, 12.917821], [77.540084, 12.917895], [77.540558, 12.918153], [77.540895, 12.918349], [77.541106, 12.918446], [77.541135, 12.91845], [77.541155, 12.918453], [77.541205, 12.918469], [77.541225, 12.918478], [77.541273, 12.918501], [77.541417, 12.918599], [77.541623, 12.918732], [77.541698, 12.918753], [77.541745, 12.918772], [77.541762, 12.918782], [77.541792, 12.918807], [77.541808, 12.918825], [77.541809, 12.918842], [77.541816, 12.918859], [77.541825, 12.918875], [77.541834, 12.918889], [77.541837, 12.918901], [77.541853, 12.918904], [77.541918, 12.91889], [77.542019, 12.918863], [77.541996, 12.91879], [77.54198, 12.918706], [77.541967, 12.918512], [77.541965, 12.918486], [77.542871, 12.917857], [77.54311, 12.917693], [77.54318, 12.917653], [77.543311, 12.917619], [77.543447, 12.917623], [77.543948, 12.917586], [77.544395, 12.917552], [77.54442, 12.917551], [77.544722, 12.917536], [77.5448, 12.918297], [77.545675, 12.918204], [77.545926, 12.91816], [77.546206, 12.918127], [77.546402, 12.918098], [77.546729, 12.918049], [77.54654, 12.917291], [77.546375, 12.916855], [77.546003, 12.916252], [77.545747, 12.915884], [77.545324, 12.915966], [77.545334, 12.915775], [77.545312, 12.915409], [77.545783, 12.915312], [77.546073, 12.915124], [77.547033, 12.914929], [77.546738, 12.913761], [77.546568, 12.913156], [77.546373, 12.912493], [77.545945, 12.912615], [77.545829, 12.912212], [77.545426, 12.912283], [77.5451, 12.912345], [77.54499, 12.911672], [77.544682, 12.911717], [77.544376, 12.910217], [77.544409, 12.910126], [77.54458, 12.910057], [77.544799, 12.910145], [77.544907, 12.910207], [77.545191, 12.910314], [77.545399, 12.91043], [77.54551, 12.910446], [77.545681, 12.91036], [77.546405, 12.910631], [77.547103, 12.910851], [77.547129, 12.910017], [77.547083, 12.909748], [77.547675, 12.909624], [77.548301, 12.909451], [77.549219, 12.909151], [77.549586, 12.909369], [77.549766, 12.909031], [77.549765, 12.908946], [77.549261, 12.907786], [77.549249, 12.907735], [77.549174, 12.90756], [77.548793, 12.90669], [77.54857, 12.906022], [77.548404, 12.905497], [77.548264, 12.904703], [77.548223, 12.90438], [77.548255, 12.904241], [77.548254, 12.904154], [77.54828, 12.903959], [77.54832, 12.903732], [77.548277, 12.903616], [77.548251, 12.903396], [77.548335, 12.903428], [77.548444, 12.903514], [77.548614, 12.903708], [77.548734, 12.903771], [77.548832, 12.903876], [77.548974, 12.90396], [77.549064, 12.904246], [77.549345, 12.904179], [77.549528, 12.904135], [77.549755, 12.904079], [77.549928, 12.904035], [77.550134, 12.903991], [77.550231, 12.90399], [77.550296, 12.904], [77.550394, 12.904052], [77.550536, 12.904136], [77.550483, 12.904221], [77.550311, 12.90435], [77.550311, 12.904404], [77.550377, 12.904456], [77.550518, 12.904455], [77.550626, 12.904454], [77.550744, 12.904389], [77.550905, 12.904238], [77.55098, 12.904131], [77.551109, 12.904013], [77.551238, 12.903937], [77.551378, 12.903862], [77.551562, 12.903828], [77.55166, 12.903827], [77.551768, 12.903826], [77.551887, 12.903825], [77.552007, 12.903909], [77.552149, 12.903982], [77.552225, 12.903981], [77.552462, 12.903904], [77.552646, 12.903881], [77.552754, 12.903795], [77.552915, 12.903687], [77.553055, 12.90358], [77.55312, 12.903501], [77.553221, 12.903474], [77.552745, 12.901982], [77.552439, 12.902074], [77.552201, 12.902077], [77.551882, 12.902069], [77.551587, 12.902116], [77.551292, 12.902119], [77.551109, 12.902054], [77.551083, 12.901664], [77.551137, 12.901385], [77.55135, 12.901115], [77.55153, 12.900979], [77.551643, 12.900867], [77.551743, 12.900643], [77.551741, 12.900464], [77.551683, 12.900309], [77.551512, 12.900333], [77.551343, 12.900424], [77.55131, 12.900547], [77.551243, 12.900703], [77.551199, 12.900782], [77.551154, 12.900872], [77.550998, 12.901163], [77.550796, 12.901466], [77.550639, 12.901635], [77.550538, 12.901692], [77.550455, 12.901482], [77.550454, 12.901366], [77.550452, 12.901192], [77.550539, 12.901046], [77.550655, 12.900828], [77.550624, 12.900639], [77.550519, 12.90051], [77.550357, 12.90054], [77.550268, 12.900556], [77.550149, 12.90047], [77.550147, 12.900282], [77.549458, 12.897954], [77.548323, 12.895283], [77.548108, 12.894473], [77.548064, 12.893067], [77.548438, 12.892049], [77.548503, 12.891135], [77.549242, 12.889707], [77.549928, 12.888874], [77.54757, 12.886358], [77.547237, 12.886003], [77.54719, 12.886001], [77.547183, 12.886], [77.547109, 12.885929], [77.546717, 12.885496], [77.546377, 12.885127], [77.546116, 12.884873], [77.546008, 12.884768], [77.54598, 12.884705], [77.544382, 12.881093], [77.544377, 12.881093], [77.543424, 12.881116], [77.541931, 12.881062], [77.541395, 12.881067], [77.541037, 12.881168], [77.540994, 12.881225], [77.540873, 12.881299], [77.540811, 12.88132], [77.540757, 12.881317], [77.540745, 12.881304], [77.540725, 12.881304], [77.539142, 12.881288], [77.538598, 12.882325], [77.537957, 12.883231], [77.537254, 12.883688], [77.536021, 12.884581], [77.53338, 12.886182], [77.532586, 12.886902], [77.532444, 12.887004], [77.532392, 12.887157], [77.531407, 12.887019], [77.529793, 12.886531], [77.528858, 12.886289], [77.528179, 12.885952], [77.526757, 12.885823], [77.524305, 12.885601], [77.521881, 12.885624], [77.521291, 12.885509], [77.517741, 12.893212], [77.517883, 12.89326], [77.518173, 12.893374], [77.518403, 12.89343], [77.518475, 12.893433], [77.518563, 12.893389], [77.518644, 12.893305], [77.518696, 12.893215], [77.518733, 12.893088], [77.518797, 12.892943], [77.518853, 12.892843], [77.518947, 12.892803], [77.519026, 12.892839], [77.519183, 12.892883], [77.519384, 12.892946], [77.51949, 12.892949], [77.519612, 12.892944], [77.519735, 12.89297], [77.520044, 12.893126], [77.520198, 12.893232], [77.520603, 12.893472], [77.52067, 12.893487], [77.520709, 12.893521], [77.520773, 12.893559], [77.520844, 12.893562], [77.520914, 12.893538], [77.520977, 12.893534], [77.521057, 12.89358], [77.521121, 12.893733], [77.521126, 12.893799], [77.521135, 12.893896], [77.521132, 12.894023], [77.521126, 12.894428], [77.521143, 12.894511], [77.52115, 12.89467], [77.521141, 12.89484], [77.521011, 12.895372], [77.520981, 12.895486], [77.520958, 12.895584], [77.520948, 12.895668], [77.520919, 12.895717], [77.520906, 12.895769], [77.52091, 12.895901], [77.520906, 12.89593], [77.520897, 12.895956], [77.520891, 12.895982], [77.520885, 12.896028], [77.520876, 12.896069], [77.520859, 12.896119], [77.520741, 12.896279], [77.520623, 12.896491], [77.520555, 12.896761], [77.520562, 12.8968], [77.520572, 12.896859], [77.520664, 12.897045], [77.520698, 12.897116], [77.520726, 12.89717], [77.520815, 12.897278], [77.520847, 12.897335], [77.520892, 12.897373], [77.520943, 12.897468], [77.520957, 12.897512], [77.520986, 12.897535], [77.521013, 12.897561], [77.521051, 12.897598], [77.521089, 12.897645], [77.521154, 12.897666], [77.521207, 12.897668], [77.521236, 12.897666], [77.521273, 12.897665], [77.521322, 12.897658], [77.521392, 12.897645], [77.521462, 12.897631], [77.521524, 12.89763], [77.521601, 12.89763], [77.521695, 12.897606], [77.521798, 12.897561], [77.521857, 12.897532], [77.521912, 12.897491], [77.521983, 12.897458], [77.522048, 12.897452], [77.522104, 12.897451], [77.522134, 12.897451], [77.522146, 12.897442], [77.522293, 12.897376], [77.522497, 12.89733], [77.522538, 12.897325], [77.522617, 12.897329], [77.522702, 12.89738], [77.522824, 12.897476], [77.522919, 12.897584], [77.522967, 12.89764], [77.52303, 12.89766], [77.523088, 12.897654], [77.523193, 12.897627], [77.523277, 12.897627], [77.523408, 12.897625], [77.523571, 12.897593], [77.523743, 12.897524], [77.524043, 12.897379], [77.524187, 12.89738], [77.524424, 12.89737], [77.524558, 12.897315], [77.524755, 12.897235], [77.524857, 12.897157], [77.524911, 12.897071], [77.524957, 12.896947], [77.52498, 12.896815], [77.524979, 12.896691], [77.524921, 12.896474], [77.524824, 12.896281], [77.52476, 12.896166], [77.524664, 12.896058], [77.524553, 12.896052], [77.524466, 12.896029], [77.524426, 12.89596], [77.524425, 12.895851], [77.52451, 12.89568], [77.524658, 12.8955], [77.524776, 12.895437], [77.52495, 12.895389], [77.525131, 12.895364], [77.525305, 12.895378], [77.5254, 12.895431], [77.525488, 12.895515], [77.525561, 12.895654], [77.525649, 12.895762], [77.525784, 12.89583], [77.525925, 12.89579], [77.526003, 12.895665], [77.526041, 12.895541], [77.526183, 12.895431], [77.526348, 12.895399], [77.52664, 12.895303], [77.526987, 12.895253], [77.527216, 12.895243], [77.5275, 12.89524], [77.527769, 12.895253], [77.527998, 12.895259], [77.528211, 12.895257], [77.52833, 12.895255], [77.528724, 12.895213], [77.52893, 12.895211], [77.529088, 12.895194], [77.529159, 12.895193], [77.529306, 12.895124], [77.529465, 12.895049], [77.529682, 12.894947], [77.529962, 12.894945], [77.53023, 12.894842], [77.530482, 12.894739], [77.530664, 12.894601], [77.530946, 12.894561], [77.531112, 12.894554], [77.531231, 12.894669], [77.531281, 12.894917], [77.531282, 12.895231], [77.531517, 12.89564], [77.531767, 12.896078], [77.53194, 12.896436], [77.532228, 12.897043], [77.532371, 12.897402], [77.532534, 12.897656], [77.532645, 12.897787], [77.532781, 12.897956], [77.532846, 12.898056], [77.533021, 12.898171], [77.533124, 12.89824], [77.533299, 12.898377], [77.533512, 12.898337], [77.533624, 12.898413], [77.533703, 12.898498], [77.533752, 12.898575], [77.534054, 12.898796], [77.534119, 12.898959], [77.534333, 12.899026], [77.53457, 12.899078], [77.534542, 12.899362], [77.534424, 12.900559], [77.534447, 12.902139], [77.534486, 12.903272], [77.534417, 12.903362], [77.53405, 12.903438], [77.534098, 12.904711], [77.53365, 12.904793], [77.532591, 12.904927], [77.532163, 12.905031], [77.532151, 12.905027], [77.531991, 12.904873], [77.531844, 12.904736], [77.531593, 12.90446], [77.531383, 12.904327], [77.531256, 12.904278], [77.53117, 12.904278], [77.531099, 12.904283], [77.530969, 12.904315], [77.530855, 12.904395], [77.53073, 12.904464], [77.530198, 12.904759], [77.529813, 12.904914], [77.529385, 12.90503], [77.529145, 12.905075], [77.528882, 12.905083], [77.528707, 12.905033], [77.527987, 12.904723], [77.526517, 12.904234], [77.525909, 12.904082], [77.525885, 12.90409], [77.525833, 12.904127], [77.525737, 12.904192], [77.525694, 12.904289], [77.525697, 12.904617], [77.5257, 12.90487], [77.525629, 12.905317], [77.525556, 12.905565], [77.524579, 12.906317], [77.524504, 12.906467], [77.524557, 12.906689], [77.526526, 12.90667], [77.526568, 12.906666], [77.526841, 12.90667], [77.527027, 12.908112], [77.527025, 12.908279], [77.527101, 12.908659], [77.527182, 12.909147], [77.527237, 12.909551], [77.527363, 12.910222], [77.527529, 12.910853], [77.527785, 12.911617], [77.527979, 12.9122], [77.528117, 12.912738], [77.528472, 12.913822], [77.528111, 12.913869], [77.529204, 12.9196], [77.529193, 12.919627], [77.529169, 12.919662], [77.528985, 12.919922], [77.528826, 12.920135], [77.528648, 12.920495], [77.528504, 12.92099], [77.528483, 12.921108], [77.528472, 12.921153], [77.528442, 12.92118], [77.528411, 12.921193], [77.528259, 12.921212], [77.528179, 12.921267], [77.528192, 12.921417], [77.528205, 12.921467], [77.528232, 12.92151], [77.528264, 12.921566], [77.528291, 12.92159], [77.528342, 12.921596], [77.528375, 12.921593], [77.528892, 12.921401], [77.529812, 12.921027], [77.530427, 12.920795], [77.531109, 12.92069], [77.534213, 12.920511], [77.536312, 12.920522], [77.537595, 12.920528], [77.537619, 12.920468], [77.538052, 12.9204], [77.538554, 12.920292], [77.538894, 12.920198], [77.538963, 12.920189], [77.538974, 12.920194]]]}}]}