{"type": "FeatureCollection", "features": [{"type": "Feature", "properties": {"region_id": "ward_276600-75", "name": "Shankar Matt", "parent": "zone_276600-7", "parent_name": "West"}, "geometry": {"type": "Polygon", "coordinates": [[[77.540672, 13.002434], [77.540669, 13.002418], [77.540658, 13.002373], [77.540642, 13.002337], [77.540892, 13.001308], [77.541126, 13.00035], [77.541111, 12.999343], [77.54111, 12.999341], [77.540992, 12.998895], [77.540606, 12.997641], [77.540422, 12.997054], [77.540366, 12.996874], [77.540234, 12.996452], [77.54007, 12.996009], [77.539876, 12.995483], [77.539789, 12.995249], [77.539276, 12.99532], [77.538049, 12.995281], [77.537696, 12.995336], [77.536855, 12.995466], [77.535672, 12.995651], [77.535516, 12.995612], [77.535405, 12.994899], [77.534782, 12.994967], [77.534273, 12.995074], [77.533434, 12.995286], [77.533445, 12.995526], [77.533483, 12.995843], [77.532347, 12.996155], [77.532351, 12.996173], [77.532555, 12.996834], [77.531812, 12.997198], [77.532161, 12.997721], [77.531869, 12.99785], [77.531352, 12.99812], [77.531222, 12.998095], [77.531175, 12.998095], [77.531049, 12.998112], [77.530908, 12.998093], [77.530834, 12.998073], [77.530745, 12.998043], [77.530635, 12.998034], [77.53052, 12.998025], [77.530383, 12.997995], [77.530283, 12.997965], [77.530236, 12.99793], [77.530084, 12.997942], [77.53, 12.997942], [77.529869, 12.997944], [77.529779, 12.997888], [77.529711, 12.997807], [77.529694, 12.997761], [77.529584, 12.997736], [77.529479, 12.997747], [77.529396, 12.997779], [77.529344, 12.99782], [77.529282, 12.997893], [77.529204, 12.997955], [77.5291, 12.998044], [77.529043, 12.998121], [77.528965, 12.998184], [77.528898, 12.998292], [77.52882, 12.99837], [77.528738, 12.998468], [77.528686, 12.998551], [77.52864, 12.998629], [77.528604, 12.998696], [77.528547, 12.998768], [77.528451, 12.998874], [77.528305, 12.999026], [77.528247, 12.999077], [77.528191, 12.999161], [77.528097, 12.999305], [77.527918, 12.99941], [77.527816, 12.999519], [77.527833, 12.999581], [77.527845, 12.999693], [77.527864, 12.999801], [77.527862, 12.999892], [77.527859, 12.999984], [77.527848, 13.0001], [77.527872, 13.000245], [77.527873, 13.000364], [77.527874, 13.000499], [77.527885, 13.00066], [77.527877, 13.000811], [77.527866, 13.000955], [77.527832, 13.001122], [77.527824, 13.001232], [77.527828, 13.001324], [77.527848, 13.001418], [77.52791, 13.001477], [77.527997, 13.00153], [77.528142, 13.001597], [77.528406, 13.001702], [77.528657, 13.001841], [77.528874, 13.001996], [77.529045, 13.002117], [77.529143, 13.002267], [77.529205, 13.002367], [77.529213, 13.002493], [77.529185, 13.002603], [77.529119, 13.002723], [77.529043, 13.002881], [77.529003, 13.003039], [77.528995, 13.00314], [77.528974, 13.003316], [77.528972, 13.003461], [77.528999, 13.003577], [77.529028, 13.003636], [77.529064, 13.00368], [77.529103, 13.003723], [77.529168, 13.003789], [77.529236, 13.003864], [77.529291, 13.003917], [77.529356, 13.003966], [77.5295, 13.004069], [77.529581, 13.004162], [77.529602, 13.004203], [77.529602, 13.004263], [77.529603, 13.004303], [77.529603, 13.004341], [77.529601, 13.004385], [77.529573, 13.004474], [77.529545, 13.004641], [77.529534, 13.004773], [77.529532, 13.004895], [77.529556, 13.005008], [77.529582, 13.005112], [77.529612, 13.005206], [77.529638, 13.005278], [77.529668, 13.005344], [77.529698, 13.005438], [77.529743, 13.005507], [77.529786, 13.005575], [77.529831, 13.005644], [77.529858, 13.005697], [77.529904, 13.005745], [77.529973, 13.005759], [77.530067, 13.005769], [77.530163, 13.005776], [77.530308, 13.005776], [77.530368, 13.005783], [77.530635, 13.005723], [77.53078, 13.005674], [77.530934, 13.005597], [77.531103, 13.005528], [77.531292, 13.005489], [77.531555, 13.005494], [77.531793, 13.005607], [77.531998, 13.005753], [77.532363, 13.005944], [77.532578, 13.006051], [77.532827, 13.00622], [77.533052, 13.006432], [77.533072, 13.006462], [77.533134, 13.006425], [77.533329, 13.006297], [77.53307, 13.005907], [77.532707, 13.005451], [77.532581, 13.005298], [77.534388, 13.003833], [77.535077, 13.003306], [77.535664, 13.0028], [77.535842, 13.002636], [77.535896, 13.002576], [77.536113, 13.002833], [77.536379, 13.001955], [77.5366, 13.001215], [77.537345, 13.001391], [77.539094, 13.00181], [77.539458, 13.001891], [77.539708, 13.001978], [77.540087, 13.002133], [77.540399, 13.002299], [77.540672, 13.002434]]]}}]}