{"type": "FeatureCollection", "features": [{"type": "Feature", "properties": {"region_id": "ward_276600-45", "name": "Malleswaram", "parent": "zone_276600-7", "parent_name": "West"}, "geometry": {"type": "Polygon", "coordinates": [[[77.562768, 13.020709], [77.562698, 13.020577], [77.562512, 13.020143], [77.562415, 13.019936], [77.562176, 13.019627], [77.561599, 13.018945], [77.561415, 13.018685], [77.561203, 13.018336], [77.560969, 13.017879], [77.560686, 13.017256], [77.560569, 13.017078], [77.560781, 13.01695], [77.562221, 13.016157], [77.563321, 13.015501], [77.564582, 13.014806], [77.566129, 13.013928], [77.567271, 13.013189], [77.568183, 13.012614], [77.568733, 13.01227], [77.568976, 13.0121], [77.569061, 13.011993], [77.569094, 13.011937], [77.569098, 13.011839], [77.56911, 13.01164], [77.569113, 13.010573], [77.569154, 13.008531], [77.569191, 13.007612], [77.569214, 13.006633], [77.569238, 13.005508], [77.569254, 13.005468], [77.568185, 13.005508], [77.566743, 13.005577], [77.565143, 13.005641], [77.564322, 13.005665], [77.563812, 13.005687], [77.563052, 13.0057], [77.562391, 13.005726], [77.562385, 13.005816], [77.561835, 13.005839], [77.561686, 13.005848], [77.560942, 13.005829], [77.560739, 13.005811], [77.560419, 13.006789], [77.560308, 13.007118], [77.560172, 13.00759], [77.559913, 13.008452], [77.55967, 13.009265], [77.55947, 13.009893], [77.559278, 13.010474], [77.559174, 13.010699], [77.559042, 13.011089], [77.558814, 13.0116], [77.558555, 13.012104], [77.558373, 13.012442], [77.558096, 13.012842], [77.557779, 13.013259], [77.55737, 13.013729], [77.557039, 13.014095], [77.556778, 13.014387], [77.556338, 13.014866], [77.556034, 13.015219], [77.555604, 13.015666], [77.55567, 13.015714], [77.555815, 13.01582], [77.555822, 13.015811], [77.555833, 13.015819], [77.555797, 13.015854], [77.555703, 13.015964], [77.55564, 13.016046], [77.555518, 13.016229], [77.555367, 13.016454], [77.555353, 13.016479], [77.555327, 13.016526], [77.555038, 13.017049], [77.554738, 13.017584], [77.554419, 13.018172], [77.554247, 13.018506], [77.554163, 13.018668], [77.553864, 13.019156], [77.553933, 13.019257], [77.554263, 13.019738], [77.554325, 13.019828], [77.55465, 13.019825], [77.555188, 13.019846], [77.555307, 13.019846], [77.555468, 13.019846], [77.555558, 13.019885], [77.555596, 13.019929], [77.555709, 13.020174], [77.555898, 13.020674], [77.555985, 13.020904], [77.556292, 13.02162], [77.556601, 13.022394], [77.556713, 13.022696], [77.556828, 13.023013], [77.556925, 13.023282], [77.55709, 13.023725], [77.557195, 13.024044], [77.557337, 13.024459], [77.557409, 13.024704], [77.557519, 13.025059], [77.557566, 13.025228], [77.557649, 13.025494], [77.557715, 13.025725], [77.557766, 13.025838], [77.558007, 13.026387], [77.558408, 13.027273], [77.558918, 13.026995], [77.559662, 13.026717], [77.559678, 13.02671], [77.55942, 13.026096], [77.559159, 13.025069], [77.559564, 13.025046], [77.560117, 13.024982], [77.560006, 13.02469], [77.559625, 13.023917], [77.55945, 13.023404], [77.559321, 13.022995], [77.559898, 13.022815], [77.56051, 13.022661], [77.561025, 13.022536], [77.561143, 13.022498], [77.561201, 13.022359], [77.561282, 13.022263], [77.561359, 13.022176], [77.561455, 13.022069], [77.561567, 13.021902], [77.561612, 13.021846], [77.561549, 13.02167], [77.561421, 13.021223], [77.561764, 13.021098], [77.562768, 13.020709]]]}}]}