{"type": "FeatureCollection", "features": [{"type": "Feature", "properties": {"region_id": "ward_276600-87", "name": "HAL Airport", "parent": "zone_276600-4", "parent_name": "Mahadevapura"}, "geometry": {"type": "Polygon", "coordinates": [[[77.66604, 12.971514], [77.666041, 12.971372], [77.665908, 12.970774], [77.665736, 12.969824], [77.665472, 12.968584], [77.665413, 12.968179], [77.665565, 12.968107], [77.6655, 12.967834], [77.665561, 12.967693], [77.665513, 12.967429], [77.665486, 12.966574], [77.665491, 12.966177], [77.665551, 12.96593], [77.665971, 12.965644], [77.666471, 12.965427], [77.666578, 12.965276], [77.666588, 12.965364], [77.66693, 12.966295], [77.667396, 12.966193], [77.668068, 12.965992], [77.668526, 12.965908], [77.668667, 12.964867], [77.67026, 12.965071], [77.670289, 12.96611], [77.669759, 12.966151], [77.670027, 12.967656], [77.671085, 12.967424], [77.671605, 12.967305], [77.672663, 12.967091], [77.672752, 12.967002], [77.673475, 12.967296], [77.673541, 12.967124], [77.673564, 12.966919], [77.673574, 12.966379], [77.6736, 12.965904], [77.673599, 12.965214], [77.673569, 12.964768], [77.673559, 12.964621], [77.673728, 12.964601], [77.673921, 12.964645], [77.674419, 12.964718], [77.675156, 12.964814], [77.675667, 12.964822], [77.67621, 12.964816], [77.676654, 12.964773], [77.677349, 12.964642], [77.677568, 12.964679], [77.678094, 12.964927], [77.678527, 12.965137], [77.679089, 12.964943], [77.679544, 12.964704], [77.680395, 12.964331], [77.680679, 12.964276], [77.68109, 12.964246], [77.681693, 12.964175], [77.682151, 12.964112], [77.6821, 12.963479], [77.681867, 12.962789], [77.681625, 12.961662], [77.686371, 12.962063], [77.687966, 12.962163], [77.688965, 12.962241], [77.688966, 12.962219], [77.689541, 12.962113], [77.689691, 12.961545], [77.689793, 12.961191], [77.689772, 12.961095], [77.689902, 12.955563], [77.689591, 12.955514], [77.689629, 12.955429], [77.689116, 12.955329], [77.688085, 12.955146], [77.687938, 12.955117], [77.68783, 12.955096], [77.68778, 12.955089], [77.687738, 12.955078], [77.687712, 12.95506], [77.687685, 12.955049], [77.68767, 12.955027], [77.687669, 12.955008], [77.687673, 12.95496], [77.68768, 12.954919], [77.687769, 12.954829], [77.688003, 12.954591], [77.688812, 12.953838], [77.689073, 12.953601], [77.689203, 12.953462], [77.68929, 12.953336], [77.689352, 12.953232], [77.689387, 12.953132], [77.689407, 12.953037], [77.689429, 12.952878], [77.68948, 12.952305], [77.689508, 12.951804], [77.68952, 12.951285], [77.689501, 12.950869], [77.689479, 12.950545], [77.689463, 12.950427], [77.689453, 12.950333], [77.689431, 12.950236], [77.689415, 12.950165], [77.689381, 12.950089], [77.68932, 12.949972], [77.689194, 12.949787], [77.689019, 12.949563], [77.688823, 12.94939], [77.688661, 12.949304], [77.688472, 12.949236], [77.687919, 12.949103], [77.687384, 12.949021], [77.68683, 12.948976], [77.686779, 12.949027], [77.686391, 12.948992], [77.685912, 12.948948], [77.685533, 12.948914], [77.685056, 12.948862], [77.684718, 12.948837], [77.684144, 12.948784], [77.683452, 12.948735], [77.682986, 12.948698], [77.682536, 12.948665], [77.682516, 12.948663], [77.682505, 12.948657], [77.682496, 12.948655], [77.682485, 12.948652], [77.682474, 12.948651], [77.682462, 12.948653], [77.682439, 12.94865], [77.681917, 12.948617], [77.681208, 12.948566], [77.680618, 12.948528], [77.68057, 12.948527], [77.680547, 12.94852], [77.680501, 12.94848], [77.680321, 12.948344], [77.680237, 12.948296], [77.680114, 12.948251], [77.679981, 12.948253], [77.679756, 12.948259], [77.679645, 12.948253], [77.679589, 12.948235], [77.679543, 12.948225], [77.67929, 12.948227], [77.678667, 12.948243], [77.678517, 12.948242], [77.678208, 12.948266], [77.677974, 12.948308], [77.677646, 12.948348], [77.677433, 12.948379], [77.677163, 12.948422], [77.676388, 12.948556], [77.675721, 12.948679], [77.675571, 12.948715], [77.67544, 12.94875], [77.675378, 12.948765], [77.675341, 12.948766], [77.675294, 12.948756], [77.674994, 12.948677], [77.674349, 12.948528], [77.673831, 12.948388], [77.67341, 12.948271], [77.673398, 12.948272], [77.673389, 12.948274], [77.673373, 12.948272], [77.67324, 12.948223], [77.673147, 12.948188], [77.673, 12.948175], [77.672874, 12.948158], [77.672589, 12.948102], [77.672588, 12.948102], [77.672575, 12.948099], [77.672066, 12.948054], [77.671472, 12.948047], [77.671215, 12.948039], [77.671188, 12.948046], [77.670932, 12.948059], [77.670939, 12.947446], [77.670932, 12.947352], [77.67093, 12.947352], [77.670933, 12.947349], [77.670927, 12.947112], [77.670614, 12.947092], [77.668626, 12.946999], [77.668622, 12.946992], [77.668358, 12.946991], [77.668393, 12.946689], [77.66841, 12.946551], [77.668128, 12.94653], [77.667356, 12.946474], [77.66683, 12.946443], [77.666796, 12.946426], [77.666766, 12.946436], [77.666635, 12.946438], [77.6666, 12.94644], [77.666607, 12.946288], [77.666612, 12.946215], [77.666617, 12.946142], [77.666622, 12.946015], [77.665428, 12.945925], [77.665057, 12.945908], [77.66485, 12.945898], [77.664783, 12.945886], [77.66474, 12.945882], [77.664739, 12.945882], [77.664709, 12.945865], [77.664692, 12.945842], [77.664661, 12.945802], [77.664624, 12.945739], [77.664577, 12.945602], [77.664449, 12.945108], [77.664333, 12.944609], [77.664327, 12.944581], [77.664303, 12.944532], [77.66429, 12.944514], [77.664279, 12.944501], [77.664266, 12.944491], [77.664226, 12.944468], [77.664185, 12.944457], [77.664147, 12.944452], [77.664097, 12.944452], [77.66398, 12.944451], [77.662891, 12.94445], [77.662714, 12.944449], [77.662674, 12.944471], [77.662659, 12.944488], [77.662644, 12.944503], [77.662631, 12.94452], [77.662621, 12.944537], [77.662606, 12.944565], [77.662595, 12.94459], [77.662585, 12.944637], [77.662596, 12.945041], [77.662609, 12.945495], [77.662624, 12.946039], [77.662608, 12.94657], [77.662606, 12.946597], [77.662576, 12.946648], [77.662503, 12.946683], [77.6624, 12.946733], [77.661818, 12.946952], [77.661264, 12.947146], [77.660559, 12.947399], [77.660112, 12.947551], [77.660039, 12.947573], [77.659964, 12.947589], [77.659864, 12.947596], [77.659236, 12.947563], [77.658436, 12.947509], [77.657411, 12.94745], [77.656466, 12.947398], [77.656079, 12.947371], [77.655971, 12.947376], [77.655758, 12.947399], [77.655313, 12.947507], [77.655021, 12.947601], [77.654967, 12.947619], [77.654924, 12.947645], [77.654866, 12.947675], [77.654776, 12.947701], [77.654608, 12.947718], [77.654187, 12.947709], [77.6533, 12.947646], [77.652184, 12.947546], [77.651297, 12.947462], [77.650636, 12.947403], [77.649988, 12.947331], [77.649822, 12.947316], [77.649647, 12.947318], [77.649561, 12.947331], [77.649536, 12.947342], [77.649511, 12.94735], [77.649478, 12.94737], [77.64945, 12.947389], [77.649416, 12.947411], [77.649394, 12.94743], [77.649359, 12.947467], [77.649258, 12.947575], [77.649197, 12.947663], [77.649188, 12.947675], [77.649168, 12.947703], [77.649126, 12.947805], [77.649111, 12.947885], [77.649102, 12.947935], [77.649098, 12.947956], [77.6491, 12.947996], [77.649112, 12.948277], [77.649164, 12.948614], [77.649165, 12.948623], [77.649175, 12.948659], [77.649184, 12.948695], [77.649186, 12.9487], [77.649248, 12.948935], [77.649249, 12.94894], [77.649251, 12.948972], [77.649274, 12.949007], [77.649325, 12.949103], [77.649368, 12.949174], [77.649402, 12.949232], [77.649449, 12.94931], [77.649639, 12.949554], [77.649755, 12.949689], [77.649983, 12.949949], [77.650104, 12.950096], [77.650127, 12.950123], [77.650194, 12.950205], [77.650389, 12.950428], [77.650435, 12.950494], [77.650488, 12.950542], [77.650603, 12.950648], [77.650615, 12.95066], [77.651097, 12.951105], [77.651107, 12.951113], [77.651306, 12.951279], [77.651397, 12.951337], [77.65161, 12.951482], [77.651703, 12.95154], [77.651809, 12.951604], [77.651897, 12.951644], [77.652125, 12.951718], [77.652212, 12.951757], [77.652254, 12.951783], [77.652283, 12.951807], [77.652295, 12.951827], [77.652308, 12.95185], [77.652324, 12.951878], [77.652326, 12.951881], [77.652378, 12.952046], [77.652386, 12.952072], [77.65241, 12.952148], [77.652488, 12.952385], [77.652495, 12.952407], [77.652497, 12.952416], [77.652509, 12.952473], [77.652525, 12.952505], [77.652536, 12.952519], [77.652553, 12.952534], [77.652569, 12.952545], [77.652603, 12.952561], [77.652651, 12.95257], [77.652778, 12.952576], [77.652951, 12.952574], [77.65296, 12.952574], [77.65297, 12.952575], [77.653106, 12.952577], [77.653146, 12.952577], [77.653402, 12.952596], [77.653523, 12.952601], [77.653663, 12.952605], [77.654029, 12.95263], [77.654441, 12.952658], [77.654719, 12.952682], [77.654732, 12.952683], [77.654996, 12.952706], [77.65507, 12.95271], [77.655178, 12.952716], [77.65535, 12.952726], [77.655375, 12.952727], [77.655488, 12.952734], [77.655563, 12.95274], [77.655591, 12.952743], [77.655887, 12.952763], [77.656095, 12.95278], [77.656327, 12.952793], [77.656466, 12.952801], [77.656799, 12.952819], [77.656981, 12.952836], [77.657077, 12.952845], [77.657229, 12.952859], [77.657837, 12.952899], [77.658012, 12.952909], [77.658164, 12.952918], [77.658424, 12.952933], [77.659002, 12.952952], [77.659012, 12.952951], [77.659114, 12.952946], [77.659368, 12.952933], [77.659542, 12.952924], [77.659602, 12.952923], [77.659926, 12.952923], [77.660035, 12.952919], [77.660057, 12.952917], [77.660995, 12.952866], [77.661025, 12.952865], [77.661026, 12.952888], [77.661029, 12.953097], [77.66103, 12.953121], [77.661031, 12.95315], [77.661038, 12.953374], [77.661043, 12.95401], [77.661046, 12.954112], [77.661046, 12.954134], [77.661049, 12.954233], [77.661049, 12.954249], [77.66105, 12.954345], [77.661439, 12.95432], [77.66145, 12.954319], [77.662183, 12.954271], [77.662216, 12.954269], [77.662289, 12.954264], [77.662312, 12.954263], [77.662414, 12.954256], [77.662415, 12.954263], [77.662417, 12.95429], [77.662425, 12.954361], [77.662456, 12.954662], [77.662473, 12.954737], [77.662504, 12.954851], [77.662513, 12.95487], [77.662513, 12.954895], [77.66251, 12.954913], [77.662504, 12.954948], [77.66249, 12.954973], [77.661918, 12.955014], [77.661929, 12.955185], [77.661924, 12.955457], [77.660873, 12.955445], [77.660876, 12.955488], [77.660889, 12.955568], [77.660908, 12.955619], [77.660924, 12.95564], [77.660925, 12.955643], [77.660932, 12.955652], [77.660941, 12.955659], [77.660972, 12.955685], [77.66098, 12.955689], [77.660982, 12.955691], [77.660998, 12.955702], [77.661003, 12.955705], [77.661021, 12.955706], [77.661043, 12.955708], [77.661122, 12.95571], [77.661137, 12.955711], [77.661226, 12.955716], [77.661229, 12.955716], [77.66135, 12.955723], [77.661935, 12.955753], [77.661939, 12.955722], [77.662612, 12.955747], [77.662769, 12.955741], [77.663007, 12.955739], [77.66341, 12.955762], [77.663392, 12.955831], [77.663293, 12.956078], [77.66318, 12.956385], [77.663071, 12.956697], [77.663046, 12.956775], [77.663045, 12.956776], [77.663043, 12.956832], [77.66304, 12.956908], [77.663072, 12.957067], [77.663137, 12.957293], [77.663199, 12.95751], [77.663277, 12.957798], [77.663339, 12.958028], [77.663362, 12.958112], [77.663472, 12.958495], [77.663488, 12.958551], [77.663553, 12.958769], [77.663556, 12.958794], [77.663568, 12.958808], [77.663578, 12.958811], [77.663587, 12.958894], [77.663584, 12.958916], [77.663567, 12.958931], [77.663329, 12.958979], [77.663316, 12.958981], [77.663098, 12.959026], [77.662758, 12.959095], [77.662745, 12.959098], [77.662727, 12.959101], [77.662287, 12.959173], [77.662235, 12.95918], [77.662132, 12.959196], [77.662105, 12.9592], [77.661599, 12.959264], [77.66129, 12.959297], [77.661275, 12.959297], [77.661139, 12.959301], [77.661137, 12.959301], [77.661133, 12.959301], [77.661019, 12.959295], [77.660773, 12.959263], [77.660764, 12.959262], [77.660472, 12.959211], [77.659931, 12.959105], [77.65982, 12.959085], [77.659805, 12.959082], [77.659781, 12.959078], [77.659747, 12.959078], [77.659718, 12.959099], [77.659692, 12.959161], [77.65969, 12.9592], [77.659688, 12.959255], [77.659693, 12.959293], [77.659693, 12.959295], [77.659702, 12.959365], [77.65971, 12.95943], [77.659711, 12.959436], [77.659729, 12.959562], [77.659774, 12.959878], [77.65978, 12.959923], [77.659813, 12.96016], [77.659817, 12.960192], [77.659839, 12.960294], [77.659918, 12.960293], [77.660208, 12.960896], [77.659796, 12.961077], [77.659856, 12.961253], [77.659952, 12.961586], [77.659964, 12.961631], [77.659992, 12.961733], [77.659993, 12.961733], [77.660844, 12.961619], [77.660914, 12.961938], [77.66093, 12.962004], [77.660931, 12.962009], [77.660975, 12.962203], [77.660978, 12.962212], [77.661166, 12.962169], [77.661311, 12.962146], [77.661456, 12.962144], [77.661544, 12.962193], [77.66162, 12.96247], [77.661717, 12.96269], [77.661769, 12.962832], [77.661801, 12.963138], [77.661844, 12.963758], [77.661843, 12.964306], [77.661604, 12.964261], [77.661595, 12.964265], [77.66159, 12.964268], [77.661573, 12.964268], [77.661426, 12.964241], [77.661208, 12.964193], [77.661186, 12.964188], [77.66115, 12.964189], [77.66113, 12.964191], [77.661117, 12.9642], [77.6611, 12.964219], [77.661063, 12.964334], [77.6609, 12.964633], [77.660863, 12.964809], [77.660863, 12.964811], [77.66086, 12.964912], [77.660528, 12.96499], [77.660712, 12.96523], [77.661125, 12.96514], [77.661208, 12.96546], [77.661246, 12.965574], [77.661638, 12.965549], [77.661681, 12.965634], [77.661685, 12.965642], [77.661702, 12.965681], [77.661728, 12.965739], [77.661763, 12.965815], [77.661819, 12.965925], [77.661893, 12.966072], [77.661915, 12.966128], [77.661926, 12.966159], [77.661978, 12.966257], [77.661623, 12.966831], [77.661545, 12.966823], [77.659925, 12.967012], [77.658723, 12.967175], [77.65866, 12.967428], [77.658668, 12.967427], [77.658667, 12.967428], [77.658668, 12.967428], [77.658106, 12.96822], [77.657287, 12.968301], [77.657333, 12.968472], [77.657381, 12.968888], [77.657563, 12.969431], [77.657626, 12.969904], [77.657679, 12.970793], [77.658687, 12.971326], [77.65857, 12.971544], [77.659561, 12.971538], [77.659745, 12.971549], [77.660057, 12.971552], [77.660512, 12.97156], [77.660572, 12.971564], [77.660907, 12.971581], [77.661018, 12.971587], [77.661087, 12.971586], [77.661324, 12.971599], [77.661408, 12.971606], [77.661427, 12.97161], [77.661441, 12.971619], [77.661452, 12.971626], [77.661481, 12.971643], [77.661499, 12.971657], [77.661525, 12.971693], [77.66154, 12.971747], [77.661544, 12.971825], [77.661547, 12.971883], [77.661558, 12.971922], [77.66156, 12.971929], [77.661583, 12.971955], [77.661614, 12.971976], [77.661654, 12.971985], [77.661656, 12.971986], [77.661721, 12.97196], [77.661898, 12.971869], [77.662191, 12.971759], [77.662254, 12.971735], [77.662528, 12.971656], [77.662802, 12.971582], [77.662818, 12.971579], [77.662922, 12.971562], [77.663038, 12.971548], [77.663147, 12.971563], [77.663423, 12.971579], [77.663833, 12.971608], [77.664199, 12.971677], [77.664586, 12.971749], [77.664747, 12.971764], [77.665008, 12.971802], [77.665046, 12.971807], [77.665074, 12.971809], [77.665146, 12.971812], [77.665203, 12.971811], [77.66525, 12.971811], [77.665314, 12.971803], [77.665393, 12.971778], [77.665507, 12.971724], [77.665633, 12.971665], [77.665721, 12.971623], [77.665843, 12.971569], [77.665893, 12.971551], [77.665921, 12.971537], [77.665993, 12.971522], [77.66604, 12.971514]]]}}]}