{"type": "FeatureCollection", "features": [{"type": "Feature", "properties": {"region_id": "ward_276600-153", "name": "Jayanagar", "parent": "zone_276600-6", "parent_name": "South"}, "geometry": {"type": "Polygon", "coordinates": [[[77.597638, 12.93999], [77.597729, 12.939819], [77.59788, 12.939399], [77.598057, 12.939094], [77.598368, 12.938623], [77.598499, 12.938451], [77.598742, 12.938157], [77.598914, 12.937994], [77.599083, 12.937856], [77.599303, 12.937705], [77.599614, 12.937528], [77.59985, 12.937433], [77.60009, 12.937366], [77.600307, 12.937311], [77.600499, 12.937269], [77.600884, 12.937218], [77.601594, 12.937127], [77.601524, 12.936756], [77.601421, 12.936289], [77.601398, 12.936141], [77.601372, 12.935772], [77.601306, 12.934955], [77.601294, 12.934899], [77.601249, 12.934555], [77.600924, 12.932985], [77.600781, 12.932197], [77.600741, 12.931929], [77.600717, 12.931723], [77.600705, 12.931335], [77.600615, 12.930303], [77.600528, 12.928976], [77.600515, 12.92861], [77.60052, 12.928349], [77.598694, 12.928418], [77.597151, 12.928428], [77.595505, 12.928457], [77.595388, 12.92846], [77.593488, 12.928507], [77.592645, 12.92852], [77.592589, 12.928529], [77.59255, 12.928551], [77.592528, 12.928581], [77.592507, 12.92869], [77.592505, 12.929275], [77.592546, 12.930693], [77.592607, 12.931977], [77.592651, 12.933236], [77.592721, 12.934961], [77.592724, 12.935706], [77.592704, 12.93618], [77.592437, 12.936211], [77.592007, 12.936286], [77.591743, 12.936341], [77.591578, 12.936395], [77.591387, 12.936487], [77.59111, 12.936672], [77.59107, 12.936614], [77.590627, 12.936142], [77.590174, 12.936347], [77.590045, 12.935583], [77.589657, 12.935603], [77.58948, 12.935642], [77.589312, 12.935752], [77.589227, 12.935782], [77.589168, 12.935799], [77.589088, 12.9358], [77.589016, 12.935796], [77.588927, 12.935776], [77.588808, 12.935728], [77.588604, 12.935622], [77.588443, 12.935512], [77.588098, 12.935333], [77.587979, 12.935272], [77.58792, 12.935251], [77.587844, 12.935223], [77.587797, 12.935224], [77.587763, 12.935224], [77.587692, 12.935237], [77.587607, 12.935279], [77.587536, 12.935334], [77.587394, 12.935441], [77.58728, 12.935523], [77.587083, 12.935649], [77.586696, 12.93589], [77.586132, 12.93635], [77.585931, 12.936477], [77.585781, 12.936523], [77.585601, 12.936583], [77.585429, 12.936615], [77.585196, 12.936639], [77.584903, 12.936646], [77.582882, 12.936721], [77.580607, 12.93675], [77.580302, 12.936753], [77.580177, 12.936754], [77.580102, 12.936761], [77.580016, 12.936823], [77.579941, 12.936879], [77.579738, 12.937113], [77.57916, 12.937828], [77.577917, 12.939381], [77.577683, 12.939671], [77.57767, 12.939774], [77.577668, 12.939903], [77.577736, 12.940031], [77.577756, 12.940128], [77.577757, 12.940257], [77.577748, 12.940587], [77.577657, 12.940588], [77.576252, 12.940602], [77.574028, 12.940636], [77.573798, 12.940632], [77.573797, 12.940693], [77.573773, 12.941456], [77.573756, 12.942735], [77.573773, 12.943694], [77.573754, 12.944539], [77.575086, 12.944559], [77.576515, 12.944511], [77.57654, 12.944508], [77.576771, 12.944491], [77.576939, 12.944467], [77.576978, 12.944468], [77.577052, 12.944466], [77.577127, 12.944456], [77.577199, 12.944439], [77.57727, 12.944415], [77.577338, 12.944384], [77.577402, 12.944347], [77.577462, 12.944303], [77.577518, 12.944254], [77.577568, 12.9442], [77.577613, 12.944141], [77.577651, 12.944078], [77.577683, 12.944012], [77.577708, 12.943943], [77.577725, 12.943871], [77.577736, 12.943799], [77.577739, 12.943725], [77.577736, 12.943669], [77.57774, 12.943623], [77.578438, 12.943607], [77.579983, 12.943634], [77.580049, 12.943632], [77.580198, 12.943638], [77.580969, 12.943664], [77.582566, 12.943674], [77.584438, 12.943678], [77.585207, 12.943692], [77.585225, 12.943999], [77.585322, 12.944637], [77.585335, 12.944759], [77.585377, 12.944873], [77.585454, 12.944976], [77.58553, 12.945063], [77.585728, 12.945246], [77.586013, 12.945465], [77.586388, 12.945687], [77.586725, 12.945831], [77.587038, 12.94595], [77.5871, 12.94516], [77.587053, 12.943764], [77.58901, 12.943758], [77.589073, 12.943566], [77.589104, 12.943353], [77.589136, 12.94314], [77.589152, 12.943075], [77.589201, 12.942995], [77.589234, 12.942967], [77.589268, 12.942938], [77.589341, 12.942893], [77.589415, 12.942864], [77.589438, 12.942851], [77.589527, 12.942843], [77.589588, 12.942845], [77.589659, 12.942875], [77.589716, 12.942922], [77.589867, 12.943002], [77.590096, 12.943092], [77.590667, 12.942739], [77.591215, 12.942477], [77.591263, 12.942455], [77.591234, 12.942283], [77.591206, 12.942169], [77.591709, 12.942023], [77.592971, 12.941659], [77.593442, 12.941524], [77.593248, 12.941304], [77.592939, 12.940986], [77.592842, 12.940882], [77.592666, 12.940709], [77.592608, 12.940642], [77.592588, 12.940604], [77.59257, 12.940567], [77.592553, 12.940494], [77.592538, 12.940419], [77.592528, 12.940365], [77.592513, 12.94015], [77.592515, 12.940135], [77.592527, 12.939816], [77.592572, 12.939303], [77.592594, 12.938842], [77.592627, 12.937978], [77.593148, 12.938794], [77.593191, 12.938862], [77.593456, 12.939126], [77.593837, 12.939363], [77.594217, 12.939516], [77.594613, 12.93957], [77.595439, 12.939719], [77.596388, 12.93985], [77.597315, 12.939938], [77.597638, 12.93999]]]}}]}