{"type": "FeatureCollection", "features": [{"type": "Feature", "properties": {"region_id": "ward_276600-36", "name": "Mattikere", "parent": "zone_276600-7", "parent_name": "West"}, "geometry": {"type": "Polygon", "coordinates": [[[77.562768, 13.020709], [77.561764, 13.021098], [77.561421, 13.021223], [77.561549, 13.02167], [77.561612, 13.021846], [77.561567, 13.021902], [77.561455, 13.022069], [77.561359, 13.022176], [77.561282, 13.022263], [77.561201, 13.022359], [77.561143, 13.022498], [77.561025, 13.022536], [77.56051, 13.022661], [77.559898, 13.022815], [77.559321, 13.022995], [77.55945, 13.023404], [77.559625, 13.023917], [77.560006, 13.02469], [77.560117, 13.024982], [77.559564, 13.025046], [77.559159, 13.025069], [77.55942, 13.026096], [77.559678, 13.02671], [77.559662, 13.026717], [77.558918, 13.026995], [77.558408, 13.027273], [77.558536, 13.02762], [77.558786, 13.028196], [77.558824, 13.028284], [77.558876, 13.028406], [77.559261, 13.029317], [77.559393, 13.029633], [77.559497, 13.02988], [77.559512, 13.029918], [77.559848, 13.030756], [77.559924, 13.030945], [77.559929, 13.03096], [77.55979, 13.031139], [77.558657, 13.032764], [77.558275, 13.033315], [77.557541, 13.034375], [77.557511, 13.034432], [77.55751, 13.034434], [77.557381, 13.034677], [77.557379, 13.034682], [77.557345, 13.03476], [77.557338, 13.034776], [77.557339, 13.03481], [77.557341, 13.034914], [77.557354, 13.035076], [77.557354, 13.035078], [77.557416, 13.035325], [77.557438, 13.035412], [77.557482, 13.035594], [77.55753, 13.035797], [77.557557, 13.035999], [77.557545, 13.036109], [77.557558, 13.036158], [77.557516, 13.036667], [77.557395, 13.037713], [77.557381, 13.03802], [77.557344, 13.038568], [77.557799, 13.038568], [77.557858, 13.038568], [77.557901, 13.03857], [77.557926, 13.038571], [77.558145, 13.038583], [77.558227, 13.038596], [77.558558, 13.038646], [77.558877, 13.038698], [77.559192, 13.038809], [77.559354, 13.038865], [77.559611, 13.038991], [77.559912, 13.039141], [77.560239, 13.039352], [77.560379, 13.039465], [77.560561, 13.039613], [77.560709, 13.039765], [77.56071, 13.039767], [77.560721, 13.039779], [77.560813, 13.039873], [77.560823, 13.039885], [77.561009, 13.040104], [77.561053, 13.040165], [77.561237, 13.040425], [77.561269, 13.040469], [77.561365, 13.040634], [77.561483, 13.040838], [77.561695, 13.041206], [77.561779, 13.041359], [77.562133, 13.042], [77.562144, 13.041983], [77.562213, 13.04188], [77.563415, 13.040243], [77.563852, 13.039639], [77.564291, 13.03909], [77.564482, 13.038851], [77.564959, 13.038244], [77.564705, 13.038116], [77.5644, 13.03806], [77.564265, 13.038032], [77.563885, 13.037982], [77.56393, 13.037546], [77.563957, 13.037203], [77.563938, 13.036297], [77.563344, 13.036352], [77.563328, 13.036299], [77.563187, 13.035624], [77.56331, 13.035476], [77.56381, 13.035046], [77.56424, 13.034689], [77.564035, 13.033193], [77.56397, 13.032626], [77.563863, 13.031966], [77.563844, 13.031911], [77.562983, 13.03202], [77.562974, 13.031574], [77.562934, 13.030809], [77.562232, 13.03089], [77.562224, 13.030842], [77.562171, 13.030534], [77.56206, 13.029987], [77.561875, 13.029421], [77.561578, 13.028685], [77.561796, 13.02839], [77.561883, 13.028265], [77.561913, 13.028223], [77.561929, 13.028195], [77.561943, 13.028171], [77.561946, 13.028161], [77.561952, 13.028141], [77.561952, 13.028119], [77.561954, 13.028097], [77.561954, 13.028075], [77.561953, 13.028045], [77.561953, 13.028014], [77.561946, 13.027944], [77.561838, 13.02755], [77.561785, 13.027125], [77.561809, 13.026502], [77.56203, 13.025993], [77.562425, 13.025102], [77.562519, 13.024785], [77.562603, 13.024497], [77.562635, 13.024406], [77.56288, 13.023459], [77.563097, 13.022424], [77.563154, 13.022232], [77.563192, 13.021997], [77.56319, 13.021819], [77.563175, 13.021633], [77.563141, 13.021451], [77.563108, 13.021323], [77.56303, 13.021199], [77.562956, 13.021058], [77.562768, 13.020709]]]}}]}