{"type": "FeatureCollection", "features": [{"type": "Feature", "properties": {"region_id": "ward_276600-16", "name": "Jalahalli", "parent": "zone_276600-5", "parent_name": "Rajarajeshwari Nagar"}, "geometry": {"type": "Polygon", "coordinates": [[[77.556926, 13.043781], [77.556179, 13.043979], [77.555412, 13.044061], [77.554695, 13.044056], [77.553682, 13.043777], [77.552758, 13.043523], [77.551743, 13.043144], [77.549895, 13.042623], [77.548534, 13.042147], [77.546685, 13.041513], [77.545569, 13.04119], [77.545551, 13.041156], [77.545456, 13.041128], [77.545327, 13.041099], [77.545132, 13.041067], [77.544963, 13.041018], [77.544812, 13.040978], [77.54449, 13.040702], [77.543889, 13.040183], [77.543515, 13.039789], [77.543, 13.03932], [77.54294, 13.039279], [77.542918, 13.039237], [77.542922, 13.03922], [77.542604, 13.038943], [77.542055, 13.038463], [77.541994, 13.038392], [77.541907, 13.03818], [77.541551, 13.036477], [77.540737, 13.032492], [77.535927, 13.03607], [77.531513, 13.039336], [77.52759, 13.042195], [77.522199, 13.045889], [77.522595, 13.046501], [77.52299, 13.047153], [77.523207, 13.047696], [77.523517, 13.048483], [77.523772, 13.048933], [77.523939, 13.049134], [77.52435, 13.049414], [77.525012, 13.049782], [77.525592, 13.050196], [77.526083, 13.050566], [77.526634, 13.051019], [77.526896, 13.051193], [77.527338, 13.051325], [77.528054, 13.051521], [77.528368, 13.051624], [77.528752, 13.051876], [77.529446, 13.052443], [77.529954, 13.052813], [77.530305, 13.053029], [77.530471, 13.053156], [77.530671, 13.053388], [77.531011, 13.054037], [77.531177, 13.054337], [77.53126, 13.054446], [77.531395, 13.054505], [77.531868, 13.054575], [77.532352, 13.054612], [77.532741, 13.054617], [77.532902, 13.054664], [77.533136, 13.054731], [77.533376, 13.054811], [77.533524, 13.054853], [77.53383, 13.05488], [77.534336, 13.054886], [77.534677, 13.054887], [77.535394, 13.054836], [77.536106, 13.05474], [77.537117, 13.054577], [77.537168, 13.054569], [77.537275, 13.054554], [77.537529, 13.054513], [77.538182, 13.054407], [77.538761, 13.054318], [77.538921, 13.054303], [77.539153, 13.05431], [77.539844, 13.054451], [77.541398, 13.054751], [77.54173, 13.054808], [77.54235, 13.054913], [77.542771, 13.054955], [77.543253, 13.05496], [77.54426, 13.054936], [77.544529, 13.054947], [77.544671, 13.054951], [77.544771, 13.054968], [77.54487, 13.055009], [77.544975, 13.055073], [77.545151, 13.05521], [77.545422, 13.05546], [77.545791, 13.055802], [77.546521, 13.056527], [77.546663, 13.056675], [77.54669, 13.056703], [77.54672, 13.056755], [77.546715, 13.05677], [77.546718, 13.056825], [77.54672, 13.056849], [77.546742, 13.056826], [77.546977, 13.056584], [77.547459, 13.056116], [77.547919, 13.055701], [77.547962, 13.055661], [77.548312, 13.055334], [77.548795, 13.054913], [77.549137, 13.054625], [77.549372, 13.054464], [77.550106, 13.053922], [77.55057, 13.053582], [77.550728, 13.053431], [77.550909, 13.053251], [77.551781, 13.052104], [77.552161, 13.0515], [77.552424, 13.051153], [77.552513, 13.051025], [77.552557, 13.050988], [77.552602, 13.050956], [77.553047, 13.05052], [77.55447, 13.048729], [77.554697, 13.048292], [77.554964, 13.047864], [77.555298, 13.047301], [77.555501, 13.047024], [77.555708, 13.046658], [77.556141, 13.045893], [77.556414, 13.045629], [77.556526, 13.045451], [77.556755, 13.044971], [77.556837, 13.044702], [77.556886, 13.044217], [77.556926, 13.043781]]]}}]}