{"type": "FeatureCollection", "features": [{"type": "Feature", "properties": {"region_id": "ward_276600-52", "name": "K R Puram", "parent": "zone_276600-4", "parent_name": "Mahadevapura"}, "geometry": {"type": "Polygon", "coordinates": [[[77.695728, 13.008348], [77.695638, 13.008333], [77.69537, 13.008333], [77.69485, 13.008352], [77.694646, 13.008346], [77.694049, 13.008333], [77.693775, 13.008318], [77.693602, 13.008314], [77.693064, 13.008253], [77.692619, 13.008197], [77.692206, 13.008118], [77.691909, 13.008064], [77.691532, 13.007995], [77.690665, 13.00781], [77.690013, 13.007647], [77.689771, 13.007577], [77.689101, 13.007281], [77.688346, 13.006914], [77.688182, 13.00683], [77.688151, 13.006815], [77.687334, 13.006404], [77.686315, 13.005838], [77.68576, 13.005511], [77.685268, 13.005234], [77.68511, 13.005153], [77.684554, 13.005997], [77.682478, 13.009439], [77.682109, 13.009947], [77.681281, 13.010633], [77.680993, 13.010872], [77.680769, 13.010979], [77.680683, 13.011021], [77.680728, 13.01121], [77.68086, 13.011162], [77.681011, 13.011136], [77.681198, 13.011105], [77.681407, 13.011078], [77.681514, 13.011073], [77.681622, 13.011072], [77.681762, 13.01107], [77.681915, 13.011081], [77.682139, 13.011119], [77.68228, 13.011166], [77.682409, 13.011213], [77.682463, 13.011269], [77.682534, 13.011342], [77.6827, 13.011583], [77.68267, 13.014087], [77.683475, 13.014276], [77.684394, 13.014379], [77.685057, 13.014625], [77.685379, 13.015039], [77.685517, 13.015389], [77.685589, 13.015828], [77.685687, 13.016651], [77.686191, 13.016569], [77.68624, 13.016953], [77.68631, 13.017271], [77.686758, 13.017277], [77.688171, 13.01735], [77.688714, 13.017388], [77.688639, 13.018659], [77.690111, 13.018676], [77.68996, 13.0198], [77.691192, 13.019787], [77.691103, 13.021064], [77.69098, 13.021065], [77.691015, 13.022457], [77.691629, 13.022431], [77.692036, 13.02245], [77.692044, 13.024095], [77.692445, 13.024138], [77.692703, 13.024201], [77.692865, 13.024199], [77.693073, 13.024094], [77.693453, 13.023969], [77.694188, 13.023998], [77.694204, 13.025466], [77.694206, 13.026587], [77.694344, 13.027257], [77.69436, 13.02726], [77.694715, 13.027322], [77.695975, 13.027836], [77.698911, 13.028456], [77.699962, 13.028553], [77.700475, 13.02862], [77.701268, 13.028615], [77.70147, 13.028615], [77.701474, 13.028408], [77.701497, 13.027345], [77.701489, 13.02717], [77.702271, 13.027337], [77.703883, 13.028241], [77.704605, 13.028505], [77.705325, 13.028714], [77.706099, 13.028706], [77.70654, 13.028593], [77.707361, 13.02788], [77.707834, 13.027476], [77.707882, 13.027438], [77.708492, 13.0276], [77.709395, 13.027665], [77.71103, 13.028955], [77.711447, 13.027601], [77.71163, 13.027501], [77.711774, 13.026542], [77.711899, 13.0257], [77.712085, 13.024156], [77.713423, 13.022415], [77.713205, 13.022289], [77.71442, 13.020368], [77.714066, 13.020407], [77.713954, 13.019919], [77.713798, 13.019689], [77.713746, 13.019597], [77.713647, 13.019442], [77.713388, 13.019259], [77.712748, 13.018827], [77.712065, 13.018381], [77.711908, 13.018294], [77.71182, 13.018159], [77.711723, 13.017991], [77.711626, 13.017814], [77.711589, 13.017603], [77.711553, 13.017434], [77.711518, 13.017184], [77.71163, 13.016829], [77.711815, 13.016586], [77.711652, 13.016206], [77.711571, 13.016097], [77.711366, 13.016139], [77.711303, 13.015885], [77.711198, 13.015802], [77.711171, 13.0157], [77.711236, 13.015135], [77.710987, 13.014826], [77.710741, 13.014744], [77.710722, 13.014348], [77.710462, 13.014279], [77.709868, 13.014144], [77.70939, 13.013993], [77.708248, 13.013821], [77.707845, 13.013882], [77.70757, 13.0138], [77.707337, 13.013675], [77.707045, 13.013324], [77.706538, 13.013202], [77.705945, 13.013053], [77.705673, 13.013254], [77.705414, 13.013384], [77.702608, 13.013398], [77.702569, 13.012778], [77.702488, 13.011253], [77.702486, 13.010348], [77.702325, 13.010446], [77.702274, 13.010523], [77.70224, 13.010574], [77.70218, 13.0106], [77.701964, 13.010586], [77.701851, 13.01056], [77.701395, 13.010454], [77.70072, 13.010291], [77.70025, 13.010134], [77.699873, 13.009952], [77.698694, 13.009387], [77.6982, 13.009139], [77.697735, 13.009433], [77.697443, 13.009202], [77.697295, 13.009303], [77.696845, 13.009489], [77.696718, 13.009295], [77.695858, 13.008394], [77.695783, 13.008384], [77.695728, 13.008348]]]}}]}