{"type": "FeatureCollection", "features": [{"type": "Feature", "properties": {"region_id": "ward_276600-198", "name": "Hemmigepura", "parent": "zone_276600-5", "parent_name": "Rajarajeshwari Nagar"}, "geometry": {"type": "MultiPolygon", "coordinates": [[[[77.49854, 12.925741], [77.498536, 12.925739], [77.498534, 12.925741], [77.498537, 12.925744], [77.49854, 12.925741]]], [[[77.517741, 12.893212], [77.521291, 12.885509], [77.521881, 12.885624], [77.524305, 12.885601], [77.526757, 12.885823], [77.528179, 12.885952], [77.528858, 12.886289], [77.529793, 12.886531], [77.531407, 12.887019], [77.532392, 12.887157], [77.532444, 12.887004], [77.532586, 12.886902], [77.53338, 12.886182], [77.536021, 12.884581], [77.537254, 12.883688], [77.537957, 12.883231], [77.538598, 12.882325], [77.539142, 12.881288], [77.540725, 12.881304], [77.540745, 12.881304], [77.540757, 12.881317], [77.540811, 12.88132], [77.540873, 12.881299], [77.540994, 12.881225], [77.541037, 12.881168], [77.541395, 12.881067], [77.541931, 12.881062], [77.543424, 12.881116], [77.544377, 12.881093], [77.544382, 12.881093], [77.54598, 12.884705], [77.546008, 12.884768], [77.546116, 12.884873], [77.546377, 12.885127], [77.546717, 12.885496], [77.547109, 12.885929], [77.547183, 12.886], [77.54719, 12.886001], [77.547237, 12.886003], [77.54757, 12.886358], [77.547858, 12.88622], [77.548143, 12.886076], [77.548424, 12.885926], [77.548703, 12.885771], [77.548978, 12.88561], [77.54925, 12.885444], [77.549341, 12.885405], [77.549428, 12.885359], [77.549512, 12.885308], [77.549592, 12.885251], [77.549667, 12.885189], [77.549738, 12.885122], [77.549803, 12.885049], [77.549864, 12.884973], [77.549918, 12.884892], [77.549967, 12.884808], [77.550009, 12.88472], [77.550045, 12.88463], [77.550074, 12.884538], [77.550096, 12.884443], [77.550112, 12.884348], [77.55012, 12.884251], [77.550121, 12.884155], [77.550116, 12.884058], [77.550103, 12.883962], [77.550083, 12.883867], [77.550057, 12.883774], [77.550024, 12.883683], [77.549984, 12.883594], [77.549938, 12.883509], [77.549886, 12.883426], [77.549857, 12.883341], [77.549835, 12.883253], [77.549819, 12.883164], [77.549811, 12.883074], [77.54981, 12.882984], [77.549815, 12.882893], [77.549828, 12.882804], [77.549847, 12.882716], [77.549874, 12.882629], [77.549907, 12.882545], [77.549946, 12.882463], [77.549992, 12.882385], [77.550043, 12.88231], [77.5501, 12.882239], [77.550163, 12.882173], [77.55023, 12.882111], [77.550302, 12.882055], [77.550376, 12.881951], [77.550444, 12.881844], [77.550506, 12.881734], [77.550563, 12.88162], [77.550614, 12.881504], [77.550658, 12.881386], [77.550697, 12.881265], [77.550729, 12.881143], [77.550755, 12.881019], [77.550774, 12.880895], [77.550787, 12.880769], [77.550794, 12.880643], [77.550794, 12.880517], [77.550787, 12.880391], [77.550774, 12.880265], [77.550754, 12.88014], [77.550735, 12.879926], [77.550723, 12.879712], [77.550718, 12.879498], [77.55072, 12.879283], [77.55073, 12.879069], [77.550747, 12.878855], [77.550772, 12.878642], [77.550803, 12.878429], [77.550843, 12.878218], [77.550889, 12.878009], [77.550942, 12.877801], [77.551003, 12.877594], [77.55107, 12.87739], [77.551145, 12.877189], [77.551226, 12.876989], [77.551315, 12.876793], [77.551329, 12.876762], [77.55114, 12.87658], [77.551138, 12.876566], [77.551117, 12.87643], [77.551123, 12.876372], [77.551161, 12.876302], [77.551199, 12.876232], [77.551244, 12.876156], [77.551269, 12.876079], [77.551255, 12.875978], [77.551222, 12.875915], [77.551216, 12.875909], [77.551189, 12.875883], [77.551105, 12.87584], [77.551001, 12.875828], [77.55093, 12.875829], [77.550872, 12.875798], [77.550864, 12.87569], [77.550921, 12.875544], [77.550959, 12.875467], [77.550997, 12.875384], [77.551034, 12.875263], [77.551072, 12.87513], [77.551084, 12.875022], [77.551082, 12.87487], [77.551081, 12.874762], [77.551079, 12.874584], [77.551012, 12.874281], [77.55101, 12.874179], [77.551023, 12.87409], [77.551048, 12.874014], [77.551105, 12.873918], [77.551143, 12.873842], [77.551198, 12.873588], [77.551197, 12.873473], [77.551124, 12.873259], [77.550833, 12.872646], [77.550656, 12.872382], [77.550426, 12.87201], [77.550321, 12.871884], [77.55023, 12.871758], [77.550015, 12.871576], [77.549897, 12.871476], [77.549806, 12.871299], [77.549805, 12.871247], [77.5498, 12.870716], [77.549841, 12.870212], [77.549874, 12.870145], [77.549895, 12.8701], [77.550292, 12.869685], [77.550453, 12.869386], [77.55049, 12.869237], [77.550563, 12.869], [77.550573, 12.868764], [77.550571, 12.868578], [77.550568, 12.86828], [77.550553, 12.868032], [77.550475, 12.867835], [77.550322, 12.86765], [77.549875, 12.867282], [77.549716, 12.867188], [77.549494, 12.867092], [77.549266, 12.866997], [77.549045, 12.86695], [77.548831, 12.866952], [77.548689, 12.866926], [77.548568, 12.866899], [77.548467, 12.86683], [77.548423, 12.866756], [77.548279, 12.866915], [77.548269, 12.866911], [77.547327, 12.86664], [77.546831, 12.866753], [77.545485, 12.867383], [77.545487, 12.866845], [77.545471, 12.866829], [77.545428, 12.86683], [77.545089, 12.866992], [77.544227, 12.867346], [77.543887, 12.867403], [77.543828, 12.867412], [77.543757, 12.867475], [77.543505, 12.867978], [77.543473, 12.868246], [77.543523, 12.868697], [77.543523, 12.868963], [77.543106, 12.868985], [77.542703, 12.868996], [77.54219, 12.869053], [77.541432, 12.869124], [77.541381, 12.869119], [77.541346, 12.869119], [77.541164, 12.868996], [77.541122, 12.869264], [77.541126, 12.869383], [77.54085, 12.869439], [77.540677, 12.869456], [77.540594, 12.868873], [77.539703, 12.868969], [77.539493, 12.868983], [77.539442, 12.868991], [77.539406, 12.868976], [77.539386, 12.868937], [77.539267, 12.868457], [77.539551, 12.868365], [77.539597, 12.868303], [77.539555, 12.86805], [77.539414, 12.868052], [77.539083, 12.868014], [77.53883, 12.86757], [77.538827, 12.867285], [77.538534, 12.867044], [77.538368, 12.867046], [77.538037, 12.867049], [77.537909, 12.86705], [77.537854, 12.866007], [77.537439, 12.866057], [77.537401, 12.864979], [77.537369, 12.86458], [77.537353, 12.864533], [77.537307, 12.864536], [77.537131, 12.86452], [77.536831, 12.864509], [77.536686, 12.864582], [77.536439, 12.864666], [77.536273, 12.864708], [77.536024, 12.864629], [77.535975, 12.864592], [77.535903, 12.864586], [77.535909, 12.864333], [77.535892, 12.86421], [77.535886, 12.864122], [77.535833, 12.864086], [77.535716, 12.864067], [77.535686, 12.863942], [77.535883, 12.862964], [77.535838, 12.862599], [77.535406, 12.862573], [77.535129, 12.862717], [77.534944, 12.862734], [77.534802, 12.862609], [77.534651, 12.862406], [77.533981, 12.86131], [77.533589, 12.860527], [77.533537, 12.860385], [77.533367, 12.85994], [77.533117, 12.859861], [77.532661, 12.859824], [77.532414, 12.859989], [77.532169, 12.860276], [77.532006, 12.860562], [77.532012, 12.861213], [77.531973, 12.861333], [77.53189, 12.861254], [77.531836, 12.861136], [77.531309, 12.860028], [77.53089, 12.859277], [77.530632, 12.858778], [77.530508, 12.858505], [77.530485, 12.858365], [77.530494, 12.858215], [77.530561, 12.857547], [77.53059, 12.857267], [77.530557, 12.857128], [77.530493, 12.857082], [77.530414, 12.857072], [77.53034, 12.857068], [77.530214, 12.857105], [77.529589, 12.857313], [77.528843, 12.857652], [77.528371, 12.857944], [77.528155, 12.858157], [77.528085, 12.858243], [77.528065, 12.858271], [77.528066, 12.858294], [77.528062, 12.858317], [77.528332, 12.858777], [77.528954, 12.859717], [77.529062, 12.859879], [77.529059, 12.859941], [77.528759, 12.860022], [77.528009, 12.860146], [77.527922, 12.86017], [77.527847, 12.860178], [77.527784, 12.860206], [77.527729, 12.860249], [77.527655, 12.860285], [77.527568, 12.860289], [77.527524, 12.860286], [77.527473, 12.860275], [77.527388, 12.860209], [77.527189, 12.860132], [77.527083, 12.860123], [77.527004, 12.860124], [77.526946, 12.860124], [77.52692, 12.860145], [77.526879, 12.860259], [77.526308, 12.862174], [77.525991, 12.863186], [77.525981, 12.863243], [77.526013, 12.863289], [77.526269, 12.863535], [77.527203, 12.864369], [77.527797, 12.864949], [77.52865, 12.865882], [77.529322, 12.8666], [77.52963, 12.866884], [77.529945, 12.867199], [77.529859, 12.86736], [77.529511, 12.867522], [77.529172, 12.867683], [77.529231, 12.868882], [77.529238, 12.869654], [77.529243, 12.870101], [77.529082, 12.870591], [77.528756, 12.871163], [77.528348, 12.871736], [77.526986, 12.872318], [77.526616, 12.872566], [77.52637, 12.872893], [77.52625, 12.87326], [77.526384, 12.874234], [77.526305, 12.874601], [77.526016, 12.874766], [77.52498, 12.874695], [77.522323, 12.874233], [77.515829, 12.871165], [77.514497, 12.870528], [77.513625, 12.870373], [77.513337, 12.870498], [77.512967, 12.870786], [77.511414, 12.872996], [77.509205, 12.875822], [77.508838, 12.876436], [77.508678, 12.876966], [77.508317, 12.878189], [77.508031, 12.878639], [77.507485, 12.879317], [77.506984, 12.879466], [77.506613, 12.879635], [77.506242, 12.879839], [77.505935, 12.880048], [77.505699, 12.880275], [77.504883, 12.881045], [77.504757, 12.881101], [77.504694, 12.881095], [77.504322, 12.880471], [77.503099, 12.87842], [77.502474, 12.877271], [77.501655, 12.875999], [77.5015, 12.875966], [77.501388, 12.875981], [77.501296, 12.875981], [77.50117, 12.875983], [77.501036, 12.875963], [77.500888, 12.87593], [77.500804, 12.875924], [77.500701, 12.875963], [77.500295, 12.875664], [77.499796, 12.875425], [77.499381, 12.875388], [77.498799, 12.87519], [77.49855, 12.875152], [77.498135, 12.875115], [77.497762, 12.875119], [77.497265, 12.875123], [77.496851, 12.875127], [77.496519, 12.875131], [77.496105, 12.875135], [77.495895, 12.874893], [77.495808, 12.874446], [77.495511, 12.873717], [77.495385, 12.873556], [77.495052, 12.873397], [77.494596, 12.873401], [77.494265, 12.873404], [77.493975, 12.873407], [77.493684, 12.873328], [77.493267, 12.873048], [77.492473, 12.872364], [77.492099, 12.872246], [77.49181, 12.87233], [77.491396, 12.872415], [77.491067, 12.872622], [77.49053, 12.872789], [77.490115, 12.872793], [77.489451, 12.872678], [77.487081, 12.871765], [77.485756, 12.87194], [77.48501, 12.871866], [77.484637, 12.871829], [77.484099, 12.871915], [77.483769, 12.872122], [77.483481, 12.872328], [77.483192, 12.872371], [77.482694, 12.872294], [77.482362, 12.872298], [77.482359, 12.872327], [77.482409, 12.872413], [77.482549, 12.87254], [77.482645, 12.872687], [77.482681, 12.872756], [77.482726, 12.872861], [77.482867, 12.873158], [77.48288, 12.873228], [77.482885, 12.873309], [77.482858, 12.873414], [77.482718, 12.874029], [77.482667, 12.874126], [77.482539, 12.874314], [77.482195, 12.87474], [77.482054, 12.874931], [77.482007, 12.874994], [77.482054, 12.875296], [77.482082, 12.875338], [77.482162, 12.87538], [77.482241, 12.87543], [77.482365, 12.875518], [77.482767, 12.875798], [77.482851, 12.875874], [77.482959, 12.876001], [77.483043, 12.876136], [77.483096, 12.876245], [77.483128, 12.87631], [77.483129, 12.876388], [77.483109, 12.876427], [77.482885, 12.876507], [77.482274, 12.876741], [77.481836, 12.876892], [77.481529, 12.876988], [77.481461, 12.877046], [77.481404, 12.877109], [77.481394, 12.877155], [77.481521, 12.877775], [77.481544, 12.877909], [77.481645, 12.878022], [77.481756, 12.878138], [77.481676, 12.878321], [77.48143, 12.878607], [77.480852, 12.878775], [77.480066, 12.878905], [77.478368, 12.879002], [77.477087, 12.87938], [77.476799, 12.879586], [77.476471, 12.879915], [77.476267, 12.880242], [77.475981, 12.880651], [77.475987, 12.881301], [77.475991, 12.881667], [77.476112, 12.881711], [77.476181, 12.881757], [77.476958, 12.882521], [77.477529, 12.883147], [77.477784, 12.883393], [77.478039, 12.883613], [77.478093, 12.883695], [77.478141, 12.88372], [77.47822, 12.883761], [77.478312, 12.883983], [77.478386, 12.884039], [77.478408, 12.884054], [77.478434, 12.884095], [77.478424, 12.884126], [77.478398, 12.884147], [77.478468, 12.88425], [77.478521, 12.884291], [77.478574, 12.884301], [77.478631, 12.88429], [77.478674, 12.884305], [77.478701, 12.884372], [77.478723, 12.884465], [77.478845, 12.884536], [77.478882, 12.884567], [77.478958, 12.884784], [77.478928, 12.884955], [77.478894, 12.885271], [77.478901, 12.885374], [77.478891, 12.885472], [77.478855, 12.88554], [77.478684, 12.88591], [77.478638, 12.886065], [77.47866, 12.886106], [77.478692, 12.886188], [77.478804, 12.886311], [77.478889, 12.886352], [77.479031, 12.886351], [77.479358, 12.886342], [77.479579, 12.886273], [77.479942, 12.886161], [77.480173, 12.886086], [77.480352, 12.886048], [77.480457, 12.886032], [77.480526, 12.886036], [77.480574, 12.886051], [77.480611, 12.886072], [77.480796, 12.886111], [77.480875, 12.886111], [77.481054, 12.886078], [77.481275, 12.886019], [77.481412, 12.886012], [77.481591, 12.88598], [77.481717, 12.885958], [77.481902, 12.885946], [77.481997, 12.88596], [77.482102, 12.885975], [77.482197, 12.885969], [77.482305, 12.885914], [77.482381, 12.885884], [77.482449, 12.885868], [77.482513, 12.885878], [77.482571, 12.885893], [77.482656, 12.88597], [77.482709, 12.886], [77.482779, 12.886098], [77.482848, 12.886206], [77.482854, 12.886268], [77.482809, 12.886527], [77.482758, 12.886703], [77.482449, 12.887415], [77.482407, 12.887498], [77.482361, 12.887618], [77.482362, 12.8877], [77.482326, 12.887825], [77.482353, 12.887851], [77.482353, 12.887882], [77.482322, 12.887934], [77.482259, 12.88796], [77.482228, 12.888048], [77.482214, 12.888178], [77.482146, 12.888774], [77.482075, 12.889043], [77.481794, 12.889439], [77.481511, 12.8897], [77.48113, 12.890061], [77.481104, 12.890123], [77.481042, 12.890186], [77.481005, 12.890197], [77.48091, 12.890203], [77.480756, 12.890122], [77.480645, 12.890029], [77.480523, 12.889974], [77.480332, 12.889877], [77.480004, 12.889741], [77.479861, 12.889716], [77.479692, 12.889676], [77.479544, 12.889683], [77.479434, 12.88971], [77.479309, 12.889788], [77.479235, 12.889893], [77.479183, 12.889986], [77.479179, 12.89009], [77.479181, 12.890819], [77.479157, 12.89158], [77.479113, 12.891927], [77.478957, 12.892187], [77.478748, 12.892391], [77.478585, 12.89247], [77.478172, 12.892754], [77.478103, 12.89278], [77.477941, 12.89289], [77.477737, 12.89311], [77.477273, 12.893673], [77.477097, 12.893949], [77.476811, 12.89435], [77.476733, 12.894454], [77.476638, 12.894486], [77.476564, 12.894481], [77.476389, 12.8944], [77.476314, 12.894292], [77.476318, 12.894163], [77.476271, 12.894127], [77.476228, 12.894133], [77.476176, 12.894144], [77.476091, 12.894144], [77.475928, 12.894115], [77.475822, 12.8941], [77.475738, 12.894106], [77.475659, 12.894107], [77.475533, 12.894181], [77.475429, 12.894316], [77.475384, 12.894555], [77.475384, 12.894606], [77.475385, 12.894694], [77.475393, 12.894784], [77.47521, 12.894968], [77.474882, 12.895296], [77.473814, 12.896241], [77.473361, 12.89657], [77.472866, 12.896819], [77.472449, 12.89685], [77.472014, 12.896242], [77.471332, 12.895416], [77.4706, 12.894544], [77.470353, 12.894197], [77.470337, 12.89413], [77.470313, 12.894069], [77.469956, 12.893386], [77.469941, 12.893328], [77.469131, 12.891242], [77.468392, 12.888486], [77.468262, 12.888666], [77.468194, 12.888725], [77.467734, 12.889291], [77.46721, 12.890015], [77.466677, 12.890736], [77.466068, 12.891547], [77.465577, 12.892242], [77.465474, 12.892383], [77.464992, 12.893116], [77.462457, 12.896862], [77.462107, 12.89759], [77.462702, 12.897952], [77.463411, 12.898219], [77.463953, 12.898524], [77.464646, 12.899064], [77.46519, 12.899551], [77.465565, 12.899913], [77.466163, 12.900308], [77.466948, 12.900756], [77.468014, 12.901366], [77.468687, 12.901852], [77.469212, 12.902303], [77.469701, 12.902827], [77.470155, 12.903661], [77.470741, 12.904695], [77.471248, 12.905201], [77.472276, 12.905847], [77.472876, 12.906316], [77.473456, 12.90673], [77.474091, 12.906997], [77.474482, 12.907085], [77.474816, 12.907081], [77.475263, 12.90715], [77.475674, 12.907329], [77.476422, 12.907832], [77.477188, 12.90828], [77.477862, 12.908693], [77.478945, 12.90923], [77.479915, 12.909567], [77.480773, 12.909887], [77.481799, 12.91026], [77.482431, 12.910346], [77.48336, 12.910264], [77.484022, 12.910278], [77.484265, 12.910352], [77.484371, 12.910479], [77.484441, 12.910639], [77.484684, 12.911554], [77.484979, 12.912478], [77.485086, 12.912748], [77.485287, 12.91295], [77.48554, 12.913118], [77.485732, 12.913269], [77.4861, 12.913707], [77.486547, 12.914331], [77.487002, 12.914811], [77.48744, 12.915291], [77.487806, 12.915551], [77.488233, 12.915768], [77.488711, 12.915992], [77.489025, 12.916168], [77.489496, 12.916512], [77.48996, 12.917], [77.490258, 12.917362], [77.490731, 12.917952], [77.490987, 12.918409], [77.491268, 12.918882], [77.49147, 12.919168], [77.49175, 12.919446], [77.492065, 12.919723], [77.492422, 12.919958], [77.492693, 12.920184], [77.492895, 12.92048], [77.493115, 12.920801], [77.493317, 12.921181], [77.493554, 12.921493], [77.493816, 12.92166], [77.494216, 12.921818], [77.494677, 12.922034], [77.49506, 12.922302], [77.495496, 12.922587], [77.49588, 12.922813], [77.496262, 12.922953], [77.496775, 12.923161], [77.497149, 12.923327], [77.497586, 12.923714], [77.498049, 12.924185], [77.498495, 12.924605], [77.498845, 12.924916], [77.498952, 12.925054], [77.499137, 12.92522], [77.499311, 12.925377], [77.499639, 12.925672], [77.500006, 12.925991], [77.500436, 12.926332], [77.501133, 12.926814], [77.501858, 12.927308], [77.502077, 12.927387], [77.502296, 12.927544], [77.50248, 12.927725], [77.502588, 12.927839], [77.502866, 12.927613], [77.503408, 12.927154], [77.503584, 12.927004], [77.503996, 12.926702], [77.504258, 12.926607], [77.504397, 12.926551], [77.504478, 12.926449], [77.504646, 12.92622], [77.504747, 12.926058], [77.504884, 12.925895], [77.505042, 12.925712], [77.505127, 12.925504], [77.505136, 12.925398], [77.505358, 12.925279], [77.505786, 12.925142], [77.507811, 12.924825], [77.510212, 12.924711], [77.510392, 12.924782], [77.510426, 12.924786], [77.510527, 12.924477], [77.510521, 12.924171], [77.510459, 12.923939], [77.51044, 12.923834], [77.510458, 12.92382], [77.510484, 12.923799], [77.510523, 12.923793], [77.510994, 12.923736], [77.511071, 12.923735], [77.511491, 12.923718], [77.511633, 12.92278], [77.511746, 12.922213], [77.511755, 12.921998], [77.511717, 12.921756], [77.511697, 12.921382], [77.511725, 12.921316], [77.511675, 12.921076], [77.511631, 12.92069], [77.511699, 12.920684], [77.511779, 12.920674], [77.5118, 12.920666], [77.511842, 12.920637], [77.511858, 12.920611], [77.511864, 12.920587], [77.511878, 12.920561], [77.511888, 12.920519], [77.511891, 12.92049], [77.511891, 12.920444], [77.511886, 12.920388], [77.511886, 12.920333], [77.511846, 12.91992], [77.511816, 12.91988], [77.511753, 12.919857], [77.511705, 12.91984], [77.511668, 12.919829], [77.511633, 12.919812], [77.511599, 12.91979], [77.511577, 12.919768], [77.511541, 12.919731], [77.511451, 12.919295], [77.51144, 12.91913], [77.511498, 12.918698], [77.511541, 12.9182], [77.511567, 12.91811], [77.511601, 12.918002], [77.511762, 12.917788], [77.512075, 12.917299], [77.5122, 12.917059], [77.512363, 12.916449], [77.512424, 12.9163], [77.512426, 12.916248], [77.512417, 12.916216], [77.513415, 12.916118], [77.513387, 12.91507], [77.513391, 12.914303], [77.512203, 12.914347], [77.511834, 12.914357], [77.511651, 12.914354], [77.511235, 12.914226], [77.510955, 12.914287], [77.510901, 12.914088], [77.510765, 12.913572], [77.510647, 12.912944], [77.51054, 12.912437], [77.510498, 12.912284], [77.51048, 12.912254], [77.510428, 12.912207], [77.510084, 12.911795], [77.509906, 12.911572], [77.509795, 12.911436], [77.509626, 12.910985], [77.509406, 12.910285], [77.509275, 12.909859], [77.509279, 12.909796], [77.509346, 12.909791], [77.509426, 12.90978], [77.509505, 12.909761], [77.509581, 12.909735], [77.509582, 12.909735], [77.509624, 12.909725], [77.509673, 12.909706], [77.509719, 12.909681], [77.50976, 12.90965], [77.509797, 12.909614], [77.509875, 12.909548], [77.510027, 12.909422], [77.510077, 12.909386], [77.510132, 12.909355], [77.510191, 12.909332], [77.510252, 12.909315], [77.510314, 12.909305], [77.51033, 12.909304], [77.510391, 12.909303], [77.510451, 12.909295], [77.51051, 12.909279], [77.510566, 12.909257], [77.510619, 12.909228], [77.510667, 12.909192], [77.510673, 12.909188], [77.510707, 12.909144], [77.510772, 12.909052], [77.510831, 12.908955], [77.510873, 12.908878], [77.51091, 12.908781], [77.510956, 12.908643], [77.510995, 12.908502], [77.511027, 12.90836], [77.511046, 12.90825], [77.511056, 12.908206], [77.511059, 12.908157], [77.511055, 12.908109], [77.511043, 12.908061], [77.511024, 12.908016], [77.510999, 12.907975], [77.510967, 12.907937], [77.510929, 12.907905], [77.510919, 12.907898], [77.510913, 12.907893], [77.510834, 12.907815], [77.510761, 12.907732], [77.510694, 12.907644], [77.51064, 12.907563], [77.51063, 12.907551], [77.510543, 12.907446], [77.51045, 12.907347], [77.510395, 12.907293], [77.510382, 12.90725], [77.510374, 12.907199], [77.510374, 12.907148], [77.510381, 12.907096], [77.510395, 12.907047], [77.510417, 12.907], [77.510446, 12.906957], [77.510461, 12.906939], [77.510522, 12.906891], [77.510635, 12.90681], [77.510753, 12.906734], [77.510805, 12.906704], [77.511054, 12.906709], [77.511516, 12.906678], [77.511937, 12.906666], [77.512091, 12.906661], [77.512156, 12.906626], [77.512227, 12.906296], [77.512246, 12.905487], [77.512248, 12.904527], [77.512213, 12.904015], [77.511809, 12.904014], [77.510897, 12.903919], [77.510902, 12.903773], [77.510949, 12.903499], [77.510981, 12.903385], [77.510989, 12.903306], [77.510997, 12.903236], [77.51109, 12.90304], [77.511115, 12.902886], [77.511084, 12.902755], [77.511036, 12.902677], [77.510949, 12.902611], [77.51094, 12.902547], [77.510972, 12.902486], [77.511039, 12.902404], [77.511204, 12.902274], [77.511362, 12.902148], [77.51168, 12.902147], [77.51182, 12.902201], [77.511921, 12.902203], [77.511995, 12.902202], [77.512164, 12.902147], [77.512315, 12.902147], [77.51238, 12.90212], [77.512472, 12.902108], [77.512543, 12.902098], [77.512712, 12.902094], [77.512875, 12.902086], [77.512914, 12.902086], [77.512976, 12.902094], [77.513036, 12.902102], [77.513071, 12.902105], [77.513134, 12.902101], [77.513184, 12.902083], [77.513234, 12.902062], [77.513314, 12.902062], [77.513424, 12.902069], [77.513804, 12.902057], [77.513872, 12.902036], [77.513966, 12.901968], [77.513998, 12.901875], [77.51405, 12.901758], [77.514052, 12.901711], [77.514007, 12.901584], [77.513938, 12.901509], [77.513842, 12.901457], [77.513744, 12.90142], [77.513661, 12.901401], [77.513588, 12.901395], [77.513357, 12.901261], [77.513234, 12.901186], [77.513159, 12.90112], [77.513114, 12.90106], [77.51308, 12.900954], [77.513021, 12.900863], [77.512889, 12.900685], [77.5128, 12.90061], [77.512728, 12.900547], [77.512654, 12.900499], [77.512547, 12.900444], [77.512422, 12.900377], [77.51238, 12.90031], [77.512379, 12.900229], [77.512422, 12.900046], [77.512469, 12.899973], [77.512584, 12.899947], [77.512672, 12.89984], [77.512771, 12.899782], [77.512832, 12.899729], [77.51287, 12.899673], [77.512905, 12.899618], [77.512957, 12.89952], [77.513238, 12.899267], [77.513426, 12.899039], [77.513504, 12.898925], [77.513548, 12.898861], [77.513579, 12.898748], [77.513551, 12.898621], [77.513464, 12.898453], [77.513413, 12.898364], [77.513329, 12.89831], [77.51329, 12.898261], [77.513271, 12.898183], [77.513259, 12.89811], [77.513277, 12.898049], [77.513317, 12.898003], [77.513364, 12.897964], [77.513432, 12.897922], [77.513457, 12.897881], [77.513573, 12.897812], [77.513646, 12.897724], [77.513695, 12.897674], [77.513768, 12.897572], [77.513864, 12.897368], [77.513933, 12.897229], [77.513973, 12.897095], [77.513981, 12.897002], [77.513982, 12.896805], [77.513979, 12.896753], [77.513942, 12.896675], [77.513961, 12.896478], [77.513978, 12.896428], [77.514033, 12.896332], [77.514107, 12.89611], [77.514123, 12.896083], [77.514259, 12.895761], [77.514295, 12.895608], [77.514309, 12.895515], [77.514286, 12.895333], [77.514271, 12.895295], [77.514221, 12.895246], [77.514147, 12.89523], [77.514114, 12.895236], [77.514046, 12.895225], [77.513984, 12.895191], [77.51393, 12.895148], [77.513882, 12.895102], [77.513867, 12.895076], [77.513867, 12.895038], [77.513902, 12.894983], [77.513942, 12.894904], [77.513953, 12.894823], [77.513979, 12.894744], [77.514118, 12.894404], [77.514154, 12.894247], [77.514141, 12.894134], [77.514102, 12.894024], [77.513837, 12.893158], [77.513836, 12.893021], [77.514022, 12.89295], [77.514232, 12.892971], [77.514488, 12.892991], [77.514774, 12.892989], [77.514791, 12.892989], [77.514799, 12.892982], [77.514927, 12.89295], [77.514977, 12.892915], [77.515074, 12.892832], [77.51526, 12.89265], [77.515269, 12.892571], [77.515297, 12.892508], [77.515337, 12.892473], [77.515574, 12.892455], [77.515631, 12.892444], [77.5157, 12.892422], [77.515755, 12.892404], [77.515788, 12.892401], [77.515804, 12.892401], [77.515833, 12.892416], [77.515853, 12.892431], [77.515882, 12.892472], [77.515896, 12.892507], [77.515888, 12.892587], [77.515884, 12.892661], [77.51584, 12.892731], [77.515826, 12.892831], [77.51574, 12.893123], [77.515716, 12.893197], [77.515726, 12.893282], [77.515759, 12.893438], [77.515775, 12.893486], [77.515809, 12.893553], [77.515809, 12.89359], [77.515819, 12.893703], [77.515826, 12.893727], [77.51585, 12.893746], [77.515886, 12.893757], [77.515924, 12.893765], [77.516023, 12.893764], [77.516148, 12.893752], [77.516179, 12.893756], [77.516234, 12.89376], [77.516269, 12.893757], [77.516349, 12.893767], [77.516398, 12.893767], [77.516442, 12.893764], [77.516491, 12.89376], [77.516509, 12.893742], [77.516511, 12.893718], [77.516539, 12.893685], [77.516592, 12.893672], [77.516663, 12.893669], [77.516804, 12.893615], [77.516861, 12.89356], [77.516903, 12.89351], [77.517003, 12.893381], [77.517032, 12.893322], [77.51706, 12.893261], [77.517102, 12.893217], [77.517123, 12.893158], [77.517143, 12.893134], [77.517189, 12.893122], [77.517236, 12.893105], [77.517311, 12.893104], [77.51737, 12.893113], [77.517644, 12.893179], [77.517741, 12.893212]]], [[[77.505454, 12.92972], [77.505517, 12.929775], [77.505575, 12.929835], [77.505628, 12.929899], [77.505673, 12.929966], [77.505678, 12.929973], [77.505766, 12.930097], [77.505848, 12.930224], [77.505924, 12.930356], [77.505993, 12.930491], [77.506055, 12.930629], [77.506111, 12.93077], [77.506118, 12.930789], [77.506154, 12.930872], [77.506202, 12.930966], [77.506256, 12.931057], [77.506317, 12.931143], [77.506384, 12.931225], [77.506456, 12.931303], [77.506534, 12.931375], [77.506617, 12.931442], [77.506704, 12.931503], [77.506753, 12.931533], [77.507297, 12.93187], [77.508047, 12.932342], [77.508064, 12.932353], [77.508151, 12.932414], [77.508322, 12.932541], [77.508489, 12.932673], [77.508651, 12.932811], [77.508809, 12.932955], [77.508961, 12.933104], [77.50903, 12.933176], [77.509227, 12.933126], [77.509602, 12.933067], [77.50975, 12.93303], [77.50994, 12.933003], [77.510093, 12.932911], [77.510313, 12.932829], [77.510518, 12.932751], [77.510645, 12.932664], [77.510819, 12.932557], [77.510936, 12.93248], [77.510949, 12.932233], [77.510931, 12.931926], [77.510911, 12.931034], [77.510908, 12.930662], [77.510912, 12.930087], [77.510967, 12.92989], [77.510965, 12.929739], [77.510958, 12.929548], [77.510972, 12.928903], [77.509853, 12.928909], [77.509834, 12.929095], [77.508925, 12.929134], [77.508489, 12.929144], [77.508206, 12.929121], [77.507609, 12.929011], [77.506979, 12.929158], [77.506201, 12.929517], [77.505569, 12.929594], [77.505454, 12.92972]]]]}}]}