{"type": "FeatureCollection", "features": [{"type": "Feature", "properties": {"region_id": "ward_276600-186", "name": "Jaraganahalli", "parent": "zone_276600-1", "parent_name": "Bommanahalli"}, "geometry": {"type": "Polygon", "coordinates": [[[77.579388, 12.896874], [77.579265, 12.897338], [77.57891, 12.897203], [77.577721, 12.896534], [77.576402, 12.895774], [77.575175, 12.895082], [77.574636, 12.894729], [77.574221, 12.894573], [77.573262, 12.89429], [77.573354, 12.894123], [77.573402, 12.894036], [77.573238, 12.893966], [77.573148, 12.894095], [77.572753, 12.894661], [77.572448, 12.894524], [77.57189, 12.894515], [77.571884, 12.89422], [77.571795, 12.894228], [77.570647, 12.89416], [77.5687, 12.89399], [77.568424, 12.894067], [77.568361, 12.89408], [77.56847, 12.894182], [77.56868, 12.894381], [77.569256, 12.894995], [77.570036, 12.895856], [77.570646, 12.89655], [77.570799, 12.896718], [77.571177, 12.897164], [77.571896, 12.898095], [77.572158, 12.898458], [77.572504, 12.89895], [77.57275, 12.899322], [77.572816, 12.899446], [77.572854, 12.899542], [77.572986, 12.899943], [77.573137, 12.900417], [77.573228, 12.900794], [77.573382, 12.901432], [77.573464, 12.901841], [77.573475, 12.902054], [77.573456, 12.902248], [77.57341, 12.90257], [77.573313, 12.903078], [77.573244, 12.903574], [77.57323, 12.903759], [77.573231, 12.903875], [77.573236, 12.904008], [77.573255, 12.904193], [77.573308, 12.904587], [77.573361, 12.904985], [77.573369, 12.905367], [77.573376, 12.90558], [77.573354, 12.905918], [77.5733, 12.906249], [77.573261, 12.906489], [77.575116, 12.906472], [77.575407, 12.906469], [77.575487, 12.906468], [77.575485, 12.905882], [77.575481, 12.905183], [77.575481, 12.905054], [77.575622, 12.904908], [77.575893, 12.904652], [77.576059, 12.904476], [77.576347, 12.904319], [77.576598, 12.904169], [77.576824, 12.903997], [77.576908, 12.903925], [77.577011, 12.903857], [77.577254, 12.903901], [77.577185, 12.904075], [77.577049, 12.904301], [77.577031, 12.904479], [77.577038, 12.904689], [77.577002, 12.90489], [77.576938, 12.905125], [77.576906, 12.905314], [77.576895, 12.905546], [77.577243, 12.905547], [77.57747, 12.905554], [77.578176, 12.905545], [77.578734, 12.905553], [77.578701, 12.904991], [77.579637, 12.904771], [77.579616, 12.904556], [77.580327, 12.904417], [77.580326, 12.904345], [77.580312, 12.904251], [77.580311, 12.904208], [77.580343, 12.904172], [77.58045, 12.90412], [77.580855, 12.904007], [77.581284, 12.903893], [77.581729, 12.903811], [77.581706, 12.904815], [77.581714, 12.905599], [77.582517, 12.905523], [77.583032, 12.905513], [77.58306, 12.905368], [77.584248, 12.905235], [77.584562, 12.905165], [77.584961, 12.905168], [77.584979, 12.904641], [77.58576, 12.904621], [77.585802, 12.902765], [77.585305, 12.902613], [77.584794, 12.90243], [77.584164, 12.90217], [77.583618, 12.90192], [77.583701, 12.901153], [77.583723, 12.900043], [77.58381, 12.899138], [77.583828, 12.898633], [77.583512, 12.898708], [77.583071, 12.898724], [77.582838, 12.898687], [77.582725, 12.898666], [77.582668, 12.898611], [77.582667, 12.898511], [77.582714, 12.897845], [77.582411, 12.897837], [77.581697, 12.897845], [77.580976, 12.897864], [77.580867, 12.897796], [77.580185, 12.897385], [77.579388, 12.896874]]]}}]}