{"type": "FeatureCollection", "features": [{"type": "Feature", "properties": {"region_id": "ward_276600-20", "name": "Ganga Nagar", "parent": "zone_276600-3", "parent_name": "East"}, "geometry": {"type": "Polygon", "coordinates": [[[77.590331, 13.042826], [77.59026, 13.042632], [77.590226, 13.042527], [77.590165, 13.042369], [77.590141, 13.042307], [77.590004, 13.041851], [77.589938, 13.041602], [77.589953, 13.041599], [77.590224, 13.041543], [77.590752, 13.041426], [77.591008, 13.041369], [77.591374, 13.041295], [77.591834, 13.041189], [77.591921, 13.041169], [77.591973, 13.041159], [77.59214, 13.041126], [77.592284, 13.041105], [77.59269, 13.041057], [77.59289, 13.041055], [77.593002, 13.041057], [77.593147, 13.041059], [77.593431, 13.041076], [77.593501, 13.041082], [77.593588, 13.041089], [77.593773, 13.041114], [77.594188, 13.041166], [77.59459, 13.041221], [77.594717, 13.041237], [77.594789, 13.041246], [77.595026, 13.041261], [77.595221, 13.041268], [77.595457, 13.041262], [77.596789, 13.041226], [77.59743, 13.041209], [77.59726, 13.040581], [77.597052, 13.040617], [77.596991, 13.040314], [77.596935, 13.040117], [77.596887, 13.040082], [77.596722, 13.039942], [77.596509, 13.039641], [77.59643, 13.039469], [77.596373, 13.039297], [77.59635, 13.039189], [77.596225, 13.03922], [77.596119, 13.039246], [77.595537, 13.039392], [77.59513, 13.039526], [77.594724, 13.039681], [77.594263, 13.039826], [77.59358, 13.039909], [77.593118, 13.039989], [77.5927, 13.040079], [77.592183, 13.04016], [77.591985, 13.040184], [77.591875, 13.040217], [77.591766, 13.040294], [77.59169, 13.040392], [77.591614, 13.040512], [77.591504, 13.040513], [77.591382, 13.040428], [77.591182, 13.040332], [77.59107, 13.040182], [77.590992, 13.040075], [77.590925, 13.040022], [77.590738, 13.040023], [77.590321, 13.040136], [77.589847, 13.040173], [77.589638, 13.040229], [77.589463, 13.03928], [77.58937, 13.038838], [77.589335, 13.03859], [77.589265, 13.038266], [77.589228, 13.037845], [77.589237, 13.037612], [77.589202, 13.036768], [77.589195, 13.036389], [77.589156, 13.036221], [77.589106, 13.036089], [77.588766, 13.035225], [77.588638, 13.034821], [77.588496, 13.034407], [77.588392, 13.034026], [77.588266, 13.033477], [77.588216, 13.033312], [77.588166, 13.033178], [77.587867, 13.032559], [77.587292, 13.031238], [77.586886, 13.030313], [77.586455, 13.029206], [77.586208, 13.028594], [77.586187, 13.028545], [77.58656, 13.028536], [77.587409, 13.028563], [77.587415, 13.028649], [77.587679, 13.028661], [77.588233, 13.028721], [77.588493, 13.029815], [77.590175, 13.029688], [77.590874, 13.029636], [77.590836, 13.029216], [77.590453, 13.029286], [77.590327, 13.029144], [77.590133, 13.028913], [77.589996, 13.028826], [77.590308, 13.028357], [77.590529, 13.027901], [77.590628, 13.02769], [77.59108, 13.027707], [77.591646, 13.027779], [77.591837, 13.028774], [77.591872, 13.028896], [77.592235, 13.028792], [77.592633, 13.028713], [77.592634, 13.028713], [77.593655, 13.028509], [77.593676, 13.028587], [77.59416, 13.028588], [77.59439, 13.028595], [77.594805, 13.028546], [77.595067, 13.028501], [77.595383, 13.02843], [77.595449, 13.028416], [77.595232, 13.02724], [77.595094, 13.02655], [77.595044, 13.026244], [77.594962, 13.025964], [77.594861, 13.025359], [77.594773, 13.02472], [77.594156, 13.024806], [77.593614, 13.024909], [77.593176, 13.024946], [77.592906, 13.024939], [77.592848, 13.024968], [77.592716, 13.024987], [77.59242, 13.025025], [77.592179, 13.025052], [77.592042, 13.025053], [77.59199, 13.024856], [77.591941, 13.024562], [77.591895, 13.024187], [77.591907, 13.023836], [77.591853, 13.023828], [77.591373, 13.02375], [77.591446, 13.023639], [77.591163, 13.023695], [77.591077, 13.023708], [77.59047, 13.023781], [77.590342, 13.023435], [77.59027, 13.022986], [77.590305, 13.022804], [77.590371, 13.02259], [77.589862, 13.022522], [77.589428, 13.022503], [77.589422, 13.022582], [77.58952, 13.022982], [77.589566, 13.023243], [77.589207, 13.023289], [77.58899, 13.023321], [77.588998, 13.023467], [77.58893, 13.023529], [77.588758, 13.023615], [77.588394, 13.023801], [77.588042, 13.023945], [77.58789, 13.023612], [77.587721, 13.023137], [77.587556, 13.022768], [77.587051, 13.022958], [77.58695, 13.022697], [77.586894, 13.022601], [77.586523, 13.022696], [77.586436, 13.02269], [77.586077, 13.022755], [77.585373, 13.022975], [77.585273, 13.023022], [77.585294, 13.023124], [77.585207, 13.023134], [77.585108, 13.023172], [77.585083, 13.023179], [77.584706, 13.023288], [77.584654, 13.023092], [77.584591, 13.022897], [77.584515, 13.022939], [77.584268, 13.023186], [77.582854, 13.024405], [77.582683, 13.024562], [77.582444, 13.024709], [77.581922, 13.024964], [77.581428, 13.025163], [77.581296, 13.02522], [77.581238, 13.025253], [77.581189, 13.025299], [77.581149, 13.025331], [77.581121, 13.02536], [77.5811, 13.025395], [77.581037, 13.0256], [77.580999, 13.025688], [77.580963, 13.025735], [77.580924, 13.025781], [77.580892, 13.025809], [77.58086, 13.025831], [77.580781, 13.025863], [77.580631, 13.02597], [77.580492, 13.026074], [77.580275, 13.026295], [77.580166, 13.026431], [77.580074, 13.026478], [77.579996, 13.02653], [77.579873, 13.026803], [77.579725, 13.027016], [77.579619, 13.027239], [77.57961, 13.027418], [77.579623, 13.027598], [77.579548, 13.027672], [77.579378, 13.027938], [77.579009, 13.02865], [77.578606, 13.029298], [77.578235, 13.029851], [77.578208, 13.02988], [77.578962, 13.029803], [77.578971, 13.0296], [77.579311, 13.029652], [77.580538, 13.029727], [77.580574, 13.029415], [77.580981, 13.029411], [77.580962, 13.030772], [77.58099, 13.03187], [77.580994, 13.032038], [77.58122, 13.031996], [77.58133, 13.032941], [77.580848, 13.035102], [77.580588, 13.035055], [77.580193, 13.035108], [77.57987, 13.035166], [77.5797, 13.035202], [77.579682, 13.035522], [77.579713, 13.035818], [77.578893, 13.03572], [77.578902, 13.03588], [77.578917, 13.036252], [77.579, 13.036743], [77.578996, 13.036896], [77.580088, 13.03683], [77.581814, 13.036687], [77.581904, 13.036703], [77.582054, 13.037231], [77.5822, 13.03788], [77.582264, 13.038114], [77.58233, 13.038617], [77.582423, 13.03949], [77.582559, 13.040745], [77.582639, 13.041537], [77.582644, 13.041985], [77.58266, 13.04219], [77.582852, 13.04217], [77.582898, 13.042598], [77.582941, 13.043009], [77.583026, 13.04394], [77.583105, 13.044547], [77.583106, 13.044549], [77.583929, 13.044017], [77.584417, 13.043704], [77.58455, 13.043616], [77.584783, 13.043461], [77.584842, 13.043429], [77.58494, 13.043375], [77.585008, 13.043337], [77.585177, 13.043268], [77.585321, 13.043208], [77.585607, 13.043127], [77.585804, 13.043072], [77.586073, 13.043018], [77.586909, 13.042862], [77.587626, 13.042733], [77.58782, 13.042694], [77.588037, 13.042651], [77.588145, 13.042634], [77.5882, 13.042625], [77.588276, 13.042613], [77.588362, 13.042607], [77.58848, 13.042598], [77.588621, 13.042612], [77.58868, 13.042618], [77.58888, 13.042668], [77.589318, 13.042785], [77.589372, 13.042795], [77.589709, 13.042856], [77.590135, 13.042864], [77.590329, 13.042827], [77.590331, 13.042826]]]}}]}