{"type": "FeatureCollection", "features": [{"type": "Feature", "properties": {"region_id": "ward_276600-60", "name": "Sagayarapuram", "parent": "zone_276600-3", "parent_name": "East"}, "geometry": {"type": "Polygon", "coordinates": [[[77.620891, 13.00975], [77.620892, 13.009751], [77.620941, 13.009679], [77.62094, 13.009673], [77.621003, 13.009499], [77.621214, 13.009213], [77.621583, 13.008854], [77.622212, 13.008473], [77.622528, 13.008332], [77.622602, 13.008263], [77.622595, 13.008257], [77.622091, 13.007729], [77.62192, 13.007522], [77.621608, 13.007145], [77.621278, 13.006753], [77.620779, 13.006082], [77.620515, 13.005626], [77.620426, 13.005571], [77.620062, 13.004963], [77.619746, 13.004311], [77.619554, 13.00376], [77.619549, 13.003757], [77.619549, 13.003753], [77.619475, 13.003609], [77.619492, 13.003484], [77.619581, 13.003372], [77.619711, 13.003201], [77.619851, 13.003088], [77.620217, 13.002857], [77.620579, 13.00268], [77.620643, 13.002637], [77.620652, 13.00262], [77.62065, 13.002503], [77.620646, 13.002075], [77.62045, 13.001626], [77.620436, 13.001611], [77.620318, 13.001238], [77.620273, 13.000944], [77.620264, 13.000891], [77.620249, 13.000165], [77.620188, 13.000137], [77.620068, 13.000083], [77.620064, 13.000081], [77.619718, 13.000361], [77.619364, 13.000649], [77.619209, 13.000767], [77.619182, 13.000786], [77.619017, 13.000901], [77.618645, 13.001138], [77.618324, 13.001329], [77.618063, 13.00147], [77.617715, 13.001618], [77.617037, 13.001875], [77.616728, 13.001964], [77.616427, 13.002021], [77.616084, 13.002081], [77.615552, 13.00216], [77.615198, 13.002183], [77.614584, 13.002178], [77.613969, 13.002117], [77.613939, 13.002111], [77.613889, 13.00211], [77.61339, 13.002014], [77.61257, 13.001825], [77.612286, 13.001718], [77.612135, 13.001676], [77.612084, 13.001654], [77.611996, 13.001924], [77.612096, 13.001963], [77.612134, 13.002676], [77.612162, 13.003105], [77.612237, 13.003731], [77.612282, 13.004452], [77.612288, 13.005088], [77.612332, 13.005675], [77.612387, 13.006163], [77.61244, 13.006456], [77.612543, 13.006822], [77.612596, 13.007103], [77.612712, 13.007395], [77.612815, 13.007725], [77.612917, 13.007944], [77.613007, 13.008175], [77.613194, 13.008525], [77.61326, 13.008561], [77.613315, 13.008614], [77.613923, 13.008216], [77.614769, 13.009559], [77.615282, 13.00927], [77.615652, 13.00911], [77.615815, 13.009069], [77.615962, 13.009576], [77.61616, 13.010316], [77.616797, 13.010088], [77.617502, 13.00981], [77.618004, 13.009629], [77.618339, 13.00952], [77.618697, 13.009388], [77.618739, 13.009241], [77.618817, 13.009137], [77.618992, 13.009041], [77.61915, 13.008996], [77.619308, 13.008968], [77.619467, 13.009001], [77.619608, 13.009052], [77.619714, 13.009085], [77.619846, 13.009144], [77.620014, 13.00916], [77.620181, 13.009201], [77.62027, 13.009269], [77.620394, 13.00938], [77.620589, 13.009525], [77.620891, 13.00975]]]}}]}