{"type": "FeatureCollection", "features": [{"type": "Feature", "properties": {"region_id": "ward_276600-102", "name": "Vrisabhavathi Nagar", "parent": "zone_276600-7", "parent_name": "West"}, "geometry": {"type": "Polygon", "coordinates": [[[77.531653, 12.992566], [77.531653, 12.992565], [77.531652, 12.992558], [77.531591, 12.992137], [77.531564, 12.99195], [77.531545, 12.991801], [77.53148, 12.991293], [77.531429, 12.990883], [77.531401, 12.990656], [77.531351, 12.990184], [77.53133, 12.989984], [77.531283, 12.989881], [77.531227, 12.989783], [77.531206, 12.989747], [77.53117, 12.989657], [77.531093, 12.989465], [77.530997, 12.989313], [77.530988, 12.989299], [77.530982, 12.989286], [77.530877, 12.989052], [77.530792, 12.988802], [77.530625, 12.988415], [77.530588, 12.988329], [77.530494, 12.988185], [77.530458, 12.988148], [77.530317, 12.988], [77.530263, 12.987892], [77.530251, 12.987866], [77.530241, 12.987851], [77.530035, 12.987509], [77.52992, 12.987273], [77.529887, 12.987204], [77.529856, 12.987141], [77.529718, 12.986963], [77.529553, 12.98676], [77.529396, 12.986564], [77.529127, 12.986215], [77.529101, 12.986157], [77.529082, 12.986106], [77.529073, 12.98602], [77.529075, 12.985909], [77.529087, 12.985788], [77.529108, 12.9856], [77.529115, 12.985509], [77.529116, 12.985403], [77.529029, 12.984988], [77.528856, 12.984406], [77.528774, 12.98403], [77.528757, 12.983985], [77.528726, 12.983827], [77.528722, 12.983827], [77.52871, 12.983826], [77.528671, 12.983836], [77.528473, 12.983956], [77.528305, 12.984114], [77.528193, 12.984241], [77.528165, 12.984278], [77.527949, 12.984562], [77.527627, 12.984895], [77.527371, 12.985122], [77.527105, 12.98535], [77.526805, 12.985588], [77.526446, 12.985871], [77.526198, 12.985956], [77.526156, 12.985959], [77.526115, 12.985959], [77.526074, 12.98596], [77.526014, 12.985953], [77.525978, 12.985941], [77.525929, 12.985928], [77.525872, 12.985896], [77.52581, 12.985849], [77.525734, 12.985781], [77.525603, 12.985625], [77.525523, 12.985548], [77.525452, 12.985498], [77.525356, 12.985448], [77.525054, 12.985373], [77.524705, 12.985292], [77.524577, 12.985248], [77.524187, 12.98511], [77.523938, 12.985024], [77.523876, 12.985015], [77.523817, 12.985015], [77.523778, 12.985015], [77.523716, 12.985019], [77.523667, 12.985019], [77.523621, 12.985032], [77.523554, 12.985068], [77.523449, 12.98516], [77.523273, 12.985325], [77.522992, 12.985582], [77.522666, 12.985818], [77.522433, 12.985933], [77.522418, 12.985945], [77.522202, 12.986056], [77.52196, 12.986134], [77.521693, 12.986273], [77.520948, 12.986652], [77.520494, 12.986865], [77.520438, 12.986885], [77.52033, 12.986925], [77.520332, 12.986932], [77.520336, 12.986983], [77.520333, 12.987034], [77.520322, 12.987084], [77.520304, 12.987132], [77.520302, 12.987137], [77.520254, 12.987188], [77.520203, 12.987252], [77.520158, 12.98732], [77.52012, 12.987392], [77.520088, 12.987466], [77.520064, 12.987543], [77.520057, 12.98757], [77.520051, 12.987601], [77.520044, 12.987665], [77.520045, 12.987729], [77.520053, 12.987793], [77.520068, 12.987855], [77.520091, 12.987916], [77.520115, 12.987963], [77.52017, 12.988065], [77.52024, 12.988208], [77.520303, 12.988353], [77.520359, 12.988501], [77.520408, 12.988652], [77.520424, 12.988705], [77.520437, 12.988744], [77.520509, 12.988983], [77.520574, 12.989225], [77.520631, 12.989467], [77.520682, 12.989712], [77.520705, 12.989838], [77.52072, 12.989903], [77.520754, 12.990032], [77.520796, 12.990158], [77.520845, 12.990282], [77.5209, 12.990403], [77.520963, 12.990521], [77.520972, 12.990537], [77.521015, 12.990605], [77.521127, 12.990787], [77.521232, 12.990974], [77.52133, 12.991163], [77.521422, 12.991356], [77.521426, 12.991364], [77.521454, 12.991414], [77.521509, 12.991523], [77.521557, 12.991636], [77.521598, 12.991751], [77.521633, 12.991868], [77.521648, 12.991929], [77.521648, 12.991965], [77.521656, 12.992003], [77.521672, 12.992039], [77.521694, 12.992072], [77.521722, 12.992101], [77.521754, 12.992123], [77.521791, 12.992139], [77.52183, 12.992148], [77.521846, 12.992149], [77.522053, 12.992177], [77.52206, 12.992178], [77.522125, 12.992198], [77.522187, 12.992224], [77.522246, 12.992256], [77.522301, 12.992295], [77.522351, 12.992339], [77.522396, 12.992389], [77.522435, 12.992443], [77.522462, 12.992489], [77.522528, 12.992588], [77.522603, 12.992685], [77.522682, 12.992777], [77.522768, 12.992864], [77.522768, 12.992865], [77.522769, 12.992866], [77.522823, 12.992934], [77.52287, 12.993006], [77.522911, 12.993082], [77.522944, 12.993162], [77.522971, 12.993243], [77.522991, 12.993327], [77.523003, 12.993412], [77.523008, 12.993498], [77.523008, 12.993515], [77.523005, 12.993582], [77.523006, 12.993693], [77.523014, 12.993805], [77.523025, 12.99388], [77.523033, 12.993926], [77.523056, 12.99403], [77.523086, 12.994132], [77.523124, 12.994232], [77.523169, 12.994328], [77.52322, 12.994422], [77.523278, 12.994512], [77.523297, 12.99454], [77.523347, 12.994631], [77.523403, 12.994745], [77.523452, 12.994863], [77.523493, 12.994984], [77.523528, 12.995106], [77.523543, 12.995173], [77.523547, 12.995198], [77.523562, 12.995274], [77.523585, 12.995348], [77.523615, 12.99542], [77.523651, 12.995489], [77.523694, 12.995554], [77.523725, 12.995594], [77.523851, 12.995746], [77.524353, 12.995461], [77.524962, 12.995155], [77.525225, 12.995013], [77.525171, 12.994912], [77.526425, 12.994543], [77.526517, 12.994518], [77.526818, 12.994423], [77.526756, 12.994152], [77.527618, 12.993922], [77.527813, 12.993843], [77.528408, 12.993578], [77.528905, 12.993362], [77.529012, 12.993326], [77.530289, 12.993158], [77.530256, 12.992889], [77.530247, 12.992761], [77.531451, 12.992588], [77.531647, 12.992567], [77.531653, 12.992566]]]}}]}