{"type": "FeatureCollection", "features": [{"type": "Feature", "properties": {"region_id": "ward_276600-9", "name": "Vidyaranyapura", "parent": "zone_276600-8", "parent_name": "Yelahanka"}, "geometry": {"type": "Polygon", "coordinates": [[[77.565027, 13.097713], [77.565052, 13.097676], [77.567377, 13.09747], [77.569094, 13.097413], [77.5696, 13.097357], [77.569754, 13.097244], [77.569765, 13.097224], [77.569691, 13.096441], [77.569501, 13.094973], [77.569314, 13.093312], [77.569058, 13.091516], [77.569184, 13.091132], [77.568961, 13.089263], [77.570724, 13.089015], [77.572092, 13.088845], [77.573287, 13.088998], [77.575729, 13.088677], [77.576938, 13.088549], [77.577031, 13.08859], [77.577543, 13.088477], [77.580113, 13.08783], [77.579874, 13.086915], [77.579841, 13.086783], [77.579073, 13.085203], [77.579806, 13.08497], [77.58078, 13.084704], [77.581458, 13.084528], [77.582062, 13.08438], [77.582443, 13.084269], [77.582986, 13.084108], [77.58349, 13.083985], [77.584238, 13.08376], [77.584436, 13.083704], [77.584465, 13.083691], [77.584476, 13.083679], [77.584489, 13.083668], [77.584491, 13.083649], [77.584491, 13.083629], [77.584491, 13.083609], [77.584357, 13.083205], [77.584151, 13.082533], [77.583899, 13.081729], [77.58373, 13.08113], [77.583532, 13.08056], [77.583263, 13.079704], [77.58302, 13.078874], [77.582969, 13.078704], [77.582945, 13.078627], [77.582849, 13.078281], [77.582849, 13.078267], [77.582881, 13.07824], [77.58292, 13.078222], [77.582973, 13.078213], [77.583015, 13.078212], [77.583048, 13.078212], [77.583086, 13.078206], [77.583143, 13.078194], [77.583461, 13.078097], [77.584263, 13.077843], [77.585157, 13.077589], [77.586271, 13.077268], [77.586393, 13.077232], [77.587349, 13.076945], [77.588511, 13.0766], [77.589568, 13.076295], [77.589828, 13.076223], [77.589831, 13.07622], [77.589878, 13.076151], [77.589921, 13.076111], [77.590024, 13.076074], [77.589961, 13.075857], [77.589507, 13.074802], [77.589165, 13.073994], [77.588776, 13.073112], [77.588388, 13.072355], [77.587711, 13.071381], [77.586903, 13.070498], [77.586288, 13.070008], [77.585092, 13.069207], [77.584042, 13.068502], [77.583314, 13.067968], [77.582116, 13.067218], [77.58128, 13.066666], [77.581094, 13.066542], [77.579494, 13.065485], [77.577718, 13.064242], [77.575991, 13.063014], [77.574792, 13.062232], [77.573015, 13.060833], [77.571985, 13.059443], [77.57137, 13.058359], [77.570706, 13.057089], [77.56925, 13.054623], [77.569205, 13.054652], [77.569134, 13.054693], [77.569078, 13.054716], [77.569057, 13.054725], [77.569057, 13.054726], [77.568886, 13.054804], [77.568554, 13.054893], [77.568114, 13.054967], [77.567818, 13.055078], [77.56732, 13.055365], [77.566928, 13.055673], [77.566316, 13.056269], [77.566163, 13.05641], [77.566066, 13.056462], [77.565973, 13.05652], [77.565699, 13.056669], [77.565228, 13.057063], [77.564687, 13.057614], [77.564472, 13.057823], [77.563982, 13.058284], [77.563751, 13.058496], [77.563472, 13.058717], [77.563376, 13.058775], [77.563073, 13.058899], [77.562886, 13.058958], [77.562812, 13.058984], [77.56278, 13.059022], [77.562297, 13.059129], [77.561924, 13.05919], [77.561352, 13.059173], [77.56037, 13.059022], [77.559283, 13.058907], [77.559321, 13.059147], [77.559336, 13.059444], [77.55928, 13.059662], [77.559736, 13.059818], [77.560257, 13.059765], [77.56041, 13.060567], [77.560891, 13.060506], [77.560912, 13.06061], [77.561133, 13.060579], [77.561324, 13.061353], [77.561199, 13.061392], [77.56135, 13.062014], [77.561457, 13.062013], [77.561727, 13.063052], [77.561847, 13.063024], [77.562427, 13.062698], [77.563157, 13.062153], [77.563896, 13.061401], [77.564487, 13.060961], [77.564751, 13.060512], [77.564796, 13.06017], [77.564982, 13.059906], [77.565259, 13.059569], [77.565042, 13.059307], [77.565184, 13.05921], [77.565221, 13.059064], [77.56533, 13.058958], [77.565565, 13.058873], [77.565633, 13.058888], [77.565646, 13.05892], [77.565577, 13.059419], [77.565432, 13.059747], [77.565317, 13.05996], [77.565274, 13.060446], [77.565254, 13.060678], [77.565267, 13.061071], [77.565302, 13.061277], [77.565421, 13.061491], [77.565712, 13.061809], [77.566, 13.062117], [77.566252, 13.06239], [77.566451, 13.062588], [77.566604, 13.06265], [77.566996, 13.062769], [77.567136, 13.062822], [77.567428, 13.062895], [77.56759, 13.062919], [77.567726, 13.062921], [77.568072, 13.062882], [77.56822, 13.062887], [77.568294, 13.063077], [77.568099, 13.063186], [77.567289, 13.063531], [77.566354, 13.063822], [77.566157, 13.063897], [77.566138, 13.063961], [77.566222, 13.06413], [77.566314, 13.064362], [77.566298, 13.06441], [77.56626, 13.064458], [77.566202, 13.064458], [77.56608, 13.064435], [77.566056, 13.06443], [77.566056, 13.064432], [77.565917, 13.064414], [77.565829, 13.064414], [77.565729, 13.064441], [77.565681, 13.064495], [77.565603, 13.064709], [77.565487, 13.065144], [77.565422, 13.065373], [77.565403, 13.065418], [77.565387, 13.065453], [77.565365, 13.065478], [77.565342, 13.065498], [77.565313, 13.065511], [77.565287, 13.065517], [77.565245, 13.065521], [77.565179, 13.065521], [77.565116, 13.065522], [77.565074, 13.065545], [77.565023, 13.06559], [77.564928, 13.065762], [77.564833, 13.065943], [77.564762, 13.066099], [77.564582, 13.066414], [77.564361, 13.066928], [77.564143, 13.067438], [77.564035, 13.067684], [77.564007, 13.067754], [77.563987, 13.067788], [77.563987, 13.06782], [77.563986, 13.067854], [77.563983, 13.067884], [77.563963, 13.06791], [77.563939, 13.067933], [77.563918, 13.067955], [77.5639, 13.06798], [77.563833, 13.068196], [77.563739, 13.068468], [77.563701, 13.068617], [77.563678, 13.068664], [77.563649, 13.068696], [77.563629, 13.068718], [77.563597, 13.068754], [77.563571, 13.068775], [77.563537, 13.068797], [77.56337, 13.068945], [77.562677, 13.069018], [77.561847, 13.068998], [77.561255, 13.06897], [77.560945, 13.068907], [77.560726, 13.068859], [77.560515, 13.068752], [77.560297, 13.068342], [77.557997, 13.068875], [77.558024, 13.068939], [77.558645, 13.070354], [77.558146, 13.070604], [77.558243, 13.071043], [77.557973, 13.071678], [77.557583, 13.072186], [77.556928, 13.072567], [77.556586, 13.072622], [77.556101, 13.071671], [77.555544, 13.070507], [77.555286, 13.070059], [77.555178, 13.069836], [77.55128, 13.071419], [77.5517, 13.072271], [77.55238, 13.073776], [77.553046, 13.075073], [77.553423, 13.075965], [77.551997, 13.076909], [77.551573, 13.077274], [77.551995, 13.077921], [77.552248, 13.078268], [77.552557, 13.078791], [77.552322, 13.078936], [77.553041, 13.080347], [77.55317, 13.080304], [77.553171, 13.080306], [77.553299, 13.081247], [77.553437, 13.081955], [77.554502, 13.081607], [77.555424, 13.081284], [77.555814, 13.081164], [77.556145, 13.081091], [77.556143, 13.081122], [77.556146, 13.081151], [77.556508, 13.081434], [77.556808, 13.081678], [77.556833, 13.081777], [77.556771, 13.081953], [77.556727, 13.082002], [77.556684, 13.082231], [77.55655, 13.082668], [77.557185, 13.08315], [77.558024, 13.083825], [77.558188, 13.083982], [77.558159, 13.084022], [77.558104, 13.084053], [77.557924, 13.084126], [77.557648, 13.084207], [77.557729, 13.08441], [77.558012, 13.085031], [77.558045, 13.085019], [77.558172, 13.08497], [77.558553, 13.08481], [77.55862, 13.084802], [77.558688, 13.084826], [77.558792, 13.084964], [77.558846, 13.084991], [77.558892, 13.084991], [77.558945, 13.08498], [77.559874, 13.084352], [77.560051, 13.08427], [77.560086, 13.084277], [77.560122, 13.084321], [77.560363, 13.084608], [77.560978, 13.08514], [77.561826, 13.085858], [77.561956, 13.086062], [77.562153, 13.086272], [77.562139, 13.086342], [77.562097, 13.086377], [77.562122, 13.086401], [77.562327, 13.086618], [77.561843, 13.086901], [77.561074, 13.08736], [77.560538, 13.087676], [77.560375, 13.087772], [77.56007, 13.087954], [77.560017, 13.087999], [77.560018, 13.088004], [77.559101, 13.088888], [77.558487, 13.089527], [77.558599, 13.093663], [77.559299, 13.099894], [77.561158, 13.098948], [77.565027, 13.097713]]]}}]}