{"type": "FeatureCollection", "features": [{"type": "Feature", "properties": {"region_id": "ward_276600-49", "name": "Lingarajapura", "parent": "zone_276600-3", "parent_name": "East"}, "geometry": {"type": "Polygon", "coordinates": [[[77.626149, 13.013075], [77.626349, 13.013013], [77.626724, 13.012835], [77.626984, 13.012719], [77.627235, 13.012624], [77.627464, 13.012571], [77.627716, 13.012568], [77.628103, 13.012574], [77.628575, 13.012652], [77.628922, 13.012761], [77.629278, 13.012809], [77.629614, 13.012867], [77.629907, 13.012895], [77.630442, 13.012982], [77.630892, 13.012998], [77.631363, 13.012993], [77.631887, 13.012998], [77.63219, 13.012985], [77.632421, 13.012984], [77.632425, 13.012723], [77.632415, 13.012394], [77.632398, 13.012085], [77.632302, 13.012066], [77.632334, 13.011824], [77.63235, 13.011427], [77.632426, 13.010882], [77.632482, 13.010311], [77.632526, 13.009941], [77.632551, 13.009679], [77.632506, 13.00933], [77.632455, 13.009022], [77.632438, 13.00876], [77.632374, 13.008357], [77.632237, 13.008218], [77.631982, 13.008046], [77.631726, 13.007883], [77.631511, 13.00772], [77.631351, 13.007588], [77.631332, 13.007455], [77.63128, 13.00729], [77.631303, 13.007074], [77.631378, 13.006965], [77.631511, 13.006732], [77.631785, 13.006248], [77.6319, 13.006029], [77.631943, 13.005948], [77.631835, 13.005376], [77.631792, 13.004556], [77.631427, 13.004671], [77.630454, 13.005074], [77.630242, 13.005163], [77.629598, 13.005435], [77.628159, 13.006034], [77.626656, 13.006646], [77.624239, 13.007638], [77.624218, 13.007647], [77.622795, 13.008246], [77.622705, 13.008331], [77.622711, 13.008339], [77.622707, 13.008338], [77.622601, 13.008259], [77.622595, 13.008257], [77.622602, 13.008263], [77.622528, 13.008332], [77.622212, 13.008473], [77.621583, 13.008854], [77.621214, 13.009213], [77.621003, 13.009499], [77.62094, 13.009673], [77.620941, 13.009679], [77.620892, 13.009751], [77.620891, 13.00975], [77.620784, 13.009948], [77.620659, 13.010452], [77.620635, 13.010826], [77.62063, 13.011183], [77.620728, 13.011684], [77.620948, 13.012248], [77.621023, 13.01238], [77.621045, 13.012411], [77.6214, 13.013233], [77.621668, 13.013777], [77.621698, 13.013862], [77.621703, 13.01387], [77.621709, 13.013894], [77.62198, 13.014477], [77.622629, 13.014382], [77.623151, 13.01427], [77.623456, 13.014181], [77.623803, 13.014103], [77.624053, 13.013983], [77.624248, 13.013896], [77.624378, 13.013777], [77.624638, 13.013603], [77.624876, 13.013462], [77.625193, 13.013318], [77.625012, 13.012868], [77.625644, 13.012624], [77.625833, 13.012566], [77.626149, 13.013075]]]}}]}