{"type": "FeatureCollection", "features": [{"type": "Feature", "properties": {"region_id": "ward_276600-176", "name": "BTM Layout", "parent": "zone_276600-6", "parent_name": "South"}, "geometry": {"type": "Polygon", "coordinates": [[[77.622741, 12.917306], [77.622325, 12.916173], [77.622377, 12.915848], [77.622388, 12.915373], [77.622402, 12.915246], [77.622381, 12.91469], [77.62237, 12.914409], [77.622354, 12.914366], [77.622326, 12.914336], [77.622298, 12.914328], [77.622231, 12.914329], [77.622153, 12.914326], [77.622078, 12.914296], [77.621825, 12.914171], [77.621141, 12.913768], [77.621452, 12.91343], [77.621568, 12.913344], [77.621599, 12.913309], [77.62165, 12.913247], [77.621673, 12.913192], [77.621676, 12.913127], [77.621671, 12.912992], [77.62167, 12.912949], [77.621658, 12.912907], [77.621626, 12.912877], [77.621523, 12.912831], [77.621306, 12.912733], [77.621062, 12.912645], [77.621075, 12.912586], [77.620908, 12.912582], [77.620714, 12.912587], [77.620266, 12.912555], [77.619858, 12.912544], [77.6197, 12.912546], [77.619595, 12.912553], [77.619546, 12.912556], [77.619493, 12.912566], [77.619432, 12.912588], [77.619343, 12.912628], [77.619119, 12.912763], [77.618561, 12.91316], [77.618457, 12.913261], [77.618274, 12.913472], [77.618142, 12.913625], [77.61802, 12.913765], [77.617772, 12.913986], [77.617598, 12.91413], [77.617209, 12.914452], [77.61679, 12.914835], [77.616663, 12.914985], [77.616618, 12.915179], [77.616589, 12.915289], [77.616542, 12.91537], [77.6165, 12.915434], [77.616473, 12.915395], [77.616403, 12.915272], [77.616376, 12.915183], [77.616332, 12.915015], [77.616297, 12.91459], [77.61613, 12.913497], [77.615923, 12.91233], [77.615724, 12.911451], [77.615532, 12.910609], [77.615263, 12.909584], [77.615176, 12.909339], [77.614941, 12.908703], [77.614906, 12.908624], [77.614705, 12.908296], [77.614615, 12.908158], [77.614409, 12.907822], [77.614319, 12.907728], [77.614176, 12.907556], [77.614103, 12.907323], [77.613894, 12.906753], [77.613742, 12.906538], [77.613563, 12.906341], [77.613223, 12.905902], [77.613004, 12.905254], [77.612722, 12.904486], [77.61125, 12.904717], [77.610217, 12.904823], [77.609345, 12.905022], [77.609455, 12.905442], [77.609387, 12.90548], [77.608967, 12.905699], [77.608647, 12.905828], [77.608525, 12.90585], [77.608437, 12.90585], [77.608321, 12.905845], [77.608201, 12.905831], [77.608004, 12.905791], [77.607744, 12.905729], [77.607449, 12.9057], [77.607045, 12.905668], [77.60652, 12.905637], [77.606178, 12.90563], [77.605913, 12.905651], [77.605443, 12.905691], [77.604465, 12.905762], [77.603981, 12.905791], [77.60389, 12.905814], [77.603869, 12.905846], [77.603862, 12.905885], [77.603859, 12.905939], [77.603866, 12.905985], [77.603875, 12.906049], [77.603904, 12.906435], [77.60395, 12.906938], [77.60399, 12.907709], [77.604036, 12.908705], [77.603868, 12.908694], [77.603126, 12.908636], [77.601651, 12.908582], [77.600292, 12.908513], [77.600277, 12.90868], [77.600268, 12.908756], [77.599989, 12.911553], [77.599956, 12.912286], [77.59996, 12.914286], [77.599929, 12.915368], [77.599923, 12.916393], [77.599925, 12.916556], [77.599937, 12.916609], [77.599999, 12.916658], [77.600074, 12.916712], [77.600102, 12.916746], [77.600191, 12.916743], [77.600983, 12.91674], [77.602849, 12.916712], [77.603277, 12.916676], [77.604298, 12.916661], [77.605319, 12.916637], [77.606979, 12.916598], [77.607237, 12.916592], [77.607278, 12.916591], [77.607837, 12.916579], [77.609618, 12.916539], [77.611035, 12.916489], [77.613045, 12.916478], [77.614705, 12.916438], [77.615027, 12.916412], [77.615213, 12.916378], [77.61566, 12.916333], [77.616466, 12.916242], [77.616965, 12.916219], [77.617706, 12.91623], [77.618424, 12.916245], [77.618914, 12.91625], [77.619357, 12.916264], [77.619605, 12.916293], [77.620208, 12.916433], [77.621724, 12.916944], [77.621986, 12.91704], [77.622739, 12.917311], [77.622741, 12.917306]]]}}]}