{"type": "FeatureCollection", "features": [{"type": "Feature", "properties": {"region_id": "ward_276600-175", "name": "Bommanahalli", "parent": "zone_276600-1", "parent_name": "Bommanahalli"}, "geometry": {"type": "Polygon", "coordinates": [[[77.631004, 12.903641], [77.631138, 12.903424], [77.630752, 12.903495], [77.629989, 12.903519], [77.629296, 12.903594], [77.629404, 12.903934], [77.628988, 12.903972], [77.628364, 12.904063], [77.627483, 12.904362], [77.627304, 12.903921], [77.627267, 12.903649], [77.627265, 12.903416], [77.626667, 12.903705], [77.626521, 12.903666], [77.626171, 12.903512], [77.625905, 12.903392], [77.625529, 12.903355], [77.625292, 12.90335], [77.624739, 12.903144], [77.624202, 12.902986], [77.62403, 12.90255], [77.623754, 12.902035], [77.623526, 12.901554], [77.623178, 12.901093], [77.622754, 12.900542], [77.622481, 12.900162], [77.622146, 12.899613], [77.622062, 12.899365], [77.622102, 12.899325], [77.621993, 12.899067], [77.621884, 12.898814], [77.621764, 12.898481], [77.621597, 12.898115], [77.621524, 12.897916], [77.621446, 12.897693], [77.621356, 12.89738], [77.621255, 12.896963], [77.621179, 12.896692], [77.621091, 12.896555], [77.620975, 12.896411], [77.620834, 12.896283], [77.620753, 12.896036], [77.620484, 12.895446], [77.620277, 12.894839], [77.62013, 12.894206], [77.6198, 12.892725], [77.619631, 12.891569], [77.619927, 12.891506], [77.620067, 12.891462], [77.62011, 12.891392], [77.62016, 12.891126], [77.620179, 12.890448], [77.620189, 12.889736], [77.620106, 12.889342], [77.619998, 12.889017], [77.619902, 12.888839], [77.61982, 12.888781], [77.619498, 12.888447], [77.619395, 12.888323], [77.619309, 12.888218], [77.619283, 12.888185], [77.619251, 12.888129], [77.619166, 12.88786], [77.619072, 12.887572], [77.619017, 12.88745], [77.618977, 12.887383], [77.61893, 12.887315], [77.618808, 12.88699], [77.618717, 12.886689], [77.618679, 12.886497], [77.618624, 12.886247], [77.617418, 12.886478], [77.617346, 12.886209], [77.616868, 12.886331], [77.616645, 12.886333], [77.616309, 12.886352], [77.61588, 12.886508], [77.615917, 12.886768], [77.615994, 12.887479], [77.615314, 12.887606], [77.615264, 12.887049], [77.615262, 12.886826], [77.615257, 12.886728], [77.614845, 12.886837], [77.614303, 12.886921], [77.61376, 12.886926], [77.613169, 12.886932], [77.612503, 12.886915], [77.612453, 12.888112], [77.612457, 12.888545], [77.612569, 12.889245], [77.612813, 12.890377], [77.613337, 12.890228], [77.613572, 12.890617], [77.614356, 12.891187], [77.615077, 12.892375], [77.615068, 12.892448], [77.614232, 12.892623], [77.61436, 12.893339], [77.614491, 12.893599], [77.614564, 12.894019], [77.614642, 12.894904], [77.615071, 12.894823], [77.615484, 12.894887], [77.615478, 12.895492], [77.616261, 12.895479], [77.616556, 12.895458], [77.616524, 12.895164], [77.616451, 12.894472], [77.617043, 12.894417], [77.617198, 12.894406], [77.617195, 12.894607], [77.617189, 12.895157], [77.61718, 12.895966], [77.617756, 12.896027], [77.618068, 12.897904], [77.618111, 12.897971], [77.618378, 12.898027], [77.618644, 12.898016], [77.618747, 12.897998], [77.618904, 12.897997], [77.618944, 12.898007], [77.618963, 12.898015], [77.619034, 12.898068], [77.619135, 12.898152], [77.619153, 12.898155], [77.619156, 12.898158], [77.619206, 12.89818], [77.619256, 12.898198], [77.619345, 12.898215], [77.619484, 12.898229], [77.619657, 12.898256], [77.61971, 12.898255], [77.619711, 12.898255], [77.619947, 12.900756], [77.619751, 12.900751], [77.619403, 12.900825], [77.618623, 12.900865], [77.619232, 12.902427], [77.619506, 12.90234], [77.619615, 12.902912], [77.620026, 12.903591], [77.620141, 12.903918], [77.620245, 12.904035], [77.62052, 12.904842], [77.620849, 12.904757], [77.621209, 12.904718], [77.621605, 12.904655], [77.62183, 12.906714], [77.621883, 12.906698], [77.622052, 12.906711], [77.622173, 12.906725], [77.622263, 12.906774], [77.622334, 12.90685], [77.62242, 12.906868], [77.62254, 12.906859], [77.622704, 12.906838], [77.622856, 12.906829], [77.622857, 12.906923], [77.622864, 12.907124], [77.622862, 12.907437], [77.622519, 12.907388], [77.622382, 12.907373], [77.622207, 12.907386], [77.622244, 12.907596], [77.622248, 12.907948], [77.622104, 12.907961], [77.622151, 12.908381], [77.622128, 12.908389], [77.621739, 12.908389], [77.621419, 12.908425], [77.621439, 12.908623], [77.621269, 12.908662], [77.620927, 12.908727], [77.620863, 12.908578], [77.620645, 12.908494], [77.620556, 12.908852], [77.620547, 12.909099], [77.620554, 12.90942], [77.62058, 12.909943], [77.620613, 12.910132], [77.620674, 12.910344], [77.620751, 12.910519], [77.620818, 12.910677], [77.620888, 12.91076], [77.620957, 12.910783], [77.621036, 12.910803], [77.621085, 12.910843], [77.621092, 12.91088], [77.621135, 12.911052], [77.62117, 12.911393], [77.621164, 12.911494], [77.621158, 12.911602], [77.621146, 12.911737], [77.621161, 12.911879], [77.621172, 12.911943], [77.621187, 12.912007], [77.621236, 12.912081], [77.621327, 12.912235], [77.621327, 12.912293], [77.621075, 12.912586], [77.621062, 12.912645], [77.621306, 12.912733], [77.621523, 12.912831], [77.621626, 12.912877], [77.621658, 12.912907], [77.62167, 12.912949], [77.621671, 12.912992], [77.621676, 12.913127], [77.621673, 12.913192], [77.62165, 12.913247], [77.621599, 12.913309], [77.621568, 12.913344], [77.621452, 12.91343], [77.621141, 12.913768], [77.621825, 12.914171], [77.622078, 12.914296], [77.622153, 12.914326], [77.622231, 12.914329], [77.622298, 12.914328], [77.622326, 12.914336], [77.622354, 12.914366], [77.62237, 12.914409], [77.622381, 12.91469], [77.622402, 12.915246], [77.622388, 12.915373], [77.622377, 12.915848], [77.622325, 12.916173], [77.622741, 12.917306], [77.62277, 12.917249], [77.622772, 12.917246], [77.62326, 12.916388], [77.624023, 12.915024], [77.624245, 12.914641], [77.624458, 12.914266], [77.625144, 12.913173], [77.626102, 12.911614], [77.626829, 12.910422], [77.62756, 12.909243], [77.628291, 12.908039], [77.629014, 12.906884], [77.629372, 12.906301], [77.629762, 12.905667], [77.630682, 12.904162], [77.631004, 12.903641]]]}}]}