{"type": "FeatureCollection", "features": [{"type": "Feature", "properties": {"region_id": "ward_276600-146", "name": "Lakkasandra", "parent": "zone_276600-6", "parent_name": "South"}, "geometry": {"type": "Polygon", "coordinates": [[[77.605796, 12.949978], [77.605843, 12.949841], [77.605862, 12.949774], [77.605863, 12.949771], [77.605881, 12.949708], [77.606198, 12.948595], [77.606486, 12.947709], [77.606844, 12.946602], [77.607143, 12.945732], [77.607578, 12.944117], [77.607602, 12.94405], [77.607706, 12.943643], [77.607871, 12.942953], [77.608141, 12.942237], [77.608577, 12.941395], [77.60933, 12.93993], [77.609821, 12.939043], [77.610812, 12.937175], [77.611748, 12.935431], [77.612229, 12.934495], [77.612232, 12.934489], [77.612302, 12.934363], [77.612454, 12.934088], [77.613131, 12.932866], [77.613797, 12.931669], [77.613404, 12.931885], [77.612486, 12.932616], [77.611532, 12.933385], [77.610857, 12.933873], [77.610052, 12.934529], [77.608965, 12.935244], [77.608047, 12.935864], [77.607257, 12.936205], [77.606411, 12.936473], [77.605883, 12.936515], [77.604639, 12.936694], [77.602886, 12.936952], [77.601594, 12.937127], [77.600884, 12.937218], [77.600499, 12.937269], [77.600307, 12.937311], [77.60009, 12.937366], [77.59985, 12.937433], [77.599614, 12.937528], [77.599303, 12.937705], [77.599083, 12.937856], [77.598914, 12.937994], [77.598742, 12.938157], [77.598499, 12.938451], [77.598368, 12.938623], [77.598057, 12.939094], [77.59788, 12.939399], [77.597729, 12.939819], [77.597638, 12.93999], [77.597598, 12.940206], [77.597564, 12.940556], [77.597505, 12.941427], [77.597366, 12.942334], [77.597245, 12.943202], [77.597625, 12.943103], [77.59806, 12.942974], [77.598264, 12.942924], [77.598495, 12.942882], [77.59872, 12.942843], [77.599058, 12.942802], [77.599444, 12.942736], [77.599822, 12.942662], [77.600091, 12.942614], [77.600396, 12.942565], [77.600766, 12.942505], [77.601074, 12.942465], [77.601233, 12.942446], [77.601487, 12.942393], [77.601905, 12.942306], [77.602188, 12.942261], [77.602667, 12.94216], [77.602824, 12.94283], [77.602874, 12.943187], [77.602878, 12.943368], [77.602893, 12.943688], [77.602872, 12.944099], [77.602841, 12.944425], [77.602755, 12.944631], [77.602611, 12.94524], [77.602582, 12.945604], [77.602577, 12.945636], [77.602515, 12.946373], [77.602473, 12.946881], [77.602458, 12.947092], [77.602459, 12.947231], [77.602469, 12.947392], [77.602484, 12.947586], [77.602512, 12.947788], [77.602563, 12.947976], [77.602584, 12.948054], [77.602681, 12.948314], [77.602876, 12.948845], [77.603208, 12.949694], [77.603416, 12.950438], [77.604342, 12.950293], [77.605733, 12.950099], [77.605756, 12.950096], [77.605796, 12.949978]]]}}]}