{"type": "FeatureCollection", "features": [{"type": "Feature", "properties": {"region_id": "ward_276600-130", "name": "Ullalu", "parent": "zone_276600-5", "parent_name": "Rajarajeshwari Nagar"}, "geometry": {"type": "Polygon", "coordinates": [[[77.486233, 12.963233], [77.48609, 12.963146], [77.485902, 12.960911], [77.485517, 12.957864], [77.48505, 12.956401], [77.48502, 12.955417], [77.485666, 12.955044], [77.485623, 12.95483], [77.485626, 12.954757], [77.485625, 12.95468], [77.485563, 12.954394], [77.485588, 12.954066], [77.48559, 12.953892], [77.485637, 12.953505], [77.485619, 12.953235], [77.485545, 12.95298], [77.485497, 12.952903], [77.485391, 12.952862], [77.485315, 12.952816], [77.485196, 12.952732], [77.485093, 12.952644], [77.485061, 12.952556], [77.485071, 12.952386], [77.485084, 12.952111], [77.485079, 12.952034], [77.484976, 12.95195], [77.484959, 12.951873], [77.484899, 12.951765], [77.484816, 12.951723], [77.484669, 12.951584], [77.484807, 12.951445], [77.485133, 12.951396], [77.485436, 12.95137], [77.485478, 12.951356], [77.485652, 12.951329], [77.486001, 12.951198], [77.486369, 12.950967], [77.486748, 12.950677], [77.487469, 12.950195], [77.488157, 12.949705], [77.488662, 12.949407], [77.488705, 12.949352], [77.488712, 12.949275], [77.488708, 12.94919], [77.488715, 12.94914], [77.488636, 12.948986], [77.489474, 12.948189], [77.490277, 12.947492], [77.490511, 12.947554], [77.490588, 12.947562], [77.491253, 12.94757], [77.491921, 12.947584], [77.49237, 12.94762], [77.492846, 12.947636], [77.493469, 12.947604], [77.49455, 12.947498], [77.495352, 12.947377], [77.495804, 12.947323], [77.496424, 12.947321], [77.496747, 12.947323], [77.496699, 12.947191], [77.496649, 12.947086], [77.496585, 12.946973], [77.497147, 12.946908], [77.497534, 12.946875], [77.498083, 12.946837], [77.498822, 12.946668], [77.498894, 12.946632], [77.498881, 12.94657], [77.499606, 12.946385], [77.499207, 12.944677], [77.499201, 12.94466], [77.500102, 12.944311], [77.499899, 12.943391], [77.499372, 12.943586], [77.497635, 12.941012], [77.49746, 12.940612], [77.49717, 12.940012], [77.497167, 12.939962], [77.497167, 12.939933], [77.49719, 12.939896], [77.497213, 12.939878], [77.497882, 12.939382], [77.49845, 12.938958], [77.498952, 12.938661], [77.499127, 12.938551], [77.499378, 12.938378], [77.499476, 12.938202], [77.499594, 12.937902], [77.499082, 12.935725], [77.499941, 12.935454], [77.499802, 12.934814], [77.499674, 12.933987], [77.499313, 12.931826], [77.499104, 12.930749], [77.498571, 12.930834], [77.498638, 12.930256], [77.498634, 12.92987], [77.498534, 12.929212], [77.498519, 12.928655], [77.498592, 12.927712], [77.498718, 12.926879], [77.498939, 12.926004], [77.498734, 12.925849], [77.49854, 12.925741], [77.498536, 12.925739], [77.49817, 12.925536], [77.497053, 12.92499], [77.495656, 12.924327], [77.494196, 12.923684], [77.492787, 12.923056], [77.49158, 12.922484], [77.490373, 12.921924], [77.488937, 12.921288], [77.488323, 12.921039], [77.488114, 12.921468], [77.488202, 12.922019], [77.488509, 12.922894], [77.488994, 12.923377], [77.489128, 12.923522], [77.489289, 12.924722], [77.489444, 12.925306], [77.489731, 12.925856], [77.49002, 12.926568], [77.490243, 12.927362], [77.490466, 12.92814], [77.490525, 12.92913], [77.490635, 12.930201], [77.490824, 12.93085], [77.491179, 12.931561], [77.4913, 12.932096], [77.491376, 12.933038], [77.491363, 12.933363], [77.491027, 12.93296], [77.490792, 12.932588], [77.490557, 12.932347], [77.490441, 12.932267], [77.489944, 12.932337], [77.489317, 12.932586], [77.488623, 12.932723], [77.488143, 12.932744], [77.487909, 12.9326], [77.487774, 12.932341], [77.487501, 12.931548], [77.487158, 12.930283], [77.486731, 12.929036], [77.486255, 12.927741], [77.485488, 12.925652], [77.485114, 12.924632], [77.483858, 12.924969], [77.482901, 12.925287], [77.48273, 12.924817], [77.482475, 12.924105], [77.482338, 12.923635], [77.482276, 12.923448], [77.481973, 12.923557], [77.481725, 12.923641], [77.481395, 12.923758], [77.481164, 12.92389], [77.481129, 12.92398], [77.481084, 12.924142], [77.481051, 12.924363], [77.481041, 12.924571], [77.481185, 12.924778], [77.481245, 12.924974], [77.481247, 12.925136], [77.481237, 12.925321], [77.481345, 12.925505], [77.481524, 12.925735], [77.481703, 12.925907], [77.481846, 12.926102], [77.481884, 12.926356], [77.481972, 12.926899], [77.482071, 12.927349], [77.482177, 12.927348], [77.48238, 12.927647], [77.482522, 12.927611], [77.482654, 12.927841], [77.482883, 12.928371], [77.483136, 12.928935], [77.483235, 12.929386], [77.48351, 12.929776], [77.48381, 12.930317], [77.483942, 12.930536], [77.483967, 12.930605], [77.483756, 12.930792], [77.483759, 12.931116], [77.483692, 12.931417], [77.483506, 12.931778], [77.483427, 12.932079], [77.483429, 12.932345], [77.483479, 12.932599], [77.483625, 12.933026], [77.483763, 12.933823], [77.483815, 12.934207], [77.484558, 12.937535], [77.482075, 12.93776], [77.480914, 12.937169], [77.48027, 12.937046], [77.479713, 12.936908], [77.479201, 12.936913], [77.478778, 12.937046], [77.478313, 12.937308], [77.477717, 12.937644], [77.477265, 12.937806], [77.476902, 12.937981], [77.476554, 12.9383], [77.476337, 12.93856], [77.475844, 12.938895], [77.475364, 12.939229], [77.47493, 12.939606], [77.474522, 12.939825], [77.474188, 12.94], [77.472917, 12.940324], [77.472741, 12.940441], [77.472531, 12.940651], [77.472509, 12.940825], [77.472617, 12.941044], [77.472844, 12.941342], [77.473072, 12.941765], [77.473073, 12.941768], [77.473115, 12.941844], [77.473181, 12.941964], [77.473371, 12.94217], [77.473609, 12.942365], [77.473982, 12.942769], [77.474469, 12.943456], [77.475039, 12.945064], [77.475145, 12.945448], [77.475328, 12.94605], [77.475428, 12.946361], [77.475601, 12.946985], [77.476165, 12.948533], [77.476153, 12.948578], [77.474955, 12.948996], [77.472308, 12.949549], [77.471397, 12.949639], [77.471101, 12.949642], [77.471196, 12.950486], [77.471872, 12.950546], [77.472384, 12.951005], [77.472727, 12.951566], [77.472191, 12.952035], [77.471485, 12.952406], [77.471915, 12.954822], [77.472173, 12.957007], [77.472273, 12.958421], [77.472223, 12.959295], [77.472206, 12.96003], [77.472214, 12.960085], [77.471658, 12.964567], [77.471564, 12.965519], [77.471578, 12.966107], [77.471497, 12.966235], [77.471447, 12.966394], [77.47143, 12.966441], [77.47142, 12.966485], [77.471417, 12.966543], [77.471438, 12.966573], [77.471497, 12.966636], [77.471592, 12.966706], [77.471598, 12.966932], [77.471685, 12.967178], [77.471703, 12.967262], [77.471713, 12.967542], [77.471761, 12.967876], [77.471831, 12.968341], [77.471838, 12.968364], [77.471876, 12.968398], [77.471928, 12.968434], [77.472452, 12.968881], [77.47266, 12.969099], [77.472723, 12.969166], [77.472741, 12.9693], [77.472805, 12.969421], [77.472892, 12.969528], [77.473016, 12.969574], [77.473102, 12.969574], [77.473212, 12.969573], [77.473446, 12.969563], [77.473703, 12.969748], [77.473997, 12.970152], [77.474084, 12.970517], [77.47413, 12.971045], [77.47409, 12.971463], [77.475111, 12.971463], [77.475987, 12.971292], [77.476889, 12.97133], [77.47874, 12.971405], [77.481276, 12.971171], [77.481748, 12.970934], [77.482291, 12.970627], [77.483525, 12.970192], [77.484277, 12.969645], [77.484752, 12.968965], [77.485477, 12.96799], [77.485924, 12.966793], [77.486008, 12.965959], [77.486223, 12.964539], [77.486307, 12.963773], [77.486233, 12.963233]]]}}]}