{"type": "FeatureCollection", "features": [{"type": "Feature", "properties": {"region_id": "ward_276600-112", "name": "Domlur", "parent": "zone_276600-3", "parent_name": "East"}, "geometry": {"type": "Polygon", "coordinates": [[[77.64127, 12.97028], [77.641366, 12.968663], [77.641409, 12.966817], [77.64153, 12.965036], [77.641618, 12.963176], [77.641678, 12.961592], [77.641698, 12.961186], [77.641686, 12.96064], [77.642229, 12.960578], [77.642401, 12.960558], [77.6425, 12.960267], [77.642505, 12.960257], [77.642579, 12.960116], [77.642646, 12.959971], [77.642707, 12.959824], [77.64276, 12.959675], [77.642806, 12.959523], [77.642845, 12.959369], [77.64287, 12.959253], [77.642877, 12.959204], [77.642912, 12.959017], [77.642954, 12.958831], [77.643003, 12.958646], [77.643014, 12.95861], [77.643024, 12.958571], [77.643045, 12.958511], [77.643073, 12.958454], [77.643107, 12.9584], [77.643148, 12.95835], [77.643194, 12.958306], [77.643245, 12.958266], [77.6433, 12.958233], [77.643359, 12.958206], [77.64342, 12.958186], [77.643425, 12.958184], [77.643769, 12.957975], [77.643382, 12.957845], [77.6436, 12.957263], [77.643749, 12.956549], [77.64382, 12.956258], [77.643702, 12.955754], [77.643402, 12.954699], [77.642045, 12.954699], [77.641389, 12.954701], [77.641328, 12.954701], [77.641317, 12.954535], [77.64131, 12.954424], [77.641294, 12.954285], [77.641099, 12.953866], [77.640772, 12.953272], [77.640439, 12.952692], [77.640435, 12.952686], [77.639945, 12.951832], [77.639939, 12.951835], [77.639939, 12.951828], [77.639793, 12.951597], [77.639483, 12.95193], [77.638678, 12.952916], [77.637851, 12.953946], [77.637819, 12.953984], [77.637051, 12.954894], [77.636866, 12.955117], [77.636698, 12.955335], [77.636223, 12.956247], [77.636397, 12.956286], [77.636356, 12.956429], [77.63635, 12.956436], [77.636177, 12.956925], [77.635724, 12.958158], [77.635626, 12.958435], [77.635241, 12.959612], [77.635033, 12.960256], [77.63479, 12.960933], [77.634737, 12.961169], [77.634765, 12.961432], [77.634295, 12.961777], [77.634315, 12.96199], [77.634317, 12.962043], [77.634305, 12.962275], [77.634306, 12.962437], [77.634304, 12.962624], [77.634291, 12.962849], [77.634389, 12.962853], [77.634415, 12.963049], [77.634274, 12.963075], [77.634251, 12.963299], [77.634206, 12.963385], [77.634173, 12.963488], [77.634155, 12.963758], [77.634167, 12.963979], [77.634194, 12.964103], [77.634228, 12.964219], [77.634272, 12.964291], [77.634288, 12.964405], [77.634284, 12.964487], [77.63429, 12.964592], [77.634291, 12.964688], [77.633578, 12.964671], [77.633551, 12.965356], [77.633898, 12.965372], [77.633692, 12.965814], [77.633648, 12.965891], [77.633568, 12.966158], [77.633475, 12.966575], [77.633237, 12.967779], [77.633164, 12.968155], [77.633139, 12.968359], [77.633105, 12.968493], [77.632757, 12.968461], [77.632165, 12.968356], [77.631025, 12.968122], [77.630024, 12.968065], [77.628933, 12.968143], [77.629002, 12.968696], [77.629024, 12.968921], [77.628967, 12.969202], [77.630325, 12.969634], [77.632539, 12.970382], [77.633981, 12.970843], [77.634929, 12.971278], [77.636321, 12.971848], [77.637588, 12.972352], [77.638131, 12.97251], [77.638658, 12.972531], [77.639601, 12.97259], [77.640295, 12.972639], [77.641121, 12.972664], [77.641132, 12.972472], [77.64118, 12.971728], [77.64121, 12.971285], [77.64127, 12.97028]]]}}]}