{"type": "FeatureCollection", "features": [{"type": "Feature", "properties": {"region_id": "ward_276600-31", "name": "Kushal Nagar", "parent": "zone_276600-3", "parent_name": "East"}, "geometry": {"type": "Polygon", "coordinates": [[[77.6127, 13.021422], [77.612699, 13.021368], [77.612738, 13.020471], [77.612754, 13.020394], [77.613377, 13.020274], [77.613377, 13.020275], [77.61338, 13.020271], [77.613489, 13.020241], [77.613489, 13.020252], [77.613503, 13.020238], [77.613742, 13.020214], [77.613827, 13.020207], [77.613884, 13.020274], [77.61392, 13.020368], [77.613948, 13.02045], [77.613952, 13.020449], [77.614126, 13.02072], [77.614254, 13.020789], [77.614482, 13.020853], [77.614687, 13.02084], [77.614942, 13.020726], [77.61535, 13.02056], [77.615651, 13.02049], [77.615769, 13.020464], [77.616178, 13.020447], [77.616664, 13.020398], [77.617022, 13.020382], [77.617281, 13.020383], [77.617409, 13.020419], [77.617477, 13.020478], [77.617516, 13.020553], [77.617565, 13.020649], [77.617591, 13.020705], [77.617631, 13.020793], [77.617686, 13.020905], [77.617711, 13.021003], [77.617771, 13.021061], [77.617813, 13.021114], [77.617919, 13.021138], [77.618197, 13.021176], [77.618559, 13.021232], [77.61872, 13.021262], [77.619033, 13.021293], [77.618998, 13.02108], [77.61896, 13.020208], [77.6187, 13.01891], [77.618557, 13.018359], [77.618554, 13.018352], [77.618549, 13.018326], [77.618493, 13.018167], [77.61821, 13.017273], [77.617844, 13.016229], [77.617678, 13.015848], [77.617607, 13.015646], [77.617019, 13.014312], [77.616872, 13.013939], [77.616504, 13.013008], [77.61614, 13.01216], [77.615838, 13.011633], [77.615768, 13.011474], [77.615636, 13.011269], [77.615462, 13.010999], [77.615448, 13.010977], [77.615316, 13.01077], [77.61616, 13.010316], [77.615962, 13.009576], [77.615815, 13.009069], [77.615652, 13.00911], [77.615282, 13.00927], [77.614769, 13.009559], [77.613923, 13.008216], [77.613315, 13.008614], [77.61326, 13.008561], [77.613194, 13.008525], [77.613201, 13.008935], [77.613228, 13.009229], [77.613292, 13.009569], [77.61338, 13.009957], [77.613468, 13.010379], [77.613472, 13.01072], [77.613475, 13.011003], [77.613442, 13.011321], [77.613433, 13.011591], [77.613389, 13.011992], [77.613381, 13.012321], [77.613409, 13.012697], [77.613412, 13.01298], [77.613393, 13.013509], [77.613398, 13.013921], [77.613341, 13.014275], [77.613332, 13.014545], [77.613276, 13.014934], [77.613267, 13.015193], [77.613246, 13.015511], [77.613237, 13.015805], [77.61324, 13.016017], [77.613148, 13.016394], [77.613114, 13.016665], [77.613033, 13.016913], [77.612976, 13.017149], [77.612888, 13.017465], [77.612625, 13.017482], [77.612113, 13.01764], [77.611334, 13.017951], [77.610871, 13.018132], [77.610962, 13.018283], [77.610883, 13.018313], [77.61017, 13.018633], [77.61039, 13.018889], [77.610589, 13.019096], [77.610722, 13.019231], [77.610838, 13.019351], [77.610962, 13.01951], [77.611087, 13.019646], [77.611211, 13.019773], [77.611385, 13.019876], [77.611451, 13.020004], [77.611584, 13.020171], [77.611653, 13.020404], [77.611761, 13.020588], [77.611812, 13.020724], [77.611922, 13.021117], [77.611999, 13.021365], [77.612033, 13.021486], [77.612051, 13.021528], [77.612362, 13.021431], [77.612552, 13.021411], [77.6127, 13.021422]]]}}]}