{"type": "FeatureCollection", "features": [{"type": "Feature", "properties": {"region_id": "ward_276600-131", "name": "Nayandahalli", "parent": "zone_276600-7", "parent_name": "West"}, "geometry": {"type": "Polygon", "coordinates": [[[77.52733, 12.952701], [77.527275, 12.952425], [77.527052, 12.951154], [77.526867, 12.950041], [77.52676, 12.949288], [77.526717, 12.948651], [77.526689, 12.948011], [77.526556, 12.946949], [77.52652, 12.946605], [77.526436, 12.945913], [77.526474, 12.945875], [77.526598, 12.945796], [77.526739, 12.945754], [77.527277, 12.945635], [77.527596, 12.945573], [77.527703, 12.94556], [77.527842, 12.94553], [77.527923, 12.945508], [77.527971, 12.945485], [77.52803, 12.945452], [77.528043, 12.945442], [77.528114, 12.94539], [77.52813, 12.945379], [77.528104, 12.945361], [77.528104, 12.94536], [77.527975, 12.945239], [77.527484, 12.944774], [77.527028, 12.944344], [77.526929, 12.944246], [77.526587, 12.943912], [77.525942, 12.943018], [77.52529, 12.942089], [77.524961, 12.941562], [77.524474, 12.940716], [77.524192, 12.940358], [77.523493, 12.939585], [77.522954, 12.939013], [77.522632, 12.938787], [77.522119, 12.938485], [77.52161, 12.938099], [77.521072, 12.937621], [77.52064, 12.937133], [77.520381, 12.93697], [77.519804, 12.936743], [77.519083, 12.936497], [77.518332, 12.936396], [77.517592, 12.936359], [77.516656, 12.936328], [77.51576, 12.936195], [77.514982, 12.936077], [77.51432, 12.935959], [77.513928, 12.93582], [77.513885, 12.935896], [77.513822, 12.936019], [77.513766, 12.936145], [77.513716, 12.936273], [77.513702, 12.936313], [77.513617, 12.936466], [77.513523, 12.936618], [77.513422, 12.936766], [77.513334, 12.936887], [77.513312, 12.936913], [77.513218, 12.937035], [77.513129, 12.937161], [77.513046, 12.937291], [77.51297, 12.937425], [77.512969, 12.937426], [77.512941, 12.937533], [77.512895, 12.937727], [77.512856, 12.937924], [77.512826, 12.93811], [77.512823, 12.938134], [77.512824, 12.938175], [77.512831, 12.938215], [77.512846, 12.938253], [77.512868, 12.938287], [77.512896, 12.938318], [77.512928, 12.938343], [77.512965, 12.938362], [77.51297, 12.938364], [77.513011, 12.938375], [77.513106, 12.938396], [77.513201, 12.93841], [77.513298, 12.938416], [77.513345, 12.938416], [77.513362, 12.938417], [77.513441, 12.938426], [77.513518, 12.938441], [77.513594, 12.938464], [77.513667, 12.938493], [77.513737, 12.938529], [77.513804, 12.938571], [77.513866, 12.93862], [77.513923, 12.938673], [77.513975, 12.938732], [77.514021, 12.938796], [77.514061, 12.938863], [77.51409, 12.938923], [77.514176, 12.939038], [77.514377, 12.939315], [77.514572, 12.939596], [77.514693, 12.939777], [77.514713, 12.939817], [77.514739, 12.93988], [77.514758, 12.939946], [77.51477, 12.940013], [77.514775, 12.940082], [77.514772, 12.94015], [77.514761, 12.940218], [77.514744, 12.940284], [77.514719, 12.940348], [77.51469, 12.940403], [77.51466, 12.940435], [77.514633, 12.940474], [77.514612, 12.940516], [77.514598, 12.940562], [77.514591, 12.940609], [77.514592, 12.940656], [77.514599, 12.940703], [77.514614, 12.940748], [77.514628, 12.940776], [77.51466, 12.940806], [77.514692, 12.940846], [77.514718, 12.94089], [77.514737, 12.940937], [77.514748, 12.940986], [77.514749, 12.94099], [77.514749, 12.940992], [77.514769, 12.94116], [77.514782, 12.94133], [77.514787, 12.941499], [77.514785, 12.941669], [77.514783, 12.941733], [77.514779, 12.94175], [77.514776, 12.941793], [77.51478, 12.941837], [77.514792, 12.941879], [77.514811, 12.941918], [77.514837, 12.941954], [77.514869, 12.941984], [77.514905, 12.942008], [77.514917, 12.942011], [77.515028, 12.94203], [77.515139, 12.942041], [77.515251, 12.942046], [77.515363, 12.942043], [77.515429, 12.942038], [77.515431, 12.942038], [77.515498, 12.942063], [77.515562, 12.942094], [77.515622, 12.942132], [77.515678, 12.942175], [77.515729, 12.942224], [77.515775, 12.942278], [77.515814, 12.942337], [77.515847, 12.942399], [77.515873, 12.942464], [77.515878, 12.942478], [77.515908, 12.942593], [77.515943, 12.94275], [77.515971, 12.942909], [77.515991, 12.943069], [77.516003, 12.94323], [77.516005, 12.943259], [77.516025, 12.94335], [77.516059, 12.943479], [77.516101, 12.943605], [77.51615, 12.94373], [77.516206, 12.943851], [77.516254, 12.943944], [77.516266, 12.943971], [77.516287, 12.944006], [77.516316, 12.944037], [77.516349, 12.944062], [77.516386, 12.944082], [77.516426, 12.944094], [77.516468, 12.944099], [77.51651, 12.944097], [77.516551, 12.944087], [77.51659, 12.944071], [77.516599, 12.944065], [77.516603, 12.944064], [77.516657, 12.944045], [77.516714, 12.944034], [77.516771, 12.944029], [77.516829, 12.944032], [77.516886, 12.944043], [77.516941, 12.944061], [77.516993, 12.944085], [77.517004, 12.944092], [77.517033, 12.944126], [77.517065, 12.944173], [77.517091, 12.944224], [77.51711, 12.944277], [77.517121, 12.944333], [77.517126, 12.944389], [77.517122, 12.944446], [77.517112, 12.944501], [77.517097, 12.944549], [77.517077, 12.944601], [77.517038, 12.944685], [77.516992, 12.944765], [77.51694, 12.944842], [77.516882, 12.944914], [77.516818, 12.944982], [77.51675, 12.945044], [77.516676, 12.945101], [77.516598, 12.945152], [77.516531, 12.945189], [77.516509, 12.945206], [77.516408, 12.945288], [77.516313, 12.945376], [77.516222, 12.945469], [77.516137, 12.945567], [77.516058, 12.94567], [77.515985, 12.945777], [77.51596, 12.945817], [77.515875, 12.945924], [77.515649, 12.9462], [77.515649, 12.946201], [77.515417, 12.946473], [77.515381, 12.946514], [77.515348, 12.946574], [77.515296, 12.946654], [77.515238, 12.946731], [77.515174, 12.946803], [77.515104, 12.946869], [77.51503, 12.946931], [77.514951, 12.946986], [77.514919, 12.947006], [77.514453, 12.947217], [77.514452, 12.947217], [77.513744, 12.947532], [77.51364, 12.947585], [77.513472, 12.947664], [77.513301, 12.947736], [77.513127, 12.947802], [77.513117, 12.947806], [77.51311, 12.947806], [77.513067, 12.947816], [77.513027, 12.947832], [77.51299, 12.947855], [77.512957, 12.947884], [77.51293, 12.947917], [77.512909, 12.947955], [77.512895, 12.947996], [77.512888, 12.948038], [77.512888, 12.948081], [77.512896, 12.948123], [77.512911, 12.948163], [77.512933, 12.9482], [77.51295, 12.948222], [77.512952, 12.94827], [77.512949, 12.948339], [77.512939, 12.948406], [77.512921, 12.948473], [77.512896, 12.948537], [77.512864, 12.948598], [77.512826, 12.948655], [77.512782, 12.948708], [77.512733, 12.948757], [77.512678, 12.9488], [77.512619, 12.948836], [77.51259, 12.948852], [77.512502, 12.948901], [77.512351, 12.948993], [77.512204, 12.949091], [77.512062, 12.949195], [77.511923, 12.949304], [77.511871, 12.949348], [77.511914, 12.949391], [77.512137, 12.949618], [77.512311, 12.94982], [77.512441, 12.949889], [77.512792, 12.949879], [77.513207, 12.949811], [77.513587, 12.94978], [77.51391, 12.949833], [77.514133, 12.949929], [77.514378, 12.950081], [77.514653, 12.950283], [77.514877, 12.950435], [77.515137, 12.950665], [77.51534, 12.950909], [77.51553, 12.951244], [77.515814, 12.951734], [77.516099, 12.952216], [77.516573, 12.953027], [77.516953, 12.953706], [77.517222, 12.954132], [77.517353, 12.954299], [77.517585, 12.954585], [77.517994, 12.954985], [77.519499, 12.954481], [77.519539, 12.954257], [77.519984, 12.952868], [77.520283, 12.95237], [77.520312, 12.95239], [77.520355, 12.952412], [77.5204, 12.952428], [77.520448, 12.952437], [77.520496, 12.952438], [77.520544, 12.952432], [77.52059, 12.952419], [77.520634, 12.952399], [77.52067, 12.952377], [77.52068, 12.952366], [77.520718, 12.952323], [77.52075, 12.952276], [77.520771, 12.952233], [77.520773, 12.952227], [77.520782, 12.952209], [77.520793, 12.952192], [77.520808, 12.952178], [77.520824, 12.952166], [77.520843, 12.952157], [77.520862, 12.952152], [77.520868, 12.952151], [77.520879, 12.952151], [77.520973, 12.952147], [77.52105, 12.952138], [77.521051, 12.952137], [77.521062, 12.952132], [77.521072, 12.952125], [77.521081, 12.952116], [77.521088, 12.952106], [77.521093, 12.952095], [77.521096, 12.952083], [77.521097, 12.952071], [77.521096, 12.952059], [77.521095, 12.952054], [77.52091, 12.951455], [77.521645, 12.950503], [77.522082, 12.949768], [77.522084, 12.949762], [77.522011, 12.949601], [77.521957, 12.949444], [77.521931, 12.949237], [77.522469, 12.949381], [77.52283, 12.94942], [77.523394, 12.949446], [77.524019, 12.949413], [77.52451, 12.949337], [77.524522, 12.949371], [77.52455, 12.949476], [77.524057, 12.949636], [77.524042, 12.950547], [77.524076, 12.951183], [77.524116, 12.951575], [77.524117, 12.95161], [77.524139, 12.952073], [77.52546, 12.952137], [77.525548, 12.953012], [77.525563, 12.953011], [77.525949, 12.952944], [77.526421, 12.952855], [77.52733, 12.952701]]]}}]}