{"type": "FeatureCollection", "features": [{"type": "Feature", "properties": {"region_id": "ward_276600-17", "name": "J P Park", "parent": "zone_276600-5", "parent_name": "Rajarajeshwari Nagar"}, "geometry": {"type": "Polygon", "coordinates": [[[77.561009, 13.040104], [77.560823, 13.039885], [77.560813, 13.039873], [77.560721, 13.039779], [77.56071, 13.039767], [77.560709, 13.039765], [77.560561, 13.039613], [77.560379, 13.039465], [77.560239, 13.039352], [77.559912, 13.039141], [77.559611, 13.038991], [77.559354, 13.038865], [77.559192, 13.038809], [77.558877, 13.038698], [77.558558, 13.038646], [77.558227, 13.038596], [77.558145, 13.038583], [77.557926, 13.038571], [77.557901, 13.03857], [77.557858, 13.038568], [77.557799, 13.038568], [77.557344, 13.038568], [77.557381, 13.03802], [77.557395, 13.037713], [77.557516, 13.036667], [77.557558, 13.036158], [77.557545, 13.036109], [77.557557, 13.035999], [77.55753, 13.035797], [77.557482, 13.035594], [77.557438, 13.035412], [77.557416, 13.035325], [77.557354, 13.035078], [77.557354, 13.035076], [77.557341, 13.034914], [77.557339, 13.03481], [77.557338, 13.034776], [77.557345, 13.03476], [77.557379, 13.034682], [77.557381, 13.034677], [77.55751, 13.034434], [77.557511, 13.034432], [77.557541, 13.034375], [77.558275, 13.033315], [77.558657, 13.032764], [77.55979, 13.031139], [77.559929, 13.03096], [77.559924, 13.030945], [77.559848, 13.030756], [77.559512, 13.029918], [77.559497, 13.02988], [77.559393, 13.029633], [77.559261, 13.029317], [77.558876, 13.028406], [77.558824, 13.028284], [77.558786, 13.028196], [77.558536, 13.02762], [77.558408, 13.027273], [77.557694, 13.027498], [77.557886, 13.028113], [77.557618, 13.028198], [77.557462, 13.02829], [77.55737, 13.028363], [77.557139, 13.028393], [77.556546, 13.028362], [77.556324, 13.028392], [77.556289, 13.028628], [77.556077, 13.028676], [77.556003, 13.028713], [77.555864, 13.028732], [77.555754, 13.028797], [77.555709, 13.028943], [77.55571, 13.029061], [77.555628, 13.029207], [77.555492, 13.029417], [77.555208, 13.029783], [77.555099, 13.029947], [77.554956, 13.03043], [77.554858, 13.030812], [77.554787, 13.031094], [77.554678, 13.031322], [77.554468, 13.031606], [77.554304, 13.031898], [77.554149, 13.032118], [77.554048, 13.032182], [77.553817, 13.032239], [77.553601, 13.032277], [77.552773, 13.031742], [77.551865, 13.03102], [77.551338, 13.030335], [77.551023, 13.029841], [77.550707, 13.029224], [77.550452, 13.029047], [77.550255, 13.029021], [77.550031, 13.029093], [77.549736, 13.029164], [77.549455, 13.029181], [77.548961, 13.029173], [77.54872, 13.029589], [77.548343, 13.030265], [77.54796, 13.030953], [77.547603, 13.031638], [77.546533, 13.033646], [77.546104, 13.034528], [77.545596, 13.035434], [77.544982, 13.036674], [77.544301, 13.037777], [77.543683, 13.038402], [77.543354, 13.038807], [77.542931, 13.039203], [77.542922, 13.03922], [77.542918, 13.039237], [77.54294, 13.039279], [77.543, 13.03932], [77.543515, 13.039789], [77.543889, 13.040183], [77.54449, 13.040702], [77.544812, 13.040978], [77.544963, 13.041018], [77.545132, 13.041067], [77.545327, 13.041099], [77.545456, 13.041128], [77.545551, 13.041156], [77.545569, 13.04119], [77.546685, 13.041513], [77.548534, 13.042147], [77.549895, 13.042623], [77.551743, 13.043144], [77.552758, 13.043523], [77.553682, 13.043777], [77.554695, 13.044056], [77.555412, 13.044061], [77.556179, 13.043979], [77.556926, 13.043781], [77.556991, 13.043101], [77.557072, 13.042637], [77.557083, 13.042626], [77.557096, 13.042618], [77.557106, 13.042618], [77.557157, 13.042618], [77.557256, 13.042659], [77.557347, 13.04271], [77.557405, 13.042735], [77.557451, 13.042735], [77.557739, 13.042549], [77.558113, 13.042296], [77.558301, 13.042132], [77.558998, 13.041692], [77.559346, 13.041415], [77.559479, 13.041112], [77.559587, 13.040798], [77.55966, 13.040677], [77.559718, 13.040601], [77.559805, 13.040535], [77.559927, 13.040505], [77.560083, 13.040467], [77.560339, 13.040457], [77.560438, 13.040468], [77.560612, 13.040508], [77.561009, 13.040104]]]}}]}