{"type": "FeatureCollection", "features": [{"type": "Feature", "properties": {"region_id": "ward_276600-119", "name": "Dharmaraya Swamy Temple", "parent": "zone_276600-6", "parent_name": "South"}, "geometry": {"type": "Polygon", "coordinates": [[[77.586774, 12.965589], [77.586483, 12.965191], [77.585658, 12.964302], [77.585195, 12.963785], [77.584246, 12.961745], [77.583212, 12.959754], [77.582278, 12.957956], [77.582164, 12.957768], [77.581748, 12.958], [77.5808, 12.958565], [77.580167, 12.958909], [77.580038, 12.958893], [77.579824, 12.958929], [77.579447, 12.959017], [77.57912, 12.959029], [77.578809, 12.95888], [77.578473, 12.958748], [77.578309, 12.958725], [77.578009, 12.958795], [77.577675, 12.958815], [77.577635, 12.95831], [77.577526, 12.957721], [77.577431, 12.956863], [77.577409, 12.956425], [77.577437, 12.956252], [77.577314, 12.956285], [77.577194, 12.956311], [77.576859, 12.956411], [77.576048, 12.956623], [77.575321, 12.95682], [77.574848, 12.956957], [77.573964, 12.957202], [77.573826, 12.957243], [77.573692, 12.957276], [77.573624, 12.957295], [77.574559, 12.959779], [77.574568, 12.959804], [77.574791, 12.960437], [77.575101, 12.961123], [77.575456, 12.96176], [77.576174, 12.962631], [77.577045, 12.964617], [77.577291, 12.965169], [77.57775, 12.966194], [77.577845, 12.966393], [77.578012, 12.966742], [77.578029, 12.966778], [77.578069, 12.966863], [77.578071, 12.966873], [77.578328, 12.967364], [77.578502, 12.967704], [77.578651, 12.967994], [77.579861, 12.967334], [77.580494, 12.967], [77.581064, 12.96668], [77.581153, 12.966602], [77.581216, 12.966583], [77.581216, 12.966584], [77.581222, 12.966577], [77.581281, 12.966542], [77.58157, 12.967104], [77.581979, 12.967821], [77.582242, 12.96832], [77.582707, 12.969537], [77.582911, 12.97007], [77.582946, 12.970172], [77.582795, 12.970378], [77.582769, 12.971751], [77.582766, 12.971786], [77.582768, 12.972042], [77.582768, 12.972043], [77.583172, 12.971631], [77.584307, 12.970473], [77.584329, 12.97046], [77.584398, 12.970391], [77.584378, 12.969919], [77.584352, 12.968701], [77.584491, 12.968546], [77.584773, 12.968297], [77.584958, 12.968083], [77.585105, 12.967896], [77.585201, 12.967814], [77.585271, 12.96777], [77.585642, 12.967624], [77.586494, 12.967225], [77.587006, 12.967015], [77.587244, 12.966851], [77.587257, 12.966848], [77.587298, 12.966822], [77.587326, 12.966799], [77.586616, 12.965928], [77.586622, 12.965733], [77.586661, 12.965655], [77.586774, 12.965589]]]}}]}