{"type": "FeatureCollection", "features": [{"type": "Feature", "properties": {"region_id": "ward_276600-92", "name": "Shivaji Nagar", "parent": "zone_276600-3", "parent_name": "East"}, "geometry": {"type": "Polygon", "coordinates": [[[77.609785, 12.992678], [77.609618, 12.992093], [77.609376, 12.991076], [77.609206, 12.990152], [77.608989, 12.989259], [77.608819, 12.988382], [77.608728, 12.987906], [77.608709, 12.987774], [77.608586, 12.987201], [77.608453, 12.986603], [77.608339, 12.986444], [77.607771, 12.98667], [77.607279, 12.986794], [77.607133, 12.986769], [77.606988, 12.98682], [77.606501, 12.986825], [77.606155, 12.98681], [77.606076, 12.986782], [77.605643, 12.985559], [77.60561, 12.985491], [77.605571, 12.985354], [77.605399, 12.985454], [77.605331, 12.985517], [77.603012, 12.985023], [77.602075, 12.984833], [77.601835, 12.98472], [77.601842, 12.984683], [77.601742, 12.984666], [77.601764, 12.98471], [77.601791, 12.9848], [77.60179, 12.9848], [77.601809, 12.984947], [77.601816, 12.984999], [77.601926, 12.986724], [77.601949, 12.987207], [77.602021, 12.988064], [77.602028, 12.98815], [77.60204, 12.988199], [77.60209, 12.988401], [77.602172, 12.989121], [77.602504, 12.988825], [77.603006, 12.988279], [77.603067, 12.988334], [77.603165, 12.988413], [77.603205, 12.988746], [77.60321, 12.989195], [77.603196, 12.989454], [77.602986, 12.98948], [77.602823, 12.989504], [77.602833, 12.989559], [77.602892, 12.989956], [77.602925, 12.989996], [77.602997, 12.989979], [77.603405, 12.990025], [77.603867, 12.990083], [77.604215, 12.990138], [77.604453, 12.990162], [77.604951, 12.990164], [77.605295, 12.990183], [77.605296, 12.990183], [77.605603, 12.990183], [77.606061, 12.990172], [77.606462, 12.990188], [77.606601, 12.990212], [77.606603, 12.990213], [77.60673, 12.990247], [77.606921, 12.990288], [77.607106, 12.990358], [77.607119, 12.99052], [77.607164, 12.991553], [77.607222, 12.99294], [77.607241, 12.993354], [77.607286, 12.993482], [77.607401, 12.993592], [77.607676, 12.993582], [77.608174, 12.993536], [77.608299, 12.993535], [77.608435, 12.993522], [77.6085, 12.99351], [77.608571, 12.993491], [77.60863, 12.993462], [77.608707, 12.993438], [77.60879, 12.993396], [77.608979, 12.99326], [77.609709, 12.992735], [77.609785, 12.992678]]]}}]}