{"type": "FeatureCollection", "features": [{"type": "Feature", "properties": {"region_id": "ward_276600-80", "name": "Hoysala Nagar", "parent": "zone_276600-3", "parent_name": "East"}, "geometry": {"type": "Polygon", "coordinates": [[[77.647463, 12.970425], [77.645604, 12.970355], [77.643288, 12.970328], [77.64266, 12.970289], [77.64201, 12.970283], [77.641978, 12.970283], [77.641973, 12.970283], [77.64127, 12.97028], [77.64121, 12.971285], [77.64118, 12.971728], [77.641132, 12.972472], [77.641121, 12.972664], [77.641116, 12.972775], [77.64105, 12.974008], [77.64098, 12.975251], [77.64095, 12.976058], [77.639984, 12.976057], [77.639305, 12.976053], [77.638774, 12.976041], [77.637748, 12.975991], [77.63669, 12.975969], [77.635858, 12.975964], [77.635729, 12.975966], [77.635663, 12.975968], [77.635626, 12.975627], [77.635621, 12.975587], [77.635594, 12.97539], [77.635422, 12.975419], [77.63516, 12.97546], [77.634748, 12.975551], [77.634403, 12.975634], [77.633983, 12.975725], [77.633684, 12.975801], [77.633532, 12.97585], [77.633382, 12.97592], [77.633438, 12.975593], [77.633519, 12.974926], [77.633525, 12.974868], [77.633525, 12.974818], [77.633524, 12.974775], [77.633518, 12.974747], [77.633492, 12.974697], [77.633417, 12.974558], [77.63322, 12.974196], [77.633065, 12.973893], [77.632992, 12.973777], [77.63284, 12.974352], [77.632744, 12.974853], [77.632698, 12.975065], [77.632638, 12.975195], [77.632521, 12.975365], [77.632296, 12.975695], [77.631992, 12.97612], [77.631849, 12.976286], [77.631744, 12.976395], [77.63164, 12.976456], [77.631246, 12.976641], [77.630716, 12.976845], [77.630208, 12.977092], [77.629697, 12.977377], [77.629168, 12.977697], [77.628827, 12.977912], [77.628513, 12.97814], [77.628281, 12.978254], [77.62804, 12.978351], [77.627681, 12.978467], [77.627505, 12.978512], [77.627238, 12.978571], [77.627023, 12.978616], [77.626729, 12.978671], [77.626461, 12.978691], [77.626289, 12.978688], [77.626337, 12.978909], [77.62643, 12.979396], [77.626404, 12.979435], [77.62628, 12.979454], [77.626221, 12.979439], [77.626102, 12.979408], [77.62574, 12.97949], [77.625909, 12.980264], [77.625779, 12.980282], [77.625774, 12.980281], [77.625668, 12.9803], [77.62553, 12.980307], [77.625546, 12.980552], [77.625568, 12.980784], [77.625496, 12.980777], [77.62534, 12.980777], [77.625118, 12.980769], [77.624813, 12.98078], [77.624566, 12.980834], [77.624426, 12.980864], [77.624382, 12.98088], [77.624342, 12.980904], [77.624337, 12.98094], [77.624338, 12.980961], [77.624338, 12.980984], [77.624343, 12.981017], [77.624368, 12.981118], [77.62448, 12.981615], [77.624494, 12.981743], [77.624494, 12.981784], [77.624494, 12.981798], [77.624494, 12.981811], [77.624483, 12.981831], [77.624475, 12.981842], [77.624465, 12.981852], [77.624454, 12.98186], [77.624429, 12.981874], [77.624884, 12.981958], [77.625859, 12.982077], [77.626712, 12.982092], [77.627588, 12.981942], [77.628427, 12.98178], [77.629315, 12.981607], [77.630047, 12.981528], [77.630708, 12.981569], [77.631489, 12.981656], [77.631824, 12.981874], [77.632307, 12.982191], [77.63247, 12.982248], [77.632693, 12.982291], [77.632888, 12.9823], [77.633563, 12.982372], [77.634801, 12.982547], [77.635737, 12.982624], [77.636639, 12.982726], [77.636982, 12.982785], [77.637166, 12.982828], [77.637301, 12.982868], [77.63823, 12.983236], [77.639559, 12.983718], [77.640481, 12.984079], [77.641477, 12.984415], [77.642239, 12.984674], [77.643349, 12.985141], [77.644438, 12.985545], [77.644842, 12.985697], [77.64502, 12.985769], [77.645263, 12.985017], [77.645551, 12.983356], [77.646046, 12.981325], [77.646357, 12.97971], [77.646626, 12.978728], [77.646661, 12.977329], [77.646686, 12.977296], [77.646705, 12.977103], [77.646772, 12.975926], [77.646847, 12.97479], [77.646906, 12.973637], [77.646921, 12.973412], [77.646924, 12.973379], [77.646928, 12.973305], [77.64694, 12.973264], [77.646963, 12.972815], [77.647027, 12.972379], [77.647116, 12.971856], [77.647332, 12.970927], [77.647463, 12.970425]]]}}]}