{"type": "FeatureCollection", "features": [{"type": "Feature", "properties": {"region_id": "ward_276600-59", "name": "Maruthi Seva Nagar", "parent": "zone_276600-3", "parent_name": "East"}, "geometry": {"type": "Polygon", "coordinates": [[[77.631792, 13.004556], [77.63143, 13.003887], [77.63113, 13.003326], [77.630906, 13.003224], [77.630623, 13.003124], [77.630234, 13.002966], [77.630286, 13.002378], [77.630364, 13.001928], [77.630418, 13.001547], [77.630842, 13.001612], [77.631619, 13.001754], [77.632302, 13.001897], [77.632808, 13.001995], [77.633138, 13.002073], [77.633809, 13.002204], [77.634223, 13.002396], [77.634565, 13.002554], [77.63492, 13.002826], [77.635466, 13.003305], [77.635952, 13.003669], [77.636248, 13.003944], [77.636324, 13.003892], [77.636487, 13.003796], [77.636664, 13.003698], [77.637014, 13.003502], [77.637942, 13.003003], [77.638334, 13.002811], [77.638448, 13.002743], [77.638497, 13.002697], [77.638543, 13.002626], [77.638612, 13.002465], [77.638669, 13.002254], [77.638733, 13.002141], [77.63883, 13.001982], [77.639138, 13.001526], [77.639486, 13.001021], [77.639618, 13.000807], [77.639901, 13.000315], [77.640393, 12.999425], [77.640956, 12.998444], [77.641539, 12.99758], [77.64221, 12.996546], [77.642616, 12.995982], [77.641932, 12.995989], [77.641897, 12.995951], [77.641841, 12.995924], [77.641751, 12.995909], [77.641618, 12.995902], [77.64149, 12.995888], [77.641482, 12.995889], [77.641458, 12.995887], [77.641402, 12.995875], [77.64133, 12.995854], [77.641296, 12.99584], [77.641199, 12.995426], [77.64098, 12.995614], [77.640664, 12.995834], [77.640601, 12.995581], [77.640558, 12.995501], [77.640405, 12.995078], [77.639882, 12.995191], [77.639693, 12.995205], [77.639538, 12.995234], [77.6393, 12.99527], [77.639195, 12.995296], [77.639193, 12.995298], [77.639036, 12.995337], [77.638863, 12.995363], [77.638581, 12.995366], [77.63847, 12.995375], [77.638301, 12.995438], [77.638111, 12.995476], [77.637959, 12.995474], [77.637902, 12.995273], [77.637813, 12.99436], [77.637942, 12.994311], [77.637979, 12.99427], [77.638065, 12.994241], [77.637979, 12.993803], [77.637939, 12.993599], [77.637476, 12.993613], [77.63726, 12.992942], [77.637163, 12.992723], [77.636983, 12.99275], [77.635696, 12.99303], [77.635347, 12.993099], [77.634761, 12.993237], [77.634372, 12.993294], [77.634093, 12.993313], [77.633389, 12.993465], [77.63193, 12.993773], [77.631142, 12.993913], [77.63021, 12.994091], [77.629059, 12.994267], [77.62912, 12.994505], [77.628447, 12.994647], [77.62742, 12.994831], [77.626835, 12.994975], [77.626056, 12.995259], [77.625394, 12.995577], [77.624975, 12.995817], [77.624622, 12.996047], [77.624376, 12.996228], [77.623701, 12.996867], [77.622042, 12.998315], [77.620752, 12.99945], [77.620165, 12.999958], [77.620154, 12.999977], [77.620132, 13.000001], [77.620059, 13.000079], [77.620064, 13.000081], [77.620068, 13.000083], [77.620188, 13.000137], [77.620249, 13.000165], [77.620264, 13.000891], [77.620273, 13.000944], [77.620318, 13.001238], [77.620436, 13.001611], [77.62045, 13.001626], [77.620646, 13.002075], [77.62065, 13.002503], [77.620652, 13.00262], [77.620643, 13.002637], [77.620579, 13.00268], [77.620217, 13.002857], [77.619851, 13.003088], [77.619711, 13.003201], [77.619581, 13.003372], [77.619492, 13.003484], [77.619475, 13.003609], [77.619549, 13.003753], [77.619549, 13.003757], [77.619554, 13.00376], [77.619746, 13.004311], [77.620062, 13.004963], [77.620426, 13.005571], [77.620515, 13.005626], [77.620779, 13.006082], [77.621278, 13.006753], [77.621608, 13.007145], [77.62192, 13.007522], [77.622091, 13.007729], [77.622595, 13.008257], [77.622601, 13.008259], [77.622707, 13.008338], [77.622711, 13.008339], [77.622705, 13.008331], [77.622795, 13.008246], [77.624218, 13.007647], [77.624239, 13.007638], [77.626656, 13.006646], [77.628159, 13.006034], [77.629598, 13.005435], [77.630242, 13.005163], [77.630454, 13.005074], [77.631427, 13.004671], [77.631792, 13.004556]]]}}]}