{"type": "FeatureCollection", "features": [{"type": "Feature", "properties": {"region_id": "ward_276600-107", "name": "Shivanagara", "parent": "zone_276600-7", "parent_name": "West"}, "geometry": {"type": "Polygon", "coordinates": [[[77.55438, 12.989998], [77.554276, 12.987506], [77.554278, 12.987365], [77.554282, 12.986993], [77.55411, 12.984372], [77.553644, 12.984377], [77.552598, 12.984482], [77.55159, 12.98453], [77.550488, 12.984769], [77.5495, 12.984931], [77.549105, 12.984972], [77.549075, 12.984743], [77.549046, 12.984298], [77.549046, 12.984301], [77.548823, 12.984396], [77.548812, 12.984395], [77.548811, 12.984394], [77.548805, 12.9844], [77.548122, 12.98454], [77.545185, 12.985013], [77.545201, 12.985101], [77.545291, 12.98581], [77.545295, 12.985842], [77.545484, 12.987429], [77.545531, 12.988355], [77.545574, 12.988811], [77.545596, 12.989086], [77.54563, 12.989311], [77.545678, 12.98958], [77.545745, 12.989948], [77.545807, 12.990348], [77.545861, 12.990623], [77.545914, 12.990828], [77.54598, 12.991066], [77.546013, 12.991197], [77.546027, 12.991278], [77.546028, 12.991372], [77.54601, 12.991509], [77.545986, 12.991691], [77.545921, 12.992205], [77.545857, 12.992609], [77.545832, 12.992786], [77.54575, 12.993375], [77.545811, 12.993376], [77.546115, 12.993383], [77.546284, 12.993387], [77.546768, 12.993395], [77.547236, 12.993406], [77.548371, 12.993447], [77.549242, 12.99347], [77.550528, 12.993488], [77.550897, 12.993492], [77.55107, 12.993496], [77.551075, 12.99248], [77.550923, 12.991193], [77.550718, 12.990096], [77.551396, 12.990062], [77.553386, 12.989948], [77.55438, 12.989998]]]}}]}