{"type": "FeatureCollection", "features": [{"type": "Feature", "properties": {"region_id": "ward_276600-125", "name": "Marenahalli", "parent": "zone_276600-7", "parent_name": "West"}, "geometry": {"type": "Polygon", "coordinates": [[[77.528538, 12.972812], [77.528631, 12.972837], [77.52878, 12.972878], [77.528839, 12.974378], [77.528892, 12.975329], [77.52901, 12.976307], [77.529636, 12.976286], [77.530734, 12.97622], [77.530912, 12.976216], [77.531171, 12.97621], [77.531291, 12.976189], [77.531405, 12.976175], [77.531409, 12.976175], [77.53191, 12.976102], [77.532378, 12.975999], [77.532757, 12.975909], [77.532822, 12.975899], [77.532446, 12.974721], [77.53295, 12.974615], [77.533804, 12.974425], [77.534172, 12.974357], [77.534329, 12.974329], [77.534516, 12.974291], [77.534617, 12.974285], [77.534848, 12.974236], [77.535111, 12.974181], [77.535432, 12.974092], [77.535584, 12.974033], [77.536601, 12.973679], [77.53733, 12.97344], [77.537793, 12.973284], [77.538163, 12.973149], [77.538646, 12.972907], [77.538213, 12.972613], [77.537952, 12.972328], [77.537871, 12.972183], [77.537877, 12.972181], [77.537842, 12.972085], [77.537458, 12.971033], [77.536659, 12.968791], [77.536649, 12.968763], [77.536177, 12.967525], [77.535963, 12.967583], [77.535336, 12.967754], [77.534675, 12.967933], [77.533855, 12.968155], [77.533246, 12.968416], [77.532585, 12.968562], [77.532408, 12.968523], [77.531728, 12.968463], [77.531167, 12.968518], [77.530573, 12.96868], [77.530776, 12.969682], [77.530391, 12.96976], [77.529838, 12.96988], [77.529529, 12.969965], [77.529244, 12.970018], [77.529001, 12.970036], [77.528899, 12.97008], [77.528783, 12.969828], [77.527808, 12.970429], [77.527885, 12.970746], [77.528181, 12.971855], [77.528236, 12.971902], [77.528267, 12.971925], [77.528433, 12.972352], [77.528524, 12.972622], [77.528538, 12.972812]]]}}]}