{"type": "FeatureCollection", "features": [{"type": "Feature", "properties": {"region_id": "ward_276600-82", "name": "Garudachar Playa", "parent": "zone_276600-4", "parent_name": "Mahadevapura"}, "geometry": {"type": "Polygon", "coordinates": [[[77.741216, 12.976033], [77.741169, 12.976046], [77.739928, 12.976701], [77.738923, 12.977207], [77.737086, 12.977722], [77.736197, 12.977964], [77.735503, 12.976632], [77.735138, 12.976282], [77.734884, 12.97612], [77.734606, 12.976052], [77.734016, 12.975964], [77.733306, 12.975971], [77.729939, 12.976234], [77.726994, 12.976554], [77.725425, 12.976624], [77.721129, 12.977028], [77.71877, 12.977268], [77.716758, 12.977379], [77.714164, 12.977836], [77.71436, 12.979001], [77.714825, 12.981401], [77.715302, 12.981486], [77.715397, 12.981826], [77.714961, 12.982082], [77.714394, 12.982088], [77.713883, 12.982273], [77.713413, 12.982762], [77.713342, 12.983032], [77.712889, 12.983414], [77.711999, 12.984015], [77.711543, 12.984146], [77.71116, 12.984329], [77.710335, 12.984158], [77.709417, 12.983935], [77.70839, 12.983712], [77.708084, 12.984236], [77.70802, 12.985008], [77.707329, 12.987151], [77.707081, 12.987908], [77.706168, 12.988097], [77.705802, 12.988101], [77.705729, 12.988101], [77.705809, 12.987077], [77.704218, 12.987166], [77.702547, 12.984993], [77.702332, 12.984792], [77.700049, 12.984632], [77.699826, 12.984616], [77.700294, 12.983974], [77.700641, 12.983799], [77.700688, 12.983721], [77.70044, 12.982822], [77.701092, 12.982478], [77.700402, 12.982232], [77.69984, 12.980909], [77.699752, 12.9807], [77.697338, 12.981705], [77.695443, 12.982078], [77.695532, 12.982286], [77.695537, 12.982296], [77.695578, 12.982414], [77.69564, 12.982705], [77.69584, 12.984734], [77.695893, 12.986778], [77.695836, 12.990192], [77.695461, 12.990288], [77.694819, 12.990371], [77.69449, 12.990344], [77.694191, 12.990301], [77.693581, 12.990369], [77.692769, 12.990685], [77.692208, 12.991013], [77.691881, 12.991201], [77.691335, 12.991422], [77.690819, 12.991612], [77.690271, 12.991694], [77.68977, 12.991669], [77.689253, 12.991782], [77.688769, 12.99191], [77.688566, 12.992035], [77.68849, 12.992072], [77.688552, 12.992143], [77.688679, 12.99231], [77.688903, 12.992739], [77.689036, 12.993398], [77.689164, 12.993689], [77.689487, 12.994531], [77.689664, 12.995006], [77.68989, 12.995572], [77.690289, 12.99626], [77.690562, 12.996826], [77.690655, 12.99729], [77.69099, 12.997122], [77.691642, 12.996872], [77.691663, 12.996866], [77.692181, 12.99671], [77.692335, 12.996653], [77.692534, 12.996567], [77.692646, 12.996461], [77.692865, 12.99638], [77.693094, 12.99631], [77.693692, 12.996109], [77.693868, 12.996029], [77.694069, 12.995946], [77.694462, 12.995767], [77.69505, 12.995513], [77.695168, 12.995465], [77.695467, 12.995384], [77.695571, 12.995363], [77.695872, 12.995307], [77.696447, 12.995222], [77.697525, 12.995074], [77.697869, 12.994985], [77.698912, 12.994608], [77.700053, 12.994275], [77.701275, 12.993995], [77.701552, 12.996883], [77.701923, 12.996957], [77.702295, 12.997161], [77.702613, 12.997235], [77.702974, 12.997467], [77.703153, 12.997696], [77.703347, 12.997705], [77.703443, 12.997793], [77.703584, 12.997873], [77.703746, 12.998095], [77.703842, 12.998289], [77.703891, 12.998455], [77.703961, 12.998957], [77.703974, 12.999124], [77.703993, 12.999194], [77.704021, 12.999528], [77.70432, 12.99951], [77.70432, 12.999515], [77.704346, 12.999508], [77.704497, 12.999468], [77.705385, 12.999366], [77.70607, 12.999279], [77.707543, 12.99892], [77.708569, 12.998651], [77.708536, 12.998469], [77.708499, 12.9983], [77.70849, 12.998185], [77.708487, 12.998098], [77.708475, 12.998056], [77.708462, 12.998014], [77.708459, 12.997962], [77.708463, 12.997927], [77.708477, 12.997896], [77.708498, 12.997866], [77.708512, 12.997803], [77.708505, 12.997709], [77.708476, 12.997621], [77.708434, 12.997557], [77.708377, 12.997512], [77.7083, 12.997483], [77.708257, 12.997471], [77.708217, 12.997442], [77.708111, 12.997334], [77.708005, 12.997258], [77.70783, 12.997107], [77.707722, 12.996983], [77.707763, 12.99694], [77.707898, 12.996808], [77.707887, 12.996792], [77.707752, 12.996666], [77.707665, 12.996592], [77.707618, 12.996542], [77.707546, 12.996499], [77.707406, 12.996451], [77.707257, 12.996391], [77.707118, 12.996349], [77.707007, 12.996335], [77.706803, 12.996335], [77.706645, 12.996322], [77.706547, 12.996287], [77.706296, 12.99621], [77.706129, 12.996169], [77.705811, 12.996114], [77.705621, 12.996083], [77.705429, 12.996057], [77.705241, 12.996022], [77.705142, 12.995749], [77.705044, 12.995445], [77.704963, 12.995261], [77.704818, 12.994121], [77.704786, 12.993024], [77.705096, 12.992988], [77.706131, 12.992928], [77.707406, 12.992872], [77.708829, 12.992824], [77.710039, 12.992817], [77.710634, 12.992766], [77.71086, 12.992712], [77.71115, 12.992642], [77.711646, 12.992521], [77.711372, 12.991678], [77.711149, 12.990896], [77.71111, 12.990744], [77.71137, 12.99069], [77.711554, 12.990644], [77.711887, 12.99056], [77.713066, 12.990292], [77.713549, 12.990151], [77.714491, 12.990949], [77.715356, 12.991755], [77.715357, 12.991755], [77.715787, 12.992148], [77.716081, 12.992198], [77.716263, 12.992196], [77.716383, 12.992194], [77.716528, 12.992205], [77.716527, 12.992201], [77.716534, 12.992203], [77.71715, 12.992188], [77.717885, 12.992166], [77.718133, 12.992162], [77.718133, 12.992163], [77.718314, 12.992161], [77.718623, 12.992177], [77.719127, 12.992165], [77.719273, 12.992148], [77.719418, 12.992122], [77.719531, 12.992068], [77.719531, 12.992069], [77.719537, 12.992059], [77.719665, 12.992007], [77.720038, 12.991794], [77.720574, 12.991463], [77.720837, 12.991305], [77.721196, 12.991099], [77.721198, 12.991103], [77.721436, 12.990973], [77.721693, 12.99085], [77.721957, 12.990748], [77.722084, 12.990704], [77.722298, 12.990659], [77.72242, 12.990632], [77.722526, 12.990611], [77.722846, 12.990501], [77.722941, 12.990471], [77.722947, 12.990491], [77.723129, 12.990422], [77.723741, 12.990248], [77.724372, 12.990065], [77.724375, 12.990067], [77.724382, 12.990058], [77.724727, 12.98994], [77.725044, 12.989784], [77.725324, 12.989637], [77.725763, 12.989334], [77.72589, 12.989266], [77.726145, 12.989198], [77.726681, 12.989062], [77.726932, 12.989009], [77.726983, 12.988996], [77.727424, 12.988886], [77.728687, 12.988638], [77.730512, 12.988302], [77.731552, 12.988135], [77.731608, 12.988125], [77.731595, 12.987902], [77.731581, 12.987762], [77.731579, 12.987608], [77.73159, 12.987428], [77.731608, 12.987221], [77.73159, 12.987068], [77.731587, 12.986861], [77.731606, 12.986727], [77.731645, 12.986609], [77.731665, 12.98651], [77.731674, 12.986492], [77.73167, 12.98649], [77.732135, 12.985793], [77.73226, 12.985697], [77.732521, 12.985666], [77.733285, 12.985628], [77.73339, 12.985627], [77.733426, 12.985619], [77.733488, 12.985579], [77.733512, 12.985504], [77.733506, 12.985284], [77.733517, 12.984928], [77.734463, 12.984901], [77.736041, 12.984916], [77.736041, 12.98492], [77.737067, 12.984926], [77.737058, 12.985076], [77.737325, 12.985057], [77.737872, 12.985051], [77.737929, 12.98507], [77.738036, 12.985131], [77.738453, 12.985148], [77.738488, 12.986338], [77.739626, 12.98673], [77.740007, 12.98689], [77.740198, 12.986948], [77.740405, 12.987006], [77.740555, 12.987132], [77.740586, 12.987214], [77.740595, 12.987262], [77.740589, 12.987316], [77.740592, 12.9874], [77.741183, 12.987229], [77.741208, 12.987237], [77.742086, 12.987006], [77.743779, 12.986595], [77.744727, 12.986341], [77.743591, 12.983766], [77.743735, 12.983148], [77.743857, 12.982825], [77.743881, 12.982677], [77.743751, 12.982308], [77.742131, 12.979143], [77.742001, 12.978725], [77.741895, 12.978282], [77.741788, 12.977715], [77.74153, 12.977076], [77.741216, 12.976033]]]}}]}