{"type": "FeatureCollection", "features": [{"type": "Feature", "properties": {"region_id": "ward_276600-29", "name": "Kacharkanahalli", "parent": "zone_276600-3", "parent_name": "East"}, "geometry": {"type": "Polygon", "coordinates": [[[77.639925, 13.025694], [77.639853, 13.024876], [77.640324, 13.024702], [77.64009, 13.021809], [77.63955, 13.021978], [77.639546, 13.021958], [77.639456, 13.019676], [77.639351, 13.017606], [77.639347, 13.015648], [77.639319, 13.014596], [77.639361, 13.014026], [77.639111, 13.014029], [77.638529, 13.014081], [77.637838, 13.014148], [77.637391, 13.014186], [77.636945, 13.014237], [77.636525, 13.014301], [77.63612, 13.014385], [77.635832, 13.014464], [77.635757, 13.014481], [77.635725, 13.014346], [77.635619, 13.013986], [77.635473, 13.013389], [77.6354, 13.013078], [77.635352, 13.012771], [77.634525, 13.01285], [77.633377, 13.012923], [77.632673, 13.01296], [77.63253, 13.012984], [77.632421, 13.012984], [77.63219, 13.012985], [77.631887, 13.012998], [77.631363, 13.012993], [77.630892, 13.012998], [77.630442, 13.012982], [77.629907, 13.012895], [77.629614, 13.012867], [77.629278, 13.012809], [77.628922, 13.012761], [77.628575, 13.012652], [77.628103, 13.012574], [77.627716, 13.012568], [77.627464, 13.012571], [77.627235, 13.012624], [77.626984, 13.012719], [77.626724, 13.012835], [77.626349, 13.013013], [77.626149, 13.013075], [77.626278, 13.013282], [77.626828, 13.014141], [77.626924, 13.014268], [77.627053, 13.014464], [77.627324, 13.014839], [77.627484, 13.015065], [77.627686, 13.015602], [77.627768, 13.015842], [77.627867, 13.016726], [77.628116, 13.018103], [77.628325, 13.019073], [77.628463, 13.020239], [77.628595, 13.020715], [77.628597, 13.020981], [77.628941, 13.021048], [77.629392, 13.021026], [77.629879, 13.020891], [77.629846, 13.021355], [77.629887, 13.021841], [77.629916, 13.021961], [77.629939, 13.022036], [77.629962, 13.022058], [77.630073, 13.022169], [77.630192, 13.022252], [77.630429, 13.022357], [77.630558, 13.02244], [77.630686, 13.022568], [77.630737, 13.022688], [77.630738, 13.022698], [77.630932, 13.023052], [77.63105, 13.023407], [77.631177, 13.024024], [77.6312, 13.024112], [77.631354, 13.024701], [77.631358, 13.024717], [77.631308, 13.024739], [77.631469, 13.025286], [77.631548, 13.025491], [77.631553, 13.02551], [77.631844, 13.026257], [77.631965, 13.026584], [77.631976, 13.026615], [77.632308, 13.027219], [77.63247, 13.027448], [77.632605, 13.0276], [77.632653, 13.027632], [77.632701, 13.027663], [77.632772, 13.027665], [77.632841, 13.027655], [77.633361, 13.027415], [77.633502, 13.02735], [77.634307, 13.027018], [77.634727, 13.026879], [77.635357, 13.02667], [77.636272, 13.026436], [77.637266, 13.026242], [77.638208, 13.026055], [77.639328, 13.025854], [77.639413, 13.025839], [77.639794, 13.025745], [77.639925, 13.025694]]]}}]}