{"type": "FeatureCollection", "features": [{"type": "Feature", "properties": {"region_id": "ward_276600-108", "name": "Sriramamandir", "parent": "zone_276600-7", "parent_name": "West"}, "geometry": {"type": "Polygon", "coordinates": [[[77.561588, 12.982605], [77.561614, 12.982486], [77.561614, 12.982401], [77.561612, 12.982261], [77.561612, 12.982228], [77.561611, 12.982228], [77.561607, 12.982123], [77.561589, 12.981962], [77.561515, 12.98191], [77.561464, 12.981884], [77.561263, 12.981942], [77.561209, 12.981939], [77.561145, 12.981893], [77.561111, 12.981841], [77.561025, 12.981273], [77.560963, 12.981018], [77.560926, 12.980911], [77.560853, 12.980738], [77.560766, 12.980574], [77.56065, 12.980408], [77.560491, 12.980269], [77.560251, 12.980206], [77.560032, 12.980178], [77.559793, 12.980123], [77.559561, 12.980048], [77.559431, 12.979976], [77.559262, 12.979873], [77.559193, 12.979768], [77.55915, 12.979613], [77.559167, 12.979436], [77.559136, 12.979195], [77.559053, 12.979015], [77.558943, 12.978899], [77.55881, 12.978829], [77.558647, 12.978821], [77.558477, 12.978827], [77.558258, 12.978829], [77.558075, 12.978798], [77.557886, 12.978694], [77.557632, 12.978558], [77.557375, 12.97842], [77.556974, 12.978326], [77.556872, 12.978329], [77.556657, 12.978224], [77.556414, 12.978067], [77.556085, 12.977809], [77.555776, 12.977598], [77.555529, 12.977493], [77.555298, 12.977275], [77.555169, 12.977012], [77.555092, 12.977079], [77.554817, 12.977197], [77.554533, 12.977321], [77.554559, 12.977381], [77.554593, 12.977473], [77.554619, 12.977568], [77.554639, 12.977664], [77.554651, 12.977761], [77.554655, 12.977859], [77.554653, 12.977957], [77.554651, 12.977978], [77.554659, 12.978058], [77.554674, 12.978158], [77.554698, 12.978257], [77.554728, 12.978354], [77.554766, 12.978448], [77.55477, 12.978458], [77.554958, 12.97909], [77.555197, 12.979906], [77.555251, 12.980118], [77.555043, 12.980105], [77.554679, 12.980047], [77.553794, 12.97998], [77.553819, 12.98021], [77.553814, 12.98021], [77.55388, 12.980607], [77.553842, 12.980631], [77.553696, 12.980639], [77.553669, 12.980638], [77.553643, 12.980633], [77.552724, 12.98068], [77.550506, 12.980791], [77.54907, 12.980836], [77.549011, 12.980836], [77.548997, 12.980878], [77.548997, 12.980889], [77.548998, 12.980919], [77.549003, 12.981409], [77.549046, 12.984298], [77.549075, 12.984743], [77.549105, 12.984972], [77.5495, 12.984931], [77.550488, 12.984769], [77.55159, 12.98453], [77.552598, 12.984482], [77.553644, 12.984377], [77.55411, 12.984372], [77.554282, 12.986993], [77.554278, 12.987365], [77.554276, 12.987506], [77.55438, 12.989998], [77.556106, 12.989962], [77.557029, 12.990473], [77.557334, 12.990679], [77.557837, 12.991005], [77.559117, 12.988865], [77.559691, 12.987966], [77.559815, 12.987662], [77.559921, 12.987286], [77.560043, 12.986785], [77.560055, 12.986195], [77.560118, 12.985266], [77.560139, 12.984938], [77.560161, 12.984501], [77.560175, 12.984065], [77.560178, 12.983922], [77.56018, 12.983831], [77.560189, 12.983678], [77.560195, 12.983618], [77.560202, 12.983598], [77.560241, 12.983501], [77.560286, 12.983407], [77.560339, 12.983317], [77.560397, 12.98323], [77.560461, 12.983147], [77.560531, 12.98307], [77.560607, 12.982997], [77.560687, 12.982929], [77.560772, 12.982867], [77.560862, 12.982811], [77.560955, 12.982762], [77.561051, 12.982718], [77.56115, 12.982682], [77.561252, 12.982652], [77.561355, 12.98263], [77.56146, 12.982614], [77.561565, 12.982606], [77.561588, 12.982605]]]}}]}