{"type": "FeatureCollection", "features": [{"type": "Feature", "properties": {"region_id": "ward_276600-55", "name": "Devasandra", "parent": "zone_276600-4", "parent_name": "Mahadevapura"}, "geometry": {"type": "Polygon", "coordinates": [[[77.677111, 13.000741], [77.67707, 13.001592], [77.676996, 13.00214], [77.676986, 13.00237], [77.676983, 13.002541], [77.676904, 13.002707], [77.676887, 13.002961], [77.676894, 13.003142], [77.676901, 13.00322], [77.676998, 13.003361], [77.677064, 13.003469], [77.677105, 13.003554], [77.677134, 13.003642], [77.677152, 13.003775], [77.677165, 13.00403], [77.677156, 13.004373], [77.677151, 13.004641], [77.677125, 13.00499], [77.676493, 13.005108], [77.676019, 13.005238], [77.675661, 13.005268], [77.675653, 13.005412], [77.675157, 13.005407], [77.675076, 13.005595], [77.674907, 13.006229], [77.674826, 13.00642], [77.674765, 13.006529], [77.674681, 13.006616], [77.674464, 13.006822], [77.674425, 13.006848], [77.674436, 13.006884], [77.674517, 13.007021], [77.674608, 13.007225], [77.674608, 13.007294], [77.674542, 13.007493], [77.674514, 13.00756], [77.67449, 13.007619], [77.674491, 13.007775], [77.674571, 13.008025], [77.674783, 13.008692], [77.675079, 13.008538], [77.67537, 13.008376], [77.675837, 13.00811], [77.675986, 13.008289], [77.676033, 13.008353], [77.676056, 13.008386], [77.676076, 13.008464], [77.676086, 13.008534], [77.676078, 13.008623], [77.676059, 13.00869], [77.676043, 13.008793], [77.676084, 13.008938], [77.676132, 13.009116], [77.676178, 13.009238], [77.67628, 13.009429], [77.676335, 13.009543], [77.676429, 13.00979], [77.676499, 13.009913], [77.676671, 13.010388], [77.67673, 13.010652], [77.676758, 13.01075], [77.676767, 13.010797], [77.676774, 13.010831], [77.676794, 13.01088], [77.676826, 13.010903], [77.676874, 13.010886], [77.676917, 13.01084], [77.676955, 13.01079], [77.676974, 13.010743], [77.676947, 13.010581], [77.67694, 13.010469], [77.67693, 13.01034], [77.676912, 13.01025], [77.676923, 13.010116], [77.676922, 13.010008], [77.676929, 13.009886], [77.67694, 13.009799], [77.676977, 13.009651], [77.677028, 13.009438], [77.677056, 13.009325], [77.677109, 13.009225], [77.677141, 13.009193], [77.677178, 13.009145], [77.677224, 13.009115], [77.67726, 13.009103], [77.677482, 13.009028], [77.677587, 13.009049], [77.677645, 13.009052], [77.677688, 13.009075], [77.677728, 13.009119], [77.677954, 13.009245], [77.678468, 13.00944], [77.678885, 13.009558], [77.679001, 13.009539], [77.679177, 13.009516], [77.679244, 13.009486], [77.679433, 13.009419], [77.679563, 13.009437], [77.679633, 13.009468], [77.679699, 13.009568], [77.679711, 13.009631], [77.679733, 13.009679], [77.679738, 13.009689], [77.679814, 13.00972], [77.679923, 13.009783], [77.680081, 13.009856], [77.680146, 13.009903], [77.680212, 13.00995], [77.680304, 13.009991], [77.680375, 13.010027], [77.68044, 13.01008], [77.680505, 13.010127], [77.680593, 13.010184], [77.680703, 13.010273], [77.680683, 13.011021], [77.680769, 13.010979], [77.680993, 13.010872], [77.681281, 13.010633], [77.682109, 13.009947], [77.682478, 13.009439], [77.684554, 13.005997], [77.68511, 13.005153], [77.685268, 13.005234], [77.68576, 13.005511], [77.686315, 13.005838], [77.687334, 13.006404], [77.688151, 13.006815], [77.688182, 13.00683], [77.688346, 13.006914], [77.689101, 13.007281], [77.689771, 13.007577], [77.690013, 13.007647], [77.690665, 13.00781], [77.691532, 13.007995], [77.691909, 13.008064], [77.692206, 13.008118], [77.692619, 13.008197], [77.693064, 13.008253], [77.693602, 13.008314], [77.693775, 13.008318], [77.694049, 13.008333], [77.694646, 13.008346], [77.69485, 13.008352], [77.69537, 13.008333], [77.695638, 13.008333], [77.695728, 13.008348], [77.695765, 13.00831], [77.695827, 13.008288], [77.695959, 13.008242], [77.696338, 13.008128], [77.696381, 13.00812], [77.696604, 13.008012], [77.696862, 13.007864], [77.69725, 13.007576], [77.697623, 13.007299], [77.698004, 13.007111], [77.698328, 13.006966], [77.698633, 13.006771], [77.69887, 13.006595], [77.699039, 13.006522], [77.699568, 13.006308], [77.699974, 13.006174], [77.69977, 13.005563], [77.69986, 13.00527], [77.69985, 13.005233], [77.699812, 13.004673], [77.699734, 13.003899], [77.699571, 13.003303], [77.699565, 13.00282], [77.699511, 13.00241], [77.699391, 13.001709], [77.699389, 13.001694], [77.699378, 13.001635], [77.699225, 13.000803], [77.699148, 13.000502], [77.698969, 12.999781], [77.699141, 12.999779], [77.70088, 12.999721], [77.704021, 12.999528], [77.703993, 12.999194], [77.703974, 12.999124], [77.703961, 12.998957], [77.703891, 12.998455], [77.703842, 12.998289], [77.703746, 12.998095], [77.703584, 12.997873], [77.703443, 12.997793], [77.703347, 12.997705], [77.703153, 12.997696], [77.702974, 12.997467], [77.702613, 12.997235], [77.702295, 12.997161], [77.701923, 12.996957], [77.701552, 12.996883], [77.701275, 12.993995], [77.700053, 12.994275], [77.698912, 12.994608], [77.697869, 12.994985], [77.697525, 12.995074], [77.696447, 12.995222], [77.695872, 12.995307], [77.695571, 12.995363], [77.695467, 12.995384], [77.695168, 12.995465], [77.69505, 12.995513], [77.694462, 12.995767], [77.694069, 12.995946], [77.693868, 12.996029], [77.693692, 12.996109], [77.693094, 12.99631], [77.692865, 12.99638], [77.692646, 12.996461], [77.692534, 12.996567], [77.692335, 12.996653], [77.692181, 12.99671], [77.691663, 12.996866], [77.691642, 12.996872], [77.69099, 12.997122], [77.690655, 12.99729], [77.690562, 12.996826], [77.690289, 12.99626], [77.68989, 12.995572], [77.689664, 12.995006], [77.689487, 12.994531], [77.689164, 12.993689], [77.689036, 12.993398], [77.688903, 12.992739], [77.688679, 12.99231], [77.688552, 12.992143], [77.68849, 12.992072], [77.688011, 12.991519], [77.68777, 12.991401], [77.687636, 12.991349], [77.68743, 12.991197], [77.686007, 12.993064], [77.684878, 12.994667], [77.684613, 12.995022], [77.683936, 12.995945], [77.683673, 12.99638], [77.682131, 12.998932], [77.681154, 13.000298], [77.681001, 13.000384], [77.680593, 13.000431], [77.678847, 13.00037], [77.67761, 13.000353], [77.677068, 13.000317], [77.676653, 13.000265], [77.6772, 13.000563], [77.677548, 13.000762], [77.677111, 13.000741]]]}}]}