{"type": "FeatureCollection", "features": [{"type": "Feature", "properties": {"region_id": "ward_276600-8", "name": "Kodigehalli", "parent": "zone_276600-8", "parent_name": "Yelahanka"}, "geometry": {"type": "Polygon", "coordinates": [[[77.590331, 13.042826], [77.590329, 13.042827], [77.590135, 13.042864], [77.589709, 13.042856], [77.589372, 13.042795], [77.589318, 13.042785], [77.58888, 13.042668], [77.58868, 13.042618], [77.588621, 13.042612], [77.58848, 13.042598], [77.588362, 13.042607], [77.588276, 13.042613], [77.5882, 13.042625], [77.588145, 13.042634], [77.588037, 13.042651], [77.58782, 13.042694], [77.587626, 13.042733], [77.586909, 13.042862], [77.586073, 13.043018], [77.585804, 13.043072], [77.585607, 13.043127], [77.585321, 13.043208], [77.585177, 13.043268], [77.585008, 13.043337], [77.58494, 13.043375], [77.584842, 13.043429], [77.584783, 13.043461], [77.58455, 13.043616], [77.584417, 13.043704], [77.583929, 13.044017], [77.583106, 13.044549], [77.582916, 13.044673], [77.582305, 13.045077], [77.582304, 13.045078], [77.582265, 13.045104], [77.582248, 13.045118], [77.582247, 13.045119], [77.581674, 13.0456], [77.581667, 13.045606], [77.581641, 13.045627], [77.58149, 13.045761], [77.581467, 13.045781], [77.581049, 13.046151], [77.58055, 13.046524], [77.580363, 13.046667], [77.580095, 13.046872], [77.579938, 13.046991], [77.579546, 13.047276], [77.579274, 13.047416], [77.578919, 13.047538], [77.578913, 13.04754], [77.578881, 13.047547], [77.578598, 13.047614], [77.578576, 13.04762], [77.578481, 13.047642], [77.578183, 13.047664], [77.577884, 13.047648], [77.577126, 13.047562], [77.577047, 13.047554], [77.576862, 13.047535], [77.576547, 13.047503], [77.576453, 13.047493], [77.576183, 13.047465], [77.575862, 13.047437], [77.575674, 13.047421], [77.57549, 13.047402], [77.575466, 13.0474], [77.575164, 13.04737], [77.574114, 13.04732], [77.573968, 13.047313], [77.573964, 13.047313], [77.573662, 13.047295], [77.57366, 13.047295], [77.572759, 13.047244], [77.572532, 13.047233], [77.571358, 13.047177], [77.57123, 13.047169], [77.570455, 13.047123], [77.569849, 13.047042], [77.569807, 13.047036], [77.569499, 13.046989], [77.569193, 13.046949], [77.568751, 13.046914], [77.568396, 13.046886], [77.568347, 13.046882], [77.566576, 13.046713], [77.566227, 13.046663], [77.566037, 13.046635], [77.565927, 13.046619], [77.565732, 13.046538], [77.565562, 13.046467], [77.565247, 13.046344], [77.565205, 13.046327], [77.565027, 13.046224], [77.564898, 13.046149], [77.564725, 13.046028], [77.564563, 13.045914], [77.564462, 13.045842], [77.564446, 13.045822], [77.56432, 13.045665], [77.56518, 13.047535], [77.566359, 13.049675], [77.567654, 13.051546], [77.567949, 13.052063], [77.567952, 13.052114], [77.568335, 13.052849], [77.568869, 13.053764], [77.56925, 13.054623], [77.570706, 13.057089], [77.57137, 13.058359], [77.571985, 13.059443], [77.573015, 13.060833], [77.574792, 13.062232], [77.575991, 13.063014], [77.577718, 13.064242], [77.579494, 13.065485], [77.581094, 13.066542], [77.58128, 13.066666], [77.5839, 13.064693], [77.587088, 13.062346], [77.587099, 13.062247], [77.587403, 13.060888], [77.587734, 13.059061], [77.58793, 13.057916], [77.588546, 13.057807], [77.588683, 13.057783], [77.588941, 13.057737], [77.58878, 13.05671], [77.587359, 13.056862], [77.587193, 13.055482], [77.586624, 13.055634], [77.583532, 13.057005], [77.58318, 13.056643], [77.581938, 13.054268], [77.582355, 13.053703], [77.583517, 13.053156], [77.583579, 13.053122], [77.583731, 13.053452], [77.585205, 13.052436], [77.585137, 13.052279], [77.58473, 13.051309], [77.584642, 13.050995], [77.584592, 13.050736], [77.584761, 13.050623], [77.584949, 13.050519], [77.585052, 13.050416], [77.585051, 13.050314], [77.585031, 13.050193], [77.585024, 13.049974], [77.586262, 13.049523], [77.587549, 13.049072], [77.588614, 13.048769], [77.589706, 13.048612], [77.590327, 13.048605], [77.591172, 13.048597], [77.59194, 13.04837], [77.592154, 13.048166], [77.591727, 13.047344], [77.59147, 13.046884], [77.591066, 13.046071], [77.590824, 13.04552], [77.590709, 13.044951], [77.590634, 13.04425], [77.590594, 13.043664], [77.590453, 13.043176], [77.590438, 13.043122], [77.590331, 13.042826]]]}}]}