{"type": "FeatureCollection", "features": [{"type": "Feature", "properties": {"region_id": "ward_276600-3", "name": "Atturu", "parent": "zone_276600-8", "parent_name": "Yelahanka"}, "geometry": {"type": "Polygon", "coordinates": [[[77.56862, 13.127049], [77.570637, 13.126543], [77.571928, 13.125913], [77.571749, 13.125223], [77.571769, 13.123447], [77.572022, 13.122136], [77.572021, 13.120229], [77.572199, 13.118974], [77.572178, 13.116936], [77.572592, 13.114633], [77.572711, 13.113154], [77.572638, 13.111641], [77.572349, 13.109587], [77.572257, 13.108055], [77.572677, 13.108107], [77.57326, 13.107928], [77.57352, 13.108521], [77.574061, 13.108345], [77.575035, 13.107952], [77.575729, 13.107839], [77.57625, 13.107727], [77.576726, 13.107552], [77.577297, 13.107305], [77.577304, 13.107331], [77.578021, 13.108352], [77.578716, 13.109149], [77.579245, 13.108733], [77.580023, 13.108276], [77.580686, 13.107877], [77.580989, 13.107561], [77.581082, 13.107362], [77.581297, 13.107069], [77.581835, 13.10642], [77.582526, 13.105613], [77.583197, 13.1049], [77.584105, 13.104024], [77.585065, 13.103173], [77.585911, 13.102505], [77.586514, 13.102033], [77.584071, 13.101432], [77.578677, 13.100012], [77.575747, 13.099106], [77.572647, 13.09857], [77.570213, 13.098084], [77.56988, 13.098121], [77.569784, 13.098122], [77.569389, 13.098126], [77.568618, 13.09806], [77.567922, 13.097973], [77.567066, 13.097887], [77.566275, 13.097832], [77.565472, 13.09774], [77.565179, 13.097726], [77.565036, 13.09771], [77.565027, 13.097713], [77.561158, 13.098948], [77.559299, 13.099894], [77.558599, 13.093663], [77.558487, 13.089527], [77.559101, 13.088888], [77.560018, 13.088004], [77.560017, 13.087999], [77.56007, 13.087954], [77.560375, 13.087772], [77.560538, 13.087676], [77.561074, 13.08736], [77.561843, 13.086901], [77.562327, 13.086618], [77.562122, 13.086401], [77.562097, 13.086377], [77.562139, 13.086342], [77.562153, 13.086272], [77.561956, 13.086062], [77.561826, 13.085858], [77.560978, 13.08514], [77.560363, 13.084608], [77.560122, 13.084321], [77.560086, 13.084277], [77.560051, 13.08427], [77.559874, 13.084352], [77.558945, 13.08498], [77.558892, 13.084991], [77.558846, 13.084991], [77.558792, 13.084964], [77.558688, 13.084826], [77.55862, 13.084802], [77.558553, 13.08481], [77.558172, 13.08497], [77.558045, 13.085019], [77.558012, 13.085031], [77.55782, 13.085105], [77.557568, 13.085198], [77.557037, 13.085412], [77.556092, 13.085793], [77.555647, 13.086013], [77.555545, 13.086042], [77.555509, 13.086049], [77.555485, 13.08605], [77.555407, 13.086047], [77.554815, 13.085789], [77.554253, 13.085572], [77.553776, 13.085361], [77.553433, 13.085152], [77.552872, 13.084755], [77.552684, 13.08468], [77.552559, 13.084657], [77.552439, 13.084651], [77.55236, 13.084635], [77.552272, 13.084604], [77.552104, 13.084491], [77.551832, 13.084247], [77.551469, 13.083816], [77.551264, 13.083502], [77.551124, 13.083378], [77.550967, 13.083272], [77.550839, 13.083193], [77.550689, 13.083077], [77.550541, 13.08287], [77.550267, 13.082375], [77.550194, 13.082258], [77.550084, 13.082203], [77.549868, 13.082192], [77.549385, 13.082165], [77.549211, 13.082156], [77.548938, 13.082128], [77.548831, 13.082105], [77.548781, 13.082053], [77.548515, 13.081715], [77.548448, 13.081688], [77.5482, 13.081784], [77.548059, 13.081817], [77.547171, 13.081992], [77.547271, 13.082311], [77.547479, 13.083376], [77.547494, 13.083466], [77.547514, 13.083598], [77.547192, 13.083607], [77.546504, 13.083628], [77.546461, 13.083577], [77.545133, 13.083565], [77.545149, 13.084171], [77.545132, 13.084425], [77.545111, 13.084772], [77.545032, 13.084791], [77.54464, 13.084826], [77.543691, 13.084925], [77.543499, 13.084913], [77.543315, 13.084929], [77.542408, 13.085373], [77.541103, 13.086011], [77.540587, 13.086326], [77.538586, 13.088769], [77.536718, 13.090957], [77.536774, 13.091079], [77.536942, 13.091502], [77.536916, 13.091546], [77.537093, 13.091884], [77.538162, 13.094583], [77.539384, 13.096814], [77.540509, 13.099074], [77.541765, 13.100679], [77.544292, 13.101284], [77.546257, 13.101265], [77.549475, 13.10111], [77.554276, 13.100489], [77.554591, 13.102268], [77.554651, 13.102822], [77.554652, 13.102825], [77.554864, 13.104786], [77.556751, 13.109439], [77.558246, 13.112497], [77.559595, 13.116991], [77.560381, 13.120028], [77.561259, 13.122398], [77.561235, 13.122411], [77.561308, 13.122528], [77.562981, 13.127421], [77.562983, 13.12745], [77.563113, 13.127869], [77.563137, 13.127871], [77.563153, 13.127871], [77.563183, 13.12786], [77.564418, 13.127616], [77.56469, 13.127569], [77.566064, 13.127329], [77.566101, 13.127328], [77.566114, 13.127328], [77.566162, 13.127332], [77.566168, 13.127336], [77.566753, 13.127377], [77.56862, 13.127049]]]}}]}