{"type": "FeatureCollection", "features": [{"type": "Feature", "properties": {"region_id": "ward_276600-124", "name": "Hosahalli", "parent": "zone_276600-6", "parent_name": "South"}, "geometry": {"type": "Polygon", "coordinates": [[[77.551556, 12.969945], [77.55163, 12.969914], [77.552032, 12.969704], [77.552426, 12.969502], [77.552965, 12.969355], [77.553296, 12.969304], [77.553691, 12.969229], [77.554078, 12.96913], [77.554241, 12.969076], [77.554232, 12.969074], [77.554432, 12.969023], [77.55456, 12.96894], [77.55425, 12.968855], [77.553475, 12.968651], [77.552859, 12.968486], [77.552572, 12.968404], [77.552271, 12.968313], [77.551906, 12.968193], [77.551697, 12.968088], [77.551435, 12.967937], [77.551175, 12.967716], [77.550996, 12.967539], [77.550676, 12.967163], [77.550306, 12.966732], [77.550281, 12.966691], [77.550236, 12.966615], [77.550056, 12.966414], [77.550006, 12.966359], [77.549757, 12.966133], [77.549415, 12.965856], [77.548997, 12.965552], [77.548683, 12.965316], [77.548466, 12.965164], [77.548257, 12.96504], [77.548024, 12.964937], [77.547514, 12.964764], [77.547022, 12.964609], [77.546628, 12.964475], [77.54637, 12.964404], [77.546159, 12.964359], [77.545967, 12.964345], [77.545638, 12.964345], [77.545315, 12.964362], [77.544971, 12.964384], [77.544732, 12.964381], [77.544463, 12.964323], [77.544215, 12.964241], [77.543956, 12.964117], [77.543876, 12.964064], [77.543816, 12.964026], [77.543541, 12.964356], [77.543392, 12.964333], [77.542945, 12.964297], [77.542415, 12.964213], [77.54172, 12.964212], [77.541133, 12.964258], [77.540506, 12.964362], [77.540101, 12.964463], [77.539417, 12.96468], [77.538815, 12.964865], [77.538188, 12.965066], [77.538285, 12.965452], [77.538557, 12.966829], [77.53879, 12.968171], [77.536659, 12.968791], [77.537458, 12.971033], [77.537842, 12.972085], [77.53939, 12.971581], [77.540737, 12.971128], [77.542315, 12.970591], [77.543141, 12.970316], [77.544851, 12.969742], [77.54626, 12.969286], [77.547267, 12.968991], [77.547426, 12.969591], [77.548686, 12.969531], [77.548411, 12.968702], [77.549298, 12.968323], [77.549429, 12.968247], [77.549637, 12.968395], [77.549765, 12.968585], [77.549892, 12.968782], [77.549969, 12.968898], [77.550091, 12.969073], [77.550191, 12.969275], [77.550301, 12.969418], [77.550421, 12.969486], [77.550629, 12.969586], [77.550902, 12.96969], [77.551153, 12.96973], [77.551333, 12.969808], [77.551556, 12.969945]]]}}]}