{"type": "FeatureCollection", "features": [{"type": "Feature", "properties": {"region_id": "ward_276600-18", "name": "Radhakrishna Temple Ward", "parent": "zone_276600-3", "parent_name": "East"}, "geometry": {"type": "Polygon", "coordinates": [[[77.578208, 13.02988], [77.578235, 13.029851], [77.578606, 13.029298], [77.579009, 13.02865], [77.579378, 13.027938], [77.579548, 13.027672], [77.579623, 13.027598], [77.57961, 13.027418], [77.579619, 13.027239], [77.579725, 13.027016], [77.579873, 13.026803], [77.579996, 13.02653], [77.579935, 13.026556], [77.5798, 13.026587], [77.579495, 13.026646], [77.578906, 13.026759], [77.578596, 13.026822], [77.578356, 13.026846], [77.578094, 13.026862], [77.577701, 13.0269], [77.577698, 13.027121], [77.577687, 13.027242], [77.577686, 13.027242], [77.57764, 13.027249], [77.577305, 13.027306], [77.576546, 13.027427], [77.575323, 13.027659], [77.573984, 13.027905], [77.572816, 13.028136], [77.571854, 13.028349], [77.571252, 13.028484], [77.571169, 13.028789], [77.571063, 13.029176], [77.56987, 13.032251], [77.569642, 13.032559], [77.569194, 13.033171], [77.568727, 13.03384], [77.568228, 13.034517], [77.567066, 13.035827], [77.566706, 13.036157], [77.56596, 13.036942], [77.565466, 13.037598], [77.564959, 13.038244], [77.564482, 13.038851], [77.564291, 13.03909], [77.563852, 13.039639], [77.563415, 13.040243], [77.562213, 13.04188], [77.562144, 13.041983], [77.562133, 13.042], [77.562904, 13.043308], [77.562972, 13.043423], [77.563123, 13.043679], [77.563797, 13.044888], [77.564198, 13.045514], [77.56432, 13.045665], [77.564446, 13.045822], [77.564462, 13.045842], [77.564563, 13.045914], [77.564725, 13.046028], [77.564898, 13.046149], [77.565027, 13.046224], [77.565205, 13.046327], [77.565247, 13.046344], [77.565562, 13.046467], [77.565732, 13.046538], [77.565927, 13.046619], [77.566037, 13.046635], [77.566227, 13.046663], [77.566576, 13.046713], [77.568347, 13.046882], [77.568396, 13.046886], [77.568751, 13.046914], [77.569193, 13.046949], [77.569499, 13.046989], [77.569807, 13.047036], [77.569849, 13.047042], [77.570455, 13.047123], [77.57123, 13.047169], [77.571358, 13.047177], [77.572532, 13.047233], [77.572759, 13.047244], [77.57366, 13.047295], [77.573662, 13.047295], [77.573964, 13.047313], [77.573968, 13.047313], [77.574114, 13.04732], [77.575164, 13.04737], [77.575466, 13.0474], [77.57549, 13.047402], [77.575674, 13.047421], [77.575862, 13.047437], [77.575861, 13.047329], [77.575815, 13.047181], [77.575744, 13.047027], [77.575584, 13.046849], [77.575448, 13.046527], [77.575136, 13.045694], [77.574683, 13.044681], [77.574566, 13.044428], [77.574483, 13.044342], [77.574374, 13.044219], [77.574494, 13.044181], [77.575149, 13.043908], [77.575489, 13.043817], [77.575376, 13.043217], [77.574978, 13.043289], [77.574741, 13.04243], [77.574495, 13.042414], [77.57421, 13.042435], [77.573844, 13.042495], [77.573528, 13.042547], [77.573288, 13.042556], [77.573178, 13.042559], [77.572827, 13.042115], [77.572788, 13.041932], [77.572662, 13.04165], [77.572554, 13.041288], [77.572331, 13.040742], [77.572074, 13.040189], [77.572633, 13.040129], [77.572595, 13.039841], [77.572534, 13.039335], [77.572425, 13.038294], [77.572649, 13.038285], [77.572591, 13.037408], [77.571675, 13.037438], [77.571642, 13.036979], [77.5717, 13.035086], [77.572833, 13.035185], [77.573715, 13.035238], [77.573832, 13.035051], [77.574272, 13.034992], [77.574366, 13.034683], [77.5744, 13.034566], [77.574952, 13.034533], [77.575429, 13.034684], [77.575497, 13.034516], [77.575667, 13.034108], [77.5758, 13.033819], [77.576022, 13.033359], [77.576505, 13.032489], [77.57675, 13.032079], [77.57703, 13.031581], [77.57722, 13.031287], [77.577375, 13.031047], [77.577645, 13.030501], [77.577745, 13.030364], [77.577859, 13.030248], [77.578208, 13.02988]]]}}]}