{"type": "FeatureCollection", "features": [{"type": "Feature", "properties": {"region_id": "ward_276600-151", "name": "Koramangala", "parent": "zone_276600-6", "parent_name": "South"}, "geometry": {"type": "Polygon", "coordinates": [[[77.633883, 12.930609], [77.633975, 12.930536], [77.634413, 12.930151], [77.634775, 12.929834], [77.635054, 12.929573], [77.63522, 12.929418], [77.635374, 12.929192], [77.63543, 12.929099], [77.635584, 12.928944], [77.635815, 12.928807], [77.636054, 12.928689], [77.636342, 12.92857], [77.636505, 12.928516], [77.636642, 12.928496], [77.636829, 12.928524], [77.63694, 12.928579], [77.637083, 12.928798], [77.637366, 12.929303], [77.637544, 12.929548], [77.637845, 12.929944], [77.63798, 12.930115], [77.638149, 12.930214], [77.638332, 12.930272], [77.638481, 12.930282], [77.638617, 12.930202], [77.638802, 12.930084], [77.639041, 12.929947], [77.639253, 12.929814], [77.639669, 12.929552], [77.639994, 12.92937], [77.64029, 12.92921], [77.640518, 12.92914], [77.640765, 12.929097], [77.641027, 12.929087], [77.641305, 12.929099], [77.641561, 12.929126], [77.641789, 12.92912], [77.641987, 12.929073], [77.64212, 12.929051], [77.642054, 12.928861], [77.641863, 12.928424], [77.641808, 12.928171], [77.641672, 12.927751], [77.641568, 12.927369], [77.641509, 12.92708], [77.641443, 12.926537], [77.641369, 12.926259], [77.641356, 12.926213], [77.641343, 12.926165], [77.641277, 12.926115], [77.641187, 12.926083], [77.641123, 12.926067], [77.640898, 12.926059], [77.640234, 12.926075], [77.640095, 12.926089], [77.639976, 12.926098], [77.639868, 12.926095], [77.639812, 12.926091], [77.639744, 12.92608], [77.6397, 12.92603], [77.639672, 12.926015], [77.639612, 12.926015], [77.639528, 12.926001], [77.639408, 12.925959], [77.639316, 12.925901], [77.639287, 12.925827], [77.639267, 12.925741], [77.639257, 12.925628], [77.639257, 12.925562], [77.639264, 12.92553], [77.639292, 12.925471], [77.639319, 12.925409], [77.639313, 12.925328], [77.639272, 12.924772], [77.639192, 12.924147], [77.638757, 12.924314], [77.638512, 12.924433], [77.638137, 12.924683], [77.637672, 12.92499], [77.637406, 12.925117], [77.637255, 12.925199], [77.637059, 12.925274], [77.63692, 12.925315], [77.636834, 12.92532], [77.636694, 12.925322], [77.636546, 12.925319], [77.636374, 12.925293], [77.635975, 12.92524], [77.635519, 12.925164], [77.634988, 12.925069], [77.633442, 12.924831], [77.63271, 12.924701], [77.632102, 12.924603], [77.63132, 12.924474], [77.630411, 12.924306], [77.63014, 12.924272], [77.629749, 12.924212], [77.629454, 12.924187], [77.629285, 12.924188], [77.629121, 12.924198], [77.629023, 12.924203], [77.628243, 12.924014], [77.627224, 12.923786], [77.626004, 12.923531], [77.624856, 12.923332], [77.624008, 12.923074], [77.622872, 12.922636], [77.621864, 12.92207], [77.620224, 12.921159], [77.618462, 12.924002], [77.618392, 12.924176], [77.618232, 12.924418], [77.617341, 12.925772], [77.616064, 12.927885], [77.616043, 12.927933], [77.616007, 12.928002], [77.615929, 12.92814], [77.615459, 12.928892], [77.615058, 12.929502], [77.614946, 12.929672], [77.615015, 12.929705], [77.614752, 12.930023], [77.614639, 12.930214], [77.61388, 12.93152], [77.613797, 12.931669], [77.613131, 12.932866], [77.612454, 12.934088], [77.612302, 12.934363], [77.613313, 12.934839], [77.614588, 12.935499], [77.615335, 12.935872], [77.615676, 12.936059], [77.615968, 12.936175], [77.616276, 12.936251], [77.616664, 12.93631], [77.617026, 12.936357], [77.618193, 12.940327], [77.618461, 12.940994], [77.618493, 12.941038], [77.617313, 12.941122], [77.61755, 12.943561], [77.617767, 12.943531], [77.617967, 12.943473], [77.618258, 12.943447], [77.618739, 12.943465], [77.61875, 12.943574], [77.618981, 12.944597], [77.619126, 12.945029], [77.61929, 12.945332], [77.619755, 12.945015], [77.620182, 12.944698], [77.620482, 12.944481], [77.620687, 12.944331], [77.620865, 12.944186], [77.62097, 12.944081], [77.621119, 12.943953], [77.621779, 12.943393], [77.622527, 12.942705], [77.623463, 12.941862], [77.623912, 12.941424], [77.624072, 12.941258], [77.62472, 12.940626], [77.625102, 12.940244], [77.62524, 12.940094], [77.625334, 12.939967], [77.625416, 12.939829], [77.625629, 12.939388], [77.625782, 12.939036], [77.625946, 12.938683], [77.626122, 12.93839], [77.62631, 12.938153], [77.626425, 12.937932], [77.626596, 12.937689], [77.626924, 12.937294], [77.627853, 12.936262], [77.628732, 12.93533], [77.629639, 12.934514], [77.630532, 12.93362], [77.631253, 12.932819], [77.632173, 12.931989], [77.63275, 12.931346], [77.632971, 12.930901], [77.633109, 12.930093], [77.633252, 12.929792], [77.633491, 12.929842], [77.63364, 12.930166], [77.633883, 12.930609]]]}}]}