{"type": "FeatureCollection", "features": [{"type": "Feature", "properties": {"region_id": "ward_276600-154", "name": "Basavanagudi", "parent": "zone_276600-6", "parent_name": "South"}, "geometry": {"type": "Polygon", "coordinates": [[[77.573798, 12.940632], [77.573831, 12.939574], [77.573824, 12.935034], [77.573832, 12.934761], [77.57347, 12.934854], [77.573227, 12.934898], [77.573041, 12.934923], [77.572831, 12.93494], [77.571838, 12.934959], [77.571728, 12.93496], [77.57169, 12.934927], [77.57167, 12.934867], [77.571632, 12.934436], [77.571517, 12.933421], [77.571369, 12.933423], [77.57123, 12.933419], [77.57115, 12.933414], [77.571034, 12.933421], [77.570858, 12.933452], [77.57074, 12.933484], [77.570338, 12.933602], [77.570134, 12.933657], [77.569788, 12.933737], [77.569598, 12.933778], [77.56947, 12.933807], [77.569323, 12.933826], [77.569288, 12.933835], [77.569205, 12.933565], [77.569054, 12.933612], [77.568888, 12.933661], [77.56877, 12.933687], [77.568559, 12.933713], [77.568416, 12.933722], [77.56816, 12.93374], [77.568127, 12.93374], [77.568105, 12.933604], [77.568059, 12.933368], [77.568041, 12.933298], [77.567988, 12.933141], [77.567885, 12.932805], [77.567786, 12.932486], [77.56769, 12.932257], [77.567641, 12.932158], [77.567574, 12.932062], [77.567494, 12.931966], [77.567439, 12.931915], [77.567435, 12.931911], [77.567414, 12.931884], [77.567379, 12.931848], [77.567326, 12.931727], [77.567262, 12.93152], [77.567091, 12.931015], [77.566815, 12.93031], [77.566673, 12.92996], [77.566333, 12.930024], [77.565376, 12.930191], [77.564907, 12.93027], [77.564, 12.930449], [77.563692, 12.930513], [77.563836, 12.931133], [77.564014, 12.93233], [77.564, 12.932434], [77.563618, 12.932682], [77.562837, 12.933037], [77.56268, 12.933157], [77.562659, 12.93338], [77.5629, 12.934043], [77.563202, 12.934825], [77.563511, 12.935547], [77.563652, 12.936042], [77.563863, 12.936698], [77.564043, 12.936652], [77.56425, 12.936917], [77.564497, 12.937447], [77.564555, 12.937994], [77.564539, 12.938601], [77.564492, 12.939157], [77.564492, 12.939284], [77.564742, 12.939295], [77.565267, 12.939315], [77.565916, 12.939327], [77.565897, 12.939739], [77.56593, 12.93988], [77.565974, 12.939994], [77.566025, 12.940073], [77.566107, 12.940167], [77.566186, 12.940212], [77.566659, 12.940223], [77.566714, 12.941003], [77.566727, 12.941148], [77.56674, 12.94122], [77.566768, 12.9413], [77.566827, 12.941429], [77.566961, 12.941618], [77.567154, 12.94183], [77.567645, 12.942438], [77.567708, 12.942525], [77.567764, 12.942608], [77.567807, 12.942692], [77.567839, 12.942806], [77.567853, 12.943015], [77.567861, 12.9434], [77.567871, 12.943528], [77.567932, 12.943579], [77.567991, 12.943614], [77.568078, 12.943649], [77.568332, 12.943668], [77.570164, 12.943671], [77.5711, 12.943664], [77.572306, 12.943679], [77.573436, 12.943684], [77.573617, 12.943686], [77.573773, 12.943694], [77.573756, 12.942735], [77.573773, 12.941456], [77.573797, 12.940693], [77.573798, 12.940632]]]}}]}