{"type": "FeatureCollection", "features": [{"type": "Feature", "properties": {"region_id": "ward_276600-111", "name": "Shantala Nagar", "parent": "zone_276600-3", "parent_name": "East"}, "geometry": {"type": "Polygon", "coordinates": [[[77.614321, 12.975382], [77.614072, 12.974489], [77.613945, 12.974036], [77.613935, 12.973986], [77.61392, 12.973908], [77.613916, 12.973891], [77.613914, 12.973881], [77.613902, 12.973832], [77.613933, 12.973778], [77.614103, 12.973713], [77.615078, 12.973504], [77.616861, 12.97307], [77.618801, 12.97264], [77.619173, 12.972577], [77.619367, 12.97258], [77.619477, 12.972601], [77.619517, 12.972262], [77.619546, 12.971677], [77.619669, 12.970042], [77.619898, 12.96844], [77.620204, 12.967525], [77.620493, 12.966697], [77.620032, 12.966151], [77.619744, 12.965535], [77.619042, 12.965404], [77.618374, 12.965342], [77.617607, 12.965382], [77.617721, 12.965249], [77.617849, 12.964926], [77.618426, 12.96369], [77.61889, 12.962653], [77.61895, 12.9625], [77.617244, 12.961957], [77.61623, 12.96163], [77.615694, 12.961543], [77.614788, 12.961535], [77.614252, 12.961528], [77.613759, 12.961538], [77.613671, 12.960568], [77.613544, 12.960528], [77.613478, 12.960499], [77.613447, 12.960441], [77.61338, 12.960365], [77.613254, 12.960296], [77.613085, 12.96025], [77.612935, 12.960211], [77.612743, 12.960195], [77.612496, 12.96018], [77.61233, 12.960199], [77.612329, 12.960223], [77.612477, 12.96174], [77.611548, 12.962896], [77.610975, 12.963583], [77.610282, 12.964608], [77.609675, 12.965425], [77.608834, 12.966632], [77.608192, 12.966552], [77.607125, 12.96633], [77.606756, 12.966208], [77.606677, 12.966205], [77.604688, 12.965893], [77.604684, 12.96475], [77.604477, 12.963613], [77.603624, 12.963956], [77.603621, 12.963928], [77.603268, 12.962802], [77.603054, 12.962852], [77.602589, 12.961374], [77.602969, 12.961255], [77.602436, 12.959767], [77.602164, 12.959846], [77.601999, 12.959915], [77.601795, 12.960022], [77.601587, 12.960172], [77.601075, 12.960489], [77.600414, 12.960892], [77.599959, 12.96118], [77.599079, 12.961543], [77.598756, 12.961657], [77.59848, 12.961745], [77.598109, 12.961848], [77.597754, 12.96197], [77.597324, 12.962079], [77.596954, 12.962127], [77.59613, 12.962254], [77.595752, 12.96231], [77.59542, 12.96235], [77.595231, 12.962374], [77.595095, 12.962442], [77.595009, 12.962491], [77.595063, 12.962527], [77.595293, 12.962679], [77.595533, 12.962904], [77.595882, 12.963199], [77.596071, 12.963397], [77.596263, 12.963639], [77.596428, 12.963861], [77.596432, 12.963884], [77.596492, 12.964], [77.596793, 12.964575], [77.596796, 12.96458], [77.596787, 12.964679], [77.596772, 12.964864], [77.596771, 12.964882], [77.596684, 12.964916], [77.596505, 12.964917], [77.596336, 12.964946], [77.59616, 12.965006], [77.596045, 12.965074], [77.595981, 12.965112], [77.595749, 12.965349], [77.595568, 12.965605], [77.5951, 12.966429], [77.595026, 12.966569], [77.594985, 12.966695], [77.594978, 12.966959], [77.594979, 12.966969], [77.594975, 12.966987], [77.594975, 12.96699], [77.594979, 12.967385], [77.594983, 12.967747], [77.594735, 12.968763], [77.594077, 12.971528], [77.593993, 12.971883], [77.593994, 12.971898], [77.594003, 12.971913], [77.594046, 12.972069], [77.594103, 12.972217], [77.594628, 12.972913], [77.594859, 12.973192], [77.595122, 12.973498], [77.595379, 12.973706], [77.596286, 12.974466], [77.597202, 12.975192], [77.598473, 12.976088], [77.599197, 12.976623], [77.599208, 12.976684], [77.599195, 12.976724], [77.599179, 12.976744], [77.599183, 12.97675], [77.599178, 12.976755], [77.599107, 12.976929], [77.598951, 12.977396], [77.597626, 12.980245], [77.597362, 12.9808], [77.59749, 12.980947], [77.597524, 12.980943], [77.597545, 12.980936], [77.597543, 12.980939], [77.597555, 12.980936], [77.598802, 12.980503], [77.599449, 12.980287], [77.601357, 12.979644], [77.603561, 12.978938], [77.605779, 12.978224], [77.607525, 12.97763], [77.609464, 12.977011], [77.611306, 12.976383], [77.613734, 12.975592], [77.614257, 12.975405], [77.614321, 12.975382]]]}}]}