{"type": "FeatureCollection", "features": [{"type": "Feature", "properties": {"region_id": "ward_276600-147", "name": "Adugodi", "parent": "zone_276600-6", "parent_name": "South"}, "geometry": {"type": "Polygon", "coordinates": [[[77.612302, 12.934363], [77.612232, 12.934489], [77.612229, 12.934495], [77.611748, 12.935431], [77.610812, 12.937175], [77.609821, 12.939043], [77.60933, 12.93993], [77.608577, 12.941395], [77.608141, 12.942237], [77.607871, 12.942953], [77.607706, 12.943643], [77.607602, 12.94405], [77.607578, 12.944117], [77.607143, 12.945732], [77.606844, 12.946602], [77.606486, 12.947709], [77.606198, 12.948595], [77.605881, 12.949708], [77.607315, 12.949522], [77.608456, 12.949363], [77.609314, 12.949227], [77.609581, 12.949177], [77.609962, 12.949131], [77.610748, 12.948976], [77.611099, 12.948925], [77.611282, 12.948948], [77.611468, 12.948979], [77.611573, 12.949067], [77.611702, 12.949238], [77.611754, 12.9493], [77.612489, 12.949298], [77.613127, 12.949304], [77.613651, 12.949299], [77.614455, 12.949308], [77.615149, 12.949301], [77.616192, 12.949273], [77.616649, 12.949256], [77.616985, 12.949245], [77.617104, 12.949244], [77.617104, 12.949242], [77.617019, 12.949142], [77.617312, 12.948918], [77.617582, 12.948725], [77.618201, 12.948282], [77.619248, 12.947499], [77.619337, 12.947432], [77.618848, 12.946521], [77.618625, 12.946082], [77.618602, 12.946008], [77.618596, 12.945953], [77.618606, 12.945893], [77.618628, 12.94586], [77.618672, 12.945772], [77.618744, 12.9457], [77.619111, 12.945455], [77.61929, 12.945332], [77.619126, 12.945029], [77.618981, 12.944597], [77.61875, 12.943574], [77.618739, 12.943465], [77.618258, 12.943447], [77.617967, 12.943473], [77.617767, 12.943531], [77.61755, 12.943561], [77.617313, 12.941122], [77.618493, 12.941038], [77.618461, 12.940994], [77.618193, 12.940327], [77.617026, 12.936357], [77.616664, 12.93631], [77.616276, 12.936251], [77.615968, 12.936175], [77.615676, 12.936059], [77.615335, 12.935872], [77.614588, 12.935499], [77.613313, 12.934839], [77.612302, 12.934363]]]}}]}