{"type": "FeatureCollection", "features": [{"type": "Feature", "properties": {"region_id": "ward_276600-61", "name": "S K Garden", "parent": "zone_276600-3", "parent_name": "East"}, "geometry": {"type": "Polygon", "coordinates": [[[77.609473, 13.010925], [77.609529, 13.010757], [77.609604, 13.010563], [77.609771, 13.010175], [77.609878, 13.00995], [77.610015, 13.009669], [77.610169, 13.009453], [77.610332, 13.009248], [77.610409, 13.009131], [77.610563, 13.008997], [77.610692, 13.008924], [77.610887, 13.008912], [77.610892, 13.008912], [77.610921, 13.008908], [77.610921, 13.008911], [77.611416, 13.008837], [77.612396, 13.008674], [77.61288, 13.008565], [77.612983, 13.008533], [77.613194, 13.008525], [77.613007, 13.008175], [77.612917, 13.007944], [77.612815, 13.007725], [77.612712, 13.007395], [77.612596, 13.007103], [77.612543, 13.006822], [77.61244, 13.006456], [77.612387, 13.006163], [77.612332, 13.005675], [77.612288, 13.005088], [77.612282, 13.004452], [77.612237, 13.003731], [77.612162, 13.003105], [77.612134, 13.002676], [77.612096, 13.001963], [77.611996, 13.001924], [77.612084, 13.001654], [77.611193, 13.001264], [77.610548, 13.000863], [77.609377, 12.999788], [77.608914, 12.99927], [77.608747, 12.999033], [77.608676, 12.998933], [77.608442, 12.999042], [77.607128, 12.999479], [77.606862, 12.999545], [77.606782, 12.999545], [77.606734, 12.999515], [77.606593, 12.998577], [77.606548, 12.998214], [77.606548, 12.99813], [77.606524, 12.997994], [77.606497, 12.997951], [77.606465, 12.997916], [77.606424, 12.997877], [77.606397, 12.997851], [77.606357, 12.997838], [77.606258, 12.997826], [77.605878, 12.997834], [77.605157, 12.997837], [77.605067, 12.997846], [77.605009, 12.997873], [77.604992, 12.997913], [77.604944, 12.998063], [77.604871, 12.998358], [77.604823, 12.998442], [77.604752, 12.998548], [77.604699, 12.998614], [77.604602, 12.998703], [77.604383, 12.998806], [77.603835, 12.999018], [77.603273, 12.999243], [77.602194, 12.999666], [77.601829, 12.999841], [77.601773, 13.000079], [77.601675, 13.000541], [77.601603, 13.000525], [77.601596, 13.000638], [77.601578, 13.000691], [77.60157, 13.000739], [77.601557, 13.000819], [77.601541, 13.00099], [77.601496, 13.001412], [77.601493, 13.001495], [77.601651, 13.001476], [77.601651, 13.00148], [77.601657, 13.001474], [77.601857, 13.001424], [77.602022, 13.001394], [77.602071, 13.001385], [77.602219, 13.001372], [77.602245, 13.001377], [77.602267, 13.001382], [77.602335, 13.001396], [77.602435, 13.001464], [77.602508, 13.00158], [77.602567, 13.001676], [77.602593, 13.001738], [77.603787, 13.003455], [77.603786, 13.003705], [77.603785, 13.003828], [77.603748, 13.004085], [77.603742, 13.004127], [77.603742, 13.00416], [77.603743, 13.004244], [77.603823, 13.004402], [77.603996, 13.004769], [77.604023, 13.004826], [77.604101, 13.005033], [77.604341, 13.005449], [77.604532, 13.005904], [77.604561, 13.005944], [77.604591, 13.006058], [77.604605, 13.006084], [77.604943, 13.005979], [77.605141, 13.00644], [77.605266, 13.006714], [77.602446, 13.008102], [77.601473, 13.008568], [77.601338, 13.008635], [77.601352, 13.008662], [77.60144, 13.008825], [77.601441, 13.008825], [77.601441, 13.008826], [77.601936, 13.009903], [77.60196, 13.009962], [77.602495, 13.01127], [77.602522, 13.011369], [77.602544, 13.011566], [77.602669, 13.012086], [77.602702, 13.012194], [77.602731, 13.012282], [77.602825, 13.012723], [77.602962, 13.013249], [77.603287, 13.013124], [77.603483, 13.013015], [77.603555, 13.012968], [77.603622, 13.012897], [77.603677, 13.012703], [77.603748, 13.012549], [77.603784, 13.012493], [77.603913, 13.012436], [77.604217, 13.012354], [77.604286, 13.012326], [77.604369, 13.012301], [77.604432, 13.012283], [77.604491, 13.012275], [77.604552, 13.012274], [77.604642, 13.012286], [77.604835, 13.012284], [77.604895, 13.012284], [77.604965, 13.01227], [77.605005, 13.012254], [77.605053, 13.012228], [77.605115, 13.012193], [77.605194, 13.012154], [77.60536, 13.012076], [77.605506, 13.012008], [77.605632, 13.011945], [77.605764, 13.011878], [77.605957, 13.011795], [77.606079, 13.011747], [77.606074, 13.011729], [77.606218, 13.011679], [77.606484, 13.01157], [77.606825, 13.011438], [77.607153, 13.011307], [77.607326, 13.011242], [77.607424, 13.011226], [77.607563, 13.01121], [77.607744, 13.011192], [77.60788, 13.011173], [77.607994, 13.011166], [77.608107, 13.011173], [77.608221, 13.011176], [77.608338, 13.011155], [77.608699, 13.011035], [77.60892, 13.010991], [77.609174, 13.010963], [77.609473, 13.010925]]]}}]}