{"type": "FeatureCollection", "features": [{"type": "Feature", "properties": {"region_id": "ward_276600-114", "name": "Agaram", "parent": "zone_276600-3", "parent_name": "East"}, "geometry": {"type": "Polygon", "coordinates": [[[77.628967, 12.969202], [77.629024, 12.968921], [77.629002, 12.968696], [77.628933, 12.968143], [77.630024, 12.968065], [77.631025, 12.968122], [77.632165, 12.968356], [77.632757, 12.968461], [77.633105, 12.968493], [77.633139, 12.968359], [77.633164, 12.968155], [77.633237, 12.967779], [77.633475, 12.966575], [77.633568, 12.966158], [77.633648, 12.965891], [77.633692, 12.965814], [77.633898, 12.965372], [77.633551, 12.965356], [77.633578, 12.964671], [77.634291, 12.964688], [77.63429, 12.964592], [77.634284, 12.964487], [77.634288, 12.964405], [77.634272, 12.964291], [77.634228, 12.964219], [77.634194, 12.964103], [77.634167, 12.963979], [77.634155, 12.963758], [77.634173, 12.963488], [77.634206, 12.963385], [77.634251, 12.963299], [77.634274, 12.963075], [77.634415, 12.963049], [77.634389, 12.962853], [77.634291, 12.962849], [77.634304, 12.962624], [77.634306, 12.962437], [77.634305, 12.962275], [77.634317, 12.962043], [77.634315, 12.96199], [77.634295, 12.961777], [77.634765, 12.961432], [77.634737, 12.961169], [77.63479, 12.960933], [77.635033, 12.960256], [77.635241, 12.959612], [77.635626, 12.958435], [77.635724, 12.958158], [77.636177, 12.956925], [77.63635, 12.956436], [77.636356, 12.956429], [77.636397, 12.956286], [77.636223, 12.956247], [77.636698, 12.955335], [77.636866, 12.955117], [77.637051, 12.954894], [77.637819, 12.953984], [77.637851, 12.953946], [77.638678, 12.952916], [77.639483, 12.95193], [77.639793, 12.951597], [77.642419, 12.948997], [77.646564, 12.945554], [77.647473, 12.944795], [77.647467, 12.944245], [77.648023, 12.943739], [77.649998, 12.942519], [77.652534, 12.941243], [77.653954, 12.940529], [77.654715, 12.940221], [77.655702, 12.940217], [77.65587, 12.940215], [77.656265, 12.940186], [77.656498, 12.940103], [77.656733, 12.939942], [77.656725, 12.939934], [77.657084, 12.939708], [77.657333, 12.939483], [77.65754, 12.939143], [77.657696, 12.938852], [77.657856, 12.938793], [77.658068, 12.93878], [77.658166, 12.938773], [77.65818, 12.938508], [77.658208, 12.937949], [77.659014, 12.937907], [77.659026, 12.938127], [77.659074, 12.938327], [77.660454, 12.938352], [77.660511, 12.938308], [77.660541, 12.938276], [77.66054, 12.938234], [77.660544, 12.938143], [77.660505, 12.938112], [77.658093, 12.936686], [77.655222, 12.935115], [77.65914, 12.929764], [77.659579, 12.929785], [77.659723, 12.929789], [77.660113, 12.929872], [77.660402, 12.929918], [77.660641, 12.929995], [77.660943, 12.930066], [77.661138, 12.930089], [77.661438, 12.930049], [77.661626, 12.929967], [77.66185, 12.929848], [77.662006, 12.92976], [77.662255, 12.929585], [77.662354, 12.929461], [77.662484, 12.929306], [77.662665, 12.929163], [77.663056, 12.928777], [77.663136, 12.928696], [77.663242, 12.928591], [77.663372, 12.928436], [77.663471, 12.928324], [77.663545, 12.9282], [77.663588, 12.928107], [77.663566, 12.927977], [77.663486, 12.927859], [77.663394, 12.927758], [77.663277, 12.927534], [77.662836, 12.926492], [77.662497, 12.92569], [77.662261, 12.924734], [77.661975, 12.923863], [77.661759, 12.923135], [77.661564, 12.922628], [77.661554, 12.922602], [77.661282, 12.921908], [77.661212, 12.921728], [77.661218, 12.921697], [77.661242, 12.92166], [77.661268, 12.92162], [77.661289, 12.9216], [77.661336, 12.921586], [77.661422, 12.921568], [77.66212, 12.921414], [77.662843, 12.921222], [77.66284, 12.920956], [77.662807, 12.920314], [77.662209, 12.918314], [77.660513, 12.916532], [77.65687, 12.919114], [77.654868, 12.920575], [77.653794, 12.920663], [77.653744, 12.920666], [77.653708, 12.920671], [77.653695, 12.920678], [77.653675, 12.920688], [77.653673, 12.920703], [77.653672, 12.920719], [77.653672, 12.920736], [77.653672, 12.92077], [77.653673, 12.920803], [77.653675, 12.920854], [77.653672, 12.920892], [77.653661, 12.92093], [77.653631, 12.920954], [77.653577, 12.920966], [77.653458, 12.920982], [77.653261, 12.920999], [77.653121, 12.920997], [77.652972, 12.920996], [77.652697, 12.921022], [77.651934, 12.921126], [77.651663, 12.921152], [77.651615, 12.921159], [77.651582, 12.92118], [77.651565, 12.921203], [77.651562, 12.921241], [77.651557, 12.921323], [77.651544, 12.92178], [77.651523, 12.922355], [77.651512, 12.922677], [77.651519, 12.922838], [77.651532, 12.922928], [77.651551, 12.923034], [77.65157, 12.923136], [77.651599, 12.92327], [77.651658, 12.92356], [77.651748, 12.924048], [77.651754, 12.924177], [77.651743, 12.924206], [77.651725, 12.924235], [77.651698, 12.924253], [77.65166, 12.92426], [77.651624, 12.924264], [77.651567, 12.924272], [77.651494, 12.924282], [77.651298, 12.924315], [77.650868, 12.924361], [77.650561, 12.924411], [77.650286, 12.924471], [77.65018, 12.924509], [77.650048, 12.924557], [77.649688, 12.924644], [77.649322, 12.924689], [77.649067, 12.924692], [77.648558, 12.924661], [77.648058, 12.924619], [77.647516, 12.924583], [77.64681, 12.924506], [77.646311, 12.92448], [77.645865, 12.924474], [77.645658, 12.924476], [77.645429, 12.924474], [77.645212, 12.924455], [77.645073, 12.92443], [77.644919, 12.924385], [77.644749, 12.92433], [77.644046, 12.924097], [77.642869, 12.923771], [77.642129, 12.923586], [77.641544, 12.923414], [77.641437, 12.923389], [77.641347, 12.92338], [77.641278, 12.923386], [77.641204, 12.923392], [77.641109, 12.923419], [77.640887, 12.923504], [77.640458, 12.92367], [77.639974, 12.923835], [77.639501, 12.924029], [77.639231, 12.924132], [77.639192, 12.924147], [77.639272, 12.924772], [77.639313, 12.925328], [77.639319, 12.925409], [77.639292, 12.925471], [77.639264, 12.92553], [77.639257, 12.925562], [77.639257, 12.925628], [77.639267, 12.925741], [77.639287, 12.925827], [77.639316, 12.925901], [77.639408, 12.925959], [77.639528, 12.926001], [77.639612, 12.926015], [77.639672, 12.926015], [77.6397, 12.92603], [77.639744, 12.92608], [77.639812, 12.926091], [77.639868, 12.926095], [77.639976, 12.926098], [77.640095, 12.926089], [77.640234, 12.926075], [77.640898, 12.926059], [77.641123, 12.926067], [77.641187, 12.926083], [77.641277, 12.926115], [77.641343, 12.926165], [77.641356, 12.926213], [77.641369, 12.926259], [77.641443, 12.926537], [77.641509, 12.92708], [77.641568, 12.927369], [77.641672, 12.927751], [77.641808, 12.928171], [77.641863, 12.928424], [77.642054, 12.928861], [77.64212, 12.929051], [77.641987, 12.929073], [77.641789, 12.92912], [77.641561, 12.929126], [77.641305, 12.929099], [77.641027, 12.929087], [77.640765, 12.929097], [77.640518, 12.92914], [77.64029, 12.92921], [77.639994, 12.92937], [77.639669, 12.929552], [77.639253, 12.929814], [77.639041, 12.929947], [77.638802, 12.930084], [77.638617, 12.930202], [77.638481, 12.930282], [77.638332, 12.930272], [77.638149, 12.930214], [77.63798, 12.930115], [77.637845, 12.929944], [77.637544, 12.929548], [77.637366, 12.929303], [77.637083, 12.928798], [77.63694, 12.928579], [77.636829, 12.928524], [77.636642, 12.928496], [77.636505, 12.928516], [77.636342, 12.92857], [77.636054, 12.928689], [77.635815, 12.928807], [77.635584, 12.928944], [77.63543, 12.929099], [77.635374, 12.929192], [77.63522, 12.929418], [77.635054, 12.929573], [77.634775, 12.929834], [77.634413, 12.930151], [77.633975, 12.930536], [77.633883, 12.930609], [77.633917, 12.93067], [77.634017, 12.930777], [77.634035, 12.930818], [77.634036, 12.930865], [77.634036, 12.930915], [77.634022, 12.930983], [77.633999, 12.931047], [77.633972, 12.931089], [77.633872, 12.931192], [77.633614, 12.931423], [77.633431, 12.931622], [77.633402, 12.93166], [77.633396, 12.931692], [77.633396, 12.931719], [77.633425, 12.931897], [77.63351, 12.932323], [77.633576, 12.932655], [77.633692, 12.933164], [77.633813, 12.933538], [77.633917, 12.933762], [77.634075, 12.934065], [77.634134, 12.934197], [77.634256, 12.934374], [77.634418, 12.934573], [77.634476, 12.934607], [77.634572, 12.934664], [77.635008, 12.934831], [77.635143, 12.934869], [77.635391, 12.934913], [77.635742, 12.934985], [77.635782, 12.935006], [77.635786, 12.935034], [77.635786, 12.935067], [77.635748, 12.935122], [77.635674, 12.93518], [77.635607, 12.93524], [77.635253, 12.935559], [77.634586, 12.936248], [77.634417, 12.93638], [77.634196, 12.93657], [77.633622, 12.937055], [77.63338, 12.937308], [77.633275, 12.937434], [77.633191, 12.937539], [77.633077, 12.937749], [77.632848, 12.938199], [77.632458, 12.939], [77.632176, 12.939514], [77.63173, 12.940498], [77.631418, 12.941163], [77.631237, 12.941623], [77.630988, 12.942241], [77.630619, 12.943031], [77.630012, 12.944402], [77.629571, 12.94536], [77.629503, 12.945507], [77.6293, 12.945853], [77.629013, 12.946356], [77.62883, 12.946634], [77.62872, 12.946791], [77.628615, 12.946954], [77.628334, 12.947447], [77.62802, 12.94796], [77.627812, 12.948327], [77.627666, 12.948594], [77.627561, 12.948752], [77.627456, 12.948904], [77.627362, 12.949025], [77.627262, 12.949137], [77.627236, 12.949162], [77.627137, 12.949246], [77.627069, 12.949304], [77.627046, 12.949323], [77.627265, 12.949488], [77.626977, 12.950017], [77.626685, 12.950502], [77.62663, 12.950622], [77.626393, 12.951072], [77.626368, 12.951146], [77.626368, 12.951154], [77.626311, 12.951252], [77.626232, 12.951503], [77.626207, 12.951593], [77.625871, 12.952208], [77.625677, 12.952539], [77.625521, 12.952743], [77.625164, 12.953242], [77.624911, 12.953543], [77.624619, 12.953806], [77.624239, 12.954171], [77.623245, 12.954817], [77.622352, 12.955321], [77.621774, 12.95561], [77.62145, 12.955745], [77.621007, 12.955899], [77.620968, 12.95592], [77.620953, 12.955956], [77.62096, 12.956006], [77.620963, 12.956063], [77.621009, 12.956364], [77.62107, 12.956567], [77.620573, 12.95657], [77.619854, 12.956568], [77.619405, 12.956602], [77.619176, 12.956673], [77.618998, 12.956811], [77.619001, 12.957095], [77.619012, 12.957322], [77.618581, 12.957274], [77.618581, 12.957304], [77.617895, 12.95724], [77.617708, 12.957212], [77.617778, 12.956939], [77.617669, 12.956964], [77.617452, 12.956993], [77.61706, 12.957079], [77.616843, 12.957086], [77.616768, 12.957087], [77.616698, 12.957332], [77.616669, 12.957555], [77.616617, 12.95797], [77.616592, 12.957968], [77.615764, 12.958054], [77.614538, 12.958183], [77.613762, 12.958283], [77.612688, 12.958391], [77.612127, 12.95844], [77.612312, 12.959911], [77.612318, 12.959963], [77.612331, 12.960087], [77.61233, 12.960199], [77.612496, 12.96018], [77.612743, 12.960195], [77.612935, 12.960211], [77.613085, 12.96025], [77.613254, 12.960296], [77.61338, 12.960365], [77.613447, 12.960441], [77.613478, 12.960499], [77.613544, 12.960528], [77.613671, 12.960568], [77.613759, 12.961538], [77.614252, 12.961528], [77.614788, 12.961535], [77.615694, 12.961543], [77.61623, 12.96163], [77.617244, 12.961957], [77.61895, 12.9625], [77.61889, 12.962653], [77.618426, 12.96369], [77.617849, 12.964926], [77.617721, 12.965249], [77.617607, 12.965382], [77.618374, 12.965342], [77.619042, 12.965404], [77.619744, 12.965535], [77.620032, 12.966151], [77.620493, 12.966697], [77.620204, 12.967525], [77.619898, 12.96844], [77.619669, 12.970042], [77.619546, 12.971677], [77.619517, 12.972262], [77.619477, 12.972601], [77.619769, 12.972698], [77.619967, 12.972745], [77.620188, 12.972734], [77.620575, 12.972681], [77.62092, 12.972682], [77.621303, 12.972709], [77.621557, 12.972788], [77.622012, 12.973082], [77.623416, 12.973885], [77.625276, 12.975028], [77.625345, 12.975075], [77.626161, 12.973758], [77.627369, 12.97185], [77.628229, 12.970414], [77.628967, 12.969202]]]}}]}