{"type": "FeatureCollection", "features": [{"type": "Feature", "properties": {"region_id": "ward_276600-168", "name": "Pattabhiram Nagar", "parent": "zone_276600-6", "parent_name": "South"}, "geometry": {"type": "Polygon", "coordinates": [[[77.583922, 12.932953], [77.583834, 12.928707], [77.586061, 12.928616], [77.586661, 12.928621], [77.586897, 12.928625], [77.587012, 12.928627], [77.587082, 12.928627], [77.58716, 12.928631], [77.587203, 12.928616], [77.587254, 12.928593], [77.58731, 12.928545], [77.587346, 12.928481], [77.587357, 12.928444], [77.587365, 12.928399], [77.58743, 12.928268], [77.587491, 12.928172], [77.587539, 12.928107], [77.587643, 12.928011], [77.587748, 12.927938], [77.587864, 12.927867], [77.587983, 12.927821], [77.588133, 12.927777], [77.588279, 12.927759], [77.588475, 12.927763], [77.588706, 12.927761], [77.588834, 12.927757], [77.588933, 12.927739], [77.589007, 12.927705], [77.589038, 12.927685], [77.589175, 12.92757], [77.589211, 12.92753], [77.589633, 12.927122], [77.589716, 12.92706], [77.591302, 12.927061], [77.592304, 12.927057], [77.594372, 12.927019], [77.59535, 12.926994], [77.596217, 12.926972], [77.597162, 12.926939], [77.597098, 12.924887], [77.597046, 12.923136], [77.593456, 12.923238], [77.593356, 12.920533], [77.59333, 12.92052], [77.59327, 12.920482], [77.593174, 12.920405], [77.593126, 12.920355], [77.592973, 12.920148], [77.592833, 12.919555], [77.592654, 12.919052], [77.592629, 12.918978], [77.593119, 12.918977], [77.593318, 12.918979], [77.593312, 12.918937], [77.593291, 12.916902], [77.589615, 12.916989], [77.585838, 12.917143], [77.585838, 12.917314], [77.585907, 12.920822], [77.585957, 12.923352], [77.584255, 12.923373], [77.582382, 12.923405], [77.580902, 12.923415], [77.579928, 12.923407], [77.579742, 12.923427], [77.579742, 12.924149], [77.579704, 12.9252], [77.579689, 12.92626], [77.579672, 12.92719], [77.57967, 12.92825], [77.579662, 12.929193], [77.579672, 12.930179], [77.579661, 12.93083], [77.579611, 12.930829], [77.579584, 12.933056], [77.579649, 12.933058], [77.58126, 12.933024], [77.582349, 12.932991], [77.583821, 12.932955], [77.583922, 12.932953]]]}}]}