{"type": "FeatureCollection", "features": [{"type": "Feature", "properties": {"region_id": "ward_276600-152", "name": "Suddagunte Palya", "parent": "zone_276600-6", "parent_name": "South"}, "geometry": {"type": "Polygon", "coordinates": [[[77.613797, 12.931669], [77.61388, 12.93152], [77.614639, 12.930214], [77.614752, 12.930023], [77.615015, 12.929705], [77.614946, 12.929672], [77.615058, 12.929502], [77.615459, 12.928892], [77.615929, 12.92814], [77.616007, 12.928002], [77.616043, 12.927933], [77.616064, 12.927885], [77.617341, 12.925772], [77.618232, 12.924418], [77.617637, 12.924102], [77.617134, 12.923835], [77.616571, 12.924785], [77.616553, 12.924774], [77.616272, 12.924644], [77.616154, 12.9243], [77.616035, 12.923793], [77.615822, 12.923307], [77.615804, 12.923269], [77.614666, 12.92377], [77.61461, 12.923509], [77.614582, 12.923498], [77.614548, 12.923508], [77.614487, 12.923513], [77.614344, 12.923478], [77.614195, 12.923442], [77.613991, 12.923466], [77.61382, 12.923517], [77.613706, 12.923572], [77.613645, 12.92362], [77.613577, 12.923699], [77.613491, 12.923781], [77.613384, 12.923856], [77.613212, 12.923914], [77.612868, 12.924028], [77.612477, 12.924117], [77.612312, 12.924155], [77.612131, 12.924163], [77.611962, 12.924194], [77.611811, 12.924234], [77.611531, 12.92434], [77.6113, 12.924419], [77.61099, 12.924573], [77.610625, 12.924745], [77.610395, 12.924842], [77.610242, 12.924913], [77.610157, 12.92492], [77.609835, 12.924959], [77.609642, 12.924977], [77.609343, 12.925023], [77.609098, 12.925052], [77.608997, 12.925042], [77.608928, 12.925016], [77.608997, 12.924939], [77.608815, 12.924917], [77.608638, 12.924882], [77.608567, 12.924868], [77.608358, 12.924827], [77.608212, 12.924844], [77.608139, 12.924842], [77.607967, 12.924866], [77.607824, 12.924891], [77.607635, 12.924921], [77.607391, 12.924967], [77.607129, 12.925024], [77.60698, 12.925051], [77.606981, 12.925128], [77.606982, 12.925191], [77.606991, 12.925299], [77.606998, 12.925359], [77.607007, 12.925414], [77.606988, 12.92546], [77.606947, 12.925489], [77.606845, 12.925527], [77.606737, 12.925558], [77.606677, 12.925574], [77.606508, 12.925622], [77.606377, 12.925646], [77.606275, 12.925656], [77.606191, 12.925654], [77.606117, 12.925629], [77.606047, 12.925572], [77.605991, 12.925498], [77.605929, 12.925424], [77.605838, 12.925362], [77.605779, 12.925323], [77.605609, 12.925293], [77.605434, 12.925246], [77.605288, 12.925205], [77.605148, 12.925189], [77.604973, 12.925179], [77.604879, 12.925183], [77.605007, 12.925912], [77.605038, 12.926006], [77.604864, 12.926099], [77.604593, 12.926253], [77.60449, 12.926323], [77.604523, 12.926448], [77.6046, 12.926645], [77.604628, 12.926705], [77.604752, 12.927132], [77.604765, 12.927221], [77.604538, 12.927281], [77.604541, 12.927379], [77.604374, 12.927425], [77.604418, 12.927536], [77.604774, 12.927424], [77.604857, 12.927768], [77.604924, 12.927968], [77.604939, 12.928035], [77.604761, 12.928053], [77.604669, 12.928067], [77.604548, 12.928074], [77.604184, 12.928083], [77.603848, 12.928076], [77.603542, 12.928043], [77.603389, 12.928013], [77.603283, 12.927988], [77.602971, 12.927842], [77.602141, 12.927416], [77.601712, 12.927152], [77.60141, 12.926969], [77.601261, 12.926888], [77.601187, 12.926822], [77.601107, 12.926735], [77.601028, 12.926663], [77.600959, 12.926633], [77.600827, 12.926629], [77.600492, 12.926625], [77.600511, 12.926879], [77.600533, 12.927167], [77.600536, 12.927455], [77.60052, 12.928349], [77.600515, 12.92861], [77.600528, 12.928976], [77.600615, 12.930303], [77.600705, 12.931335], [77.600717, 12.931723], [77.600741, 12.931929], [77.600781, 12.932197], [77.600924, 12.932985], [77.601249, 12.934555], [77.601294, 12.934899], [77.601306, 12.934955], [77.601372, 12.935772], [77.601398, 12.936141], [77.601421, 12.936289], [77.601524, 12.936756], [77.601594, 12.937127], [77.602886, 12.936952], [77.604639, 12.936694], [77.605883, 12.936515], [77.606411, 12.936473], [77.607257, 12.936205], [77.608047, 12.935864], [77.608965, 12.935244], [77.610052, 12.934529], [77.610857, 12.933873], [77.611532, 12.933385], [77.612486, 12.932616], [77.613404, 12.931885], [77.613797, 12.931669]]]}}]}