{"type": "FeatureCollection", "features": [{"type": "Feature", "properties": {"region_id": "ward_276600-196", "name": "Anjanapura", "parent": "zone_276600-1", "parent_name": "Bommanahalli"}, "geometry": {"type": "Polygon", "coordinates": [[[77.574613, 12.839119], [77.570038, 12.840161], [77.567647, 12.840306], [77.566995, 12.840313], [77.566342, 12.840319], [77.565876, 12.840324], [77.565191, 12.840147], [77.563883, 12.839825], [77.563478, 12.839737], [77.563167, 12.83971], [77.562795, 12.839805], [77.561436, 12.840611], [77.560419, 12.841353], [77.560079, 12.841569], [77.559831, 12.841663], [77.559366, 12.841698], [77.558403, 12.841708], [77.557875, 12.841713], [77.557471, 12.841717], [77.557192, 12.841841], [77.557039, 12.842026], [77.556979, 12.842209], [77.556996, 12.843916], [77.557, 12.844343], [77.556972, 12.844618], [77.556758, 12.845016], [77.556236, 12.84557], [77.554149, 12.848121], [77.553779, 12.848429], [77.553471, 12.848676], [77.553162, 12.848892], [77.552387, 12.849052], [77.551767, 12.84915], [77.550773, 12.84919], [77.549591, 12.84911], [77.547412, 12.848704], [77.546883, 12.848557], [77.54654, 12.84853], [77.546012, 12.848505], [77.545671, 12.848569], [77.545455, 12.848723], [77.545209, 12.849], [77.545331, 12.849285], [77.545382, 12.849376], [77.545447, 12.849473], [77.545627, 12.849694], [77.54575, 12.849909], [77.54573, 12.850021], [77.545724, 12.85021], [77.545648, 12.850364], [77.545556, 12.850442], [77.545444, 12.850568], [77.54538, 12.850632], [77.54521, 12.850724], [77.545027, 12.850866], [77.544964, 12.850957], [77.544915, 12.851055], [77.544916, 12.85116], [77.544974, 12.851271], [77.545046, 12.851368], [77.545118, 12.851451], [77.545161, 12.851486], [77.545247, 12.851541], [77.545305, 12.85161], [77.545306, 12.851715], [77.545307, 12.851861], [77.545308, 12.851987], [77.545338, 12.852105], [77.545389, 12.852216], [77.545506, 12.852494], [77.545592, 12.852626], [77.545736, 12.85275], [77.545858, 12.852847], [77.545923, 12.85293], [77.545966, 12.853013], [77.545989, 12.853167], [77.545998, 12.85339], [77.54598, 12.853641], [77.545954, 12.853942], [77.545949, 12.854102], [77.545972, 12.854346], [77.54606, 12.854548], [77.546104, 12.854666], [77.546276, 12.854867], [77.546521, 12.855102], [77.546686, 12.855317], [77.546737, 12.855407], [77.546738, 12.855526], [77.546725, 12.855602], [77.546697, 12.85568], [77.546563, 12.855799], [77.546401, 12.855906], [77.546275, 12.85613], [77.546206, 12.856306], [77.546144, 12.856502], [77.546138, 12.856669], [77.54614, 12.856844], [77.546156, 12.856997], [77.546208, 12.857227], [77.546245, 12.857415], [77.546232, 12.857548], [77.546177, 12.857674], [77.546091, 12.857757], [77.545952, 12.85792], [77.545565, 12.858427], [77.545348, 12.858708], [77.545272, 12.858925], [77.545201, 12.859189], [77.545227, 12.859435], [77.545293, 12.859616], [77.545337, 12.859769], [77.545691, 12.860303], [77.545785, 12.860491], [77.545887, 12.860657], [77.545945, 12.860789], [77.546017, 12.860872], [77.546096, 12.860976], [77.546168, 12.861073], [77.546248, 12.861205], [77.546328, 12.861344], [77.546357, 12.861448], [77.546312, 12.861944], [77.546306, 12.862063], [77.546315, 12.86223], [77.546345, 12.862363], [77.546446, 12.862515], [77.546526, 12.862647], [77.546676, 12.862771], [77.546812, 12.862854], [77.546962, 12.862894], [77.547262, 12.863045], [77.547428, 12.86319], [77.547664, 12.86339], [77.547765, 12.863459], [77.548014, 12.863533], [77.548114, 12.863574], [77.548186, 12.863636], [77.548216, 12.863761], [77.548267, 12.863921], [77.548346, 12.864018], [77.548446, 12.864045], [77.548525, 12.8641], [77.548597, 12.864183], [77.548619, 12.864281], [77.548621, 12.864393], [77.54858, 12.864581], [77.548488, 12.864652], [77.548113, 12.864886], [77.548071, 12.864935], [77.548051, 12.865019], [77.548059, 12.865117], [77.548183, 12.865409], [77.548277, 12.865631], [77.548351, 12.865833], [77.54841, 12.866056], [77.548433, 12.866244], [77.548401, 12.866621], [77.548417, 12.866747], [77.548423, 12.866756], [77.548467, 12.86683], [77.548568, 12.866899], [77.548689, 12.866926], [77.548831, 12.866952], [77.549045, 12.86695], [77.549266, 12.866997], [77.549494, 12.867092], [77.549716, 12.867188], [77.549875, 12.867282], [77.550322, 12.86765], [77.550475, 12.867835], [77.550553, 12.868032], [77.550568, 12.86828], [77.550571, 12.868578], [77.550573, 12.868764], [77.550563, 12.869], [77.55049, 12.869237], [77.550453, 12.869386], [77.550292, 12.869685], [77.549895, 12.8701], [77.549874, 12.870145], [77.549841, 12.870212], [77.5498, 12.870716], [77.549805, 12.871247], [77.549806, 12.871299], [77.549897, 12.871476], [77.550015, 12.871576], [77.55023, 12.871758], [77.550321, 12.871884], [77.550426, 12.87201], [77.550656, 12.872382], [77.550833, 12.872646], [77.551124, 12.873259], [77.551197, 12.873473], [77.551198, 12.873588], [77.551143, 12.873842], [77.551105, 12.873918], [77.551048, 12.874014], [77.551023, 12.87409], [77.55101, 12.874179], [77.551012, 12.874281], [77.551079, 12.874584], [77.551081, 12.874762], [77.551082, 12.87487], [77.551084, 12.875022], [77.551072, 12.87513], [77.551034, 12.875263], [77.550997, 12.875384], [77.550959, 12.875467], [77.550921, 12.875544], [77.550864, 12.87569], [77.550872, 12.875798], [77.55093, 12.875829], [77.551001, 12.875828], [77.551105, 12.87584], [77.551189, 12.875883], [77.551216, 12.875909], [77.551222, 12.875915], [77.551255, 12.875978], [77.551269, 12.876079], [77.551244, 12.876156], [77.551199, 12.876232], [77.551161, 12.876302], [77.551123, 12.876372], [77.551117, 12.87643], [77.551138, 12.876566], [77.55114, 12.87658], [77.551329, 12.876762], [77.552073, 12.877178], [77.554373, 12.877118], [77.554679, 12.877115], [77.554717, 12.877058], [77.555362, 12.876356], [77.555474, 12.876129], [77.555645, 12.875902], [77.555912, 12.875843], [77.556334, 12.875876], [77.556503, 12.875896], [77.558426, 12.876119], [77.558829, 12.876115], [77.559059, 12.876151], [77.559269, 12.876092], [77.56003, 12.875539], [77.560431, 12.87531], [77.560718, 12.875307], [77.560814, 12.875325], [77.561167, 12.876111], [77.561342, 12.876335], [77.561613, 12.876615], [77.562464, 12.877377], [77.562945, 12.877523], [77.563194, 12.877539], [77.563725, 12.877519], [77.563846, 12.877514], [77.565145, 12.877107], [77.566807, 12.876526], [77.567254, 12.876633], [77.567364, 12.876832], [77.567536, 12.87723], [77.567732, 12.877675], [77.567832, 12.878003], [77.567956, 12.87839], [77.567995, 12.878684], [77.567888, 12.878838], [77.567698, 12.878969], [77.567657, 12.87898], [77.567746, 12.879192], [77.567525, 12.879256], [77.5675, 12.879171], [77.567411, 12.879043], [77.567322, 12.878823], [77.566042, 12.879053], [77.566012, 12.879468], [77.566111, 12.880357], [77.565806, 12.880388], [77.565554, 12.880449], [77.565232, 12.880617], [77.564934, 12.880773], [77.56454, 12.880977], [77.563983, 12.881088], [77.563768, 12.881201], [77.563654, 12.881277], [77.563405, 12.881261], [77.563347, 12.881261], [77.563193, 12.881225], [77.563079, 12.881264], [77.563023, 12.881434], [77.562988, 12.881773], [77.562662, 12.881985], [77.562683, 12.882242], [77.562746, 12.882535], [77.562893, 12.882875], [77.563111, 12.883097], [77.563387, 12.883106], [77.563806, 12.883031], [77.564739, 12.88281], [77.565122, 12.882724], [77.565864, 12.882564], [77.566079, 12.88255], [77.566142, 12.88282], [77.56629, 12.883218], [77.566498, 12.883593], [77.566729, 12.883943], [77.566819, 12.884519], [77.566919, 12.884883], [77.566911, 12.885283], [77.566925, 12.885565], [77.567872, 12.885462], [77.568991, 12.885409], [77.570268, 12.88529], [77.570447, 12.885267], [77.570273, 12.884731], [77.570195, 12.88444], [77.570103, 12.884105], [77.569935, 12.883684], [77.570647, 12.883575], [77.570781, 12.88353], [77.571196, 12.883453], [77.571953, 12.883343], [77.572061, 12.883332], [77.572008, 12.883047], [77.572957, 12.883005], [77.572859, 12.882206], [77.57324, 12.882177], [77.573546, 12.882087], [77.573749, 12.882049], [77.573947, 12.882011], [77.574601, 12.882004], [77.575285, 12.881983], [77.575686, 12.881906], [77.575773, 12.881774], [77.575963, 12.881422], [77.576092, 12.880939], [77.576238, 12.880675], [77.576294, 12.880295], [77.576424, 12.879959], [77.576524, 12.879593], [77.576564, 12.879155], [77.57656, 12.878747], [77.576586, 12.878367], [77.576716, 12.877986], [77.57692, 12.877547], [77.577169, 12.877194], [77.577285, 12.876916], [77.577341, 12.876624], [77.577341, 12.876617], [77.577228, 12.876589], [77.577101, 12.87654], [77.576803, 12.87645], [77.576468, 12.876379], [77.576215, 12.876357], [77.575679, 12.87643], [77.575232, 12.876552], [77.574967, 12.876574], [77.574796, 12.876532], [77.574682, 12.876446], [77.574585, 12.876261], [77.574488, 12.876089], [77.574355, 12.876034], [77.574172, 12.876024], [77.573737, 12.876127], [77.573214, 12.876238], [77.573063, 12.876283], [77.572994, 12.876333], [77.572888, 12.87647], [77.572513, 12.876765], [77.572224, 12.876972], [77.57208, 12.87706], [77.571948, 12.877117], [77.571687, 12.877144], [77.57161, 12.87716], [77.571004, 12.877258], [77.570891, 12.876893], [77.570873, 12.876648], [77.570829, 12.876285], [77.57066, 12.875465], [77.570654, 12.874864], [77.570617, 12.874453], [77.570676, 12.873851], [77.570541, 12.873346], [77.570535, 12.872745], [77.57043, 12.871861], [77.570423, 12.871196], [77.570544, 12.870404], [77.570539, 12.869962], [77.570436, 12.869298], [77.569974, 12.868291], [77.569774, 12.867628], [77.569637, 12.866839], [77.569532, 12.866476], [77.569953, 12.866172], [77.570156, 12.86617], [77.571842, 12.866069], [77.572397, 12.866035], [77.572325, 12.864432], [77.572301, 12.864223], [77.572261, 12.863724], [77.572195, 12.862405], [77.572149, 12.861461], [77.572124, 12.861053], [77.57213, 12.86082], [77.572187, 12.860767], [77.57512, 12.860611], [77.578034, 12.860306], [77.582044, 12.860055], [77.580492, 12.854457], [77.578183, 12.847047], [77.577934, 12.846611], [77.577461, 12.845958], [77.577129, 12.845264], [77.576839, 12.844689], [77.576156, 12.843481], [77.574613, 12.839119]]]}}]}