{"type": "FeatureCollection", "features": [{"type": "Feature", "properties": {"region_id": "ward_276600-95", "name": "Subhash Nagar", "parent": "zone_276600-7", "parent_name": "West"}, "geometry": {"type": "Polygon", "coordinates": [[[77.568546, 12.996782], [77.568544, 12.996611], [77.568571, 12.996294], [77.568631, 12.996067], [77.568735, 12.995795], [77.5689, 12.995326], [77.569125, 12.994826], [77.569274, 12.994343], [77.569363, 12.994025], [77.569526, 12.993496], [77.569596, 12.993267], [77.570372, 12.99332], [77.571483, 12.993415], [77.571501, 12.992955], [77.571572, 12.992093], [77.57164, 12.990958], [77.571851, 12.990075], [77.572229, 12.988056], [77.572306, 12.985864], [77.571913, 12.984538], [77.571423, 12.983368], [77.570754, 12.982397], [77.570277, 12.981748], [77.570274, 12.98174], [77.570216, 12.981665], [77.570045, 12.981415], [77.570126, 12.981311], [77.570323, 12.98116], [77.570611, 12.980814], [77.570979, 12.98033], [77.570977, 12.980044], [77.57094, 12.978751], [77.570924, 12.977236], [77.570993, 12.976771], [77.570998, 12.975883], [77.570641, 12.974733], [77.57049, 12.974704], [77.570023, 12.974663], [77.569648, 12.974587], [77.569336, 12.973708], [77.569115, 12.973206], [77.568607, 12.972056], [77.568186, 12.970824], [77.568034, 12.969601], [77.568039, 12.968848], [77.567702, 12.968836], [77.567473, 12.9689], [77.567388, 12.968972], [77.567203, 12.969307], [77.567113, 12.969535], [77.567077, 12.969663], [77.567087, 12.969767], [77.567132, 12.970057], [77.567101, 12.970224], [77.566904, 12.970344], [77.566734, 12.970456], [77.56666, 12.970552], [77.566647, 12.970588], [77.566648, 12.97067], [77.566667, 12.970756], [77.566687, 12.970874], [77.566754, 12.971099], [77.566867, 12.971291], [77.5669, 12.971495], [77.56685, 12.971695], [77.566728, 12.971993], [77.566643, 12.972363], [77.566564, 12.972814], [77.566367, 12.973481], [77.566252, 12.973912], [77.566135, 12.974277], [77.565992, 12.974544], [77.565812, 12.974786], [77.565481, 12.975066], [77.565155, 12.975325], [77.564735, 12.97559], [77.564481, 12.975782], [77.564374, 12.975882], [77.564459, 12.975941], [77.56452, 12.976089], [77.564667, 12.976916], [77.56482, 12.977691], [77.564835, 12.97786], [77.564824, 12.977921], [77.564785, 12.978129], [77.564778, 12.978167], [77.564776, 12.97817], [77.564775, 12.978179], [77.564741, 12.978244], [77.564459, 12.978932], [77.564385, 12.979179], [77.564385, 12.979191], [77.564361, 12.979244], [77.564359, 12.979319], [77.564368, 12.98016], [77.564364, 12.980444], [77.564425, 12.981761], [77.564426, 12.981764], [77.564477, 12.981829], [77.564583, 12.981904], [77.564718, 12.98193], [77.565016, 12.981919], [77.565623, 12.981847], [77.565637, 12.981837], [77.56588, 12.981857], [77.56624, 12.981875], [77.566417, 12.981922], [77.566433, 12.981931], [77.566621, 12.981972], [77.567211, 12.982158], [77.567698, 12.982301], [77.568159, 12.982452], [77.568119, 12.982882], [77.5681, 12.983385], [77.568031, 12.985166], [77.567951, 12.986199], [77.567897, 12.98786], [77.567899, 12.988225], [77.567904, 12.988395], [77.567809, 12.988414], [77.567795, 12.988411], [77.567794, 12.988417], [77.567857, 12.988436], [77.567882, 12.988453], [77.567907, 12.988477], [77.567915, 12.988505], [77.567919, 12.988544], [77.567926, 12.988578], [77.567926, 12.988605], [77.567926, 12.988624], [77.567924, 12.988718], [77.567918, 12.988854], [77.567878, 12.989756], [77.567867, 12.990444], [77.567843, 12.99122], [77.56782, 12.991782], [77.567786, 12.992611], [77.567785, 12.992628], [77.567758, 12.993408], [77.568385, 12.993381], [77.568026, 12.993719], [77.567654, 12.994216], [77.567323, 12.994615], [77.567099, 12.994913], [77.566968, 12.995227], [77.566713, 12.995723], [77.566383, 12.996211], [77.566052, 12.996634], [77.566161, 12.996685], [77.566213, 12.996708], [77.5664, 12.996783], [77.56656, 12.996837], [77.566749, 12.996869], [77.566944, 12.996873], [77.567144, 12.996848], [77.567197, 12.996843], [77.567448, 12.996819], [77.568085, 12.996786], [77.568546, 12.996782]]]}}]}