{"type": "FeatureCollection", "features": [{"type": "Feature", "properties": {"region_id": "ward_276600-38", "name": "HMT Ward", "parent": "zone_276600-5", "parent_name": "Rajarajeshwari Nagar"}, "geometry": {"type": "Polygon", "coordinates": [[[77.542922, 13.03922], [77.542931, 13.039203], [77.543354, 13.038807], [77.543683, 13.038402], [77.544301, 13.037777], [77.544982, 13.036674], [77.545596, 13.035434], [77.546104, 13.034528], [77.546533, 13.033646], [77.547603, 13.031638], [77.54796, 13.030953], [77.548343, 13.030265], [77.54872, 13.029589], [77.548961, 13.029173], [77.548882, 13.029174], [77.549311, 13.0282], [77.549976, 13.026692], [77.550823, 13.025042], [77.55158, 13.023567], [77.552661, 13.021292], [77.553393, 13.019928], [77.553534, 13.019666], [77.553546, 13.019654], [77.55387, 13.019164], [77.553864, 13.019156], [77.554163, 13.018668], [77.554247, 13.018506], [77.554419, 13.018172], [77.554738, 13.017584], [77.555038, 13.017049], [77.555327, 13.016526], [77.555353, 13.016479], [77.555367, 13.016454], [77.555518, 13.016229], [77.55564, 13.016046], [77.555703, 13.015964], [77.555797, 13.015854], [77.555833, 13.015819], [77.555822, 13.015811], [77.555815, 13.01582], [77.55567, 13.015714], [77.555604, 13.015666], [77.555426, 13.015578], [77.555199, 13.015483], [77.555015, 13.015445], [77.554936, 13.01543], [77.554868, 13.015429], [77.554005, 13.015329], [77.553996, 13.015379], [77.553961, 13.015512], [77.553937, 13.015649], [77.553828, 13.015907], [77.55373, 13.016465], [77.553583, 13.017533], [77.55337, 13.018271], [77.553138, 13.019127], [77.552595, 13.020283], [77.552244, 13.021046], [77.551845, 13.021744], [77.551808, 13.021817], [77.55158, 13.022069], [77.550042, 13.023059], [77.547902, 13.024318], [77.54608, 13.025317], [77.544212, 13.026349], [77.543658, 13.026658], [77.543611, 13.026684], [77.542873, 13.027175], [77.542093, 13.027628], [77.541327, 13.02802], [77.540642, 13.028419], [77.539928, 13.02884], [77.539889, 13.028503], [77.539395, 13.027275], [77.539154, 13.026501], [77.539068, 13.026364], [77.538908, 13.026301], [77.538663, 13.026221], [77.538409, 13.026131], [77.538406, 13.025846], [77.538393, 13.02546], [77.538276, 13.025056], [77.538015, 13.024314], [77.537889, 13.023938], [77.537871, 13.022876], [77.534017, 13.024999], [77.532766, 13.025711], [77.531012, 13.026609], [77.530808, 13.026129], [77.530593, 13.025678], [77.530384, 13.025201], [77.530157, 13.024717], [77.529964, 13.024259], [77.529793, 13.023883], [77.529596, 13.023449], [77.529422, 13.023066], [77.52922, 13.022666], [77.529036, 13.022271], [77.528826, 13.021813], [77.528604, 13.021356], [77.528438, 13.020997], [77.528403, 13.020995], [77.52832, 13.021022], [77.52813, 13.021058], [77.527781, 13.021185], [77.5275, 13.021272], [77.527077, 13.021419], [77.52681, 13.021518], [77.52672, 13.021551], [77.526636, 13.021582], [77.525662, 13.02188], [77.524687, 13.022212], [77.523813, 13.022518], [77.522995, 13.022888], [77.522848, 13.02298], [77.52191, 13.023568], [77.521692, 13.02375], [77.521566, 13.023884], [77.52151, 13.023962], [77.521385, 13.0242], [77.521133, 13.024878], [77.520859, 13.025578], [77.520594, 13.026235], [77.520286, 13.027034], [77.519943, 13.027893], [77.51971, 13.02846], [77.519601, 13.028727], [77.519588, 13.028762], [77.519285, 13.029582], [77.518865, 13.030619], [77.518566, 13.031252], [77.517889, 13.033035], [77.517835, 13.033331], [77.517852, 13.034152], [77.518001, 13.03502], [77.518261, 13.035934], [77.518293, 13.03614], [77.51829, 13.036721], [77.518244, 13.037754], [77.518243, 13.038507], [77.518254, 13.039191], [77.518334, 13.039728], [77.518385, 13.039937], [77.518737, 13.040595], [77.519302, 13.041454], [77.519844, 13.042259], [77.520329, 13.043038], [77.5209, 13.043869], [77.521498, 13.044786], [77.522141, 13.045799], [77.522199, 13.045889], [77.52759, 13.042195], [77.531513, 13.039336], [77.535927, 13.03607], [77.540737, 13.032492], [77.541551, 13.036477], [77.541907, 13.03818], [77.541994, 13.038392], [77.542055, 13.038463], [77.542604, 13.038943], [77.542922, 13.03922]]]}}]}