{"type": "FeatureCollection", "features": [{"type": "Feature", "properties": {"region_id": "ward_276600-32", "name": "Kaval Bairasandra", "parent": "zone_276600-3", "parent_name": "East"}, "geometry": {"type": "Polygon", "coordinates": [[[77.6127, 13.021422], [77.612552, 13.021411], [77.612362, 13.021431], [77.612051, 13.021528], [77.612033, 13.021486], [77.611999, 13.021365], [77.611922, 13.021117], [77.611812, 13.020724], [77.611761, 13.020588], [77.611653, 13.020404], [77.611584, 13.020171], [77.611451, 13.020004], [77.611385, 13.019876], [77.611211, 13.019773], [77.611087, 13.019646], [77.610962, 13.01951], [77.610838, 13.019351], [77.610722, 13.019231], [77.610589, 13.019096], [77.61039, 13.018889], [77.61017, 13.018633], [77.610117, 13.018657], [77.609693, 13.018823], [77.609173, 13.019017], [77.609083, 13.019053], [77.608643, 13.019212], [77.608224, 13.019376], [77.607873, 13.019529], [77.607827, 13.019541], [77.607807, 13.019569], [77.607735, 13.019626], [77.607634, 13.019686], [77.607491, 13.019752], [77.607425, 13.019769], [77.607311, 13.019776], [77.607224, 13.019769], [77.607077, 13.019734], [77.606878, 13.019663], [77.606704, 13.019626], [77.606496, 13.019618], [77.606319, 13.019653], [77.605981, 13.019723], [77.605987, 13.01974], [77.606038, 13.019902], [77.606097, 13.020181], [77.606134, 13.020185], [77.606236, 13.020487], [77.606392, 13.02097], [77.606501, 13.021258], [77.605832, 13.02132], [77.605235, 13.021396], [77.603877, 13.021625], [77.603208, 13.02179], [77.602442, 13.022086], [77.602082, 13.022282], [77.601643, 13.022553], [77.601425, 13.022663], [77.600955, 13.022999], [77.600907, 13.023032], [77.599908, 13.023525], [77.599992, 13.023717], [77.600309, 13.02443], [77.600371, 13.024561], [77.60046, 13.024911], [77.600467, 13.025212], [77.600435, 13.02537], [77.600436, 13.025372], [77.600421, 13.025386], [77.600398, 13.025517], [77.600399, 13.025563], [77.600405, 13.025844], [77.600462, 13.025934], [77.600462, 13.025938], [77.600463, 13.025941], [77.600464, 13.025941], [77.600641, 13.026216], [77.600645, 13.02634], [77.600606, 13.026481], [77.600601, 13.026486], [77.600606, 13.026505], [77.600542, 13.026529], [77.600515, 13.026539], [77.600401, 13.026574], [77.60028, 13.026611], [77.600111, 13.02672], [77.600006, 13.026795], [77.599949, 13.026942], [77.599876, 13.027147], [77.599769, 13.0276], [77.599653, 13.027962], [77.599625, 13.028041], [77.601098, 13.027837], [77.601382, 13.027796], [77.60182, 13.027733], [77.601982, 13.027713], [77.603185, 13.027565], [77.604213, 13.027371], [77.604258, 13.027406], [77.604268, 13.027414], [77.604357, 13.02741], [77.604363, 13.027408], [77.605098, 13.027248], [77.605924, 13.026983], [77.606393, 13.026806], [77.606774, 13.027713], [77.607067, 13.028332], [77.607256, 13.028748], [77.607469, 13.029217], [77.607473, 13.029224], [77.607617, 13.029492], [77.607791, 13.029689], [77.607831, 13.029738], [77.607943, 13.029875], [77.608006, 13.030001], [77.608071, 13.03016], [77.608083, 13.030219], [77.608169, 13.030655], [77.608433, 13.031695], [77.608821, 13.033012], [77.609097, 13.033967], [77.609146, 13.034138], [77.609205, 13.034355], [77.609277, 13.034689], [77.609308, 13.034833], [77.60964, 13.036281], [77.609844, 13.036981], [77.60991, 13.037207], [77.60999, 13.037555], [77.610141, 13.037923], [77.610226, 13.038131], [77.610257, 13.038199], [77.610258, 13.038203], [77.610382, 13.037778], [77.610419, 13.037618], [77.610538, 13.037111], [77.610602, 13.036835], [77.61063, 13.036716], [77.610813, 13.035968], [77.610975, 13.035425], [77.611131, 13.035015], [77.611364, 13.034515], [77.611803, 13.033775], [77.612075, 13.033381], [77.612654, 13.032653], [77.613913, 13.031108], [77.614886, 13.029908], [77.615718, 13.028867], [77.615615, 13.028767], [77.615889, 13.028462], [77.616101, 13.028127], [77.616133, 13.028071], [77.616142, 13.028018], [77.616145, 13.027935], [77.61612, 13.02789], [77.616037, 13.027767], [77.615848, 13.027605], [77.615504, 13.027327], [77.614902, 13.026815], [77.614644, 13.026604], [77.61405, 13.026242], [77.613661, 13.025912], [77.61354, 13.025776], [77.613287, 13.025357], [77.612906, 13.024481], [77.612553, 13.023655], [77.612553, 13.023653], [77.612571, 13.023442], [77.612671, 13.022436], [77.612676, 13.022388], [77.61271, 13.022077], [77.6127, 13.021422]]]}}]}