{"type": "FeatureCollection", "features": [{"type": "Feature", "properties": {"region_id": "ward_276600-23", "name": "Nagavara", "parent": "zone_276600-3", "parent_name": "East"}, "geometry": {"type": "Polygon", "coordinates": [[[77.613674, 13.042135], [77.613741, 13.042103], [77.61397, 13.041997], [77.614176, 13.041867], [77.614304, 13.041786], [77.614482, 13.041699], [77.614622, 13.041634], [77.61486, 13.041563], [77.615325, 13.041407], [77.615759, 13.041264], [77.615767, 13.041261], [77.616029, 13.041187], [77.61616, 13.041153], [77.616373, 13.041098], [77.61676, 13.041012], [77.617, 13.040959], [77.617138, 13.040934], [77.61729, 13.040932], [77.617458, 13.040937], [77.617514, 13.040938], [77.618084, 13.040988], [77.618276, 13.040998], [77.61839, 13.040977], [77.618501, 13.040936], [77.618776, 13.040816], [77.619235, 13.040632], [77.61934, 13.04059], [77.61937, 13.040574], [77.619944, 13.040279], [77.620003, 13.040237], [77.620134, 13.040144], [77.620146, 13.040136], [77.619919, 13.039165], [77.620549, 13.039134], [77.620572, 13.038932], [77.620571, 13.038843], [77.620924, 13.038792], [77.621371, 13.038734], [77.62122, 13.037591], [77.619825, 13.037624], [77.619823, 13.035665], [77.61978, 13.035184], [77.619626, 13.034798], [77.619472, 13.034522], [77.619529, 13.034485], [77.61962, 13.034484], [77.619819, 13.034482], [77.61991, 13.034517], [77.620068, 13.034628], [77.620263, 13.034738], [77.620404, 13.034915], [77.620569, 13.035131], [77.620606, 13.035179], [77.620834, 13.035472], [77.620966, 13.035361], [77.620885, 13.035295], [77.620757, 13.035166], [77.621082, 13.035068], [77.621635, 13.034872], [77.622015, 13.034756], [77.622052, 13.034839], [77.622208, 13.034778], [77.622449, 13.034698], [77.6228, 13.034586], [77.622353, 13.033321], [77.622119, 13.032708], [77.621844, 13.032121], [77.621678, 13.031763], [77.621319, 13.030921], [77.621127, 13.030524], [77.620946, 13.030177], [77.620753, 13.029539], [77.620625, 13.02822], [77.620341, 13.027305], [77.620038, 13.026359], [77.619994, 13.026219], [77.620617, 13.025947], [77.621061, 13.02566], [77.621513, 13.025253], [77.621853, 13.024775], [77.622282, 13.023976], [77.622775, 13.023004], [77.623092, 13.022233], [77.623279, 13.021373], [77.623284, 13.02134], [77.623023, 13.021405], [77.622675, 13.021484], [77.62241, 13.021528], [77.622061, 13.021593], [77.621747, 13.021623], [77.621538, 13.021667], [77.621294, 13.021731], [77.620967, 13.021837], [77.620632, 13.021874], [77.620318, 13.021912], [77.620151, 13.021955], [77.619844, 13.021964], [77.619565, 13.022029], [77.619377, 13.022099], [77.619305, 13.022135], [77.619274, 13.021932], [77.619214, 13.021704], [77.619168, 13.021582], [77.619033, 13.021293], [77.61872, 13.021262], [77.618559, 13.021232], [77.618197, 13.021176], [77.617919, 13.021138], [77.617813, 13.021114], [77.617771, 13.021061], [77.617711, 13.021003], [77.617686, 13.020905], [77.617631, 13.020793], [77.617591, 13.020705], [77.617565, 13.020649], [77.617516, 13.020553], [77.617477, 13.020478], [77.617409, 13.020419], [77.617281, 13.020383], [77.617022, 13.020382], [77.616664, 13.020398], [77.616178, 13.020447], [77.615769, 13.020464], [77.615651, 13.02049], [77.61535, 13.02056], [77.614942, 13.020726], [77.614687, 13.02084], [77.614482, 13.020853], [77.614254, 13.020789], [77.614126, 13.02072], [77.613952, 13.020449], [77.613948, 13.02045], [77.61392, 13.020368], [77.613884, 13.020274], [77.613827, 13.020207], [77.613742, 13.020214], [77.613503, 13.020238], [77.613489, 13.020252], [77.613489, 13.020241], [77.61338, 13.020271], [77.613377, 13.020275], [77.613377, 13.020274], [77.612754, 13.020394], [77.612738, 13.020471], [77.612699, 13.021368], [77.6127, 13.021422], [77.61271, 13.022077], [77.612676, 13.022388], [77.612671, 13.022436], [77.612571, 13.023442], [77.612553, 13.023653], [77.612553, 13.023655], [77.612906, 13.024481], [77.613287, 13.025357], [77.61354, 13.025776], [77.613661, 13.025912], [77.61405, 13.026242], [77.614644, 13.026604], [77.614902, 13.026815], [77.615504, 13.027327], [77.615848, 13.027605], [77.616037, 13.027767], [77.61612, 13.02789], [77.616145, 13.027935], [77.616142, 13.028018], [77.616133, 13.028071], [77.616101, 13.028127], [77.615889, 13.028462], [77.615615, 13.028767], [77.615718, 13.028867], [77.614886, 13.029908], [77.613913, 13.031108], [77.612654, 13.032653], [77.612075, 13.033381], [77.611803, 13.033775], [77.611364, 13.034515], [77.611131, 13.035015], [77.610975, 13.035425], [77.610813, 13.035968], [77.61063, 13.036716], [77.610602, 13.036835], [77.610538, 13.037111], [77.610419, 13.037618], [77.610382, 13.037778], [77.610258, 13.038203], [77.610261, 13.038207], [77.61026, 13.038212], [77.610262, 13.038217], [77.610293, 13.038286], [77.610293, 13.038287], [77.610309, 13.038322], [77.610333, 13.038369], [77.610414, 13.03853], [77.610467, 13.038634], [77.610502, 13.038703], [77.610655, 13.039004], [77.61071, 13.039113], [77.610853, 13.039332], [77.610955, 13.0395], [77.610997, 13.03957], [77.611249, 13.039893], [77.611281, 13.039941], [77.611318, 13.039996], [77.611374, 13.040137], [77.611389, 13.040176], [77.611446, 13.040327], [77.611511, 13.040497], [77.611569, 13.040673], [77.611653, 13.040924], [77.611676, 13.040992], [77.611718, 13.041227], [77.611718, 13.04123], [77.611738, 13.041321], [77.611972, 13.04241], [77.611995, 13.042537], [77.612266, 13.042476], [77.61249, 13.042426], [77.61291, 13.042321], [77.613331, 13.042216], [77.613565, 13.042163], [77.613566, 13.042163], [77.613674, 13.042135]]]}}]}