{"type": "FeatureCollection", "features": [{"type": "Feature", "properties": {"region_id": "ward_276600-163", "name": "Katriguppe", "parent": "zone_276600-6", "parent_name": "South"}, "geometry": {"type": "Polygon", "coordinates": [[[77.553323, 12.92393], [77.552928, 12.924055], [77.552435, 12.924233], [77.552398, 12.924249], [77.551935, 12.9244], [77.551706, 12.924474], [77.551168, 12.924712], [77.551096, 12.924749], [77.550933, 12.924833], [77.550255, 12.925193], [77.549933, 12.925382], [77.549119, 12.925858], [77.548759, 12.926102], [77.548263, 12.926465], [77.547248, 12.927279], [77.546243, 12.928075], [77.546063, 12.928217], [77.54556, 12.928634], [77.546519, 12.929729], [77.547216, 12.930571], [77.548058, 12.931522], [77.548813, 12.932593], [77.549219, 12.933188], [77.549959, 12.933889], [77.550642, 12.934426], [77.550757, 12.934561], [77.55082, 12.934698], [77.550814, 12.934791], [77.550757, 12.934877], [77.550772, 12.934983], [77.550848, 12.935288], [77.550916, 12.935522], [77.550991, 12.935756], [77.550543, 12.935967], [77.550691, 12.936271], [77.551022, 12.936092], [77.55133, 12.936665], [77.551535, 12.937286], [77.551842, 12.937229], [77.552163, 12.937149], [77.552337, 12.937831], [77.552419, 12.938273], [77.552473, 12.938805], [77.552477, 12.938804], [77.552812, 12.938655], [77.553104, 12.938601], [77.553546, 12.938566], [77.55409, 12.93848], [77.554583, 12.938425], [77.555045, 12.9384], [77.555406, 12.938382], [77.555566, 12.939624], [77.557569, 12.939443], [77.557519, 12.939206], [77.557445, 12.938881], [77.557306, 12.938141], [77.557204, 12.937974], [77.556792, 12.938136], [77.556481, 12.937279], [77.556263, 12.936717], [77.556022, 12.93609], [77.557254, 12.935853], [77.557269, 12.935521], [77.557348, 12.935322], [77.557414, 12.934897], [77.557546, 12.933936], [77.557641, 12.933451], [77.55686, 12.932944], [77.55616, 12.932506], [77.555397, 12.931782], [77.554766, 12.931195], [77.554248, 12.930844], [77.553824, 12.930608], [77.554167, 12.930489], [77.554069, 12.930055], [77.55442, 12.929933], [77.554912, 12.92976], [77.554819, 12.929454], [77.55462, 12.928804], [77.554558, 12.928567], [77.554632, 12.927914], [77.554668, 12.927508], [77.554352, 12.927215], [77.554097, 12.926851], [77.553638, 12.926401], [77.553424, 12.926087], [77.553345, 12.925306], [77.553396, 12.924347], [77.553323, 12.92393]]]}}]}