{"type": "FeatureCollection", "features": [{"type": "Feature", "properties": {"region_id": "ward_276600-155", "name": "Hanumanth Nagar", "parent": "zone_276600-6", "parent_name": "South"}, "geometry": {"type": "Polygon", "coordinates": [[[77.56169, 12.953319], [77.561692, 12.953037], [77.561746, 12.952496], [77.561753, 12.952375], [77.561774, 12.952035], [77.561772, 12.951892], [77.561787, 12.951738], [77.561812, 12.951616], [77.56187, 12.951451], [77.56196, 12.951281], [77.562093, 12.951078], [77.5622, 12.950923], [77.562221, 12.950859], [77.562241, 12.950764], [77.562233, 12.950462], [77.562242, 12.950287], [77.562202, 12.950059], [77.562141, 12.949933], [77.562065, 12.949849], [77.561972, 12.949775], [77.561765, 12.949624], [77.561629, 12.949514], [77.56159, 12.94944], [77.561573, 12.949376], [77.561576, 12.949322], [77.561867, 12.949108], [77.562147, 12.948908], [77.562257, 12.948982], [77.562411, 12.949051], [77.562484, 12.949077], [77.562579, 12.94909], [77.562665, 12.949084], [77.56276, 12.949079], [77.562827, 12.949061], [77.56289, 12.949029], [77.562967, 12.949006], [77.56303, 12.94897], [77.563386, 12.94882], [77.563746, 12.948683], [77.563909, 12.948651], [77.56408, 12.948633], [77.564145, 12.948592], [77.564168, 12.948573], [77.564199, 12.948542], [77.564222, 12.948511], [77.564241, 12.948476], [77.564256, 12.948362], [77.564265, 12.948117], [77.564229, 12.947627], [77.564212, 12.947111], [77.564233, 12.946529], [77.564231, 12.945527], [77.564255, 12.943701], [77.564268, 12.942721], [77.56427, 12.941895], [77.564271, 12.941861], [77.564282, 12.941818], [77.563352, 12.94176], [77.561795, 12.941739], [77.560165, 12.941602], [77.55872, 12.94157], [77.557897, 12.941643], [77.557867, 12.941645], [77.556521, 12.941719], [77.557005, 12.944415], [77.557501, 12.944454], [77.557433, 12.944539], [77.556978, 12.945147], [77.556475, 12.945791], [77.556083, 12.946283], [77.555906, 12.946502], [77.555638, 12.946855], [77.555289, 12.9473], [77.555155, 12.947471], [77.555444, 12.94892], [77.555581, 12.949576], [77.555745, 12.950374], [77.555996, 12.95034], [77.556193, 12.950294], [77.556317, 12.950262], [77.556405, 12.950226], [77.556519, 12.950176], [77.55669, 12.950062], [77.556761, 12.949991], [77.556785, 12.94997], [77.556813, 12.949962], [77.556835, 12.949971], [77.557333, 12.950082], [77.557641, 12.950138], [77.557655, 12.950139], [77.557703, 12.95015], [77.557715, 12.950152], [77.558084, 12.950193], [77.558086, 12.950391], [77.55795, 12.950438], [77.557879, 12.950471], [77.557839, 12.950504], [77.55779, 12.950542], [77.557737, 12.950577], [77.557692, 12.950617], [77.557632, 12.950672], [77.557573, 12.950751], [77.557522, 12.950814], [77.557448, 12.95094], [77.557326, 12.951038], [77.557167, 12.951138], [77.556965, 12.951214], [77.556751, 12.951267], [77.556489, 12.951359], [77.556286, 12.951427], [77.55612, 12.95148], [77.555937, 12.951544], [77.555723, 12.951601], [77.555761, 12.951766], [77.555773, 12.951804], [77.555796, 12.95189], [77.555852, 12.952059], [77.555901, 12.952176], [77.555991, 12.952388], [77.55606, 12.952501], [77.556157, 12.952636], [77.556285, 12.952832], [77.556588, 12.953248], [77.557358, 12.953138], [77.557568, 12.953096], [77.558009, 12.952988], [77.558507, 12.952847], [77.558499, 12.953007], [77.558493, 12.95312], [77.558493, 12.953143], [77.558494, 12.95318], [77.558518, 12.9532], [77.558565, 12.953209], [77.558603, 12.953216], [77.558647, 12.953219], [77.558763, 12.953237], [77.558923, 12.953283], [77.559316, 12.953469], [77.559763, 12.953631], [77.559916, 12.953673], [77.559984, 12.953675], [77.560028, 12.953675], [77.560093, 12.953674], [77.560164, 12.953667], [77.56034, 12.953622], [77.560601, 12.953533], [77.560838, 12.953434], [77.560987, 12.953382], [77.561099, 12.953358], [77.561241, 12.953336], [77.56149, 12.953327], [77.56169, 12.953319]]]}}]}