{"type": "FeatureCollection", "features": [{"type": "Feature", "properties": {"region_id": "ward_276600-157", "name": "Gali Anjenaya Temple ward", "parent": "zone_276600-6", "parent_name": "South"}, "geometry": {"type": "Polygon", "coordinates": [[[77.538407, 12.950862], [77.538561, 12.950886], [77.53872, 12.950931], [77.538856, 12.950972], [77.539027, 12.951045], [77.539456, 12.951304], [77.539534, 12.951351], [77.540075, 12.951774], [77.540682, 12.952154], [77.54105, 12.952388], [77.541206, 12.952492], [77.541294, 12.952584], [77.54141, 12.952712], [77.541684, 12.953028], [77.541928, 12.953294], [77.542017, 12.953375], [77.542137, 12.95346], [77.542332, 12.953563], [77.542476, 12.95364], [77.542595, 12.953685], [77.54287, 12.953741], [77.543125, 12.95382], [77.543276, 12.953877], [77.543432, 12.953934], [77.543579, 12.95401], [77.543791, 12.954145], [77.544035, 12.954345], [77.544384, 12.954696], [77.544761, 12.955015], [77.545273, 12.955407], [77.545509, 12.955569], [77.545876, 12.955787], [77.546336, 12.956055], [77.546647, 12.956204], [77.546914, 12.956295], [77.54722, 12.956366], [77.547444, 12.956408], [77.547785, 12.956473], [77.547988, 12.956512], [77.548016, 12.956518], [77.548411, 12.95661], [77.548586, 12.956311], [77.548793, 12.955957], [77.549095, 12.955452], [77.549099, 12.955445], [77.549306, 12.955088], [77.549587, 12.954726], [77.549334, 12.954736], [77.54928, 12.954056], [77.549249, 12.953364], [77.54922, 12.95281], [77.549207, 12.952669], [77.549207, 12.952616], [77.549147, 12.952352], [77.54921, 12.952317], [77.549359, 12.952293], [77.549505, 12.952283], [77.549598, 12.952277], [77.549414, 12.951177], [77.549429, 12.951172], [77.549549, 12.951134], [77.549768, 12.951003], [77.549944, 12.950913], [77.550043, 12.950847], [77.550056, 12.950441], [77.55008, 12.950347], [77.550079, 12.950294], [77.550078, 12.950228], [77.550069, 12.950159], [77.550031, 12.949991], [77.550011, 12.9499], [77.549997, 12.94981], [77.549983, 12.949719], [77.549988, 12.949596], [77.550006, 12.949434], [77.550005, 12.949357], [77.549965, 12.949286], [77.549944, 12.949208], [77.549923, 12.949105], [77.54989, 12.949015], [77.549849, 12.948918], [77.549802, 12.948822], [77.549801, 12.948731], [77.549806, 12.948615], [77.549819, 12.948517], [77.549851, 12.948439], [77.54985, 12.948336], [77.549809, 12.948246], [77.549735, 12.94813], [77.549642, 12.948008], [77.549575, 12.947892], [77.549574, 12.947821], [77.549573, 12.947769], [77.549619, 12.947691], [77.549651, 12.947652], [77.549664, 12.9476], [77.549644, 12.947574], [77.549591, 12.947536], [77.549557, 12.947478], [77.549516, 12.947407], [77.549645, 12.947376], [77.549707, 12.947364], [77.549659, 12.946854], [77.549619, 12.946602], [77.549573, 12.946249], [77.549569, 12.94615], [77.549574, 12.946069], [77.549564, 12.945957], [77.549501, 12.945652], [77.549479, 12.945506], [77.549471, 12.945217], [77.549469, 12.945043], [77.549475, 12.945012], [77.548798, 12.945099], [77.548838, 12.945425], [77.548176, 12.945521], [77.54773, 12.94558], [77.546941, 12.945723], [77.546965, 12.94594], [77.546794, 12.945941], [77.545999, 12.945982], [77.545809, 12.945751], [77.545533, 12.945802], [77.545343, 12.945317], [77.544205, 12.945669], [77.543568, 12.945827], [77.543146, 12.945965], [77.542558, 12.946119], [77.541981, 12.946269], [77.541687, 12.946346], [77.541268, 12.946458], [77.540529, 12.946625], [77.540107, 12.946706], [77.539899, 12.946706], [77.539832, 12.946697], [77.539595, 12.946621], [77.539249, 12.946508], [77.539064, 12.946441], [77.538936, 12.9464], [77.538728, 12.946402], [77.538469, 12.946419], [77.53755, 12.946458], [77.537548, 12.946478], [77.537544, 12.946546], [77.53752, 12.946726], [77.537525, 12.946799], [77.537566, 12.946952], [77.537619, 12.947097], [77.537726, 12.947331], [77.537886, 12.947633], [77.537967, 12.947854], [77.537989, 12.947914], [77.53799, 12.947961], [77.53799, 12.947995], [77.537965, 12.948051], [77.537939, 12.948085], [77.537883, 12.948162], [77.537806, 12.948283], [77.537733, 12.948399], [77.537573, 12.948495], [77.537473, 12.948589], [77.537371, 12.9488], [77.537334, 12.949035], [77.537319, 12.949262], [77.537346, 12.949385], [77.537391, 12.94947], [77.537466, 12.949538], [77.537654, 12.94966], [77.537829, 12.949748], [77.537986, 12.949825], [77.538053, 12.949857], [77.538101, 12.949912], [77.538175, 12.94995], [77.538219, 12.949996], [77.538268, 12.950094], [77.538318, 12.95023], [77.53836, 12.950495], [77.538407, 12.950862]]]}}]}