{"type": "FeatureCollection", "features": [{"type": "Feature", "properties": {"region_id": "ward_276600-98", "name": "Prakash Nagar", "parent": "zone_276600-7", "parent_name": "West"}, "geometry": {"type": "Polygon", "coordinates": [[[77.560087, 12.993921], [77.560023, 12.99373], [77.56, 12.993266], [77.560032, 12.992873], [77.560138, 12.992497], [77.560365, 12.992114], [77.560465, 12.992001], [77.560556, 12.991936], [77.560617, 12.991896], [77.560656, 12.99184], [77.560695, 12.991763], [77.560733, 12.991677], [77.560758, 12.991595], [77.560797, 12.991534], [77.560857, 12.991444], [77.5609, 12.991366], [77.560939, 12.991306], [77.560982, 12.991228], [77.56103, 12.991176], [77.561056, 12.991142], [77.561095, 12.991111], [77.56116, 12.991068], [77.56122, 12.990981], [77.561289, 12.990891], [77.561341, 12.990804], [77.561392, 12.990735], [77.561413, 12.990654], [77.561452, 12.990606], [77.561495, 12.990503], [77.561529, 12.990412], [77.561559, 12.990344], [77.561606, 12.990262], [77.561464, 12.990266], [77.56132, 12.990273], [77.561203, 12.990261], [77.56105, 12.990241], [77.56107, 12.990129], [77.561075, 12.990073], [77.561082, 12.99], [77.56108, 12.989982], [77.561061, 12.989956], [77.56103, 12.989875], [77.561024, 12.989807], [77.561063, 12.989636], [77.561088, 12.989541], [77.561118, 12.989339], [77.561147, 12.988975], [77.561163, 12.988839], [77.561158, 12.988765], [77.561168, 12.988734], [77.561189, 12.988692], [77.561258, 12.988644], [77.561279, 12.988625], [77.561298, 12.988612], [77.561316, 12.988593], [77.561364, 12.988543], [77.561403, 12.988475], [77.561429, 12.988391], [77.561446, 12.988284], [77.56144, 12.988281], [77.561437, 12.988221], [77.561485, 12.987994], [77.561541, 12.9878], [77.561579, 12.987722], [77.561626, 12.987629], [77.561693, 12.987546], [77.56175, 12.987484], [77.561744, 12.987481], [77.561791, 12.987344], [77.561817, 12.987274], [77.561813, 12.987209], [77.561776, 12.987163], [77.561281, 12.987052], [77.561056, 12.986995], [77.56099, 12.986939], [77.560804, 12.986755], [77.560769, 12.986678], [77.560763, 12.986614], [77.560783, 12.986513], [77.560973, 12.986042], [77.561012, 12.985943], [77.561021, 12.985827], [77.561009, 12.985706], [77.560989, 12.985529], [77.560967, 12.985379], [77.560973, 12.985251], [77.560969, 12.985098], [77.560985, 12.984907], [77.561018, 12.984806], [77.561054, 12.984749], [77.561058, 12.984734], [77.561099, 12.984678], [77.561301, 12.984208], [77.561416, 12.983785], [77.561524, 12.982891], [77.561588, 12.982605], [77.561565, 12.982606], [77.56146, 12.982614], [77.561355, 12.98263], [77.561252, 12.982652], [77.56115, 12.982682], [77.561051, 12.982718], [77.560955, 12.982762], [77.560862, 12.982811], [77.560772, 12.982867], [77.560687, 12.982929], [77.560607, 12.982997], [77.560531, 12.98307], [77.560461, 12.983147], [77.560397, 12.98323], [77.560339, 12.983317], [77.560286, 12.983407], [77.560241, 12.983501], [77.560202, 12.983598], [77.560195, 12.983618], [77.560189, 12.983678], [77.56018, 12.983831], [77.560178, 12.983922], [77.560175, 12.984065], [77.560161, 12.984501], [77.560139, 12.984938], [77.560118, 12.985266], [77.560055, 12.986195], [77.560043, 12.986785], [77.559921, 12.987286], [77.559815, 12.987662], [77.559691, 12.987966], [77.559117, 12.988865], [77.557837, 12.991005], [77.555801, 12.993823], [77.555625, 12.99416], [77.55515, 12.994929], [77.554786, 12.995621], [77.554326, 12.996408], [77.553548, 12.997271], [77.553234, 12.997806], [77.553086, 12.998201], [77.553742, 12.998343], [77.553894, 12.998376], [77.554161, 12.998431], [77.55486, 12.998574], [77.555395, 12.99866], [77.555638, 12.998682], [77.55606, 12.99866], [77.55639, 12.998626], [77.556935, 12.998499], [77.557221, 12.998435], [77.557648, 12.998303], [77.558169, 12.998127], [77.559574, 12.99759], [77.560113, 12.997367], [77.560179, 12.997312], [77.560179, 12.997288], [77.560178, 12.997254], [77.560174, 12.997224], [77.560146, 12.99715], [77.560079, 12.997035], [77.559925, 12.99688], [77.559869, 12.996813], [77.559848, 12.996783], [77.55983, 12.996708], [77.559783, 12.996539], [77.559741, 12.996441], [77.559691, 12.996346], [77.559621, 12.996248], [77.559513, 12.996141], [77.559422, 12.996043], [77.559393, 12.995962], [77.559329, 12.995783], [77.559223, 12.995403], [77.559175, 12.995275], [77.559164, 12.995214], [77.559142, 12.995092], [77.559138, 12.995028], [77.559141, 12.995001], [77.559172, 12.994983], [77.559348, 12.994927], [77.559727, 12.994798], [77.560086, 12.994689], [77.560263, 12.994621], [77.560324, 12.994599], [77.560355, 12.994575], [77.560372, 12.994557], [77.560382, 12.994506], [77.560377, 12.994449], [77.560136, 12.994068], [77.560087, 12.993921]]]}}]}