{"type": "FeatureCollection", "features": [{"type": "Feature", "properties": {"region_id": "ward_276600-97", "name": "Dayananda Nagar", "parent": "zone_276600-7", "parent_name": "West"}, "geometry": {"type": "Polygon", "coordinates": [[[77.567758, 12.993408], [77.567785, 12.992628], [77.567786, 12.992611], [77.56782, 12.991782], [77.567843, 12.99122], [77.567867, 12.990444], [77.567878, 12.989756], [77.567918, 12.988854], [77.567924, 12.988718], [77.567926, 12.988624], [77.567926, 12.988605], [77.567926, 12.988578], [77.567919, 12.988544], [77.567915, 12.988505], [77.567907, 12.988477], [77.567882, 12.988453], [77.567857, 12.988436], [77.567794, 12.988417], [77.566803, 12.988467], [77.565696, 12.988517], [77.565069, 12.988535], [77.56504, 12.988318], [77.563964, 12.988385], [77.56396, 12.988374], [77.56394, 12.988175], [77.562263, 12.988275], [77.561476, 12.988282], [77.561446, 12.988281], [77.561446, 12.988284], [77.561429, 12.988391], [77.561403, 12.988475], [77.561364, 12.988543], [77.561316, 12.988593], [77.561298, 12.988612], [77.561279, 12.988625], [77.561258, 12.988644], [77.561189, 12.988692], [77.561168, 12.988734], [77.561158, 12.988765], [77.561163, 12.988839], [77.561147, 12.988975], [77.561118, 12.989339], [77.561088, 12.989541], [77.561063, 12.989636], [77.561024, 12.989807], [77.56103, 12.989875], [77.561061, 12.989956], [77.56108, 12.989982], [77.561082, 12.99], [77.561075, 12.990073], [77.56107, 12.990129], [77.56105, 12.990241], [77.561203, 12.990261], [77.56132, 12.990273], [77.561464, 12.990266], [77.561606, 12.990262], [77.561559, 12.990344], [77.561529, 12.990412], [77.561495, 12.990503], [77.561452, 12.990606], [77.561413, 12.990654], [77.561392, 12.990735], [77.561341, 12.990804], [77.561289, 12.990891], [77.56122, 12.990981], [77.56116, 12.991068], [77.561095, 12.991111], [77.561056, 12.991142], [77.56103, 12.991176], [77.560982, 12.991228], [77.560939, 12.991306], [77.5609, 12.991366], [77.560857, 12.991444], [77.560797, 12.991534], [77.560758, 12.991595], [77.560733, 12.991677], [77.560695, 12.991763], [77.560656, 12.99184], [77.560617, 12.991896], [77.560556, 12.991936], [77.560465, 12.992001], [77.560365, 12.992114], [77.560138, 12.992497], [77.560032, 12.992873], [77.56, 12.993266], [77.560023, 12.99373], [77.560087, 12.993921], [77.560328, 12.993913], [77.561802, 12.993856], [77.562127, 12.993838], [77.562724, 12.993746], [77.563293, 12.993709], [77.563472, 12.993707], [77.564015, 12.993637], [77.564725, 12.993541], [77.564893, 12.993521], [77.565542, 12.993482], [77.566622, 12.99345], [77.567682, 12.993411], [77.567758, 12.993408]]]}}]}