{"type": "FeatureCollection", "features": [{"type": "Feature", "properties": {"region_id": "ward_276600-46", "name": "Jayachamarajendra Nagar", "parent": "zone_276600-3", "parent_name": "East"}, "geometry": {"type": "Polygon", "coordinates": [[[77.600955, 13.022999], [77.600802, 13.022587], [77.600386, 13.021419], [77.600321, 13.021248], [77.599913, 13.020341], [77.599836, 13.02018], [77.599835, 13.020119], [77.599832, 13.020078], [77.599807, 13.019946], [77.59977, 13.019856], [77.59973, 13.019765], [77.599483, 13.019291], [77.599228, 13.018886], [77.599004, 13.018628], [77.598763, 13.01839], [77.598718, 13.018361], [77.598667, 13.018306], [77.598627, 13.018254], [77.598594, 13.018193], [77.598447, 13.01791], [77.598178, 13.017298], [77.597848, 13.016604], [77.597743, 13.016381], [77.597663, 13.016275], [77.597644, 13.016222], [77.597632, 13.016181], [77.597635, 13.016149], [77.597653, 13.016093], [77.597659, 13.01595], [77.597671, 13.015879], [77.597667, 13.01578], [77.597654, 13.015727], [77.597629, 13.015646], [77.597602, 13.015596], [77.597574, 13.015535], [77.597535, 13.015447], [77.597019, 13.014548], [77.596411, 13.013573], [77.595893, 13.012755], [77.595809, 13.012657], [77.595779, 13.012553], [77.595724, 13.012391], [77.595449, 13.011522], [77.595486, 13.011465], [77.595499, 13.011445], [77.595647, 13.011351], [77.595752, 13.011302], [77.595455, 13.010467], [77.595328, 13.010143], [77.595321, 13.010045], [77.595302, 13.009975], [77.594956, 13.009103], [77.594744, 13.009215], [77.594236, 13.007625], [77.593764, 13.006596], [77.593558, 13.006175], [77.593445, 13.006012], [77.593262, 13.005668], [77.593215, 13.005689], [77.5932, 13.005739], [77.593084, 13.006042], [77.593031, 13.006179], [77.592739, 13.006711], [77.592483, 13.007107], [77.592315, 13.007366], [77.591848, 13.00812], [77.591132, 13.009216], [77.590645, 13.009944], [77.591624, 13.010616], [77.592958, 13.011569], [77.593428, 13.011782], [77.593538, 13.01181], [77.593584, 13.011831], [77.59364, 13.011847], [77.593696, 13.011858], [77.593994, 13.011853], [77.594177, 13.011851], [77.59393, 13.012208], [77.593828, 13.012352], [77.593802, 13.012395], [77.593651, 13.012652], [77.593595, 13.012775], [77.593558, 13.012931], [77.593559, 13.013025], [77.593581, 13.013284], [77.593636, 13.013547], [77.593642, 13.013633], [77.593643, 13.013722], [77.593573, 13.013973], [77.593512, 13.014087], [77.593408, 13.014243], [77.593346, 13.014329], [77.593237, 13.014429], [77.593184, 13.014467], [77.593103, 13.014515], [77.593026, 13.014535], [77.592868, 13.014593], [77.592807, 13.014635], [77.592792, 13.014646], [77.592754, 13.014688], [77.592735, 13.014741], [77.592708, 13.014906], [77.592699, 13.014977], [77.592704, 13.015024], [77.592696, 13.015114], [77.592689, 13.015198], [77.592703, 13.01527], [77.592718, 13.015299], [77.592757, 13.015389], [77.592805, 13.015555], [77.59285, 13.0157], [77.592856, 13.01576], [77.592857, 13.015819], [77.592859, 13.015855], [77.592942, 13.015854], [77.593221, 13.015806], [77.593518, 13.015803], [77.593815, 13.0158], [77.594113, 13.015865], [77.594348, 13.015929], [77.594418, 13.015927], [77.594475, 13.015909], [77.594561, 13.015897], [77.59461, 13.015891], [77.594648, 13.015902], [77.59467, 13.015924], [77.594679, 13.015943], [77.594697, 13.015973], [77.594718, 13.016041], [77.59474, 13.016114], [77.594761, 13.016222], [77.594769, 13.016267], [77.594794, 13.016317], [77.594808, 13.016418], [77.594806, 13.016528], [77.594814, 13.016631], [77.595051, 13.016663], [77.595002, 13.017397], [77.594753, 13.017554], [77.594688, 13.017576], [77.59465, 13.017593], [77.59462, 13.017606], [77.594594, 13.017625], [77.594576, 13.01764], [77.594559, 13.017656], [77.594553, 13.017674], [77.594546, 13.017688], [77.594543, 13.017707], [77.594538, 13.01773], [77.594541, 13.0178], [77.59459, 13.017962], [77.594687, 13.018357], [77.59474, 13.018508], [77.593955, 13.018735], [77.594085, 13.019217], [77.594225, 13.01971], [77.59437, 13.020196], [77.594378, 13.020226], [77.594355, 13.02023], [77.59359, 13.020423], [77.593776, 13.021028], [77.593815, 13.021185], [77.593984, 13.021787], [77.594039, 13.021973], [77.594194, 13.022585], [77.59428, 13.022878], [77.594371, 13.023219], [77.594497, 13.023698], [77.594742, 13.023634], [77.595164, 13.023529], [77.595688, 13.023384], [77.596111, 13.023269], [77.596231, 13.023626], [77.59647, 13.023558], [77.596816, 13.023461], [77.597016, 13.024158], [77.597041, 13.024231], [77.597093, 13.024678], [77.59711, 13.024972], [77.597154, 13.024975], [77.598003, 13.024908], [77.598031, 13.024906], [77.598033, 13.024922], [77.598072, 13.025243], [77.598098, 13.025459], [77.598159, 13.025473], [77.598482, 13.025487], [77.598743, 13.025499], [77.599154, 13.025558], [77.599565, 13.025586], [77.600033, 13.025571], [77.600399, 13.025563], [77.600398, 13.025517], [77.600421, 13.025386], [77.600436, 13.025372], [77.600435, 13.02537], [77.600467, 13.025212], [77.60046, 13.024911], [77.600371, 13.024561], [77.600309, 13.02443], [77.599992, 13.023717], [77.599908, 13.023525], [77.600907, 13.023032], [77.600955, 13.022999]]]}}]}