{"type": "FeatureCollection", "features": [{"type": "Feature", "properties": {"region_id": "ward_276600-105", "name": "Agrahara Dasarahalli", "parent": "zone_276600-7", "parent_name": "West"}, "geometry": {"type": "Polygon", "coordinates": [[[77.542428, 12.985678], [77.542423, 12.985595], [77.542383, 12.985119], [77.542057, 12.985209], [77.541938, 12.985232], [77.541879, 12.985233], [77.541834, 12.985193], [77.541818, 12.985128], [77.54181, 12.985036], [77.541808, 12.98492], [77.541803, 12.984741], [77.541844, 12.984379], [77.541897, 12.983784], [77.542029, 12.983169], [77.542565, 12.983294], [77.542662, 12.982821], [77.542788, 12.98224], [77.542859, 12.981658], [77.542841, 12.981249], [77.542774, 12.980846], [77.544341, 12.980804], [77.544255, 12.979227], [77.54418, 12.978953], [77.54403, 12.978237], [77.544418, 12.978121], [77.544802, 12.977979], [77.545097, 12.977865], [77.545327, 12.977761], [77.545593, 12.97761], [77.545893, 12.977354], [77.546488, 12.97691], [77.546903, 12.976602], [77.547474, 12.976021], [77.547557, 12.975927], [77.548179, 12.975253], [77.548364, 12.97506], [77.548033, 12.974598], [77.548014, 12.974576], [77.54792, 12.97444], [77.547898, 12.974409], [77.547893, 12.974403], [77.547841, 12.974356], [77.547785, 12.974315], [77.547724, 12.97428], [77.54766, 12.974251], [77.547593, 12.97423], [77.547524, 12.974216], [77.547454, 12.974209], [77.547384, 12.97421], [77.547314, 12.974218], [77.547275, 12.974226], [77.546247, 12.974203], [77.54505, 12.97417], [77.544257, 12.974164], [77.54347, 12.974068], [77.542208, 12.973805], [77.54207, 12.974622], [77.54216, 12.975501], [77.542357, 12.976919], [77.541347, 12.977053], [77.540584, 12.97715], [77.540797, 12.978939], [77.540507, 12.97906], [77.54026, 12.979163], [77.540208, 12.979185], [77.540121, 12.979224], [77.53967, 12.979426], [77.53929, 12.979585], [77.539247, 12.979602], [77.537914, 12.98019], [77.536714, 12.980715], [77.536734, 12.980736], [77.536782, 12.980786], [77.536917, 12.981069], [77.536919, 12.981075], [77.537132, 12.98167], [77.537187, 12.981977], [77.537206, 12.982123], [77.537236, 12.982357], [77.537241, 12.982395], [77.537238, 12.982396], [77.537255, 12.982524], [77.53725, 12.98268], [77.537214, 12.982831], [77.537071, 12.983251], [77.537022, 12.983408], [77.537004, 12.983565], [77.537038, 12.983714], [77.537059, 12.983908], [77.537055, 12.984215], [77.537167, 12.985165], [77.537303, 12.986577], [77.537417, 12.987746], [77.537437, 12.987877], [77.537457, 12.987971], [77.53754, 12.987957], [77.538252, 12.987748], [77.538906, 12.987457], [77.539175, 12.9873], [77.539205, 12.987284], [77.541045, 12.986309], [77.541832, 12.985882], [77.542107, 12.985799], [77.542426, 12.985679], [77.542428, 12.985678]]]}}]}