{"type": "FeatureCollection", "features": [{"type": "Feature", "properties": {"region_id": "ward_276600-53", "name": "Basavanapura", "parent": "zone_276600-4", "parent_name": "Mahadevapura"}, "geometry": {"type": "Polygon", "coordinates": [[[77.728026, 13.01211], [77.724774, 13.01257], [77.723574, 13.012248], [77.72091, 13.011735], [77.720632, 13.010621], [77.720326, 13.010401], [77.720133, 13.010032], [77.720088, 13.010032], [77.719839, 13.010047], [77.719583, 13.010063], [77.719375, 13.01009], [77.719257, 13.01008], [77.719239, 13.010056], [77.719218, 13.010021], [77.719236, 13.009776], [77.719269, 13.009524], [77.719291, 13.009391], [77.719319, 13.009273], [77.719342, 13.009117], [77.71932, 13.008829], [77.719267, 13.00869], [77.719222, 13.00843], [77.719138, 13.007592], [77.71904, 13.006953], [77.718959, 13.006445], [77.718946, 13.006128], [77.718912, 13.006063], [77.718712, 13.00565], [77.718266, 13.00471], [77.718185, 13.004532], [77.717791, 13.004513], [77.717207, 13.004486], [77.716497, 13.004445], [77.716249, 13.004446], [77.715551, 13.004455], [77.715244, 13.004473], [77.714516, 13.004536], [77.713944, 13.004593], [77.713534, 13.004605], [77.713167, 13.004581], [77.712671, 13.004504], [77.712327, 13.004428], [77.712031, 13.00441], [77.711546, 13.00436], [77.710956, 13.004315], [77.71036, 13.004292], [77.709641, 13.004269], [77.709043, 13.004268], [77.708533, 13.004258], [77.707602, 13.004243], [77.70724, 13.004284], [77.70722, 13.004285], [77.707247, 13.004243], [77.707246, 13.004204], [77.707235, 13.004153], [77.707166, 13.003774], [77.707064, 13.00315], [77.706949, 13.002776], [77.70677, 13.002297], [77.706594, 13.001794], [77.706475, 13.001085], [77.706399, 13.000749], [77.70607, 12.999279], [77.705385, 12.999366], [77.704497, 12.999468], [77.704346, 12.999508], [77.70432, 12.999515], [77.70432, 12.99951], [77.704021, 12.999528], [77.70088, 12.999721], [77.699141, 12.999779], [77.698969, 12.999781], [77.699148, 13.000502], [77.699225, 13.000803], [77.699378, 13.001635], [77.699389, 13.001694], [77.699391, 13.001709], [77.699511, 13.00241], [77.699565, 13.00282], [77.699571, 13.003303], [77.699734, 13.003899], [77.699812, 13.004673], [77.69985, 13.005233], [77.69986, 13.00527], [77.69977, 13.005563], [77.699974, 13.006174], [77.699568, 13.006308], [77.699039, 13.006522], [77.69887, 13.006595], [77.698633, 13.006771], [77.698328, 13.006966], [77.698004, 13.007111], [77.697623, 13.007299], [77.69725, 13.007576], [77.696862, 13.007864], [77.696604, 13.008012], [77.696381, 13.00812], [77.696338, 13.008128], [77.695959, 13.008242], [77.695827, 13.008288], [77.695765, 13.00831], [77.695728, 13.008348], [77.695783, 13.008384], [77.695858, 13.008394], [77.696718, 13.009295], [77.696845, 13.009489], [77.697295, 13.009303], [77.697443, 13.009202], [77.697735, 13.009433], [77.6982, 13.009139], [77.698694, 13.009387], [77.699873, 13.009952], [77.70025, 13.010134], [77.70072, 13.010291], [77.701395, 13.010454], [77.701851, 13.01056], [77.701964, 13.010586], [77.70218, 13.0106], [77.70224, 13.010574], [77.702274, 13.010523], [77.702325, 13.010446], [77.702486, 13.010348], [77.702488, 13.011253], [77.702569, 13.012778], [77.702608, 13.013398], [77.705414, 13.013384], [77.705673, 13.013254], [77.705945, 13.013053], [77.706538, 13.013202], [77.707045, 13.013324], [77.707337, 13.013675], [77.70757, 13.0138], [77.707845, 13.013882], [77.708248, 13.013821], [77.70939, 13.013993], [77.709868, 13.014144], [77.710462, 13.014279], [77.710722, 13.014348], [77.710741, 13.014744], [77.710987, 13.014826], [77.711236, 13.015135], [77.711171, 13.0157], [77.711198, 13.015802], [77.711303, 13.015885], [77.711366, 13.016139], [77.711571, 13.016097], [77.711652, 13.016206], [77.711815, 13.016586], [77.71163, 13.016829], [77.711518, 13.017184], [77.711553, 13.017434], [77.711589, 13.017603], [77.711626, 13.017814], [77.711723, 13.017991], [77.71182, 13.018159], [77.711908, 13.018294], [77.712065, 13.018381], [77.712748, 13.018827], [77.713388, 13.019259], [77.713647, 13.019442], [77.713746, 13.019597], [77.713798, 13.019689], [77.713954, 13.019919], [77.714066, 13.020407], [77.71442, 13.020368], [77.713205, 13.022289], [77.713423, 13.022415], [77.712085, 13.024156], [77.711899, 13.0257], [77.711774, 13.026542], [77.71163, 13.027501], [77.711447, 13.027601], [77.71103, 13.028955], [77.71151, 13.029522], [77.712535, 13.030969], [77.713268, 13.032262], [77.71399, 13.032579], [77.716428, 13.03315], [77.71987, 13.034523], [77.722985, 13.036387], [77.72387, 13.036377], [77.724418, 13.035992], [77.725061, 13.034089], [77.725433, 13.03273], [77.725477, 13.031754], [77.72547, 13.031104], [77.725295, 13.030239], [77.725168, 13.028777], [77.725367, 13.026716], [77.728309, 13.022891], [77.72858, 13.022401], [77.728571, 13.021534], [77.728993, 13.020606], [77.729935, 13.019948], [77.729984, 13.019351], [77.72992, 13.018539], [77.728342, 13.015792], [77.727998, 13.014603], [77.727989, 13.013845], [77.727928, 13.013303], [77.727923, 13.012816], [77.727969, 13.012501], [77.727969, 13.012499], [77.728026, 13.01211]]]}}]}