{"type": "FeatureCollection", "features": [{"type": "Feature", "properties": {"region_id": "ward_276600-43", "name": "Nandini Layout", "parent": "zone_276600-7", "parent_name": "West"}, "geometry": {"type": "Polygon", "coordinates": [[[77.538067, 13.019997], [77.538019, 13.019222], [77.537889, 13.018734], [77.537599, 13.018238], [77.537429, 13.018052], [77.537305, 13.017889], [77.53716, 13.017674], [77.537142, 13.017626], [77.537221, 13.017585], [77.537243, 13.017636], [77.538386, 13.017534], [77.539623, 13.01737], [77.539582, 13.016933], [77.539516, 13.016573], [77.539459, 13.016345], [77.539253, 13.015763], [77.539167, 13.01556], [77.539059, 13.015319], [77.538966, 13.015076], [77.538855, 13.014708], [77.538777, 13.014502], [77.538732, 13.014326], [77.538545, 13.013909], [77.538263, 13.013504], [77.538179, 13.013409], [77.537835, 13.012947], [77.537414, 13.012355], [77.537661, 13.012091], [77.537837, 13.011809], [77.537881, 13.011594], [77.538643, 13.011508], [77.538616, 13.011634], [77.538712, 13.011669], [77.538811, 13.011704], [77.538889, 13.011764], [77.539868, 13.012529], [77.539873, 13.012484], [77.539894, 13.012288], [77.540127, 13.012356], [77.54018, 13.012356], [77.540204, 13.012332], [77.540214, 13.012279], [77.539858, 13.011132], [77.539593, 13.011255], [77.539384, 13.011307], [77.539228, 13.010785], [77.538965, 13.010193], [77.538871, 13.010004], [77.538622, 13.010134], [77.538208, 13.009726], [77.537471, 13.009363], [77.536967, 13.009331], [77.536738, 13.009316], [77.53767, 13.00919], [77.537633, 13.008723], [77.537545, 13.008014], [77.537444, 13.007354], [77.537366, 13.006959], [77.537857, 13.006727], [77.537459, 13.006495], [77.537391, 13.006524], [77.537043, 13.00675], [77.536792, 13.006914], [77.536822, 13.007004], [77.536837, 13.00708], [77.536832, 13.007094], [77.536789, 13.007128], [77.536683, 13.007191], [77.536432, 13.007345], [77.53624, 13.007485], [77.536206, 13.007514], [77.536172, 13.007529], [77.536143, 13.007534], [77.536099, 13.007529], [77.53607, 13.007468], [77.536011, 13.007405], [77.535885, 13.00722], [77.535708, 13.007086], [77.535526, 13.007088], [77.535358, 13.007139], [77.535162, 13.007328], [77.534946, 13.007574], [77.534841, 13.007655], [77.534778, 13.007679], [77.53472, 13.007696], [77.534669, 13.007715], [77.534624, 13.007724], [77.534579, 13.007744], [77.534551, 13.007733], [77.53452, 13.007721], [77.534461, 13.007655], [77.534437, 13.007603], [77.534354, 13.007537], [77.534285, 13.007514], [77.534091, 13.007435], [77.533964, 13.007408], [77.533872, 13.007366], [77.533769, 13.007295], [77.533613, 13.007183], [77.533524, 13.007065], [77.533411, 13.006942], [77.533328, 13.006834], [77.533215, 13.006668], [77.533072, 13.006462], [77.533052, 13.006432], [77.532827, 13.00622], [77.532578, 13.006051], [77.532363, 13.005944], [77.531998, 13.005753], [77.531793, 13.005607], [77.531555, 13.005494], [77.531292, 13.005489], [77.531103, 13.005528], [77.530934, 13.005597], [77.53078, 13.005674], [77.530635, 13.005723], [77.530368, 13.005783], [77.530308, 13.005776], [77.530163, 13.005776], [77.530067, 13.005769], [77.529973, 13.005759], [77.529904, 13.005745], [77.5299, 13.005789], [77.529894, 13.005791], [77.529891, 13.00589], [77.529888, 13.005974], [77.52987, 13.006248], [77.529921, 13.006665], [77.530001, 13.007008], [77.530035, 13.007304], [77.530013, 13.007385], [77.530019, 13.007504], [77.53007, 13.007625], [77.530114, 13.007686], [77.530177, 13.007738], [77.530234, 13.007773], [77.530288, 13.007808], [77.530343, 13.007838], [77.530391, 13.007969], [77.530391, 13.008062], [77.530397, 13.008131], [77.530414, 13.008234], [77.530417, 13.008325], [77.5304, 13.008379], [77.530356, 13.008607], [77.530328, 13.008663], [77.53029, 13.008711], [77.530259, 13.008747], [77.530201, 13.008815], [77.530026, 13.008873], [77.529697, 13.008928], [77.52943, 13.008936], [77.529178, 13.008967], [77.529047, 13.008963], [77.528862, 13.00894], [77.528808, 13.008941], [77.528762, 13.008949], [77.528718, 13.008977], [77.528677, 13.009], [77.528621, 13.009087], [77.528579, 13.009149], [77.528406, 13.009304], [77.528199, 13.009485], [77.528044, 13.009648], [77.527989, 13.009756], [77.527938, 13.009844], [77.527937, 13.009958], [77.527909, 13.010059], [77.527862, 13.010197], [77.527805, 13.010302], [77.527738, 13.010403], [77.527602, 13.010515], [77.527807, 13.010771], [77.528548, 13.011509], [77.529098, 13.012175], [77.529573, 13.012874], [77.530013, 13.013518], [77.530429, 13.014292], [77.530652, 13.014783], [77.531041, 13.015844], [77.531344, 13.016864], [77.531661, 13.017923], [77.531904, 13.018885], [77.532037, 13.019584], [77.532186, 13.020412], [77.532329, 13.021156], [77.532379, 13.021354], [77.532524, 13.021935], [77.532561, 13.02204], [77.532581, 13.022074], [77.532598, 13.022088], [77.532626, 13.022097], [77.532646, 13.022102], [77.532999, 13.02203], [77.533722, 13.021888], [77.533856, 13.021858], [77.53436, 13.021783], [77.534685, 13.021742], [77.534941, 13.02172], [77.535154, 13.021666], [77.535294, 13.021588], [77.535671, 13.021391], [77.536029, 13.021188], [77.536879, 13.020702], [77.537547, 13.020311], [77.537756, 13.020186], [77.538067, 13.019997]]]}}]}