{"type": "FeatureCollection", "features": [{"type": "Feature", "properties": {"region_id": "ward_276600-56", "name": "A Narayanapura", "parent": "zone_276600-4", "parent_name": "Mahadevapura"}, "geometry": {"type": "Polygon", "coordinates": [[[77.683673, 12.99638], [77.683486, 12.996271], [77.683422, 12.996226], [77.683304, 12.996123], [77.683189, 12.995986], [77.68314, 12.995894], [77.683104, 12.995775], [77.683087, 12.995695], [77.683083, 12.995618], [77.683078, 12.995553], [77.683077, 12.995499], [77.683085, 12.995437], [77.68308, 12.995364], [77.683067, 12.995226], [77.683042, 12.995165], [77.682999, 12.995107], [77.682963, 12.99503], [77.682278, 12.994996], [77.682128, 12.995005], [77.682128, 12.994914], [77.681988, 12.994865], [77.681212, 12.994823], [77.680667, 12.994796], [77.680394, 12.994778], [77.679579, 12.994733], [77.6791, 12.994729], [77.67861, 12.99481], [77.678255, 12.994853], [77.677993, 12.994858], [77.677822, 12.994872], [77.677595, 12.994926], [77.677554, 12.994925], [77.677264, 12.99503], [77.677124, 12.995078], [77.676976, 12.99486], [77.676749, 12.994481], [77.676502, 12.994203], [77.676192, 12.993865], [77.67596, 12.993603], [77.67586, 12.993441], [77.675812, 12.993273], [77.675784, 12.993116], [77.675803, 12.992993], [77.675864, 12.992835], [77.675879, 12.992743], [77.675878, 12.992687], [77.675914, 12.992651], [77.676353, 12.992648], [77.67663, 12.992567], [77.676284, 12.991303], [77.67602, 12.991384], [77.675564, 12.991508], [77.675477, 12.991225], [77.675791, 12.991064], [77.675742, 12.990666], [77.675678, 12.990123], [77.675845, 12.990121], [77.675853, 12.989976], [77.675838, 12.988574], [77.676002, 12.987477], [77.674664, 12.986934], [77.674142, 12.986923], [77.67427, 12.986754], [77.674481, 12.986624], [77.673732, 12.9867], [77.673506, 12.986614], [77.673123, 12.986469], [77.673025, 12.986432], [77.67271, 12.986307], [77.672619, 12.986274], [77.672199, 12.986113], [77.67214, 12.98609], [77.671903, 12.985999], [77.67176, 12.985945], [77.671497, 12.986066], [77.671296, 12.986175], [77.671172, 12.986222], [77.670999, 12.986046], [77.670843, 12.986081], [77.670552, 12.986135], [77.670211, 12.98618], [77.670165, 12.986183], [77.669999, 12.986195], [77.669937, 12.9862], [77.669822, 12.986204], [77.669797, 12.986203], [77.669482, 12.98619], [77.669432, 12.986188], [77.669354, 12.986174], [77.669259, 12.986157], [77.669234, 12.986152], [77.669166, 12.986129], [77.66884, 12.986016], [77.668804, 12.986003], [77.668605, 12.985911], [77.668573, 12.985896], [77.66842, 12.985823], [77.668417, 12.985823], [77.668375, 12.985823], [77.668369, 12.98582], [77.668362, 12.985821], [77.668285, 12.985751], [77.668283, 12.985749], [77.668239, 12.985725], [77.668056, 12.985625], [77.667993, 12.985595], [77.667955, 12.985609], [77.667934, 12.985633], [77.667825, 12.985826], [77.667729, 12.98596], [77.667469, 12.986034], [77.667445, 12.986092], [77.667451, 12.98631], [77.66741, 12.987368], [77.667423, 12.987948], [77.667416, 12.988548], [77.667452, 12.988978], [77.66755, 12.98942], [77.667699, 12.989691], [77.667785, 12.989755], [77.667867, 12.989777], [77.667984, 12.989793], [77.668173, 12.989985], [77.668123, 12.990015], [77.668316, 12.990215], [77.667945, 12.990406], [77.667821, 12.990511], [77.667214, 12.990873], [77.66708, 12.990966], [77.666873, 12.991114], [77.666565, 12.991351], [77.666365, 12.991521], [77.666067, 12.99179], [77.665701, 12.992187], [77.66556, 12.992354], [77.665205, 12.992802], [77.665123, 12.992931], [77.664866, 12.993337], [77.664691, 12.993611], [77.66419, 12.994453], [77.66413, 12.994561], [77.664128, 12.994564], [77.664126, 12.994567], [77.664065, 12.994676], [77.663804, 12.995106], [77.663799, 12.995114], [77.663607, 12.995436], [77.663363, 12.995852], [77.663332, 12.995905], [77.66322, 12.996092], [77.662786, 12.996828], [77.66291, 12.996895], [77.663381, 12.997177], [77.66369, 12.997335], [77.664042, 12.997515], [77.664037, 12.997522], [77.664421, 12.997735], [77.665505, 12.998346], [77.666627, 12.998898], [77.667095, 12.999097], [77.667839, 12.999359], [77.668834, 12.999741], [77.669561, 12.99997], [77.669695, 13.000001], [77.670355, 13.000166], [77.671114, 13.000338], [77.672379, 13.000537], [77.675322, 13.000757], [77.677111, 13.000741], [77.677548, 13.000762], [77.6772, 13.000563], [77.676653, 13.000265], [77.677068, 13.000317], [77.67761, 13.000353], [77.678847, 13.00037], [77.680593, 13.000431], [77.681001, 13.000384], [77.681154, 13.000298], [77.682131, 12.998932], [77.683673, 12.99638]]]}}]}