{"type": "FeatureCollection", "features": [{"type": "Feature", "properties": {"region_id": "ward_276600-40", "name": "Dodda Bidarakallu", "parent": "zone_276600-5", "parent_name": "Rajarajeshwari Nagar"}, "geometry": {"type": "Polygon", "coordinates": [[[77.492553, 13.051653], [77.493006, 13.051568], [77.493642, 13.051453], [77.494303, 13.051308], [77.494494, 13.051262], [77.494584, 13.051241], [77.494463, 13.050744], [77.494281, 13.049995], [77.494238, 13.049842], [77.494406, 13.04978], [77.494405, 13.049764], [77.494358, 13.046605], [77.494745, 13.044173], [77.495156, 13.042697], [77.496226, 13.042037], [77.496248, 13.042024], [77.496236, 13.041995], [77.496373, 13.041897], [77.496763, 13.041665], [77.496605, 13.040806], [77.496268, 13.040784], [77.496233, 13.040599], [77.4962, 13.039948], [77.496222, 13.039447], [77.496302, 13.03923], [77.496543, 13.038702], [77.497015, 13.037842], [77.497118, 13.037573], [77.497388, 13.037216], [77.497461, 13.037015], [77.497485, 13.036056], [77.497524, 13.035382], [77.497494, 13.035011], [77.497483, 13.034921], [77.497305, 13.032594], [77.497239, 13.03165], [77.497188, 13.031384], [77.496943, 13.030551], [77.496833, 13.030147], [77.496569, 13.029174], [77.496313, 13.028225], [77.496296, 13.028161], [77.496071, 13.027221], [77.495726, 13.026037], [77.495407, 13.024912], [77.495169, 13.023852], [77.495086, 13.023483], [77.494979, 13.023294], [77.494889, 13.02311], [77.494794, 13.022818], [77.494692, 13.022677], [77.494393, 13.022241], [77.494225, 13.022037], [77.494026, 13.021909], [77.493814, 13.021774], [77.493707, 13.021676], [77.493541, 13.021299], [77.493549, 13.021152], [77.493614, 13.021066], [77.493701, 13.021005], [77.493771, 13.021], [77.493806, 13.020999], [77.493903, 13.020998], [77.494064, 13.020894], [77.494216, 13.020763], [77.494691, 13.020418], [77.4948, 13.020344], [77.494948, 13.020205], [77.495092, 13.020096], [77.495269, 13.019832], [77.49536, 13.019302], [77.495591, 13.018441], [77.495601, 13.018349], [77.495644, 13.018292], [77.495744, 13.018223], [77.495914, 13.018135], [77.496024, 13.018112], [77.496225, 13.018059], [77.496378, 13.018006], [77.496527, 13.017935], [77.496702, 13.017873], [77.496833, 13.017838], [77.496956, 13.017819], [77.497061, 13.017844], [77.497181, 13.017904], [77.49738, 13.017837], [77.4976, 13.017774], [77.497662, 13.017731], [77.497698, 13.017637], [77.498273, 13.016048], [77.498455, 13.015438], [77.498754, 13.014648], [77.499023, 13.013915], [77.499519, 13.01298], [77.499692, 13.012621], [77.499815, 13.012443], [77.499847, 13.012226], [77.499874, 13.012117], [77.499873, 13.012022], [77.499756, 13.011907], [77.498273, 13.010294], [77.498187, 13.0102], [77.497474, 13.009424], [77.496808, 13.0087], [77.496679, 13.00856], [77.491739, 13.003185], [77.491407, 13.00307], [77.490897, 13.002566], [77.490334, 13.001949], [77.490072, 13.001672], [77.48952, 13.000928], [77.489189, 13.000245], [77.488874, 12.99979], [77.488338, 12.999338], [77.487149, 12.998384], [77.485443, 12.997498], [77.483777, 12.996726], [77.48158, 12.996048], [77.481137, 12.995735], [77.480841, 12.99462], [77.480301, 12.993799], [77.479474, 12.99405], [77.479048, 12.994179], [77.478692, 12.994015], [77.478629, 12.993718], [77.478504, 12.993381], [77.478419, 12.993004], [77.478415, 12.992666], [77.47863, 12.992531], [77.478679, 12.989659], [77.478645, 12.987461], [77.478344, 12.987248], [77.478109, 12.987035], [77.477833, 12.986656], [77.47683, 12.986119], [77.476438, 12.985805], [77.475708, 12.985355], [77.474899, 12.984753], [77.474274, 12.984415], [77.47403, 12.984672], [77.47346, 12.984652], [77.472546, 12.984467], [77.472444, 12.984495], [77.472178, 12.984594], [77.471543, 12.984843], [77.469426, 12.985724], [77.467774, 12.98639], [77.467445, 12.986678], [77.467364, 12.986882], [77.46737, 12.98741], [77.467388, 12.987565], [77.467571, 12.987763], [77.467754, 12.987964], [77.467798, 12.988028], [77.468741, 12.988962], [77.469246, 12.989554], [77.469737, 12.98998], [77.469761, 12.990038], [77.469742, 12.990073], [77.469107, 12.990368], [77.46927, 12.99101], [77.469481, 12.991333], [77.469789, 12.991719], [77.469846, 12.991897], [77.469946, 12.991958], [77.470142, 12.992396], [77.470257, 12.993562], [77.470311, 12.994224], [77.470369, 12.994254], [77.470505, 12.994243], [77.470506, 12.994332], [77.470551, 12.994738], [77.470596, 12.995144], [77.470766, 12.995508], [77.471018, 12.995831], [77.471933, 12.996107], [77.472229, 12.996714], [77.472314, 12.996957], [77.472857, 12.997318], [77.472941, 12.997479], [77.472943, 12.997683], [77.472696, 12.997888], [77.472368, 12.998176], [77.472122, 12.998503], [77.472086, 12.999032], [77.472339, 12.999518], [77.473006, 12.999877], [77.473258, 13.000159], [77.473553, 13.000644], [77.473639, 13.001009], [77.473684, 13.001294], [77.473687, 13.001659], [77.473318, 13.002029], [77.473155, 13.002356], [77.473117, 13.002681], [77.473365, 13.003269], [77.47355, 13.003961], [77.473392, 13.003994], [77.473465, 13.004344], [77.473065, 13.005771], [77.472946, 13.006301], [77.47295, 13.006748], [77.473036, 13.007032], [77.473453, 13.007353], [77.473664, 13.007676], [77.473668, 13.008082], [77.473377, 13.008348], [77.473155, 13.008444], [77.472722, 13.008864], [77.471141, 13.008228], [77.470642, 13.008111], [77.470309, 13.008033], [77.470146, 13.008238], [77.470149, 13.008523], [77.470155, 13.009214], [77.47016, 13.009661], [77.470246, 13.009985], [77.470579, 13.010104], [77.47091, 13.010101], [77.471325, 13.010137], [77.471368, 13.0103], [77.471496, 13.010624], [77.471923, 13.01188], [77.472343, 13.012404], [77.472847, 13.01305], [77.474017, 13.014055], [77.475202, 13.016442], [77.475886, 13.018509], [77.47695, 13.021263], [77.477163, 13.02187], [77.477169, 13.022521], [77.476801, 13.023012], [77.476515, 13.023381], [77.476227, 13.023668], [77.476192, 13.024319], [77.476916, 13.026182], [77.477017, 13.028051], [77.477443, 13.029144], [77.477613, 13.02959], [77.477658, 13.029996], [77.477455, 13.030364], [77.476223, 13.031554], [77.475691, 13.032291], [77.475613, 13.03282], [77.47629, 13.034155], [77.476835, 13.034801], [77.477005, 13.035124], [77.477463, 13.035364], [77.478047, 13.035765], [77.478713, 13.035962], [77.47917, 13.036038], [77.479462, 13.03628], [77.479759, 13.036887], [77.479804, 13.037293], [77.479808, 13.037699], [77.479811, 13.038024], [77.479815, 13.038349], [77.48007, 13.038303], [77.480181, 13.038349], [77.480255, 13.038741], [77.480317, 13.038792], [77.480651, 13.039114], [77.480737, 13.039357], [77.481161, 13.040369], [77.481182, 13.040447], [77.481151, 13.04102], [77.481332, 13.041034], [77.481758, 13.041073], [77.482082, 13.04116], [77.482142, 13.041222], [77.482146, 13.041297], [77.482058, 13.041439], [77.482024, 13.041504], [77.481978, 13.041543], [77.481892, 13.04159], [77.481843, 13.041641], [77.481726, 13.041853], [77.481659, 13.042052], [77.481618, 13.042536], [77.481567, 13.042646], [77.481547, 13.042712], [77.481543, 13.04275], [77.481559, 13.042806], [77.481508, 13.04285], [77.481464, 13.042892], [77.48144, 13.042925], [77.481348, 13.043], [77.481251, 13.043074], [77.481126, 13.043182], [77.480969, 13.04326], [77.480892, 13.043277], [77.480851, 13.04329], [77.480827, 13.043305], [77.480827, 13.043327], [77.480893, 13.043747], [77.480904, 13.043767], [77.480926, 13.043783], [77.480958, 13.043779], [77.480974, 13.04377], [77.481002, 13.043744], [77.481102, 13.043585], [77.481137, 13.04354], [77.481154, 13.043527], [77.481175, 13.043515], [77.481192, 13.043534], [77.481204, 13.043541], [77.481208, 13.043563], [77.481196, 13.043632], [77.481246, 13.043864], [77.481251, 13.043911], [77.481243, 13.043945], [77.481195, 13.043985], [77.481129, 13.044024], [77.481051, 13.044111], [77.480665, 13.044954], [77.480492, 13.045291], [77.480305, 13.04546], [77.480071, 13.045678], [77.479922, 13.045722], [77.479808, 13.045749], [77.479729, 13.045789], [77.479536, 13.046191], [77.479597, 13.046633], [77.479702, 13.047037], [77.479932, 13.047498], [77.480181, 13.047471], [77.480545, 13.047485], [77.480743, 13.047578], [77.480824, 13.047783], [77.48086, 13.048265], [77.480878, 13.048392], [77.481011, 13.048405], [77.481146, 13.04834], [77.481405, 13.048307], [77.481484, 13.048293], [77.481823, 13.048323], [77.481948, 13.048254], [77.483145, 13.047873], [77.48507, 13.047133], [77.485334, 13.047118], [77.486308, 13.046818], [77.486272, 13.046675], [77.486271, 13.046619], [77.486455, 13.04654], [77.487327, 13.046358], [77.487834, 13.04623], [77.488508, 13.046047], [77.489077, 13.045874], [77.489409, 13.045699], [77.490694, 13.045184], [77.490988, 13.045076], [77.491028, 13.045095], [77.491105, 13.045259], [77.491349, 13.045969], [77.491624, 13.046764], [77.491882, 13.047526], [77.492068, 13.048034], [77.492082, 13.048134], [77.492103, 13.048618], [77.492165, 13.049218], [77.49219, 13.04973], [77.492257, 13.050449], [77.492258, 13.050569], [77.491933, 13.050679], [77.491768, 13.050751], [77.491885, 13.051242], [77.491976, 13.051762], [77.492553, 13.051653]]]}}]}