{"type": "FeatureCollection", "features": [{"type": "Feature", "properties": {"region_id": "ward_276600-7", "name": "Byatarayanapura", "parent": "zone_276600-8", "parent_name": "Yelahanka"}, "geometry": {"type": "Polygon", "coordinates": [[[77.609767, 13.066657], [77.609709, 13.066467], [77.609641, 13.065864], [77.609574, 13.065291], [77.609452, 13.064477], [77.609369, 13.063925], [77.609221, 13.063428], [77.609139, 13.063429], [77.608923, 13.063451], [77.60857, 13.0635], [77.608288, 13.063528], [77.6082, 13.063449], [77.608127, 13.063344], [77.608013, 13.063224], [77.607935, 13.063129], [77.607852, 13.063075], [77.607692, 13.063011], [77.607502, 13.062948], [77.607245, 13.062915], [77.606982, 13.062792], [77.606744, 13.062578], [77.606579, 13.062499], [77.606254, 13.062347], [77.606007, 13.062254], [77.605832, 13.062215], [77.605738, 13.062125], [77.605553, 13.062022], [77.604944, 13.061721], [77.604061, 13.061207], [77.603798, 13.061079], [77.603622, 13.060924], [77.603316, 13.06058], [77.60301, 13.060277], [77.602753, 13.060254], [77.60226, 13.060199], [77.602049, 13.060181], [77.60148, 13.060176], [77.600946, 13.060197], [77.600439, 13.060207], [77.600181, 13.060144], [77.600123, 13.059989], [77.599973, 13.059794], [77.599791, 13.05962], [77.59962, 13.05942], [77.599494, 13.059135], [77.599389, 13.058965], [77.59924, 13.058951], [77.598953, 13.058964], [77.598845, 13.05891], [77.598775, 13.058654], [77.598788, 13.058373], [77.598706, 13.057885], [77.598563, 13.057449], [77.598352, 13.056948], [77.598044, 13.056438], [77.597855, 13.056018], [77.597925, 13.055851], [77.598431, 13.05567], [77.598895, 13.055409], [77.599437, 13.055187], [77.599248, 13.054786], [77.59956, 13.054708], [77.600854, 13.054343], [77.601315, 13.054243], [77.60194, 13.054105], [77.602236, 13.054032], [77.602773, 13.053795], [77.603355, 13.053593], [77.603846, 13.053377], [77.604311, 13.053186], [77.604354, 13.052949], [77.604259, 13.052659], [77.605144, 13.052398], [77.606085, 13.052102], [77.606811, 13.051914], [77.607027, 13.051896], [77.607133, 13.051774], [77.607423, 13.051485], [77.607729, 13.051336], [77.608066, 13.051182], [77.608249, 13.051024], [77.608325, 13.050902], [77.608739, 13.050808], [77.609087, 13.050749], [77.609507, 13.050649], [77.609829, 13.050545], [77.610233, 13.050385], [77.610329, 13.050278], [77.610383, 13.050057], [77.610426, 13.049724], [77.610585, 13.049718], [77.611, 13.049618], [77.611301, 13.049524], [77.611765, 13.049474], [77.612034, 13.048749], [77.612233, 13.047911], [77.611558, 13.047353], [77.611369, 13.046903], [77.611482, 13.046676], [77.611732, 13.046357], [77.612072, 13.045789], [77.612225, 13.045042], [77.612265, 13.044386], [77.612556, 13.043638], [77.612897, 13.043115], [77.613353, 13.042681], [77.613674, 13.042135], [77.613566, 13.042163], [77.613565, 13.042163], [77.613331, 13.042216], [77.61291, 13.042321], [77.61249, 13.042426], [77.612266, 13.042476], [77.611995, 13.042537], [77.611972, 13.04241], [77.611738, 13.041321], [77.611718, 13.04123], [77.611718, 13.041227], [77.611676, 13.040992], [77.611653, 13.040924], [77.611569, 13.040673], [77.611511, 13.040497], [77.611446, 13.040327], [77.611389, 13.040176], [77.611374, 13.040137], [77.611318, 13.039996], [77.611281, 13.039941], [77.611249, 13.039893], [77.610997, 13.03957], [77.610955, 13.0395], [77.610853, 13.039332], [77.61071, 13.039113], [77.610655, 13.039004], [77.610502, 13.038703], [77.610467, 13.038634], [77.610414, 13.03853], [77.610333, 13.038369], [77.610309, 13.038322], [77.610293, 13.038287], [77.610293, 13.038286], [77.610262, 13.038217], [77.61026, 13.038212], [77.610261, 13.038207], [77.610258, 13.038203], [77.610257, 13.038199], [77.61023, 13.038264], [77.610131, 13.038507], [77.610028, 13.038719], [77.609992, 13.038793], [77.609946, 13.038888], [77.609852, 13.039035], [77.609725, 13.039235], [77.609478, 13.03954], [77.609477, 13.039541], [77.609476, 13.039542], [77.609472, 13.039546], [77.60903, 13.039989], [77.608587, 13.040316], [77.608562, 13.040334], [77.60851, 13.040362], [77.608214, 13.040516], [77.608066, 13.040593], [77.607789, 13.040693], [77.607677, 13.040734], [77.607101, 13.040879], [77.607068, 13.040888], [77.606963, 13.040897], [77.60674, 13.040917], [77.606516, 13.040939], [77.605204, 13.040978], [77.605205, 13.040984], [77.604248, 13.041011], [77.602413, 13.041064], [77.601074, 13.041104], [77.599402, 13.041151], [77.597986, 13.041194], [77.59743, 13.041209], [77.596789, 13.041226], [77.595457, 13.041262], [77.595221, 13.041268], [77.595026, 13.041261], [77.594789, 13.041246], [77.594717, 13.041237], [77.59459, 13.041221], [77.594188, 13.041166], [77.593773, 13.041114], [77.593588, 13.041089], [77.593501, 13.041082], [77.593431, 13.041076], [77.593147, 13.041059], [77.593002, 13.041057], [77.59289, 13.041055], [77.59269, 13.041057], [77.592284, 13.041105], [77.59214, 13.041126], [77.591973, 13.041159], [77.591921, 13.041169], [77.591834, 13.041189], [77.591374, 13.041295], [77.591008, 13.041369], [77.590752, 13.041426], [77.590224, 13.041543], [77.589953, 13.041599], [77.589938, 13.041602], [77.590004, 13.041851], [77.590141, 13.042307], [77.590165, 13.042369], [77.590226, 13.042527], [77.59026, 13.042632], [77.590331, 13.042826], [77.590438, 13.043122], [77.590453, 13.043176], [77.590594, 13.043664], [77.590634, 13.04425], [77.590709, 13.044951], [77.590824, 13.04552], [77.591066, 13.046071], [77.59147, 13.046884], [77.591727, 13.047344], [77.592154, 13.048166], [77.59194, 13.04837], [77.591172, 13.048597], [77.590327, 13.048605], [77.589706, 13.048612], [77.588614, 13.048769], [77.587549, 13.049072], [77.586262, 13.049523], [77.585024, 13.049974], [77.585031, 13.050193], [77.585051, 13.050314], [77.585052, 13.050416], [77.584949, 13.050519], [77.584761, 13.050623], [77.584592, 13.050736], [77.584642, 13.050995], [77.58473, 13.051309], [77.585137, 13.052279], [77.585205, 13.052436], [77.583731, 13.053452], [77.583579, 13.053122], [77.583517, 13.053156], [77.582355, 13.053703], [77.581938, 13.054268], [77.58318, 13.056643], [77.583532, 13.057005], [77.586624, 13.055634], [77.587193, 13.055482], [77.587359, 13.056862], [77.58878, 13.05671], [77.588941, 13.057737], [77.588683, 13.057783], [77.588546, 13.057807], [77.58793, 13.057916], [77.587734, 13.059061], [77.587403, 13.060888], [77.587099, 13.062247], [77.587088, 13.062346], [77.5839, 13.064693], [77.58128, 13.066666], [77.582116, 13.067218], [77.583314, 13.067968], [77.584042, 13.068502], [77.585092, 13.069207], [77.586288, 13.070008], [77.586903, 13.070498], [77.587711, 13.071381], [77.588388, 13.072355], [77.588776, 13.073112], [77.589165, 13.073994], [77.589507, 13.074802], [77.589961, 13.075857], [77.590024, 13.076074], [77.590039, 13.076069], [77.590256, 13.076578], [77.59045, 13.077044], [77.590654, 13.077523], [77.590772, 13.077801], [77.5912, 13.078825], [77.59166, 13.079899], [77.592133, 13.081039], [77.59256, 13.08204], [77.592951, 13.082982], [77.593375, 13.083971], [77.59344, 13.084122], [77.593504, 13.084298], [77.593651, 13.084697], [77.59413, 13.084624], [77.594156, 13.084623], [77.594205, 13.084605], [77.594276, 13.084574], [77.594493, 13.084513], [77.595154, 13.084309], [77.595762, 13.084079], [77.596027, 13.083993], [77.5966, 13.083852], [77.597195, 13.083719], [77.597385, 13.083686], [77.597879, 13.083672], [77.598218, 13.083667], [77.598326, 13.083664], [77.598337, 13.083663], [77.598702, 13.083594], [77.599407, 13.083429], [77.599734, 13.083338], [77.599951, 13.083292], [77.600487, 13.083239], [77.601355, 13.083149], [77.601565, 13.083125], [77.602252, 13.083031], [77.602317, 13.083338], [77.602414, 13.083797], [77.602587, 13.084597], [77.602706, 13.085367], [77.602748, 13.085544], [77.602851, 13.08597], [77.602874, 13.085938], [77.603435, 13.085156], [77.60465, 13.084228], [77.607549, 13.081676], [77.607577, 13.080374], [77.607678, 13.080108], [77.607758, 13.079822], [77.607735, 13.079619], [77.607628, 13.079336], [77.607418, 13.079234], [77.607403, 13.079237], [77.607371, 13.079212], [77.607159, 13.079049], [77.606615, 13.078436], [77.606429, 13.077996], [77.606006, 13.077023], [77.605678, 13.076707], [77.605217, 13.076244], [77.604838, 13.075206], [77.604414, 13.074105], [77.604117, 13.072684], [77.603815, 13.071502], [77.603689, 13.070872], [77.603515, 13.070148], [77.60346, 13.069517], [77.603426, 13.068821], [77.605803, 13.067968], [77.608103, 13.067194], [77.608219, 13.067139], [77.609183, 13.066825], [77.609638, 13.066671], [77.609683, 13.066658], [77.609702, 13.066658], [77.609735, 13.066658], [77.609767, 13.066657]]]}}]}