{"type": "FeatureCollection", "features": [{"type": "Feature", "properties": {"region_id": "ward_276600-5", "name": "Jakkuru", "parent": "zone_276600-8", "parent_name": "Yelahanka"}, "geometry": {"type": "Polygon", "coordinates": [[[77.646498, 13.085228], [77.645141, 13.082971], [77.644859, 13.082502], [77.644646, 13.082408], [77.644602, 13.082388], [77.644122, 13.08158], [77.643742, 13.08094], [77.642788, 13.079233], [77.642644, 13.078974], [77.642516, 13.078705], [77.642515, 13.078702], [77.642073, 13.077773], [77.642012, 13.077777], [77.640714, 13.077855], [77.639283, 13.076398], [77.638501, 13.075523], [77.63825, 13.075206], [77.637863, 13.075372], [77.636995, 13.075357], [77.633773, 13.077044], [77.633672, 13.076734], [77.633657, 13.076446], [77.63318, 13.076451], [77.632179, 13.076593], [77.631263, 13.076698], [77.630951, 13.074952], [77.62901, 13.075199], [77.628484, 13.075133], [77.628225, 13.072642], [77.627834, 13.072658], [77.627808, 13.072515], [77.627492, 13.071547], [77.627141, 13.070736], [77.626966, 13.07039], [77.626661, 13.070381], [77.626364, 13.068874], [77.62617, 13.067929], [77.62599, 13.06708], [77.624828, 13.06702], [77.624297, 13.066534], [77.623815, 13.065976], [77.623246, 13.065383], [77.622892, 13.065398], [77.622268, 13.065357], [77.621119, 13.06538], [77.620557, 13.06541], [77.620436, 13.065579], [77.620035, 13.065811], [77.619819, 13.066148], [77.619392, 13.066249], [77.619036, 13.066278], [77.618828, 13.06646], [77.618669, 13.066566], [77.618479, 13.066714], [77.618341, 13.066726], [77.618127, 13.066728], [77.617743, 13.06668], [77.617636, 13.066608], [77.617537, 13.066379], [77.617406, 13.066035], [77.617287, 13.065869], [77.617186, 13.065732], [77.616783, 13.065712], [77.615841, 13.065721], [77.615046, 13.065681], [77.614385, 13.065526], [77.614362, 13.065542], [77.614242, 13.065848], [77.613964, 13.066482], [77.613788, 13.066912], [77.613576, 13.067355], [77.613432, 13.067508], [77.613265, 13.067627], [77.613126, 13.067698], [77.613046, 13.067731], [77.612955, 13.067751], [77.612862, 13.067771], [77.612355, 13.067846], [77.611404, 13.067925], [77.610613, 13.068028], [77.6104, 13.068049], [77.610351, 13.06804], [77.610299, 13.068012], [77.610248, 13.067955], [77.610201, 13.067809], [77.610025, 13.067221], [77.61, 13.067013], [77.609904, 13.066729], [77.609845, 13.066679], [77.609816, 13.06666], [77.609767, 13.066657], [77.609735, 13.066658], [77.609702, 13.066658], [77.609683, 13.066658], [77.609638, 13.066671], [77.609183, 13.066825], [77.608219, 13.067139], [77.608103, 13.067194], [77.605803, 13.067968], [77.603426, 13.068821], [77.60346, 13.069517], [77.603515, 13.070148], [77.603689, 13.070872], [77.603815, 13.071502], [77.604117, 13.072684], [77.604414, 13.074105], [77.604838, 13.075206], [77.605217, 13.076244], [77.605678, 13.076707], [77.606006, 13.077023], [77.606429, 13.077996], [77.606615, 13.078436], [77.607159, 13.079049], [77.607371, 13.079212], [77.607403, 13.079237], [77.607418, 13.079234], [77.607628, 13.079336], [77.607735, 13.079619], [77.607758, 13.079822], [77.607678, 13.080108], [77.607577, 13.080374], [77.607549, 13.081676], [77.60465, 13.084228], [77.603435, 13.085156], [77.602874, 13.085938], [77.602851, 13.08597], [77.602863, 13.086022], [77.602871, 13.086052], [77.603012, 13.08619], [77.603212, 13.08631], [77.603345, 13.086414], [77.60366, 13.086508], [77.603842, 13.086563], [77.60404, 13.086561], [77.604177, 13.086526], [77.604142, 13.086801], [77.604116, 13.086904], [77.604081, 13.08699], [77.603965, 13.087104], [77.603757, 13.087328], [77.603578, 13.087509], [77.603522, 13.087558], [77.603494, 13.087595], [77.603463, 13.087644], [77.603443, 13.087699], [77.603418, 13.087837], [77.603361, 13.088203], [77.603286, 13.088712], [77.603211, 13.088965], [77.603148, 13.089139], [77.602962, 13.089542], [77.602842, 13.089782], [77.602662, 13.090101], [77.602413, 13.090465], [77.602084, 13.090889], [77.601712, 13.09139], [77.601514, 13.091662], [77.601443, 13.09175], [77.601377, 13.091843], [77.601292, 13.091999], [77.601154, 13.092333], [77.600995, 13.092738], [77.600911, 13.093026], [77.600873, 13.093224], [77.60085, 13.093412], [77.60082, 13.093732], [77.600793, 13.094107], [77.600738, 13.094401], [77.600626, 13.09483], [77.600531, 13.095104], [77.600439, 13.095331], [77.600305, 13.0957], [77.600166, 13.096129], [77.600129, 13.096239], [77.600078, 13.096305], [77.600021, 13.09638], [77.599885, 13.09659], [77.599729, 13.096821], [77.5997, 13.096872], [77.599689, 13.096894], [77.599685, 13.096916], [77.59973, 13.096959], [77.599784, 13.096976], [77.599923, 13.097003], [77.600088, 13.097015], [77.600167, 13.097013], [77.600283, 13.097077], [77.600468, 13.097264], [77.600732, 13.097484], [77.600905, 13.09757], [77.601016, 13.097671], [77.60125, 13.097668], [77.601526, 13.097652], [77.601602, 13.097639], [77.60178, 13.097609], [77.602007, 13.097627], [77.602324, 13.097624], [77.602421, 13.097643], [77.60254, 13.09781], [77.602542, 13.098026], [77.602434, 13.098217], [77.602367, 13.09828], [77.602284, 13.09836], [77.602176, 13.098624], [77.602206, 13.09884], [77.602325, 13.098959], [77.602373, 13.099007], [77.602195, 13.099354], [77.601706, 13.099312], [77.601341, 13.099352], [77.599506, 13.099822], [77.599355, 13.099841], [77.599513, 13.100441], [77.599724, 13.101218], [77.599842, 13.101641], [77.599997, 13.102206], [77.600093, 13.102629], [77.600147, 13.102863], [77.600419, 13.102876], [77.60046, 13.102907], [77.6012, 13.103072], [77.601397, 13.103123], [77.60231, 13.102922], [77.603103, 13.102186], [77.603204, 13.102191], [77.603481, 13.102176], [77.603797, 13.10216], [77.604058, 13.102147], [77.604761, 13.102111], [77.606588, 13.102018], [77.607951, 13.102052], [77.608273, 13.102061], [77.608506, 13.102068], [77.608504, 13.102207], [77.608502, 13.102371], [77.608503, 13.10237], [77.608502, 13.10243], [77.608502, 13.102467], [77.608496, 13.103046], [77.60847, 13.103117], [77.608448, 13.103602], [77.608371, 13.104485], [77.608354, 13.104575], [77.608634, 13.104585], [77.608899, 13.10459], [77.608868, 13.105039], [77.608773, 13.105594], [77.608756, 13.105988], [77.608725, 13.106722], [77.608698, 13.107002], [77.608699, 13.107223], [77.608687, 13.107445], [77.608739, 13.107452], [77.609243, 13.107525], [77.609424, 13.107711], [77.609804, 13.108101], [77.609894, 13.108226], [77.609895, 13.108313], [77.60986, 13.108603], [77.60973, 13.11002], [77.609832, 13.11003], [77.609829, 13.110228], [77.609767, 13.110408], [77.609738, 13.110474], [77.609742, 13.110536], [77.609822, 13.110583], [77.610022, 13.110667], [77.610077, 13.11082], [77.610275, 13.111141], [77.61046, 13.111525], [77.610642, 13.111943], [77.610839, 13.112491], [77.610923, 13.112673], [77.611077, 13.113301], [77.611153, 13.113683], [77.61117, 13.114122], [77.611122, 13.115085], [77.611022, 13.115442], [77.610962, 13.11594], [77.610938, 13.116768], [77.611064, 13.117557], [77.611238, 13.118651], [77.611276, 13.119236], [77.611317, 13.120026], [77.611415, 13.120694], [77.61148, 13.12126], [77.611412, 13.121643], [77.611455, 13.121782], [77.611493, 13.12191], [77.611574, 13.122202], [77.611801, 13.122722], [77.612, 13.123134], [77.612265, 13.123622], [77.61286, 13.125176], [77.613214, 13.126058], [77.613514, 13.126762], [77.61396, 13.127739], [77.61437, 13.128486], [77.614546, 13.129077], [77.614637, 13.129466], [77.614647, 13.129646], [77.614936, 13.130732], [77.615154, 13.131169], [77.620664, 13.131255], [77.630059, 13.125032], [77.639403, 13.114007], [77.637129, 13.106745], [77.649103, 13.1048], [77.648538, 13.099342], [77.641993, 13.087652], [77.646547, 13.086943], [77.646498, 13.085228]]]}}]}