{"type": "FeatureCollection", "features": [{"type": "Feature", "properties": {"region_id": "ward_276600-14", "name": "Bagalakunte", "parent": "zone_276600-2", "parent_name": "Dasarahalli"}, "geometry": {"type": "Polygon", "coordinates": [[[77.498585, 13.074515], [77.498692, 13.074218], [77.498844, 13.073132], [77.498992, 13.072836], [77.499537, 13.072202], [77.501055, 13.070093], [77.50274, 13.067646], [77.50396, 13.065748], [77.505305, 13.06357], [77.505517, 13.063231], [77.506055, 13.062379], [77.506386, 13.06188], [77.506666, 13.061589], [77.506849, 13.061325], [77.506984, 13.061061], [77.507128, 13.060849], [77.507527, 13.060202], [77.508046, 13.059398], [77.508602, 13.058563], [77.50923, 13.057525], [77.509828, 13.056517], [77.510626, 13.055177], [77.511246, 13.054237], [77.511509, 13.053811], [77.511696, 13.053552], [77.511822, 13.053393], [77.512044, 13.053187], [77.511684, 13.051363], [77.511354, 13.051446], [77.511214, 13.050902], [77.51155, 13.050818], [77.511676, 13.050736], [77.511755, 13.050696], [77.511851, 13.05064], [77.511469, 13.049248], [77.511748, 13.049183], [77.511599, 13.04866], [77.5112, 13.048735], [77.510806, 13.048792], [77.510376, 13.048859], [77.510406, 13.049048], [77.509912, 13.049151], [77.509062, 13.049384], [77.508767, 13.049423], [77.508866, 13.050338], [77.508285, 13.050452], [77.507802, 13.05057], [77.507739, 13.049799], [77.507699, 13.04938], [77.507742, 13.04899], [77.507844, 13.048581], [77.507985, 13.047917], [77.508081, 13.047444], [77.508093, 13.047321], [77.508092, 13.047208], [77.508044, 13.047031], [77.507762, 13.046498], [77.507472, 13.045769], [77.507363, 13.045529], [77.507309, 13.045321], [77.507291, 13.045332], [77.506034, 13.045688], [77.505256, 13.045883], [77.504167, 13.046268], [77.502889, 13.046722], [77.501374, 13.047281], [77.499589, 13.047933], [77.498057, 13.048491], [77.495511, 13.049377], [77.494406, 13.04978], [77.494238, 13.049842], [77.494281, 13.049995], [77.494463, 13.050744], [77.494584, 13.051241], [77.494494, 13.051262], [77.494303, 13.051308], [77.493642, 13.051453], [77.493006, 13.051568], [77.492553, 13.051653], [77.492511, 13.052487], [77.492513, 13.052896], [77.492509, 13.053039], [77.492571, 13.053312], [77.492605, 13.053507], [77.492598, 13.053529], [77.492423, 13.05357], [77.492423, 13.053596], [77.492433, 13.053853], [77.492418, 13.054504], [77.492418, 13.054545], [77.49227, 13.054875], [77.491649, 13.055896], [77.4911, 13.056797], [77.490978, 13.056912], [77.492318, 13.060779], [77.492876, 13.061923], [77.49308, 13.062159], [77.493024, 13.062596], [77.492778, 13.064434], [77.492788, 13.064718], [77.492774, 13.065379], [77.492655, 13.068285], [77.492699, 13.068707], [77.492784, 13.069616], [77.492794, 13.069807], [77.492755, 13.069838], [77.492616, 13.073026], [77.492712, 13.074761], [77.492799, 13.074796], [77.492905, 13.074827], [77.493006, 13.07485], [77.493309, 13.074894], [77.493805, 13.074943], [77.494002, 13.074948], [77.49419, 13.074946], [77.494328, 13.074916], [77.494574, 13.074855], [77.495053, 13.074815], [77.49598, 13.075023], [77.496312, 13.075061], [77.496726, 13.075016], [77.497263, 13.074848], [77.498391, 13.074628], [77.498585, 13.074515]]]}}]}