{"type": "FeatureCollection", "features": [{"type": "Feature", "properties": {"region_id": "ward_276600-58", "name": "New Tippasandara", "parent": "zone_276600-3", "parent_name": "East"}, "geometry": {"type": "Polygon", "coordinates": [[[77.669211, 12.975258], [77.669143, 12.975287], [77.668934, 12.975377], [77.668799, 12.97542], [77.668536, 12.975462], [77.668262, 12.975505], [77.667959, 12.975552], [77.667915, 12.975559], [77.667849, 12.975562], [77.667529, 12.975578], [77.667475, 12.97558], [77.667354, 12.97557], [77.667305, 12.975566], [77.667213, 12.975558], [77.666936, 12.975513], [77.666785, 12.975466], [77.666785, 12.975464], [77.666627, 12.975418], [77.666534, 12.975379], [77.666509, 12.975359], [77.666509, 12.975342], [77.666511, 12.975329], [77.666555, 12.975073], [77.666584, 12.974776], [77.666586, 12.974753], [77.66661, 12.974476], [77.666615, 12.974465], [77.666619, 12.97446], [77.666621, 12.974458], [77.666639, 12.974455], [77.666742, 12.974451], [77.666751, 12.97445], [77.666839, 12.974443], [77.666878, 12.974429], [77.666897, 12.974411], [77.666912, 12.974395], [77.666918, 12.974382], [77.66692, 12.974366], [77.666922, 12.974339], [77.666922, 12.9743], [77.666917, 12.974262], [77.666913, 12.974238], [77.666861, 12.973874], [77.666828, 12.97368], [77.666811, 12.973574], [77.666783, 12.973432], [77.666738, 12.973297], [77.666683, 12.97315], [77.666681, 12.973146], [77.666675, 12.973128], [77.666828, 12.973042], [77.666979, 12.972861], [77.666992, 12.972727], [77.666991, 12.972637], [77.666823, 12.972565], [77.666553, 12.972467], [77.666431, 12.97183], [77.666354, 12.971742], [77.666352, 12.971741], [77.666234, 12.971586], [77.666176, 12.97153], [77.666126, 12.97151], [77.666083, 12.97151], [77.66604, 12.971514], [77.665993, 12.971522], [77.665921, 12.971537], [77.665893, 12.971551], [77.665843, 12.971569], [77.665721, 12.971623], [77.665633, 12.971665], [77.665507, 12.971724], [77.665393, 12.971778], [77.665314, 12.971803], [77.66525, 12.971811], [77.665203, 12.971811], [77.665146, 12.971812], [77.665074, 12.971809], [77.665046, 12.971807], [77.665008, 12.971802], [77.664747, 12.971764], [77.664586, 12.971749], [77.664199, 12.971677], [77.663833, 12.971608], [77.663423, 12.971579], [77.663147, 12.971563], [77.663038, 12.971548], [77.662922, 12.971562], [77.662818, 12.971579], [77.662802, 12.971582], [77.662528, 12.971656], [77.662254, 12.971735], [77.662191, 12.971759], [77.661898, 12.971869], [77.661721, 12.97196], [77.661656, 12.971986], [77.661654, 12.971985], [77.661614, 12.971976], [77.661583, 12.971955], [77.66156, 12.971929], [77.661558, 12.971922], [77.661547, 12.971883], [77.661544, 12.971825], [77.66154, 12.971747], [77.661525, 12.971693], [77.661499, 12.971657], [77.661481, 12.971643], [77.661452, 12.971626], [77.661441, 12.971619], [77.661427, 12.97161], [77.661408, 12.971606], [77.661324, 12.971599], [77.661087, 12.971586], [77.661018, 12.971587], [77.660907, 12.971581], [77.660572, 12.971564], [77.660512, 12.97156], [77.660057, 12.971552], [77.659745, 12.971549], [77.659561, 12.971538], [77.65857, 12.971544], [77.658687, 12.971326], [77.657679, 12.970793], [77.657626, 12.969904], [77.657563, 12.969431], [77.657381, 12.968888], [77.657333, 12.968472], [77.657287, 12.968301], [77.658106, 12.96822], [77.658668, 12.967428], [77.658667, 12.967428], [77.658668, 12.967427], [77.65866, 12.967428], [77.658723, 12.967175], [77.657913, 12.967267], [77.656401, 12.967468], [77.654804, 12.967666], [77.653982, 12.967756], [77.652467, 12.967945], [77.651144, 12.968219], [77.650101, 12.968504], [77.649499, 12.968654], [77.648587, 12.968794], [77.647733, 12.968846], [77.647555, 12.970075], [77.647463, 12.970425], [77.647332, 12.970927], [77.647116, 12.971856], [77.647027, 12.972379], [77.646963, 12.972815], [77.64694, 12.973264], [77.646928, 12.973305], [77.646924, 12.973379], [77.646921, 12.973412], [77.646906, 12.973637], [77.646847, 12.97479], [77.646772, 12.975926], [77.646705, 12.977103], [77.646686, 12.977296], [77.646661, 12.977329], [77.646626, 12.978728], [77.646357, 12.97971], [77.646046, 12.981325], [77.645551, 12.983356], [77.645263, 12.985017], [77.64502, 12.985769], [77.64559, 12.986001], [77.646484, 12.986342], [77.647403, 12.986734], [77.648038, 12.98699], [77.648119, 12.986197], [77.648422, 12.985376], [77.648907, 12.984452], [77.649687, 12.983065], [77.650436, 12.981959], [77.651007, 12.981197], [77.651743, 12.98046], [77.652807, 12.979395], [77.653084, 12.979087], [77.653668, 12.979392], [77.653513, 12.979652], [77.655407, 12.980341], [77.657316, 12.980997], [77.658288, 12.98128], [77.658433, 12.981442], [77.658475, 12.982095], [77.658527, 12.982479], [77.658593, 12.982918], [77.658686, 12.983201], [77.65911, 12.983528], [77.65979, 12.983947], [77.660399, 12.984096], [77.660509, 12.984095], [77.661006, 12.983879], [77.661077, 12.983778], [77.66138, 12.983523], [77.661677, 12.983343], [77.66225, 12.983227], [77.663011, 12.983293], [77.663616, 12.983837], [77.663803, 12.983884], [77.664152, 12.983856], [77.664363, 12.983732], [77.66441, 12.983523], [77.664157, 12.982837], [77.66462, 12.982551], [77.664962, 12.982618], [77.665267, 12.982641], [77.665481, 12.982551], [77.665605, 12.982401], [77.665737, 12.982153], [77.666203, 12.982157], [77.666268, 12.98235], [77.666501, 12.982312], [77.667353, 12.982321], [77.668278, 12.982256], [77.668279, 12.982256], [77.668342, 12.982152], [77.668399, 12.982124], [77.668456, 12.982095], [77.668494, 12.982095], [77.668532, 12.982094], [77.669095, 12.982077], [77.669161, 12.98123], [77.668912, 12.980555], [77.66923, 12.980535], [77.669573, 12.980541], [77.669696, 12.980456], [77.669905, 12.980388], [77.669886, 12.980332], [77.669903, 12.980192], [77.669979, 12.980126], [77.670112, 12.980059], [77.670226, 12.980058], [77.670176, 12.979881], [77.670261, 12.97974], [77.670442, 12.979719], [77.670652, 12.979754], [77.670793, 12.979585], [77.670886, 12.979415], [77.670989, 12.979265], [77.670988, 12.979162], [77.670911, 12.979041], [77.67018, 12.979348], [77.669952, 12.979298], [77.669776, 12.978418], [77.669756, 12.978163], [77.670291, 12.977894], [77.670072, 12.977483], [77.669539, 12.976328], [77.669211, 12.975258]]]}}]}