{"type": "FeatureCollection", "features": [{"type": "Feature", "properties": {"region_id": "ward_276600-126", "name": "Maruthi Mandir ward", "parent": "zone_276600-7", "parent_name": "West"}, "geometry": {"type": "Polygon", "coordinates": [[[77.528181, 12.971855], [77.527885, 12.970746], [77.527808, 12.970429], [77.528783, 12.969828], [77.528899, 12.97008], [77.529001, 12.970036], [77.529244, 12.970018], [77.529529, 12.969965], [77.529838, 12.96988], [77.530391, 12.96976], [77.530776, 12.969682], [77.530573, 12.96868], [77.531167, 12.968518], [77.531728, 12.968463], [77.532408, 12.968523], [77.532585, 12.968562], [77.533246, 12.968416], [77.533855, 12.968155], [77.534675, 12.967933], [77.535336, 12.967754], [77.535963, 12.967583], [77.536177, 12.967525], [77.536155, 12.967468], [77.535461, 12.966083], [77.534723, 12.964419], [77.53469, 12.964344], [77.534538, 12.964411], [77.534314, 12.964504], [77.534037, 12.964571], [77.533883, 12.964592], [77.533835, 12.9646], [77.533519, 12.964663], [77.533285, 12.964699], [77.533063, 12.964723], [77.533, 12.964729], [77.53294, 12.964724], [77.532797, 12.964711], [77.532562, 12.964669], [77.532546, 12.964668], [77.532469, 12.964661], [77.532359, 12.964651], [77.531702, 12.964644], [77.53122, 12.96464], [77.531141, 12.964639], [77.530557, 12.964652], [77.530536, 12.964656], [77.530471, 12.964669], [77.530347, 12.964698], [77.530258, 12.964725], [77.530186, 12.964756], [77.529881, 12.964834], [77.529644, 12.964883], [77.529476, 12.964924], [77.529388, 12.964928], [77.528425, 12.964817], [77.527849, 12.964767], [77.527426, 12.964716], [77.526462, 12.964599], [77.526497, 12.964421], [77.526523, 12.964284], [77.526524, 12.964276], [77.526646, 12.963951], [77.526722, 12.963748], [77.526731, 12.963656], [77.526761, 12.963572], [77.526782, 12.963538], [77.526783, 12.963308], [77.526746, 12.963113], [77.52666, 12.96285], [77.526636, 12.962665], [77.526694, 12.962442], [77.526782, 12.962205], [77.526788, 12.962057], [77.526779, 12.961961], [77.526312, 12.961995], [77.526319, 12.962231], [77.524008, 12.961684], [77.523677, 12.961727], [77.523405, 12.961757], [77.523315, 12.961832], [77.523241, 12.961965], [77.523227, 12.962062], [77.523221, 12.96218], [77.523238, 12.962306], [77.523262, 12.962476], [77.523307, 12.962715], [77.523527, 12.963064], [77.523647, 12.963341], [77.523692, 12.96351], [77.523671, 12.963916], [77.52363, 12.964152], [77.523548, 12.964528], [77.523469, 12.964735], [77.523331, 12.965057], [77.523247, 12.965342], [77.52325, 12.965584], [77.523288, 12.965705], [77.523376, 12.965898], [77.523427, 12.966054], [77.523467, 12.966308], [77.523507, 12.966604], [77.523565, 12.966822], [77.523698, 12.967184], [77.523975, 12.967774], [77.524253, 12.968346], [77.524397, 12.968641], [77.52448, 12.968828], [77.524594, 12.96919], [77.524627, 12.969426], [77.524642, 12.96968], [77.524644, 12.969879], [77.524714, 12.970072], [77.524822, 12.970362], [77.524949, 12.970663], [77.525054, 12.970759], [77.525221, 12.970788], [77.525714, 12.970698], [77.52617, 12.970597], [77.526453, 12.970552], [77.526558, 12.970587], [77.526602, 12.970659], [77.526691, 12.970907], [77.526789, 12.971402], [77.52686, 12.97171], [77.527017, 12.972011], [77.527878, 12.971868], [77.527895, 12.971875], [77.527947, 12.971876], [77.527995, 12.971857], [77.528036, 12.971853], [77.52807, 12.971846], [77.528129, 12.971846], [77.528181, 12.971855]]]}}]}