{"type": "FeatureCollection", "features": [{"type": "Feature", "properties": {"region_id": "ward_276600-33", "name": "Manorayanapalya", "parent": "zone_276600-3", "parent_name": "East"}, "geometry": {"type": "Polygon", "coordinates": [[[77.592699, 13.014977], [77.592671, 13.015024], [77.592618, 13.015077], [77.592577, 13.015102], [77.592494, 13.015153], [77.592188, 13.015321], [77.591954, 13.015484], [77.591877, 13.015504], [77.591776, 13.015528], [77.591651, 13.015529], [77.591584, 13.01553], [77.591507, 13.01555], [77.591464, 13.015574], [77.591436, 13.015602], [77.591407, 13.015659], [77.59141, 13.015739], [77.591397, 13.015894], [77.591436, 13.016102], [77.591556, 13.016511], [77.591745, 13.017118], [77.591795, 13.017301], [77.591855, 13.017551], [77.592144, 13.018519], [77.592229, 13.018806], [77.592288, 13.01898], [77.592315, 13.019263], [77.592383, 13.019738], [77.592474, 13.020586], [77.592555, 13.021524], [77.592563, 13.021807], [77.592609, 13.022547], [77.592686, 13.022994], [77.592769, 13.023522], [77.592809, 13.023907], [77.592955, 13.024832], [77.592956, 13.024885], [77.592931, 13.024914], [77.592906, 13.024939], [77.593176, 13.024946], [77.593614, 13.024909], [77.594156, 13.024806], [77.594773, 13.02472], [77.594861, 13.025359], [77.594962, 13.025964], [77.595044, 13.026244], [77.595094, 13.02655], [77.595232, 13.02724], [77.595449, 13.028416], [77.595797, 13.028358], [77.595847, 13.028488], [77.595887, 13.028892], [77.596001, 13.029366], [77.596007, 13.029924], [77.596002, 13.030092], [77.596118, 13.030077], [77.596487, 13.030059], [77.596475, 13.03041], [77.595564, 13.030446], [77.595568, 13.030796], [77.595558, 13.031022], [77.595538, 13.031414], [77.595565, 13.031699], [77.595616, 13.031912], [77.595666, 13.032113], [77.595765, 13.032255], [77.596093, 13.032335], [77.596215, 13.032441], [77.596361, 13.032534], [77.596495, 13.032533], [77.596616, 13.032532], [77.597003, 13.032528], [77.597343, 13.032524], [77.597476, 13.032523], [77.597683, 13.032592], [77.597828, 13.032638], [77.597975, 13.032779], [77.598098, 13.032909], [77.598232, 13.033014], [77.598463, 13.033119], [77.598694, 13.033188], [77.598901, 13.033269], [77.599192, 13.033266], [77.599495, 13.033263], [77.59981, 13.033248], [77.600155, 13.033276], [77.600215, 13.033277], [77.600246, 13.03328], [77.600376, 13.033319], [77.60044, 13.033357], [77.600473, 13.033381], [77.600498, 13.033394], [77.60054, 13.033407], [77.600606, 13.033441], [77.600673, 13.033498], [77.600726, 13.03354], [77.600813, 13.033637], [77.600854, 13.033669], [77.600896, 13.033701], [77.600987, 13.033719], [77.601012, 13.033719], [77.601045, 13.033718], [77.601117, 13.033734], [77.601239, 13.033792], [77.601289, 13.03383], [77.601362, 13.033899], [77.601392, 13.033926], [77.601434, 13.033961], [77.60149, 13.034009], [77.601543, 13.034049], [77.601637, 13.034118], [77.601804, 13.034228], [77.601885, 13.034292], [77.601935, 13.034351], [77.601952, 13.034391], [77.601961, 13.034432], [77.601964, 13.034462], [77.601964, 13.034499], [77.601965, 13.03461], [77.601978, 13.034718], [77.602046, 13.03492], [77.602077, 13.035002], [77.602141, 13.035066], [77.602207, 13.035122], [77.602408, 13.035101], [77.602962, 13.035018], [77.603517, 13.034968], [77.60415, 13.034883], [77.604637, 13.034823], [77.604658, 13.034689], [77.604645, 13.034534], [77.604621, 13.034357], [77.604629, 13.034068], [77.604651, 13.03399], [77.604968, 13.033975], [77.605501, 13.034003], [77.605988, 13.033998], [77.606294, 13.034017], [77.606327, 13.033962], [77.606369, 13.033595], [77.606475, 13.032894], [77.606485, 13.032816], [77.606293, 13.032795], [77.605658, 13.032791], [77.605069, 13.03283], [77.604786, 13.032833], [77.60479, 13.032177], [77.604632, 13.032212], [77.604055, 13.032262], [77.603569, 13.032356], [77.603116, 13.032416], [77.602505, 13.032522], [77.602392, 13.032535], [77.601951, 13.032606], [77.601611, 13.032609], [77.601272, 13.032657], [77.600932, 13.032705], [77.600626, 13.032719], [77.600275, 13.032756], [77.600149, 13.03274], [77.600154, 13.032667], [77.600156, 13.032626], [77.600158, 13.03258], [77.600158, 13.032526], [77.600149, 13.032464], [77.600151, 13.032412], [77.600154, 13.032372], [77.600159, 13.032323], [77.600163, 13.032266], [77.600185, 13.032201], [77.600184, 13.032144], [77.600189, 13.032022], [77.600229, 13.031692], [77.60025, 13.031313], [77.600231, 13.03116], [77.600229, 13.031113], [77.600228, 13.031078], [77.600216, 13.030999], [77.600205, 13.030926], [77.600182, 13.030853], [77.600112, 13.030762], [77.599927, 13.030545], [77.599763, 13.030373], [77.599653, 13.030091], [77.599596, 13.029839], [77.599569, 13.029526], [77.599512, 13.029244], [77.599407, 13.028894], [77.599374, 13.028688], [77.599372, 13.028512], [77.599494, 13.028274], [77.599625, 13.028041], [77.599653, 13.027962], [77.599769, 13.0276], [77.599876, 13.027147], [77.599949, 13.026942], [77.600006, 13.026795], [77.600111, 13.02672], [77.60028, 13.026611], [77.600401, 13.026574], [77.600515, 13.026539], [77.600542, 13.026529], [77.600606, 13.026505], [77.600601, 13.026486], [77.600606, 13.026481], [77.600645, 13.02634], [77.600641, 13.026216], [77.600464, 13.025941], [77.600463, 13.025941], [77.600462, 13.025938], [77.600462, 13.025934], [77.600405, 13.025844], [77.600399, 13.025563], [77.600033, 13.025571], [77.599565, 13.025586], [77.599154, 13.025558], [77.598743, 13.025499], [77.598482, 13.025487], [77.598159, 13.025473], [77.598098, 13.025459], [77.598072, 13.025243], [77.598033, 13.024922], [77.598031, 13.024906], [77.598003, 13.024908], [77.597154, 13.024975], [77.59711, 13.024972], [77.597093, 13.024678], [77.597041, 13.024231], [77.597016, 13.024158], [77.596816, 13.023461], [77.59647, 13.023558], [77.596231, 13.023626], [77.596111, 13.023269], [77.595688, 13.023384], [77.595164, 13.023529], [77.594742, 13.023634], [77.594497, 13.023698], [77.594371, 13.023219], [77.59428, 13.022878], [77.594194, 13.022585], [77.594039, 13.021973], [77.593984, 13.021787], [77.593815, 13.021185], [77.593776, 13.021028], [77.59359, 13.020423], [77.594355, 13.02023], [77.594378, 13.020226], [77.59437, 13.020196], [77.594225, 13.01971], [77.594085, 13.019217], [77.593955, 13.018735], [77.59474, 13.018508], [77.594687, 13.018357], [77.59459, 13.017962], [77.594541, 13.0178], [77.594538, 13.01773], [77.594543, 13.017707], [77.594546, 13.017688], [77.594553, 13.017674], [77.594559, 13.017656], [77.594576, 13.01764], [77.594594, 13.017625], [77.59462, 13.017606], [77.59465, 13.017593], [77.594688, 13.017576], [77.594753, 13.017554], [77.595002, 13.017397], [77.595051, 13.016663], [77.594814, 13.016631], [77.594806, 13.016528], [77.594808, 13.016418], [77.594794, 13.016317], [77.594769, 13.016267], [77.594761, 13.016222], [77.59474, 13.016114], [77.594718, 13.016041], [77.594697, 13.015973], [77.594679, 13.015943], [77.59467, 13.015924], [77.594648, 13.015902], [77.59461, 13.015891], [77.594561, 13.015897], [77.594475, 13.015909], [77.594418, 13.015927], [77.594348, 13.015929], [77.594113, 13.015865], [77.593815, 13.0158], [77.593518, 13.015803], [77.593221, 13.015806], [77.592942, 13.015854], [77.592859, 13.015855], [77.592857, 13.015819], [77.592856, 13.01576], [77.59285, 13.0157], [77.592805, 13.015555], [77.592757, 13.015389], [77.592718, 13.015299], [77.592703, 13.01527], [77.592689, 13.015198], [77.592696, 13.015114], [77.592704, 13.015024], [77.592699, 13.014977]]]}}]}