{"type": "FeatureCollection", "features": [{"type": "Feature", "properties": {"region_id": "ward_276600-51", "name": "Vijnanapura", "parent": "zone_276600-4", "parent_name": "Mahadevapura"}, "geometry": {"type": "Polygon", "coordinates": [[[77.676827, 13.011467], [77.676955, 13.011486], [77.678069, 13.011693], [77.678847, 13.011698], [77.680122, 13.01129], [77.680683, 13.011021], [77.680703, 13.010273], [77.680593, 13.010184], [77.680505, 13.010127], [77.68044, 13.01008], [77.680375, 13.010027], [77.680304, 13.009991], [77.680212, 13.00995], [77.680146, 13.009903], [77.680081, 13.009856], [77.679923, 13.009783], [77.679814, 13.00972], [77.679738, 13.009689], [77.679733, 13.009679], [77.679711, 13.009631], [77.679699, 13.009568], [77.679633, 13.009468], [77.679563, 13.009437], [77.679433, 13.009419], [77.679244, 13.009486], [77.679177, 13.009516], [77.679001, 13.009539], [77.678885, 13.009558], [77.678468, 13.00944], [77.677954, 13.009245], [77.677728, 13.009119], [77.677688, 13.009075], [77.677645, 13.009052], [77.677587, 13.009049], [77.677482, 13.009028], [77.67726, 13.009103], [77.677224, 13.009115], [77.677178, 13.009145], [77.677141, 13.009193], [77.677109, 13.009225], [77.677056, 13.009325], [77.677028, 13.009438], [77.676977, 13.009651], [77.67694, 13.009799], [77.676929, 13.009886], [77.676922, 13.010008], [77.676923, 13.010116], [77.676912, 13.01025], [77.67693, 13.01034], [77.67694, 13.010469], [77.676947, 13.010581], [77.676974, 13.010743], [77.676955, 13.01079], [77.676917, 13.01084], [77.676874, 13.010886], [77.676826, 13.010903], [77.676794, 13.01088], [77.676774, 13.010831], [77.676767, 13.010797], [77.676758, 13.01075], [77.67673, 13.010652], [77.676671, 13.010388], [77.676499, 13.009913], [77.676429, 13.00979], [77.676335, 13.009543], [77.67628, 13.009429], [77.676178, 13.009238], [77.676132, 13.009116], [77.676084, 13.008938], [77.676043, 13.008793], [77.676059, 13.00869], [77.676078, 13.008623], [77.676086, 13.008534], [77.676076, 13.008464], [77.676056, 13.008386], [77.676033, 13.008353], [77.675986, 13.008289], [77.675837, 13.00811], [77.67537, 13.008376], [77.675079, 13.008538], [77.674783, 13.008692], [77.674571, 13.008025], [77.674491, 13.007775], [77.67449, 13.007619], [77.674514, 13.00756], [77.674542, 13.007493], [77.674608, 13.007294], [77.674608, 13.007225], [77.674517, 13.007021], [77.674436, 13.006884], [77.674425, 13.006848], [77.674464, 13.006822], [77.674681, 13.006616], [77.674765, 13.006529], [77.674826, 13.00642], [77.674907, 13.006229], [77.675076, 13.005595], [77.675157, 13.005407], [77.675653, 13.005412], [77.675661, 13.005268], [77.676019, 13.005238], [77.676493, 13.005108], [77.677125, 13.00499], [77.677151, 13.004641], [77.677156, 13.004373], [77.677165, 13.00403], [77.677152, 13.003775], [77.677134, 13.003642], [77.677105, 13.003554], [77.677064, 13.003469], [77.676998, 13.003361], [77.676901, 13.00322], [77.676894, 13.003142], [77.676887, 13.002961], [77.676904, 13.002707], [77.676983, 13.002541], [77.676986, 13.00237], [77.676996, 13.00214], [77.67707, 13.001592], [77.677111, 13.000741], [77.675322, 13.000757], [77.672379, 13.000537], [77.671114, 13.000338], [77.670355, 13.000166], [77.669695, 13.000001], [77.669561, 12.99997], [77.668834, 12.999741], [77.667839, 12.999359], [77.667095, 12.999097], [77.666627, 12.998898], [77.665505, 12.998346], [77.664421, 12.997735], [77.664037, 12.997522], [77.663968, 12.997633], [77.663961, 12.997644], [77.663857, 12.997814], [77.663744, 12.998029], [77.6636, 12.998347], [77.66356, 12.998707], [77.663444, 13.000249], [77.663385, 13.001545], [77.663275, 13.003066], [77.66326, 13.003101], [77.663233, 13.003685], [77.663184, 13.004474], [77.663178, 13.004528], [77.663129, 13.00498], [77.663126, 13.005005], [77.662998, 13.00575], [77.662851, 13.006625], [77.662755, 13.007275], [77.662646, 13.007845], [77.662588, 13.008305], [77.662552, 13.00869], [77.662532, 13.009004], [77.662511, 13.009331], [77.662497, 13.00959], [77.662476, 13.01001], [77.662431, 13.010515], [77.662427, 13.010561], [77.662371, 13.011261], [77.662344, 13.011845], [77.662293, 13.012389], [77.662276, 13.01256], [77.662246, 13.013075], [77.66224, 13.013279], [77.66265, 13.01315], [77.663474, 13.012965], [77.665492, 13.012434], [77.666392, 13.01227], [77.666462, 13.012255], [77.667412, 13.012085], [77.668381, 13.01198], [77.668984, 13.011885], [77.669578, 13.011776], [77.670868, 13.011632], [77.672253, 13.011565], [77.673826, 13.011516], [77.675726, 13.0114], [77.676349, 13.011394], [77.676827, 13.011467]]]}}]}