{"type": "FeatureCollection", "features": [{"type": "Feature", "properties": {"region_id": "ward_276600-37", "name": "Yeshwanthpura", "parent": "zone_276600-5", "parent_name": "Rajarajeshwari Nagar"}, "geometry": {"type": "Polygon", "coordinates": [[[77.553546, 13.019654], [77.553534, 13.019666], [77.553393, 13.019928], [77.552661, 13.021292], [77.55158, 13.023567], [77.550823, 13.025042], [77.549976, 13.026692], [77.549311, 13.0282], [77.548882, 13.029174], [77.548961, 13.029173], [77.549455, 13.029181], [77.549736, 13.029164], [77.550031, 13.029093], [77.550255, 13.029021], [77.550452, 13.029047], [77.550707, 13.029224], [77.551023, 13.029841], [77.551338, 13.030335], [77.551865, 13.03102], [77.552773, 13.031742], [77.553601, 13.032277], [77.553817, 13.032239], [77.554048, 13.032182], [77.554149, 13.032118], [77.554304, 13.031898], [77.554468, 13.031606], [77.554678, 13.031322], [77.554787, 13.031094], [77.554858, 13.030812], [77.554956, 13.03043], [77.555099, 13.029947], [77.555208, 13.029783], [77.555492, 13.029417], [77.555628, 13.029207], [77.55571, 13.029061], [77.555709, 13.028943], [77.555754, 13.028797], [77.555864, 13.028732], [77.556003, 13.028713], [77.556077, 13.028676], [77.556289, 13.028628], [77.556324, 13.028392], [77.556546, 13.028362], [77.557139, 13.028393], [77.55737, 13.028363], [77.557462, 13.02829], [77.557618, 13.028198], [77.557886, 13.028113], [77.557694, 13.027498], [77.558408, 13.027273], [77.558007, 13.026387], [77.557766, 13.025838], [77.557715, 13.025725], [77.557649, 13.025494], [77.557566, 13.025228], [77.557519, 13.025059], [77.557409, 13.024704], [77.557337, 13.024459], [77.557195, 13.024044], [77.55709, 13.023725], [77.556925, 13.023282], [77.556828, 13.023013], [77.556713, 13.022696], [77.556601, 13.022394], [77.556292, 13.02162], [77.555985, 13.020904], [77.555898, 13.020674], [77.555709, 13.020174], [77.555596, 13.019929], [77.555558, 13.019885], [77.555468, 13.019846], [77.555307, 13.019846], [77.555188, 13.019846], [77.55465, 13.019825], [77.554325, 13.019828], [77.554263, 13.019738], [77.553933, 13.019257], [77.5538697, 13.0191644], [77.553546, 13.019654]]]}}]}