{"type": "FeatureCollection", "features": [{"type": "Feature", "properties": {"region_id": "ward_276600-84", "name": "Hagadur", "parent": "zone_276600-4", "parent_name": "Mahadevapura"}, "geometry": {"type": "Polygon", "coordinates": [[[77.778499, 12.977077], [77.778484, 12.976986], [77.778484, 12.976983], [77.77843, 12.976883], [77.778292, 12.976623], [77.778163, 12.976454], [77.778096, 12.976353], [77.778037, 12.9763], [77.777898, 12.976241], [77.777743, 12.976195], [77.777685, 12.976203], [77.777677, 12.976195], [77.777565, 12.976183], [77.777452, 12.976212], [77.777361, 12.976263], [77.777328, 12.976294], [77.777211, 12.976475], [77.777172, 12.976529], [77.777138, 12.976567], [77.777102, 12.97659], [77.777071, 12.976594], [77.777015, 12.97659], [77.776894, 12.976559], [77.776869, 12.976542], [77.776844, 12.976521], [77.776825, 12.976459], [77.776821, 12.976419], [77.776815, 12.976392], [77.776787, 12.976365], [77.776769, 12.976352], [77.776739, 12.976325], [77.776725, 12.97632], [77.776624, 12.976175], [77.776561, 12.97612], [77.776479, 12.976036], [77.776435, 12.975954], [77.776435, 12.975925], [77.77644, 12.975888], [77.776458, 12.975852], [77.776485, 12.975809], [77.776525, 12.975762], [77.776537, 12.975724], [77.77653, 12.975678], [77.7765, 12.975642], [77.776405, 12.975516], [77.776328, 12.97544], [77.776209, 12.975326], [77.776157, 12.975247], [77.77609, 12.975069], [77.776038, 12.974989], [77.775972, 12.974807], [77.775953, 12.974732], [77.775964, 12.974663], [77.775993, 12.974607], [77.776029, 12.974535], [77.776037, 12.974526], [77.776099, 12.974485], [77.776187, 12.974474], [77.776199, 12.974472], [77.776199, 12.974467], [77.776477, 12.974415], [77.776545, 12.974372], [77.776617, 12.974287], [77.776663, 12.974229], [77.776677, 12.974223], [77.776692, 12.974215], [77.776716, 12.974195], [77.776716, 12.974184], [77.776708, 12.974171], [77.776698, 12.974167], [77.776697, 12.974151], [77.776713, 12.974122], [77.776761, 12.974068], [77.776902, 12.973824], [77.77696, 12.973755], [77.777038, 12.973709], [77.777078, 12.973674], [77.777127, 12.973614], [77.777168, 12.973587], [77.777244, 12.973563], [77.777348, 12.973564], [77.777426, 12.973557], [77.777463, 12.973542], [77.777536, 12.973537], [77.777583, 12.973536], [77.777616, 12.97353], [77.777731, 12.973494], [77.777826, 12.973417], [77.777871, 12.973345], [77.77789, 12.9733], [77.777891, 12.973258], [77.777905, 12.973135], [77.777906, 12.973135], [77.777905, 12.973134], [77.77791, 12.973103], [77.777941, 12.973062], [77.778003, 12.972956], [77.778026, 12.972923], [77.778086, 12.972886], [77.778203, 12.972839], [77.778302, 12.972822], [77.778409, 12.972824], [77.778524, 12.972823], [77.77866, 12.972808], [77.778699, 12.972793], [77.778779, 12.972746], [77.778831, 12.972699], [77.778896, 12.972644], [77.778965, 12.972538], [77.779003, 12.972418], [77.779, 12.972351], [77.778963, 12.972103], [77.778786, 12.971679], [77.778563, 12.971187], [77.778429, 12.970852], [77.77841, 12.970747], [77.778422, 12.970665], [77.778439, 12.970598], [77.778475, 12.970506], [77.778717, 12.970185], [77.778758, 12.970141], [77.778784, 12.970123], [77.778829, 12.970112], [77.778865, 12.970109], [77.778904, 12.970112], [77.779004, 12.970136], [77.779135, 12.970168], [77.779172, 12.97017], [77.779266, 12.970169], [77.779347, 12.970163], [77.779484, 12.970139], [77.779739, 12.97014], [77.78009, 12.970081], [77.780302, 12.970024], [77.780406, 12.969999], [77.780536, 12.970015], [77.780623, 12.970045], [77.78069, 12.970092], [77.780796, 12.9702], [77.780926, 12.970415], [77.780926, 12.970426], [77.781018, 12.970545], [77.781127, 12.970636], [77.781261, 12.970699], [77.781371, 12.970744], [77.781515, 12.970783], [77.781628, 12.97081], [77.781714, 12.970822], [77.781761, 12.970827], [77.78187, 12.970835], [77.782193, 12.970858], [77.782418, 12.970871], [77.782826, 12.970892], [77.782923, 12.970897], [77.783011, 12.970896], [77.783069, 12.9709], [77.783106, 12.970905], [77.783129, 12.970907], [77.783153, 12.970907], [77.783166, 12.970904], [77.783171, 12.970907], [77.783199, 12.970877], [77.783231, 12.970846], [77.783247, 12.970832], [77.783253, 12.97083], [77.783253, 12.970816], [77.783253, 12.970799], [77.783241, 12.970778], [77.783146, 12.970723], [77.783034, 12.970692], [77.783002, 12.97069], [77.782985, 12.970685], [77.782981, 12.970669], [77.782986, 12.970644], [77.783055, 12.970497], [77.783068, 12.970428], [77.783146, 12.97036], [77.783258, 12.970249], [77.783308, 12.9702], [77.783329, 12.97017], [77.783346, 12.970148], [77.783396, 12.97012], [77.783446, 12.970124], [77.783464, 12.970145], [77.783489, 12.970164], [77.783512, 12.970175], [77.783546, 12.97017], [77.783562, 12.970141], [77.783575, 12.970115], [77.783582, 12.970072], [77.783574, 12.969997], [77.783583, 12.969814], [77.783648, 12.969657], [77.783709, 12.969508], [77.783846, 12.9692], [77.783883, 12.969159], [77.783886, 12.969157], [77.783876, 12.969102], [77.783871, 12.969073], [77.78393, 12.96899], [77.783949, 12.968879], [77.783972, 12.968732], [77.784048, 12.968468], [77.784051, 12.968433], [77.78403, 12.968412], [77.783986, 12.968394], [77.783919, 12.968354], [77.783859, 12.968264], [77.783877, 12.968105], [77.783938, 12.967919], [77.783943, 12.967829], [77.783804, 12.967828], [77.783805, 12.967788], [77.783892, 12.967635], [77.783916, 12.967564], [77.783944, 12.967212], [77.783959, 12.967037], [77.783943, 12.966989], [77.783919, 12.966958], [77.78392, 12.966953], [77.783909, 12.966899], [77.783942, 12.966814], [77.783949, 12.966797], [77.783972, 12.966732], [77.783986, 12.966674], [77.783981, 12.966655], [77.783971, 12.966645], [77.783957, 12.966631], [77.783897, 12.966626], [77.783807, 12.966606], [77.783694, 12.966593], [77.783585, 12.966593], [77.783559, 12.966604], [77.783187, 12.966554], [77.783147, 12.966515], [77.782946, 12.966417], [77.782307, 12.966177], [77.781813, 12.966028], [77.781581, 12.96603], [77.781197, 12.966198], [77.781076, 12.966296], [77.78104, 12.966292], [77.780794, 12.96642], [77.780588, 12.966331], [77.780188, 12.966313], [77.779747, 12.966377], [77.77953, 12.966461], [77.779303, 12.966514], [77.77914, 12.966497], [77.779104, 12.966607], [77.779082, 12.966758], [77.779074, 12.966863], [77.779066, 12.966954], [77.779009, 12.967355], [77.778982, 12.967369], [77.778982, 12.96737], [77.778983, 12.967384], [77.778812, 12.96758], [77.77822, 12.967872], [77.777843, 12.967986], [77.777677, 12.968024], [77.777522, 12.968025], [77.777397, 12.967984], [77.77693, 12.967722], [77.776377, 12.967582], [77.776164, 12.967438], [77.775622, 12.967104], [77.774431, 12.966442], [77.773889, 12.966205], [77.773334, 12.965877], [77.773159, 12.965708], [77.772568, 12.964949], [77.7721, 12.964589], [77.771851, 12.964483], [77.771533, 12.964383], [77.771421, 12.964317], [77.771284, 12.964191], [77.770949, 12.963623], [77.770426, 12.962827], [77.770307, 12.962688], [77.767946, 12.96305], [77.767635, 12.963487], [77.765665, 12.962516], [77.759055, 12.959961], [77.759018, 12.959947], [77.757625, 12.95941], [77.757602, 12.959401], [77.757588, 12.959325], [77.757556, 12.959271], [77.757503, 12.959227], [77.757412, 12.95918], [77.757238, 12.959172], [77.757154, 12.959152], [77.757087, 12.959105], [77.75703, 12.959041], [77.756968, 12.959024], [77.756919, 12.959052], [77.756874, 12.95912], [77.756866, 12.959117], [77.756779, 12.959084], [77.756524, 12.958947], [77.756065, 12.958757], [77.755771, 12.95861], [77.753259, 12.957844], [77.750437, 12.956975], [77.749771, 12.956765], [77.749501, 12.955809], [77.749486, 12.955809], [77.749214, 12.955794], [77.749049, 12.955813], [77.748704, 12.955799], [77.74839, 12.95581], [77.74833, 12.955821], [77.748065, 12.955875], [77.748053, 12.955887], [77.748209, 12.958362], [77.747736, 12.958429], [77.746665, 12.95875], [77.745511, 12.957029], [77.745503, 12.957111], [77.745504, 12.957157], [77.745504, 12.957216], [77.745502, 12.957237], [77.745484, 12.957247], [77.745452, 12.95724], [77.745397, 12.957184], [77.745117, 12.956908], [77.745038, 12.956846], [77.745017, 12.956811], [77.744848, 12.956703], [77.744729, 12.95666], [77.744678, 12.956655], [77.744674, 12.956647], [77.744672, 12.956643], [77.744576, 12.956637], [77.744527, 12.956638], [77.744461, 12.956639], [77.744422, 12.956639], [77.744369, 12.956568], [77.744334, 12.956527], [77.744296, 12.956521], [77.744236, 12.95648], [77.744048, 12.956147], [77.74404, 12.956069], [77.744025, 12.956021], [77.743955, 12.955977], [77.743895, 12.95593], [77.74386, 12.955849], [77.743863, 12.955808], [77.743852, 12.955756], [77.743841, 12.955736], [77.743834, 12.9557], [77.743774, 12.955662], [77.74371, 12.955601], [77.743635, 12.955355], [77.743588, 12.955274], [77.743498, 12.955005], [77.743435, 12.954913], [77.743396, 12.954883], [77.743354, 12.954846], [77.743245, 12.954461], [77.743213, 12.954393], [77.74316, 12.954355], [77.743132, 12.954311], [77.74318, 12.954232], [77.743201, 12.954151], [77.743103, 12.954084], [77.743098, 12.954062], [77.743071, 12.954034], [77.743008, 12.95395], [77.742979, 12.95393], [77.742934, 12.953913], [77.742868, 12.953875], [77.742762, 12.95374], [77.742738, 12.953702], [77.742704, 12.953669], [77.742678, 12.953636], [77.742667, 12.953605], [77.742638, 12.953582], [77.742561, 12.953532], [77.742506, 12.953494], [77.742435, 12.953444], [77.742416, 12.953426], [77.742369, 12.953408], [77.742346, 12.953404], [77.742301, 12.953368], [77.742267, 12.95334], [77.742224, 12.953305], [77.742169, 12.953275], [77.742117, 12.953252], [77.742072, 12.953235], [77.742014, 12.953202], [77.741943, 12.953167], [77.741891, 12.953144], [77.741838, 12.953109], [77.741775, 12.953058], [77.741704, 12.953044], [77.741654, 12.953047], [77.741589, 12.95305], [77.741526, 12.953051], [77.741456, 12.953051], [77.741455, 12.953054], [77.741433, 12.953046], [77.741378, 12.953047], [77.74134, 12.95303], [77.74126, 12.95301], [77.741209, 12.953001], [77.74114, 12.953013], [77.741111, 12.953013], [77.741087, 12.953008], [77.741065, 12.952987], [77.741042, 12.952966], [77.740979, 12.952951], [77.740926, 12.95293], [77.740872, 12.95292], [77.740812, 12.952916], [77.740774, 12.952921], [77.740759, 12.952932], [77.740736, 12.952948], [77.740706, 12.952956], [77.740677, 12.952952], [77.740647, 12.952951], [77.740614, 12.952951], [77.740581, 12.952951], [77.740494, 12.952939], [77.740461, 12.952937], [77.740424, 12.952938], [77.740386, 12.952936], [77.740367, 12.952936], [77.740341, 12.952937], [77.74032, 12.952931], [77.7403, 12.952924], [77.740276, 12.952905], [77.740278, 12.952891], [77.740249, 12.952886], [77.740204, 12.95288], [77.740178, 12.952877], [77.740152, 12.952866], [77.740107, 12.952818], [77.740097, 12.952812], [77.740079, 12.952812], [77.74005, 12.952813], [77.740024, 12.952811], [77.740005, 12.952798], [77.739967, 12.952775], [77.739902, 12.952726], [77.739798, 12.952689], [77.739703, 12.952678], [77.739648, 12.95264], [77.739569, 12.952578], [77.739532, 12.952553], [77.739496, 12.952524], [77.73944, 12.95245], [77.739416, 12.952429], [77.739395, 12.952412], [77.739363, 12.95238], [77.739331, 12.952338], [77.739275, 12.952185], [77.739257, 12.952158], [77.739229, 12.952129], [77.739217, 12.952114], [77.739197, 12.95207], [77.739175, 12.952064], [77.73915, 12.952065], [77.739128, 12.952078], [77.739123, 12.952105], [77.739103, 12.952119], [77.739076, 12.952131], [77.739018, 12.952164], [77.738961, 12.952165], [77.738935, 12.952182], [77.738898, 12.952196], [77.738818, 12.952222], [77.738787, 12.952222], [77.738746, 12.952231], [77.738732, 12.952248], [77.738705, 12.952281], [77.738688, 12.952308], [77.738676, 12.952314], [77.738657, 12.952308], [77.738621, 12.952295], [77.738598, 12.95229], [77.738576, 12.95229], [77.738555, 12.952306], [77.738543, 12.95231], [77.738515, 12.95231], [77.738474, 12.952287], [77.738452, 12.952284], [77.738431, 12.952282], [77.738415, 12.952296], [77.738396, 12.952313], [77.738382, 12.952311], [77.738366, 12.952288], [77.738323, 12.952268], [77.738297, 12.952243], [77.738291, 12.952222], [77.738279, 12.952184], [77.738245, 12.952155], [77.738223, 12.952142], [77.738168, 12.952121], [77.738133, 12.952122], [77.738113, 12.952112], [77.738046, 12.95208], [77.737995, 12.952077], [77.737931, 12.951894], [77.737941, 12.95175], [77.737919, 12.951733], [77.737816, 12.951557], [77.737739, 12.951453], [77.737614, 12.951261], [77.737607, 12.95126], [77.737593, 12.951227], [77.737526, 12.951124], [77.737474, 12.951071], [77.737443, 12.951068], [77.737427, 12.951073], [77.737404, 12.951097], [77.737386, 12.951095], [77.737358, 12.951076], [77.737319, 12.951057], [77.73726, 12.951043], [77.73719, 12.951043], [77.73713, 12.951067], [77.737121, 12.95106], [77.7371, 12.951074], [77.737075, 12.951077], [77.73706, 12.951072], [77.737047, 12.951057], [77.737019, 12.951052], [77.736998, 12.951051], [77.736975, 12.951044], [77.736951, 12.951017], [77.736928, 12.950984], [77.736906, 12.950978], [77.736881, 12.95098], [77.736836, 12.95096], [77.736817, 12.950906], [77.736808, 12.950894], [77.73678, 12.950861], [77.736759, 12.950843], [77.736719, 12.95083], [77.736682, 12.950803], [77.736663, 12.950772], [77.736662, 12.950771], [77.736661, 12.95077], [77.736653, 12.950755], [77.736635, 12.950745], [77.736618, 12.950745], [77.736511, 12.950682], [77.7364, 12.950615], [77.736368, 12.950621], [77.736333, 12.950616], [77.736296, 12.950591], [77.736264, 12.950572], [77.736221, 12.950552], [77.736178, 12.950554], [77.736146, 12.950554], [77.736121, 12.950541], [77.736099, 12.950528], [77.736083, 12.950509], [77.736045, 12.950486], [77.735996, 12.950452], [77.735966, 12.950412], [77.735947, 12.950408], [77.735911, 12.950416], [77.735874, 12.950415], [77.735821, 12.950383], [77.735775, 12.950358], [77.735603, 12.950224], [77.735564, 12.950193], [77.735522, 12.950165], [77.73547, 12.950163], [77.73544, 12.950166], [77.735413, 12.950166], [77.735399, 12.950153], [77.735305, 12.950019], [77.735287, 12.949982], [77.735265, 12.949976], [77.735254, 12.949939], [77.735204, 12.949901], [77.735134, 12.949889], [77.735076, 12.949876], [77.735026, 12.949841], [77.73491, 12.94975], [77.734881, 12.949717], [77.734804, 12.949666], [77.734718, 12.949616], [77.734563, 12.949541], [77.734484, 12.949516], [77.734421, 12.949529], [77.734354, 12.949525], [77.734353, 12.949525], [77.73433, 12.949523], [77.734288, 12.949521], [77.734246, 12.949518], [77.734209, 12.949506], [77.734185, 12.949473], [77.734183, 12.94945], [77.734216, 12.949398], [77.73419, 12.949368], [77.734174, 12.949353], [77.734179, 12.949327], [77.734186, 12.949309], [77.734186, 12.949278], [77.734186, 12.949247], [77.734186, 12.949242], [77.733986, 12.949582], [77.733911, 12.949571], [77.733629, 12.949574], [77.733603, 12.949574], [77.733525, 12.949556], [77.733525, 12.949533], [77.733525, 12.949519], [77.733128, 12.949402], [77.733029, 12.94928], [77.733018, 12.948843], [77.732745, 12.948808], [77.73275, 12.948576], [77.732537, 12.948575], [77.732602, 12.947921], [77.732636, 12.947922], [77.73265, 12.947776], [77.732378, 12.947752], [77.732019, 12.947786], [77.731385, 12.94794], [77.730317, 12.947951], [77.72859, 12.947808], [77.727653, 12.947227], [77.726339, 12.947241], [77.725473, 12.947123], [77.725463, 12.946948], [77.725113, 12.946538], [77.725057, 12.94682], [77.72502, 12.947461], [77.724931, 12.947772], [77.724722, 12.948722], [77.724477, 12.950049], [77.72418, 12.951199], [77.723907, 12.952076], [77.723733, 12.953048], [77.723699, 12.95396], [77.724001, 12.955837], [77.724174, 12.957665], [77.724048, 12.960669], [77.724166, 12.960772], [77.724309, 12.960806], [77.724582, 12.960854], [77.724583, 12.960854], [77.724658, 12.960869], [77.724568, 12.961177], [77.724574, 12.961189], [77.724605, 12.961198], [77.72512, 12.961214], [77.725188, 12.961201], [77.725236, 12.961182], [77.725239, 12.961186], [77.725756, 12.961256], [77.725761, 12.961257], [77.725763, 12.961257], [77.725848, 12.961275], [77.726048, 12.961264], [77.726371, 12.961302], [77.726659, 12.961429], [77.726857, 12.961638], [77.726959, 12.961757], [77.727054, 12.961893], [77.727101, 12.962318], [77.727099, 12.962654], [77.727184, 12.963196], [77.72721, 12.963201], [77.727284, 12.963904], [77.727359, 12.964636], [77.727417, 12.965032], [77.727398, 12.965116], [77.727451, 12.965476], [77.727455, 12.965578], [77.727556, 12.965966], [77.727582, 12.966], [77.727594, 12.966113], [77.727615, 12.966197], [77.727605, 12.966199], [77.727663, 12.966379], [77.727724, 12.966709], [77.72777, 12.967016], [77.727852, 12.967494], [77.724302, 12.968033], [77.725554, 12.971212], [77.72659, 12.971077], [77.726625, 12.971371], [77.726652, 12.971369], [77.726737, 12.972454], [77.726804, 12.973131], [77.726826, 12.973793], [77.726867, 12.974627], [77.726876, 12.975226], [77.72697, 12.976411], [77.726994, 12.976554], [77.729939, 12.976234], [77.733306, 12.975971], [77.734016, 12.975964], [77.734606, 12.976052], [77.734884, 12.97612], [77.735138, 12.976282], [77.735503, 12.976632], [77.736197, 12.977964], [77.737086, 12.977722], [77.738923, 12.977207], [77.739928, 12.976701], [77.741169, 12.976046], [77.741216, 12.976033], [77.743361, 12.975411], [77.744346, 12.97575], [77.745236, 12.975683], [77.746123, 12.975236], [77.746443, 12.974621], [77.746451, 12.974605], [77.748538, 12.974268], [77.748889, 12.974375], [77.74889, 12.974475], [77.749253, 12.974604], [77.749265, 12.974692], [77.750477, 12.975023], [77.750464, 12.974846], [77.751964, 12.97469], [77.752744, 12.974612], [77.753932, 12.974541], [77.755204, 12.976743], [77.756917, 12.976725], [77.757625, 12.980418], [77.765653, 12.980316], [77.765651, 12.980121], [77.765514, 12.979748], [77.765411, 12.979424], [77.765323, 12.978969], [77.765349, 12.978302], [77.778499, 12.977077]]]}}]}