{"type": "FeatureCollection", "features": [{"type": "Feature", "properties": {"region_id": "ward_276600-57", "name": "C V Raman Nagar", "parent": "zone_276600-3", "parent_name": "East"}, "geometry": {"type": "Polygon", "coordinates": [[[77.674481, 12.986624], [77.674888, 12.986431], [77.675703, 12.985937], [77.676508, 12.985452], [77.677019, 12.985119], [77.677587, 12.984833], [77.677929, 12.984643], [77.678203, 12.984453], [77.678487, 12.9843], [77.678628, 12.98414], [77.679075, 12.984033], [77.679807, 12.983664], [77.679808, 12.983639], [77.679811, 12.983634], [77.67988, 12.983558], [77.679972, 12.983466], [77.680063, 12.983343], [77.680088, 12.983301], [77.680145, 12.983206], [77.680253, 12.983046], [77.680303, 12.982967], [77.680362, 12.982874], [77.68037, 12.982849], [77.680403, 12.982751], [77.680398, 12.982665], [77.680391, 12.982628], [77.680376, 12.98255], [77.680347, 12.982434], [77.680258, 12.982131], [77.680105, 12.981614], [77.679939, 12.981084], [77.679856, 12.980792], [77.679819, 12.980625], [77.679809, 12.980581], [77.679804, 12.980552], [77.679684, 12.97991], [77.679643, 12.979685], [77.679577, 12.979413], [77.679427, 12.978739], [77.679379, 12.978484], [77.679334, 12.978095], [77.6793, 12.977598], [77.679291, 12.977464], [77.679281, 12.977319], [77.679263, 12.977056], [77.679263, 12.97705], [77.679263, 12.977012], [77.679264, 12.976814], [77.679314, 12.976615], [77.679323, 12.976503], [77.679326, 12.976407], [77.679306, 12.976298], [77.6793, 12.976267], [77.678734, 12.974748], [77.678404, 12.973769], [77.678261, 12.973358], [77.678235, 12.973283], [77.678219, 12.973192], [77.678192, 12.973032], [77.678186, 12.973033], [77.678122, 12.972807], [77.678104, 12.972742], [77.677684, 12.972808], [77.676673, 12.973018], [77.676301, 12.973095], [77.675976, 12.973178], [77.675846, 12.973199], [77.675548, 12.973247], [77.674954, 12.973375], [77.674588, 12.973472], [77.674435, 12.973518], [77.674067, 12.973641], [77.673871, 12.973707], [77.673481, 12.973822], [77.673289, 12.973879], [77.672819, 12.974043], [77.672361, 12.974202], [77.671403, 12.974514], [77.671246, 12.974559], [77.671036, 12.974619], [77.670649, 12.974733], [77.67046, 12.974804], [77.669885, 12.975023], [77.669442, 12.975177], [77.669211, 12.975258], [77.669539, 12.976328], [77.670072, 12.977483], [77.670291, 12.977894], [77.669756, 12.978163], [77.669776, 12.978418], [77.669952, 12.979298], [77.67018, 12.979348], [77.670911, 12.979041], [77.670988, 12.979162], [77.670989, 12.979265], [77.670886, 12.979415], [77.670793, 12.979585], [77.670652, 12.979754], [77.670442, 12.979719], [77.670261, 12.97974], [77.670176, 12.979881], [77.670226, 12.980058], [77.670112, 12.980059], [77.669979, 12.980126], [77.669903, 12.980192], [77.669886, 12.980332], [77.669905, 12.980388], [77.669696, 12.980456], [77.669573, 12.980541], [77.66923, 12.980535], [77.668912, 12.980555], [77.669161, 12.98123], [77.669095, 12.982077], [77.668532, 12.982094], [77.668494, 12.982095], [77.668456, 12.982095], [77.668399, 12.982124], [77.668342, 12.982152], [77.668279, 12.982256], [77.668278, 12.982256], [77.667353, 12.982321], [77.666501, 12.982312], [77.666268, 12.98235], [77.666203, 12.982157], [77.665737, 12.982153], [77.665605, 12.982401], [77.665481, 12.982551], [77.665267, 12.982641], [77.664962, 12.982618], [77.66462, 12.982551], [77.664157, 12.982837], [77.66441, 12.983523], [77.664363, 12.983732], [77.664152, 12.983856], [77.663803, 12.983884], [77.663616, 12.983837], [77.663011, 12.983293], [77.66225, 12.983227], [77.661677, 12.983343], [77.66138, 12.983523], [77.661077, 12.983778], [77.661006, 12.983879], [77.660509, 12.984095], [77.660399, 12.984096], [77.65979, 12.983947], [77.65911, 12.983528], [77.658686, 12.983201], [77.658593, 12.982918], [77.658527, 12.982479], [77.658475, 12.982095], [77.658433, 12.981442], [77.658288, 12.98128], [77.657316, 12.980997], [77.655407, 12.980341], [77.653513, 12.979652], [77.653668, 12.979392], [77.653084, 12.979087], [77.652807, 12.979395], [77.651743, 12.98046], [77.651007, 12.981197], [77.650436, 12.981959], [77.649687, 12.983065], [77.648907, 12.984452], [77.648422, 12.985376], [77.648119, 12.986197], [77.648038, 12.98699], [77.648261, 12.98708], [77.648399, 12.987136], [77.649212, 12.987474], [77.650096, 12.987905], [77.65104, 12.988363], [77.652076, 12.988854], [77.653166, 12.989359], [77.654266, 12.989871], [77.655611, 12.990529], [77.656641, 12.991021], [77.657294, 12.991353], [77.657837, 12.991583], [77.658927, 12.992143], [77.660059, 12.992676], [77.661064, 12.993167], [77.662185, 12.993682], [77.663278, 12.994163], [77.663466, 12.994257], [77.663672, 12.99436], [77.66386, 12.994455], [77.664031, 12.994524], [77.664128, 12.994564], [77.66413, 12.994561], [77.66419, 12.994453], [77.664691, 12.993611], [77.664866, 12.993337], [77.665123, 12.992931], [77.665205, 12.992802], [77.66556, 12.992354], [77.665701, 12.992187], [77.666067, 12.99179], [77.666365, 12.991521], [77.666565, 12.991351], [77.666873, 12.991114], [77.66708, 12.990966], [77.667214, 12.990873], [77.667821, 12.990511], [77.667945, 12.990406], [77.668316, 12.990215], [77.668123, 12.990015], [77.668173, 12.989985], [77.667984, 12.989793], [77.667867, 12.989777], [77.667785, 12.989755], [77.667699, 12.989691], [77.66755, 12.98942], [77.667452, 12.988978], [77.667416, 12.988548], [77.667423, 12.987948], [77.66741, 12.987368], [77.667451, 12.98631], [77.667445, 12.986092], [77.667469, 12.986034], [77.667729, 12.98596], [77.667825, 12.985826], [77.667934, 12.985633], [77.667955, 12.985609], [77.667993, 12.985595], [77.668056, 12.985625], [77.668239, 12.985725], [77.668283, 12.985749], [77.668285, 12.985751], [77.668362, 12.985821], [77.668369, 12.98582], [77.668375, 12.985823], [77.668417, 12.985823], [77.66842, 12.985823], [77.668573, 12.985896], [77.668605, 12.985911], [77.668804, 12.986003], [77.66884, 12.986016], [77.669166, 12.986129], [77.669234, 12.986152], [77.669259, 12.986157], [77.669354, 12.986174], [77.669432, 12.986188], [77.669482, 12.98619], [77.669797, 12.986203], [77.669822, 12.986204], [77.669937, 12.9862], [77.669999, 12.986195], [77.670165, 12.986183], [77.670211, 12.98618], [77.670552, 12.986135], [77.670843, 12.986081], [77.670999, 12.986046], [77.671172, 12.986222], [77.671296, 12.986175], [77.671497, 12.986066], [77.67176, 12.985945], [77.671903, 12.985999], [77.67214, 12.98609], [77.672199, 12.986113], [77.672619, 12.986274], [77.67271, 12.986307], [77.673025, 12.986432], [77.673123, 12.986469], [77.673506, 12.986614], [77.673732, 12.9867], [77.674481, 12.986624]]]}}]}