{"type": "FeatureCollection", "features": [{"type": "Feature", "properties": {"region_id": "ward_276600-158", "name": "Deepanjali Nagar", "parent": "zone_276600-6", "parent_name": "South"}, "geometry": {"type": "Polygon", "coordinates": [[[77.538407, 12.950862], [77.53836, 12.950495], [77.538318, 12.95023], [77.538268, 12.950094], [77.538219, 12.949996], [77.538175, 12.94995], [77.538101, 12.949912], [77.538053, 12.949857], [77.537986, 12.949825], [77.537829, 12.949748], [77.537654, 12.94966], [77.537466, 12.949538], [77.537391, 12.94947], [77.537346, 12.949385], [77.537319, 12.949262], [77.537334, 12.949035], [77.537371, 12.9488], [77.537473, 12.948589], [77.537573, 12.948495], [77.537733, 12.948399], [77.537806, 12.948283], [77.537883, 12.948162], [77.537939, 12.948085], [77.537965, 12.948051], [77.53799, 12.947995], [77.53799, 12.947961], [77.537989, 12.947914], [77.537967, 12.947854], [77.537886, 12.947633], [77.537726, 12.947331], [77.537619, 12.947097], [77.537566, 12.946952], [77.537525, 12.946799], [77.53752, 12.946726], [77.537544, 12.946546], [77.537548, 12.946478], [77.53755, 12.946458], [77.538469, 12.946419], [77.538728, 12.946402], [77.538936, 12.9464], [77.539064, 12.946441], [77.539249, 12.946508], [77.539595, 12.946621], [77.539832, 12.946697], [77.539899, 12.946706], [77.540107, 12.946706], [77.540529, 12.946625], [77.541268, 12.946458], [77.541687, 12.946346], [77.541981, 12.946269], [77.542558, 12.946119], [77.543146, 12.945965], [77.543568, 12.945827], [77.544205, 12.945669], [77.545343, 12.945317], [77.545533, 12.945802], [77.545809, 12.945751], [77.545999, 12.945982], [77.546794, 12.945941], [77.546965, 12.94594], [77.546941, 12.945723], [77.54773, 12.94558], [77.548176, 12.945521], [77.548838, 12.945425], [77.548798, 12.945099], [77.549475, 12.945012], [77.549483, 12.94497], [77.549587, 12.944536], [77.549629, 12.944347], [77.549642, 12.944292], [77.549663, 12.944188], [77.549671, 12.944106], [77.549685, 12.944013], [77.54972, 12.943831], [77.549759, 12.943707], [77.549813, 12.94342], [77.549846, 12.943321], [77.549883, 12.943251], [77.549956, 12.943139], [77.550017, 12.943044], [77.550077, 12.94299], [77.550176, 12.94296], [77.550255, 12.942936], [77.550296, 12.942922], [77.550317, 12.942895], [77.550306, 12.942834], [77.550274, 12.942749], [77.550228, 12.942627], [77.55015, 12.942516], [77.550059, 12.942395], [77.550031, 12.942327], [77.55002, 12.942266], [77.549995, 12.942171], [77.549853, 12.942196], [77.549035, 12.942265], [77.548493, 12.942323], [77.548029, 12.942399], [77.547683, 12.942476], [77.546102, 12.942864], [77.54504, 12.943169], [77.544924, 12.943189], [77.544818, 12.94319], [77.544078, 12.943225], [77.542776, 12.943295], [77.541469, 12.943344], [77.541237, 12.943353], [77.540705, 12.943415], [77.538662, 12.943523], [77.538763, 12.941731], [77.538799, 12.941148], [77.538829, 12.940927], [77.538912, 12.940233], [77.53895, 12.939862], [77.538968, 12.939659], [77.539055, 12.939214], [77.539239, 12.938432], [77.53935, 12.937955], [77.539362, 12.937907], [77.539767, 12.937822], [77.53985, 12.937796], [77.540632, 12.937617], [77.539883, 12.935639], [77.539666, 12.934907], [77.539382, 12.933777], [77.539328, 12.933636], [77.539215, 12.933704], [77.539, 12.933834], [77.538955, 12.933861], [77.537191, 12.934867], [77.536027, 12.935513], [77.535376, 12.935835], [77.534767, 12.936154], [77.534604, 12.936245], [77.534587, 12.936289], [77.534376, 12.93645], [77.534364, 12.936462], [77.534335, 12.936494], [77.534297, 12.936535], [77.534271, 12.936571], [77.534265, 12.936579], [77.534253, 12.936595], [77.534249, 12.9366], [77.534195, 12.936675], [77.534187, 12.936696], [77.534091, 12.93696], [77.53392, 12.937521], [77.533862, 12.937622], [77.533804, 12.937725], [77.533376, 12.938405], [77.533124, 12.938835], [77.532984, 12.939075], [77.532905, 12.939198], [77.532672, 12.939562], [77.53251, 12.939816], [77.53239, 12.940014], [77.53212, 12.94046], [77.531473, 12.941565], [77.531434, 12.94162], [77.53142, 12.941646], [77.53141, 12.941662], [77.530933, 12.942521], [77.530882, 12.942613], [77.530863, 12.942649], [77.530431, 12.943439], [77.530385, 12.943507], [77.530383, 12.94351], [77.530351, 12.943567], [77.53018, 12.943818], [77.530107, 12.943925], [77.529977, 12.944121], [77.529685, 12.944527], [77.529619, 12.944585], [77.529617, 12.944587], [77.529595, 12.944616], [77.529459, 12.94474], [77.5294, 12.944779], [77.529283, 12.944857], [77.529251, 12.944871], [77.529227, 12.944887], [77.529196, 12.944906], [77.528965, 12.944992], [77.528946, 12.944999], [77.528676, 12.945114], [77.528312, 12.945248], [77.528292, 12.945262], [77.528279, 12.945272], [77.528249, 12.945298], [77.528216, 12.945324], [77.528189, 12.945342], [77.528178, 12.945349], [77.528175, 12.945351], [77.52813, 12.945379], [77.528114, 12.94539], [77.528043, 12.945442], [77.52803, 12.945452], [77.527971, 12.945485], [77.527923, 12.945508], [77.527842, 12.94553], [77.527703, 12.94556], [77.527596, 12.945573], [77.527277, 12.945635], [77.526739, 12.945754], [77.526598, 12.945796], [77.526474, 12.945875], [77.526436, 12.945913], [77.526603, 12.946292], [77.526949, 12.946983], [77.52716, 12.947325], [77.527704, 12.948139], [77.52834, 12.949064], [77.529141, 12.950219], [77.529637, 12.950903], [77.529945, 12.951222], [77.530588, 12.951605], [77.531352, 12.952021], [77.531988, 12.952263], [77.53294, 12.952536], [77.533788, 12.952737], [77.534592, 12.953074], [77.53538, 12.953608], [77.53587, 12.954051], [77.536008, 12.953916], [77.536259, 12.953644], [77.536564, 12.953355], [77.536623, 12.953275], [77.536693, 12.953165], [77.536753, 12.953055], [77.536815, 12.952858], [77.536908, 12.952521], [77.537156, 12.951839], [77.53739, 12.951074], [77.537527, 12.950723], [77.537556, 12.950663], [77.537572, 12.950614], [77.537594, 12.950589], [77.537617, 12.950569], [77.537653, 12.950556], [77.537705, 12.950559], [77.537735, 12.950565], [77.537794, 12.95059], [77.537932, 12.950678], [77.538113, 12.95078], [77.538171, 12.950796], [77.538407, 12.950862]]]}}]}