{"type": "FeatureCollection", "features": [{"type": "Feature", "properties": {"region_id": "ward_276600-162", "name": "Girinagar", "parent": "zone_276600-6", "parent_name": "South"}, "geometry": {"type": "Polygon", "coordinates": [[[77.552473, 12.938805], [77.552419, 12.938273], [77.552337, 12.937831], [77.552163, 12.937149], [77.551842, 12.937229], [77.551535, 12.937286], [77.55133, 12.936665], [77.551022, 12.936092], [77.550691, 12.936271], [77.550543, 12.935967], [77.550991, 12.935756], [77.550916, 12.935522], [77.550848, 12.935288], [77.550772, 12.934983], [77.550757, 12.934877], [77.550814, 12.934791], [77.55082, 12.934698], [77.550757, 12.934561], [77.550642, 12.934426], [77.549959, 12.933889], [77.549219, 12.933188], [77.548813, 12.932593], [77.548058, 12.931522], [77.547216, 12.930571], [77.546519, 12.929729], [77.54556, 12.928634], [77.544949, 12.929141], [77.544083, 12.929915], [77.543062, 12.930866], [77.542422, 12.931397], [77.541704, 12.931932], [77.541513, 12.932075], [77.54066, 12.932712], [77.539385, 12.933601], [77.539328, 12.933636], [77.539382, 12.933777], [77.539666, 12.934907], [77.539883, 12.935639], [77.540632, 12.937617], [77.53985, 12.937796], [77.539767, 12.937822], [77.539362, 12.937907], [77.53935, 12.937955], [77.539239, 12.938432], [77.539055, 12.939214], [77.538968, 12.939659], [77.53895, 12.939862], [77.538912, 12.940233], [77.538829, 12.940927], [77.538799, 12.941148], [77.538763, 12.941731], [77.538662, 12.943523], [77.540705, 12.943415], [77.541237, 12.943353], [77.541469, 12.943344], [77.542776, 12.943295], [77.544078, 12.943225], [77.544818, 12.94319], [77.544924, 12.943189], [77.54504, 12.943169], [77.546102, 12.942864], [77.547683, 12.942476], [77.548029, 12.942399], [77.548493, 12.942323], [77.549035, 12.942265], [77.549853, 12.942196], [77.549995, 12.942171], [77.55002, 12.942266], [77.550031, 12.942327], [77.550059, 12.942395], [77.55015, 12.942516], [77.550228, 12.942627], [77.550274, 12.942749], [77.550306, 12.942834], [77.550317, 12.942895], [77.550296, 12.942922], [77.550255, 12.942936], [77.550176, 12.94296], [77.550077, 12.94299], [77.550017, 12.943044], [77.549956, 12.943139], [77.549883, 12.943251], [77.549846, 12.943321], [77.549813, 12.94342], [77.549759, 12.943707], [77.54972, 12.943831], [77.549685, 12.944013], [77.549671, 12.944106], [77.549663, 12.944188], [77.549642, 12.944292], [77.549629, 12.944347], [77.549587, 12.944536], [77.549483, 12.94497], [77.549475, 12.945012], [77.550726, 12.94483], [77.552257, 12.944654], [77.552225, 12.944109], [77.552189, 12.94352], [77.552309, 12.943504], [77.552443, 12.943489], [77.552627, 12.943439], [77.552768, 12.943375], [77.552916, 12.943318], [77.552833, 12.942875], [77.552765, 12.942431], [77.552691, 12.941934], [77.552618, 12.941939], [77.552581, 12.941426], [77.55253, 12.940874], [77.552457, 12.940874], [77.552393, 12.940353], [77.552332, 12.939928], [77.552317, 12.939765], [77.552238, 12.93943], [77.55216, 12.939176], [77.552135, 12.939057], [77.552131, 12.938984], [77.552139, 12.938952], [77.552141, 12.938931], [77.552158, 12.938907], [77.552175, 12.93889], [77.552199, 12.938878], [77.552331, 12.938847], [77.552473, 12.938805]]]}}]}