{"type": "FeatureCollection", "features": [{"type": "Feature", "properties": {"region_id": "ward_276600-66", "name": "Subramanya Nagar", "parent": "zone_276600-7", "parent_name": "West"}, "geometry": {"type": "Polygon", "coordinates": [[[77.560514, 13.000544], [77.559771, 13.000671], [77.55881, 13.000846], [77.55828, 13.000995], [77.557904, 13.001089], [77.557604, 13.001153], [77.557351, 13.001208], [77.557004, 13.001227], [77.556296, 13.001241], [77.556027, 13.001266], [77.555827, 13.001306], [77.555535, 13.001377], [77.554843, 13.00152], [77.554619, 13.001569], [77.553906, 13.001725], [77.553483, 13.00182], [77.553314, 13.001852], [77.553221, 13.001863], [77.55321, 13.001864], [77.553244, 13.002092], [77.55328, 13.002344], [77.55336, 13.002685], [77.553363, 13.002702], [77.553395, 13.002885], [77.553575, 13.003676], [77.553708, 13.0041], [77.553749, 13.00423], [77.553763, 13.004283], [77.553861, 13.004606], [77.554046, 13.005215], [77.554195, 13.005963], [77.554261, 13.006302], [77.554315, 13.006582], [77.554356, 13.006819], [77.554368, 13.006886], [77.554383, 13.006977], [77.554395, 13.007044], [77.554397, 13.007069], [77.55444, 13.007719], [77.554433, 13.008299], [77.554433, 13.008313], [77.554429, 13.008561], [77.554433, 13.008857], [77.554445, 13.010027], [77.554441, 13.010314], [77.554423, 13.011192], [77.554434, 13.011975], [77.554436, 13.012157], [77.554446, 13.012646], [77.554444, 13.012717], [77.554383, 13.013131], [77.554242, 13.013472], [77.554078, 13.013868], [77.554056, 13.013966], [77.554042, 13.014026], [77.55406, 13.014947], [77.554035, 13.01517], [77.554005, 13.015329], [77.554868, 13.015429], [77.554936, 13.01543], [77.555015, 13.015445], [77.555199, 13.015483], [77.555426, 13.015578], [77.555604, 13.015666], [77.556034, 13.015219], [77.556338, 13.014866], [77.556778, 13.014387], [77.557039, 13.014095], [77.55737, 13.013729], [77.557779, 13.013259], [77.558096, 13.012842], [77.558373, 13.012442], [77.558555, 13.012104], [77.558814, 13.0116], [77.559042, 13.011089], [77.559174, 13.010699], [77.559278, 13.010474], [77.55947, 13.009893], [77.55967, 13.009265], [77.559913, 13.008452], [77.560172, 13.00759], [77.560308, 13.007118], [77.560419, 13.006789], [77.560739, 13.005811], [77.56084, 13.005556], [77.560931, 13.005233], [77.561056, 13.004887], [77.561188, 13.004598], [77.561251, 13.004395], [77.56136, 13.004158], [77.561441, 13.003984], [77.561408, 13.003949], [77.56122, 13.00323], [77.560866, 13.001794], [77.560514, 13.000544]]]}}]}