{"type": "FeatureCollection", "features": [{"type": "Feature", "properties": {"region_id": "ward_276600-74", "name": "Shakthi Ganapathi Nagar", "parent": "zone_276600-7", "parent_name": "West"}, "geometry": {"type": "Polygon", "coordinates": [[[77.539789, 12.995249], [77.53971, 12.995036], [77.539458, 12.99447], [77.539241, 12.993875], [77.539115, 12.993528], [77.539028, 12.993287], [77.538435, 12.991649], [77.538411, 12.991605], [77.538387, 12.991575], [77.538357, 12.99157], [77.538349, 12.991569], [77.537061, 12.991777], [77.53581, 12.991982], [77.534429, 12.992201], [77.534045, 12.992254], [77.533553, 12.992321], [77.532777, 12.992447], [77.532481, 12.992478], [77.531653, 12.992566], [77.531647, 12.992567], [77.531451, 12.992588], [77.530247, 12.992761], [77.530256, 12.992889], [77.530289, 12.993158], [77.529012, 12.993326], [77.528905, 12.993362], [77.528408, 12.993578], [77.527813, 12.993843], [77.527618, 12.993922], [77.526756, 12.994152], [77.526818, 12.994423], [77.526517, 12.994518], [77.526425, 12.994543], [77.525171, 12.994912], [77.525225, 12.995013], [77.524962, 12.995155], [77.524353, 12.995461], [77.523851, 12.995746], [77.52392, 12.995812], [77.524195, 12.995985], [77.524462, 12.996251], [77.524624, 12.996434], [77.52474, 12.996701], [77.52478, 12.996923], [77.52483, 12.9972], [77.52487, 12.997467], [77.524905, 12.997595], [77.52501, 12.997736], [77.525101, 12.997827], [77.52517, 12.99788], [77.525264, 12.997897], [77.525369, 12.997885], [77.525538, 12.997827], [77.525743, 12.997743], [77.525909, 12.997713], [77.526028, 12.997716], [77.526151, 12.997743], [77.526191, 12.997803], [77.526206, 12.99788], [77.526229, 12.997965], [77.526205, 12.998086], [77.526167, 12.998238], [77.526125, 12.998384], [77.526072, 12.998462], [77.525957, 12.998559], [77.52594, 12.998592], [77.52741, 12.998936], [77.528191, 12.999161], [77.528247, 12.999077], [77.528305, 12.999026], [77.528451, 12.998874], [77.528547, 12.998768], [77.528604, 12.998696], [77.52864, 12.998629], [77.528686, 12.998551], [77.528738, 12.998468], [77.52882, 12.99837], [77.528898, 12.998292], [77.528965, 12.998184], [77.529043, 12.998121], [77.5291, 12.998044], [77.529204, 12.997955], [77.529282, 12.997893], [77.529344, 12.99782], [77.529396, 12.997779], [77.529479, 12.997747], [77.529584, 12.997736], [77.529694, 12.997761], [77.529711, 12.997807], [77.529779, 12.997888], [77.529869, 12.997944], [77.53, 12.997942], [77.530084, 12.997942], [77.530236, 12.99793], [77.530283, 12.997965], [77.530383, 12.997995], [77.53052, 12.998025], [77.530635, 12.998034], [77.530745, 12.998043], [77.530834, 12.998073], [77.530908, 12.998093], [77.531049, 12.998112], [77.531175, 12.998095], [77.531222, 12.998095], [77.531352, 12.99812], [77.531869, 12.99785], [77.532161, 12.997721], [77.531812, 12.997198], [77.532555, 12.996834], [77.532351, 12.996173], [77.532347, 12.996155], [77.533483, 12.995843], [77.533445, 12.995526], [77.533434, 12.995286], [77.534273, 12.995074], [77.534782, 12.994967], [77.535405, 12.994899], [77.535516, 12.995612], [77.535672, 12.995651], [77.536855, 12.995466], [77.537696, 12.995336], [77.538049, 12.995281], [77.539276, 12.99532], [77.539789, 12.995249]]]}}]}