{"type": "FeatureCollection", "features": [{"type": "Feature", "properties": {"region_id": "ward_276600-188", "name": "Bilekhalli", "parent": "zone_276600-1", "parent_name": "Bommanahalli"}, "geometry": {"type": "Polygon", "coordinates": [[[77.621075, 12.912586], [77.621327, 12.912293], [77.621327, 12.912235], [77.621236, 12.912081], [77.621187, 12.912007], [77.621172, 12.911943], [77.621161, 12.911879], [77.621146, 12.911737], [77.621158, 12.911602], [77.621164, 12.911494], [77.62117, 12.911393], [77.621135, 12.911052], [77.621092, 12.91088], [77.621085, 12.910843], [77.621036, 12.910803], [77.620957, 12.910783], [77.620888, 12.91076], [77.620818, 12.910677], [77.620751, 12.910519], [77.620674, 12.910344], [77.620613, 12.910132], [77.62058, 12.909943], [77.620554, 12.90942], [77.620547, 12.909099], [77.620556, 12.908852], [77.620645, 12.908494], [77.620863, 12.908578], [77.620927, 12.908727], [77.621269, 12.908662], [77.621439, 12.908623], [77.621419, 12.908425], [77.621739, 12.908389], [77.622128, 12.908389], [77.622151, 12.908381], [77.622104, 12.907961], [77.622248, 12.907948], [77.622244, 12.907596], [77.622207, 12.907386], [77.622382, 12.907373], [77.622519, 12.907388], [77.622862, 12.907437], [77.622864, 12.907124], [77.622857, 12.906923], [77.622856, 12.906829], [77.622704, 12.906838], [77.62254, 12.906859], [77.62242, 12.906868], [77.622334, 12.90685], [77.622263, 12.906774], [77.622173, 12.906725], [77.622052, 12.906711], [77.621883, 12.906698], [77.62183, 12.906714], [77.621605, 12.904655], [77.621209, 12.904718], [77.620849, 12.904757], [77.62052, 12.904842], [77.620245, 12.904035], [77.620141, 12.903918], [77.620026, 12.903591], [77.619615, 12.902912], [77.619506, 12.90234], [77.619232, 12.902427], [77.618623, 12.900865], [77.619403, 12.900825], [77.619751, 12.900751], [77.619947, 12.900756], [77.619711, 12.898255], [77.61971, 12.898255], [77.619657, 12.898256], [77.619484, 12.898229], [77.619345, 12.898215], [77.619256, 12.898198], [77.619206, 12.89818], [77.619156, 12.898158], [77.619153, 12.898155], [77.619135, 12.898152], [77.619034, 12.898068], [77.618963, 12.898015], [77.618944, 12.898007], [77.618904, 12.897997], [77.618747, 12.897998], [77.618644, 12.898016], [77.618378, 12.898027], [77.618111, 12.897971], [77.618068, 12.897904], [77.617756, 12.896027], [77.61718, 12.895966], [77.617189, 12.895157], [77.617195, 12.894607], [77.617198, 12.894406], [77.617043, 12.894417], [77.616451, 12.894472], [77.616524, 12.895164], [77.616556, 12.895458], [77.616261, 12.895479], [77.615478, 12.895492], [77.615484, 12.894887], [77.615071, 12.894823], [77.614642, 12.894904], [77.614564, 12.894019], [77.614491, 12.893599], [77.61436, 12.893339], [77.614232, 12.892623], [77.615068, 12.892448], [77.615077, 12.892375], [77.614356, 12.891187], [77.613572, 12.890617], [77.613337, 12.890228], [77.612813, 12.890377], [77.612569, 12.889245], [77.612457, 12.888545], [77.612453, 12.888112], [77.612503, 12.886915], [77.612228, 12.886904], [77.612471, 12.883946], [77.610843, 12.884354], [77.610106, 12.884538], [77.610203, 12.885597], [77.610505, 12.886847], [77.60957, 12.886772], [77.608962, 12.886753], [77.608428, 12.886747], [77.6084, 12.887624], [77.608451, 12.888311], [77.60749, 12.888464], [77.606267, 12.888871], [77.605045, 12.889297], [77.604701, 12.889414], [77.604464, 12.889488], [77.604226, 12.889599], [77.604, 12.889715], [77.603819, 12.889814], [77.60355, 12.889485], [77.603495, 12.889432], [77.603408, 12.889401], [77.60331, 12.889402], [77.603234, 12.889403], [77.603201, 12.88935], [77.603166, 12.889084], [77.603163, 12.888828], [77.603152, 12.888785], [77.602623, 12.8891], [77.602255, 12.889221], [77.601562, 12.889473], [77.600988, 12.88966], [77.600404, 12.889879], [77.599885, 12.890076], [77.599533, 12.890349], [77.598995, 12.890437], [77.598124, 12.89058], [77.598438, 12.891344], [77.59882, 12.892418], [77.598967, 12.893068], [77.599089, 12.893613], [77.599247, 12.894369], [77.599467, 12.895225], [77.599736, 12.896133], [77.60008, 12.897369], [77.60028, 12.898073], [77.600519, 12.898734], [77.600731, 12.89933], [77.600865, 12.899857], [77.60097, 12.900288], [77.601037, 12.90081], [77.601079, 12.90138], [77.601118, 12.901905], [77.601212, 12.902322], [77.601381, 12.903023], [77.601464, 12.903344], [77.601569, 12.903741], [77.601624, 12.903974], [77.60174, 12.904452], [77.601846, 12.904882], [77.601881, 12.905075], [77.601898, 12.905242], [77.601899, 12.90535], [77.601888, 12.90544], [77.601882, 12.905502], [77.60187, 12.905545], [77.601845, 12.905624], [77.601779, 12.905752], [77.60169, 12.905891], [77.601618, 12.905983], [77.601515, 12.906121], [77.601321, 12.906364], [77.601054, 12.906684], [77.600655, 12.907159], [77.600578, 12.907257], [77.600529, 12.907335], [77.600483, 12.907418], [77.60041, 12.907673], [77.600335, 12.908014], [77.600323, 12.908144], [77.600301, 12.908403], [77.600292, 12.908513], [77.601651, 12.908582], [77.603126, 12.908636], [77.603868, 12.908694], [77.604036, 12.908705], [77.60399, 12.907709], [77.60395, 12.906938], [77.603904, 12.906435], [77.603875, 12.906049], [77.603866, 12.905985], [77.603859, 12.905939], [77.603862, 12.905885], [77.603869, 12.905846], [77.60389, 12.905814], [77.603981, 12.905791], [77.604465, 12.905762], [77.605443, 12.905691], [77.605913, 12.905651], [77.606178, 12.90563], [77.60652, 12.905637], [77.607045, 12.905668], [77.607449, 12.9057], [77.607744, 12.905729], [77.608004, 12.905791], [77.608201, 12.905831], [77.608321, 12.905845], [77.608437, 12.90585], [77.608525, 12.90585], [77.608647, 12.905828], [77.608967, 12.905699], [77.609387, 12.90548], [77.609455, 12.905442], [77.609345, 12.905022], [77.610217, 12.904823], [77.61125, 12.904717], [77.612722, 12.904486], [77.613004, 12.905254], [77.613223, 12.905902], [77.613563, 12.906341], [77.613742, 12.906538], [77.613894, 12.906753], [77.614103, 12.907323], [77.614176, 12.907556], [77.614319, 12.907728], [77.614409, 12.907822], [77.614615, 12.908158], [77.614705, 12.908296], [77.614906, 12.908624], [77.614941, 12.908703], [77.615176, 12.909339], [77.615263, 12.909584], [77.615532, 12.910609], [77.615724, 12.911451], [77.615923, 12.91233], [77.61613, 12.913497], [77.616297, 12.91459], [77.616332, 12.915015], [77.616376, 12.915183], [77.616403, 12.915272], [77.616473, 12.915395], [77.6165, 12.915434], [77.616542, 12.91537], [77.616589, 12.915289], [77.616618, 12.915179], [77.616663, 12.914985], [77.61679, 12.914835], [77.617209, 12.914452], [77.617598, 12.91413], [77.617772, 12.913986], [77.61802, 12.913765], [77.618142, 12.913625], [77.618274, 12.913472], [77.618457, 12.913261], [77.618561, 12.91316], [77.619119, 12.912763], [77.619343, 12.912628], [77.619432, 12.912588], [77.619493, 12.912566], [77.619546, 12.912556], [77.619595, 12.912553], [77.6197, 12.912546], [77.619858, 12.912544], [77.620266, 12.912555], [77.620714, 12.912587], [77.620908, 12.912582], [77.621075, 12.912586]]]}}]}