{"type": "FeatureCollection", "features": [{"type": "Feature", "properties": {"region_id": "ward_276600-13", "name": "Mallasandra", "parent": "zone_276600-2", "parent_name": "Dasarahalli"}, "geometry": {"type": "Polygon", "coordinates": [[[77.518594, 13.048425], [77.518314, 13.048632], [77.517744, 13.04797], [77.517336, 13.047534], [77.517334, 13.047533], [77.517201, 13.047358], [77.517073, 13.047446], [77.516775, 13.047333], [77.516094, 13.046989], [77.515663, 13.046993], [77.515543, 13.046981], [77.515314, 13.046957], [77.515236, 13.046882], [77.515001, 13.04654], [77.514155, 13.046791], [77.514239, 13.047058], [77.514225, 13.047061], [77.514483, 13.047611], [77.513857, 13.04781], [77.513446, 13.047967], [77.512497, 13.048318], [77.511813, 13.048621], [77.511599, 13.04866], [77.511748, 13.049183], [77.511469, 13.049248], [77.511851, 13.05064], [77.511755, 13.050696], [77.511676, 13.050736], [77.51155, 13.050818], [77.511214, 13.050902], [77.511354, 13.051446], [77.511684, 13.051363], [77.512044, 13.053187], [77.511822, 13.053393], [77.511696, 13.053552], [77.511509, 13.053811], [77.511246, 13.054237], [77.510626, 13.055177], [77.509828, 13.056517], [77.50923, 13.057525], [77.508602, 13.058563], [77.508046, 13.059398], [77.508682, 13.059329], [77.509335, 13.059282], [77.509686, 13.059204], [77.510154, 13.059011], [77.510587, 13.058929], [77.510946, 13.058869], [77.511263, 13.058808], [77.511329, 13.059098], [77.51138, 13.059408], [77.51148, 13.059899], [77.511486, 13.059977], [77.511646, 13.059921], [77.51168, 13.0599], [77.512014, 13.05979], [77.512268, 13.059944], [77.51295, 13.060315], [77.513372, 13.060616], [77.513508, 13.060712], [77.513946, 13.061063], [77.514157, 13.061235], [77.514336, 13.061218], [77.514717, 13.061063], [77.515163, 13.060899], [77.515438, 13.060825], [77.515731, 13.060774], [77.516096, 13.060731], [77.517238, 13.060518], [77.517691, 13.060374], [77.517979, 13.060282], [77.5184, 13.060078], [77.518796, 13.059795], [77.519264, 13.059488], [77.519597, 13.059166], [77.520102, 13.059123], [77.52036, 13.059171], [77.520108, 13.058699], [77.519698, 13.057884], [77.519746, 13.05753], [77.519796, 13.057429], [77.519775, 13.057348], [77.51967, 13.057208], [77.519472, 13.056997], [77.519357, 13.056961], [77.519266, 13.056578], [77.519544, 13.056254], [77.519795, 13.055585], [77.519436, 13.054876], [77.518839, 13.053779], [77.520052, 13.053239], [77.519953, 13.052666], [77.519364, 13.050076], [77.518594, 13.048425]]]}}]}