{"type": "FeatureCollection", "features": [{"type": "Feature", "properties": {"region_id": "ward_276600-35", "name": "Aramane Nagara", "parent": "zone_276600-7", "parent_name": "West"}, "geometry": {"type": "Polygon", "coordinates": [[[77.579996, 13.02653], [77.580074, 13.026478], [77.580166, 13.026431], [77.580275, 13.026295], [77.580492, 13.026074], [77.580631, 13.02597], [77.580781, 13.025863], [77.58086, 13.025831], [77.580892, 13.025809], [77.580924, 13.025781], [77.580963, 13.025735], [77.580999, 13.025688], [77.581037, 13.0256], [77.5811, 13.025395], [77.581121, 13.02536], [77.581149, 13.025331], [77.581189, 13.025299], [77.581238, 13.025253], [77.581296, 13.02522], [77.581428, 13.025163], [77.581922, 13.024964], [77.582444, 13.024709], [77.582683, 13.024562], [77.582854, 13.024405], [77.584268, 13.023186], [77.584515, 13.022939], [77.584591, 13.022897], [77.584533, 13.022715], [77.584093, 13.021167], [77.583971, 13.020703], [77.58395, 13.020527], [77.583921, 13.020383], [77.583907, 13.020184], [77.5839, 13.019826], [77.583897, 13.019601], [77.5839, 13.01912], [77.583924, 13.018032], [77.583949, 13.017086], [77.583972, 13.016643], [77.583998, 13.015445], [77.583993, 13.014524], [77.584659, 13.014512], [77.58598, 13.014416], [77.586572, 13.014332], [77.586842, 13.014258], [77.587264, 13.014082], [77.587669, 13.013867], [77.587882, 13.013732], [77.588143, 13.013497], [77.588348, 13.013235], [77.589066, 13.012318], [77.589777, 13.011262], [77.590181, 13.010654], [77.590616, 13.009987], [77.590645, 13.009944], [77.591132, 13.009216], [77.591848, 13.00812], [77.592315, 13.007366], [77.592483, 13.007107], [77.592739, 13.006711], [77.593031, 13.006179], [77.593084, 13.006042], [77.5932, 13.005739], [77.593215, 13.005689], [77.593253, 13.00556], [77.593383, 13.005123], [77.594234, 13.002272], [77.594811, 13.000432], [77.595219, 12.999047], [77.595519, 12.998109], [77.595755, 12.997242], [77.59588, 12.996349], [77.595961, 12.995772], [77.596136, 12.994912], [77.596161, 12.994651], [77.59568, 12.994883], [77.59516, 12.995151], [77.595119, 12.995168], [77.59488, 12.99527], [77.594675, 12.995339], [77.59457, 12.995365], [77.594439, 12.995415], [77.594359, 12.995434], [77.594303, 12.995453], [77.59416, 12.995485], [77.59401, 12.995486], [77.593724, 12.995507], [77.592801, 12.995474], [77.591736, 12.995428], [77.591435, 12.995415], [77.590625, 12.99538], [77.589746, 12.995352], [77.589564, 12.9956], [77.589327, 12.995808], [77.589085, 12.99592], [77.588254, 12.996332], [77.587715, 12.996655], [77.587301, 12.996983], [77.586955, 12.997268], [77.586732, 12.997429], [77.586621, 12.99749], [77.586439, 12.997566], [77.586365, 12.997585], [77.586248, 12.997604], [77.586113, 12.997615], [77.585389, 12.997686], [77.584352, 12.997779], [77.584295, 12.998431], [77.584242, 12.999083], [77.584235, 12.99923], [77.584219, 12.999288], [77.58417, 12.999338], [77.584053, 13.001201], [77.584063, 13.002917], [77.583936, 13.003294], [77.58362, 13.003612], [77.583277, 13.003855], [77.5816, 13.004805], [77.580141, 13.005637], [77.57883, 13.006344], [77.578635, 13.006439], [77.578189, 13.006713], [77.577496, 13.007061], [77.57687, 13.007455], [77.576277, 13.007737], [77.575842, 13.00778], [77.57534, 13.007792], [77.574662, 13.007694], [77.573938, 13.007609], [77.573095, 13.00767], [77.572421, 13.007919], [77.571729, 13.008378], [77.571704, 13.008377], [77.571591, 13.008379], [77.571609, 13.008105], [77.57166, 13.008081], [77.57177, 13.008057], [77.571825, 13.008032], [77.57192, 13.007984], [77.572006, 13.00793], [77.572081, 13.007848], [77.572191, 13.007771], [77.572259, 13.007702], [77.572476, 13.007479], [77.572895, 13.007159], [77.573045, 13.007015], [77.573081, 13.00634], [77.573581, 13.00632], [77.573602, 13.005399], [77.572141, 13.005401], [77.570743, 13.005454], [77.569238, 13.005508], [77.569214, 13.006633], [77.569191, 13.007612], [77.569154, 13.008531], [77.569113, 13.010573], [77.56911, 13.01164], [77.569098, 13.011839], [77.569094, 13.011937], [77.569061, 13.011993], [77.568976, 13.0121], [77.568733, 13.01227], [77.568183, 13.012614], [77.567271, 13.013189], [77.566129, 13.013928], [77.564582, 13.014806], [77.563321, 13.015501], [77.562221, 13.016157], [77.560781, 13.01695], [77.560569, 13.017078], [77.560686, 13.017256], [77.560969, 13.017879], [77.561203, 13.018336], [77.561415, 13.018685], [77.561599, 13.018945], [77.562176, 13.019627], [77.562415, 13.019936], [77.562512, 13.020143], [77.562698, 13.020577], [77.562768, 13.020709], [77.562956, 13.021058], [77.56303, 13.021199], [77.563108, 13.021323], [77.563141, 13.021451], [77.563175, 13.021633], [77.56319, 13.021819], [77.563192, 13.021997], [77.563154, 13.022232], [77.563097, 13.022424], [77.56288, 13.023459], [77.562635, 13.024406], [77.562603, 13.024497], [77.562519, 13.024785], [77.562425, 13.025102], [77.56203, 13.025993], [77.561809, 13.026502], [77.561785, 13.027125], [77.561838, 13.02755], [77.561946, 13.027944], [77.561953, 13.028014], [77.561953, 13.028045], [77.561954, 13.028075], [77.561954, 13.028097], [77.561952, 13.028119], [77.561952, 13.028141], [77.561946, 13.028161], [77.561943, 13.028171], [77.561929, 13.028195], [77.561913, 13.028223], [77.561883, 13.028265], [77.561796, 13.02839], [77.561578, 13.028685], [77.561875, 13.029421], [77.56206, 13.029987], [77.562171, 13.030534], [77.562224, 13.030842], [77.562232, 13.03089], [77.562934, 13.030809], [77.562974, 13.031574], [77.562983, 13.03202], [77.563844, 13.031911], [77.563863, 13.031966], [77.56397, 13.032626], [77.564035, 13.033193], [77.56424, 13.034689], [77.56381, 13.035046], [77.56331, 13.035476], [77.563187, 13.035624], [77.563328, 13.036299], [77.563344, 13.036352], [77.563938, 13.036297], [77.563957, 13.037203], [77.56393, 13.037546], [77.563885, 13.037982], [77.564265, 13.038032], [77.5644, 13.03806], [77.564705, 13.038116], [77.564959, 13.038244], [77.565466, 13.037598], [77.56596, 13.036942], [77.566706, 13.036157], [77.567066, 13.035827], [77.568228, 13.034517], [77.568727, 13.03384], [77.569194, 13.033171], [77.569642, 13.032559], [77.56987, 13.032251], [77.571063, 13.029176], [77.571169, 13.028789], [77.571252, 13.028484], [77.571854, 13.028349], [77.572816, 13.028136], [77.573984, 13.027905], [77.575323, 13.027659], [77.576546, 13.027427], [77.577305, 13.027306], [77.57764, 13.027249], [77.577686, 13.027242], [77.577687, 13.027242], [77.577698, 13.027121], [77.577701, 13.0269], [77.578094, 13.026862], [77.578356, 13.026846], [77.578596, 13.026822], [77.578906, 13.026759], [77.579495, 13.026646], [77.5798, 13.026587], [77.579935, 13.026556], [77.579996, 13.02653]]]}}]}