{"type": "FeatureCollection", "features": [{"type": "Feature", "properties": {"region_id": "ward_276600-128", "name": "Nagarabhavi", "parent": "zone_276600-7", "parent_name": "West"}, "geometry": {"type": "Polygon", "coordinates": [[[77.520672, 12.961817], [77.52067, 12.96174], [77.520652, 12.961713], [77.520618, 12.961656], [77.520593, 12.961583], [77.520493, 12.961191], [77.520404, 12.96092], [77.520374, 12.960819], [77.520361, 12.960734], [77.520343, 12.960576], [77.520338, 12.960527], [77.520317, 12.960467], [77.520291, 12.960418], [77.520245, 12.960362], [77.520145, 12.96029], [77.519887, 12.960122], [77.519617, 12.959938], [77.519375, 12.959738], [77.519355, 12.959697], [77.519341, 12.959669], [77.519357, 12.959641], [77.519415, 12.959608], [77.519948, 12.959542], [77.521599, 12.959327], [77.523458, 12.959114], [77.524296, 12.959005], [77.524845, 12.958911], [77.525036, 12.958868], [77.52562, 12.958626], [77.526639, 12.958138], [77.527462, 12.957734], [77.527802, 12.95753], [77.528203, 12.957244], [77.528393, 12.957072], [77.528546, 12.956937], [77.528573, 12.956902], [77.528595, 12.956874], [77.528603, 12.956828], [77.528597, 12.956771], [77.528466, 12.956401], [77.528169, 12.955468], [77.527895, 12.954651], [77.527616, 12.953848], [77.527421, 12.953161], [77.52733, 12.952701], [77.526421, 12.952855], [77.525949, 12.952944], [77.525563, 12.953011], [77.525548, 12.953012], [77.52546, 12.952137], [77.524139, 12.952073], [77.524117, 12.95161], [77.524116, 12.951575], [77.524076, 12.951183], [77.524042, 12.950547], [77.524057, 12.949636], [77.52455, 12.949476], [77.524522, 12.949371], [77.52451, 12.949337], [77.524019, 12.949413], [77.523394, 12.949446], [77.52283, 12.94942], [77.522469, 12.949381], [77.521931, 12.949237], [77.521957, 12.949444], [77.522011, 12.949601], [77.522084, 12.949762], [77.522082, 12.949768], [77.521645, 12.950503], [77.52091, 12.951455], [77.521095, 12.952054], [77.521096, 12.952059], [77.521097, 12.952071], [77.521096, 12.952083], [77.521093, 12.952095], [77.521088, 12.952106], [77.521081, 12.952116], [77.521072, 12.952125], [77.521062, 12.952132], [77.521051, 12.952137], [77.52105, 12.952138], [77.520973, 12.952147], [77.520879, 12.952151], [77.520868, 12.952151], [77.520862, 12.952152], [77.520843, 12.952157], [77.520824, 12.952166], [77.520808, 12.952178], [77.520793, 12.952192], [77.520782, 12.952209], [77.520773, 12.952227], [77.520771, 12.952233], [77.52075, 12.952276], [77.520718, 12.952323], [77.52068, 12.952366], [77.52067, 12.952377], [77.520634, 12.952399], [77.52059, 12.952419], [77.520544, 12.952432], [77.520496, 12.952438], [77.520448, 12.952437], [77.5204, 12.952428], [77.520355, 12.952412], [77.520312, 12.95239], [77.520283, 12.95237], [77.519984, 12.952868], [77.519539, 12.954257], [77.519499, 12.954481], [77.517994, 12.954985], [77.517585, 12.954585], [77.517353, 12.954299], [77.517222, 12.954132], [77.516953, 12.953706], [77.516573, 12.953027], [77.516099, 12.952216], [77.515814, 12.951734], [77.51553, 12.951244], [77.51534, 12.950909], [77.515137, 12.950665], [77.514877, 12.950435], [77.514653, 12.950283], [77.514378, 12.950081], [77.514133, 12.949929], [77.51391, 12.949833], [77.513587, 12.94978], [77.513207, 12.949811], [77.512792, 12.949879], [77.512441, 12.949889], [77.512311, 12.94982], [77.512137, 12.949618], [77.511914, 12.949391], [77.511741, 12.949534], [77.511494, 12.949764], [77.511249, 12.949959], [77.51116, 12.950017], [77.511117, 12.950155], [77.511115, 12.950276], [77.511125, 12.950364], [77.511155, 12.950572], [77.511179, 12.950767], [77.511245, 12.950895], [77.511345, 12.951095], [77.511388, 12.951248], [77.511412, 12.95139], [77.511509, 12.951557], [77.511564, 12.951699], [77.51156, 12.951894], [77.511475, 12.952134], [77.511402, 12.952302], [77.511342, 12.952462], [77.511341, 12.952463], [77.511313, 12.952554], [77.511291, 12.952647], [77.511277, 12.952741], [77.51127, 12.952836], [77.511271, 12.952931], [77.51128, 12.953026], [77.51128, 12.953028], [77.511279, 12.953094], [77.511284, 12.953185], [77.511296, 12.953276], [77.511315, 12.953366], [77.511342, 12.953454], [77.511376, 12.953539], [77.511417, 12.953621], [77.511465, 12.9537], [77.511518, 12.953775], [77.511557, 12.953822], [77.5117, 12.953979], [77.511907, 12.9542], [77.512121, 12.954415], [77.512168, 12.954461], [77.512191, 12.954494], [77.512224, 12.954551], [77.51225, 12.95461], [77.512269, 12.954673], [77.51228, 12.954737], [77.512285, 12.954802], [77.512282, 12.954866], [77.512271, 12.954931], [77.512254, 12.954993], [77.512229, 12.955054], [77.512197, 12.955111], [77.512159, 12.955164], [77.512116, 12.955213], [77.512094, 12.955233], [77.512075, 12.955243], [77.512019, 12.955277], [77.511968, 12.955317], [77.511921, 12.955362], [77.511881, 12.955412], [77.511846, 12.955466], [77.511817, 12.955524], [77.511796, 12.955585], [77.511782, 12.955647], [77.511775, 12.955711], [77.511776, 12.955775], [77.511784, 12.955839], [77.511799, 12.955902], [77.511822, 12.955962], [77.511848, 12.956013], [77.511863, 12.95603], [77.511916, 12.956096], [77.511963, 12.956167], [77.512003, 12.956241], [77.512037, 12.956319], [77.512063, 12.956399], [77.512079, 12.956461], [77.512075, 12.956489], [77.512057, 12.956577], [77.512032, 12.956663], [77.511999, 12.956746], [77.51196, 12.956827], [77.511914, 12.956904], [77.511888, 12.956943], [77.511878, 12.957003], [77.511872, 12.957088], [77.511873, 12.957172], [77.511881, 12.957257], [77.511894, 12.95733], [77.511897, 12.957342], [77.511947, 12.957603], [77.51199, 12.957865], [77.512026, 12.958128], [77.512038, 12.958227], [77.512039, 12.95823], [77.512058, 12.958286], [77.51207, 12.958344], [77.512074, 12.958403], [77.512071, 12.958462], [77.51206, 12.95852], [77.512043, 12.958576], [77.512018, 12.95863], [77.511987, 12.95868], [77.51195, 12.958726], [77.511907, 12.958768], [77.511892, 12.95878], [77.511883, 12.958789], [77.511846, 12.958832], [77.511814, 12.958879], [77.511789, 12.95893], [77.511771, 12.958983], [77.51176, 12.959039], [77.511757, 12.959095], [77.511762, 12.959152], [77.511764, 12.959168], [77.511776, 12.959191], [77.511794, 12.959216], [77.511816, 12.959237], [77.511842, 12.959255], [77.511871, 12.959267], [77.511901, 12.959275], [77.511933, 12.959277], [77.511964, 12.959274], [77.511994, 12.959266], [77.512022, 12.959253], [77.512034, 12.959245], [77.512084, 12.959221], [77.512178, 12.95917], [77.512267, 12.959112], [77.512353, 12.959049], [77.512434, 12.95898], [77.512487, 12.958928], [77.512561, 12.958889], [77.512634, 12.958843], [77.512702, 12.95879], [77.512765, 12.958732], [77.512823, 12.958669], [77.51287, 12.958609], [77.51291, 12.95854], [77.512965, 12.958458], [77.513026, 12.95838], [77.513093, 12.958307], [77.513165, 12.958238], [77.513205, 12.958205], [77.513257, 12.958186], [77.513334, 12.958165], [77.513413, 12.958152], [77.513492, 12.958145], [77.513565, 12.958146], [77.513584, 12.958132], [77.513767, 12.958], [77.513941, 12.957882], [77.514158, 12.957799], [77.514362, 12.957724], [77.514393, 12.957712], [77.514433, 12.957705], [77.514474, 12.957704], [77.514515, 12.957711], [77.514553, 12.957725], [77.514588, 12.957746], [77.514619, 12.957773], [77.514644, 12.957805], [77.514663, 12.957841], [77.514674, 12.95788], [77.514678, 12.95792], [77.514678, 12.95794], [77.514724, 12.958017], [77.514764, 12.958098], [77.514798, 12.958183], [77.514824, 12.958269], [77.514843, 12.958358], [77.514855, 12.958447], [77.51486, 12.958538], [77.51486, 12.958554], [77.514887, 12.958666], [77.514921, 12.958777], [77.514962, 12.958885], [77.51501, 12.958992], [77.515065, 12.959094], [77.515126, 12.959194], [77.51517, 12.959256], [77.515219, 12.959307], [77.515319, 12.959415], [77.515413, 12.959529], [77.515476, 12.959613], [77.515501, 12.959647], [77.515583, 12.959769], [77.515659, 12.959894], [77.515728, 12.960024], [77.515769, 12.960107], [77.515796, 12.960163], [77.515852, 12.960289], [77.5159, 12.960417], [77.515942, 12.960548], [77.515977, 12.96068], [77.516004, 12.960815], [77.516009, 12.960844], [77.516007, 12.960928], [77.516009, 12.961105], [77.516018, 12.961281], [77.516034, 12.961457], [77.516058, 12.961633], [77.516079, 12.961754], [77.516088, 12.961764], [77.516126, 12.961797], [77.516168, 12.961825], [77.516215, 12.961847], [77.516264, 12.961861], [77.516315, 12.961868], [77.516366, 12.961868], [77.516374, 12.961867], [77.516508, 12.961853], [77.516774, 12.96183], [77.517041, 12.961815], [77.517082, 12.961813], [77.51715, 12.961798], [77.517231, 12.961786], [77.517313, 12.961781], [77.517394, 12.961784], [77.517476, 12.961794], [77.517556, 12.961812], [77.517634, 12.961837], [77.517701, 12.961865], [77.51771, 12.961874], [77.517749, 12.961917], [77.517781, 12.961965], [77.517807, 12.962016], [77.517826, 12.96207], [77.517838, 12.962126], [77.517842, 12.962184], [77.51784, 12.962224], [77.517799, 12.96252], [77.517636, 12.963], [77.517625, 12.963031], [77.517547, 12.963443], [77.51754, 12.963661], [77.518234, 12.963647], [77.518995, 12.963522], [77.519221, 12.963479], [77.519265, 12.963619], [77.519681, 12.963553], [77.519653, 12.963457], [77.520147, 12.963329], [77.520223, 12.963328], [77.520365, 12.963767], [77.52048, 12.963731], [77.520457, 12.963588], [77.520456, 12.963478], [77.520569, 12.96345], [77.520757, 12.963411], [77.520826, 12.963374], [77.520808, 12.963168], [77.520685, 12.962214], [77.520672, 12.961817]]]}}]}