{"type": "FeatureCollection", "features": [{"type": "Feature", "properties": {"region_id": "ward_276600-28", "name": "Kammanahalli", "parent": "zone_276600-3", "parent_name": "East"}, "geometry": {"type": "Polygon", "coordinates": [[[77.639361, 13.014026], [77.639355, 13.01335], [77.63955, 13.011486], [77.639926, 13.011449], [77.640212, 13.011446], [77.640463, 13.011504], [77.640803, 13.011554], [77.641115, 13.011594], [77.641375, 13.01167], [77.641644, 13.011773], [77.641903, 13.011796], [77.641947, 13.011708], [77.64199, 13.011559], [77.642014, 13.011322], [77.642012, 13.011095], [77.642028, 13.010937], [77.642036, 13.010806], [77.642052, 13.010665], [77.642033, 13.010508], [77.641968, 13.010342], [77.641903, 13.010045], [77.641864, 13.009792], [77.641871, 13.009599], [77.641869, 13.009398], [77.641875, 13.009082], [77.641836, 13.008829], [77.641835, 13.008671], [77.641842, 13.008505], [77.64184, 13.008382], [77.641839, 13.00826], [77.641819, 13.008198], [77.641795, 13.008175], [77.64175, 13.008134], [77.64102, 13.007664], [77.64089, 13.007572], [77.64057, 13.007345], [77.64021, 13.007068], [77.639949, 13.006843], [77.639661, 13.006627], [77.639372, 13.006332], [77.639066, 13.00609], [77.638769, 13.005892], [77.638311, 13.005634], [77.638024, 13.005486], [77.637728, 13.005337], [77.637572, 13.005232], [77.637503, 13.00516], [77.636901, 13.004497], [77.636466, 13.004137], [77.636457, 13.004135], [77.636457, 13.004134], [77.636432, 13.004104], [77.6363, 13.003993], [77.636248, 13.003944], [77.635952, 13.003669], [77.635466, 13.003305], [77.63492, 13.002826], [77.634565, 13.002554], [77.634223, 13.002396], [77.633809, 13.002204], [77.633138, 13.002073], [77.632808, 13.001995], [77.632302, 13.001897], [77.631619, 13.001754], [77.630842, 13.001612], [77.630418, 13.001547], [77.630364, 13.001928], [77.630286, 13.002378], [77.630234, 13.002966], [77.630623, 13.003124], [77.630906, 13.003224], [77.63113, 13.003326], [77.63143, 13.003887], [77.631792, 13.004556], [77.631835, 13.005376], [77.631943, 13.005948], [77.6319, 13.006029], [77.631785, 13.006248], [77.631511, 13.006732], [77.631378, 13.006965], [77.631303, 13.007074], [77.63128, 13.00729], [77.631332, 13.007455], [77.631351, 13.007588], [77.631511, 13.00772], [77.631726, 13.007883], [77.631982, 13.008046], [77.632237, 13.008218], [77.632374, 13.008357], [77.632438, 13.00876], [77.632455, 13.009022], [77.632506, 13.00933], [77.632551, 13.009679], [77.632526, 13.009941], [77.632482, 13.010311], [77.632426, 13.010882], [77.63235, 13.011427], [77.632334, 13.011824], [77.632302, 13.012066], [77.632398, 13.012085], [77.632415, 13.012394], [77.632425, 13.012723], [77.632421, 13.012984], [77.63253, 13.012984], [77.632673, 13.01296], [77.633377, 13.012923], [77.634525, 13.01285], [77.635352, 13.012771], [77.6354, 13.013078], [77.635473, 13.013389], [77.635619, 13.013986], [77.635725, 13.014346], [77.635757, 13.014481], [77.635832, 13.014464], [77.63612, 13.014385], [77.636525, 13.014301], [77.636945, 13.014237], [77.637391, 13.014186], [77.637838, 13.014148], [77.638529, 13.014081], [77.639111, 13.014029], [77.639361, 13.014026]]]}}]}