{"type": "FeatureCollection", "features": [{"type": "Feature", "properties": {"region_id": "ward_276600-88", "name": "Jeevanbhima Nagar", "parent": "zone_276600-3", "parent_name": "East"}, "geometry": {"type": "Polygon", "coordinates": [[[77.658723, 12.967175], [77.659925, 12.967012], [77.661545, 12.966823], [77.661623, 12.966831], [77.661978, 12.966257], [77.661926, 12.966159], [77.661915, 12.966128], [77.661893, 12.966072], [77.661819, 12.965925], [77.661763, 12.965815], [77.661728, 12.965739], [77.661702, 12.965681], [77.661685, 12.965642], [77.661681, 12.965634], [77.661638, 12.965549], [77.661246, 12.965574], [77.661208, 12.96546], [77.661125, 12.96514], [77.660712, 12.96523], [77.660528, 12.96499], [77.66086, 12.964912], [77.660863, 12.964811], [77.660863, 12.964809], [77.6609, 12.964633], [77.661063, 12.964334], [77.6611, 12.964219], [77.661117, 12.9642], [77.66113, 12.964191], [77.66115, 12.964189], [77.661186, 12.964188], [77.661208, 12.964193], [77.661426, 12.964241], [77.661573, 12.964268], [77.66159, 12.964268], [77.661595, 12.964265], [77.661604, 12.964261], [77.661843, 12.964306], [77.661844, 12.963758], [77.661801, 12.963138], [77.661769, 12.962832], [77.661717, 12.96269], [77.66162, 12.96247], [77.661544, 12.962193], [77.661456, 12.962144], [77.661311, 12.962146], [77.661166, 12.962169], [77.660978, 12.962212], [77.660975, 12.962203], [77.660931, 12.962009], [77.66093, 12.962004], [77.660914, 12.961938], [77.660844, 12.961619], [77.659993, 12.961733], [77.660139, 12.962348], [77.660285, 12.962827], [77.659388, 12.963012], [77.659368, 12.963289], [77.659026, 12.963249], [77.658051, 12.963186], [77.657739, 12.963174], [77.65753, 12.963096], [77.657106, 12.963079], [77.656708, 12.96308], [77.656624, 12.962978], [77.656164, 12.962315], [77.656043, 12.962046], [77.655908, 12.96171], [77.655789, 12.961356], [77.655724, 12.961105], [77.655697, 12.960839], [77.655678, 12.960396], [77.655642, 12.960243], [77.655541, 12.959913], [77.655401, 12.959553], [77.655401, 12.959547], [77.655394, 12.959547], [77.655394, 12.959542], [77.65538, 12.959481], [77.655327, 12.959407], [77.655281, 12.95937], [77.655177, 12.959374], [77.654569, 12.959421], [77.652444, 12.959504], [77.650418, 12.959654], [77.6484, 12.95988], [77.6465, 12.960104], [77.645776, 12.960187], [77.642523, 12.960545], [77.642401, 12.960558], [77.642229, 12.960578], [77.641686, 12.96064], [77.641698, 12.961186], [77.641678, 12.961592], [77.641618, 12.963176], [77.64153, 12.965036], [77.641409, 12.966817], [77.641366, 12.968663], [77.64127, 12.97028], [77.641973, 12.970283], [77.641978, 12.970283], [77.64201, 12.970283], [77.64266, 12.970289], [77.643288, 12.970328], [77.645604, 12.970355], [77.647463, 12.970425], [77.647555, 12.970075], [77.647733, 12.968846], [77.648587, 12.968794], [77.649499, 12.968654], [77.650101, 12.968504], [77.651144, 12.968219], [77.652467, 12.967945], [77.653982, 12.967756], [77.654804, 12.967666], [77.656401, 12.967468], [77.657913, 12.967267], [77.658723, 12.967175]]]}}]}