{"type": "FeatureCollection", "features": [{"type": "Feature", "properties": {"region_id": "ward_276600-140", "name": "Chamrajapet", "parent": "zone_276600-7", "parent_name": "West"}, "geometry": {"type": "Polygon", "coordinates": [[[77.565157, 12.962636], [77.565255, 12.960902], [77.565614, 12.960903], [77.565991, 12.960899], [77.566298, 12.960842], [77.56659, 12.96077], [77.566854, 12.960679], [77.566866, 12.960422], [77.567935, 12.960462], [77.571708, 12.960572], [77.573206, 12.960164], [77.574489, 12.959809], [77.574487, 12.959805], [77.574559, 12.959779], [77.573624, 12.957295], [77.573574, 12.95731], [77.573486, 12.95732], [77.5731, 12.957304], [77.571855, 12.957253], [77.570012, 12.957198], [77.569745, 12.957193], [77.56837, 12.95713], [77.566691, 12.957089], [77.564963, 12.957033], [77.563496, 12.957025], [77.563444, 12.957026], [77.563392, 12.957012], [77.563362, 12.956987], [77.563358, 12.956943], [77.563353, 12.95687], [77.563371, 12.956437], [77.563412, 12.954975], [77.563426, 12.954192], [77.563425, 12.954054], [77.563424, 12.954006], [77.563424, 12.953977], [77.563405, 12.953945], [77.56336, 12.953934], [77.563115, 12.953882], [77.562958, 12.953829], [77.562861, 12.953808], [77.562809, 12.953801], [77.562799, 12.953798], [77.562776, 12.953791], [77.562731, 12.953758], [77.562634, 12.953705], [77.562499, 12.953593], [77.562379, 12.95347], [77.562311, 12.953435], [77.562237, 12.953417], [77.562062, 12.953408], [77.561689, 12.953392], [77.56169, 12.953319], [77.56149, 12.953327], [77.561241, 12.953336], [77.561099, 12.953358], [77.560987, 12.953382], [77.560838, 12.953434], [77.560601, 12.953533], [77.56034, 12.953622], [77.560164, 12.953667], [77.560093, 12.953674], [77.560028, 12.953675], [77.559984, 12.953675], [77.559916, 12.953673], [77.559763, 12.953631], [77.559316, 12.953469], [77.558923, 12.953283], [77.558763, 12.953237], [77.558647, 12.953219], [77.558603, 12.953216], [77.558565, 12.953209], [77.558518, 12.9532], [77.558494, 12.95318], [77.558493, 12.953143], [77.558493, 12.95312], [77.558499, 12.953007], [77.558507, 12.952847], [77.558009, 12.952988], [77.557568, 12.953096], [77.557358, 12.953138], [77.556588, 12.953248], [77.556693, 12.953402], [77.556794, 12.95359], [77.556883, 12.953744], [77.556961, 12.953938], [77.557011, 12.954179], [77.557054, 12.954448], [77.557104, 12.95474], [77.557147, 12.954923], [77.557219, 12.955123], [77.557315, 12.955322], [77.557509, 12.955587], [77.558397, 12.956248], [77.558642, 12.956369], [77.558943, 12.956585], [77.559149, 12.956776], [77.55927, 12.956942], [77.55924, 12.95786], [77.559241, 12.957876], [77.559237, 12.957954], [77.559236, 12.958865], [77.559226, 12.959407], [77.558988, 12.959395], [77.558801, 12.959397], [77.558579, 12.959349], [77.558236, 12.95921], [77.557713, 12.958981], [77.557251, 12.958844], [77.55679, 12.958739], [77.556225, 12.958594], [77.555763, 12.958373], [77.555775, 12.958241], [77.555758, 12.958119], [77.555703, 12.957946], [77.555663, 12.957746], [77.555661, 12.957551], [77.555657, 12.957213], [77.555634, 12.95705], [77.555584, 12.956908], [77.555529, 12.956734], [77.55549, 12.956582], [77.555439, 12.956398], [77.5554, 12.956208], [77.55535, 12.956056], [77.555278, 12.955872], [77.554495, 12.958113], [77.554558, 12.958144], [77.55473, 12.958228], [77.554907, 12.958349], [77.555088, 12.958501], [77.555237, 12.958644], [77.55532, 12.958731], [77.555382, 12.958797], [77.555523, 12.958995], [77.555673, 12.959215], [77.555795, 12.959413], [77.555856, 12.959544], [77.555935, 12.959642], [77.556094, 12.959786], [77.556515, 12.960126], [77.557012, 12.960475], [77.55715, 12.960568], [77.557422, 12.960752], [77.557699, 12.960906], [77.558175, 12.961091], [77.559023, 12.961283], [77.559091, 12.961298], [77.559223, 12.961325], [77.55982, 12.961451], [77.560119, 12.961529], [77.560873, 12.961629], [77.561123, 12.961639], [77.562489, 12.96169], [77.563937, 12.96223], [77.565157, 12.962636]]]}}]}