{"type": "FeatureCollection", "features": [{"type": "Feature", "properties": {"region_id": "ward_276600-139", "name": "K R Market", "parent": "zone_276600-7", "parent_name": "West"}, "geometry": {"type": "Polygon", "coordinates": [[[77.578012, 12.966742], [77.577845, 12.966393], [77.57775, 12.966194], [77.577291, 12.965169], [77.577045, 12.964617], [77.576174, 12.962631], [77.575456, 12.96176], [77.575101, 12.961123], [77.574791, 12.960437], [77.574568, 12.959804], [77.574559, 12.959779], [77.574487, 12.959805], [77.574489, 12.959809], [77.573206, 12.960164], [77.571708, 12.960572], [77.567935, 12.960462], [77.566866, 12.960422], [77.566854, 12.960679], [77.56659, 12.96077], [77.566298, 12.960842], [77.565991, 12.960899], [77.565614, 12.960903], [77.565255, 12.960902], [77.565157, 12.962636], [77.566093, 12.962947], [77.566927, 12.963169], [77.56834, 12.963719], [77.568203, 12.965102], [77.568101, 12.96669], [77.568096, 12.966973], [77.568093, 12.967135], [77.568099, 12.967277], [77.568048, 12.968095], [77.568044, 12.968173], [77.568043, 12.968214], [77.568094, 12.968211], [77.568545, 12.968168], [77.569745, 12.968039], [77.57012, 12.967959], [77.570238, 12.967958], [77.570423, 12.967904], [77.570854, 12.967723], [77.57136, 12.967516], [77.571731, 12.967341], [77.572205, 12.967117], [77.573065, 12.966829], [77.573229, 12.966759], [77.573332, 12.966692], [77.573367, 12.966646], [77.573406, 12.966606], [77.573589, 12.966528], [77.573848, 12.966407], [77.573876, 12.966448], [77.573927, 12.96655], [77.574216, 12.967165], [77.574807, 12.968305], [77.574819, 12.968327], [77.574821, 12.96833], [77.574822, 12.96833], [77.574853, 12.96838], [77.576303, 12.967576], [77.576981, 12.967204], [77.578012, 12.966742]]]}}]}