{"type": "FeatureCollection", "features": [{"type": "Feature", "properties": {"region_id": "ward_276600-143", "name": "Vishveshwara Puram", "parent": "zone_276600-6", "parent_name": "South"}, "geometry": {"type": "Polygon", "coordinates": [[[77.573624, 12.957295], [77.573692, 12.957276], [77.573826, 12.957243], [77.573964, 12.957202], [77.574848, 12.956957], [77.575321, 12.95682], [77.576048, 12.956623], [77.576859, 12.956411], [77.577194, 12.956311], [77.577314, 12.956285], [77.577437, 12.956252], [77.577655, 12.956128], [77.578148, 12.955855], [77.578677, 12.955574], [77.578997, 12.955428], [77.579171, 12.955369], [77.579368, 12.955324], [77.579754, 12.955245], [77.580048, 12.955164], [77.580181, 12.955121], [77.580433, 12.955031], [77.580875, 12.954927], [77.581161, 12.954887], [77.581934, 12.954803], [77.582561, 12.954756], [77.582894, 12.954715], [77.583049, 12.954693], [77.583278, 12.954641], [77.583524, 12.95458], [77.584224, 12.954354], [77.584717, 12.954194], [77.585103, 12.954118], [77.585249, 12.954084], [77.585421, 12.954047], [77.585495, 12.954011], [77.585628, 12.953949], [77.585743, 12.953857], [77.586369, 12.953355], [77.586611, 12.953119], [77.586823, 12.952936], [77.58693, 12.952864], [77.586974, 12.952826], [77.587015, 12.952796], [77.587095, 12.952752], [77.587439, 12.952626], [77.588661, 12.952199], [77.589412, 12.951949], [77.590272, 12.951634], [77.590912, 12.951412], [77.591443, 12.951205], [77.59166, 12.951118], [77.591695, 12.951094], [77.591728, 12.951077], [77.591784, 12.951041], [77.591905, 12.950946], [77.592191, 12.950698], [77.592506, 12.950386], [77.592748, 12.950147], [77.592836, 12.950052], [77.592877, 12.949976], [77.593044, 12.949705], [77.593166, 12.949472], [77.593226, 12.949368], [77.593338, 12.949113], [77.593442, 12.948919], [77.592994, 12.948524], [77.592269, 12.948063], [77.591331, 12.947625], [77.590916, 12.94738], [77.590144, 12.946587], [77.589707, 12.9463], [77.589219, 12.946285], [77.588413, 12.946261], [77.587895, 12.946197], [77.587753, 12.946168], [77.587144, 12.94599], [77.587038, 12.94595], [77.586725, 12.945831], [77.586388, 12.945687], [77.586013, 12.945465], [77.585728, 12.945246], [77.58553, 12.945063], [77.585454, 12.944976], [77.585377, 12.944873], [77.585335, 12.944759], [77.585322, 12.944637], [77.585225, 12.943999], [77.585207, 12.943692], [77.584438, 12.943678], [77.582566, 12.943674], [77.580969, 12.943664], [77.580198, 12.943638], [77.580049, 12.943632], [77.579983, 12.943634], [77.578438, 12.943607], [77.57774, 12.943623], [77.577736, 12.943669], [77.577739, 12.943725], [77.577736, 12.943799], [77.577725, 12.943871], [77.577708, 12.943943], [77.577683, 12.944012], [77.577651, 12.944078], [77.577613, 12.944141], [77.577568, 12.9442], [77.577518, 12.944254], [77.577462, 12.944303], [77.577402, 12.944347], [77.577338, 12.944384], [77.57727, 12.944415], [77.577199, 12.944439], [77.577127, 12.944456], [77.577052, 12.944466], [77.576978, 12.944468], [77.576939, 12.944467], [77.576771, 12.944491], [77.57654, 12.944508], [77.576515, 12.944511], [77.575086, 12.944559], [77.573754, 12.944539], [77.573715, 12.946251], [77.573743, 12.948548], [77.573754, 12.951853], [77.573728, 12.953191], [77.572342, 12.95323], [77.571156, 12.953254], [77.56986, 12.953255], [77.569796, 12.954015], [77.567519, 12.953967], [77.567482, 12.955107], [77.566259, 12.955048], [77.565665, 12.954982], [77.565036, 12.955095], [77.56443, 12.955282], [77.564496, 12.955653], [77.564569, 12.956069], [77.564588, 12.956308], [77.56495, 12.956288], [77.564978, 12.956743], [77.564963, 12.957033], [77.566691, 12.957089], [77.56837, 12.95713], [77.569745, 12.957193], [77.570012, 12.957198], [77.571855, 12.957253], [77.5731, 12.957304], [77.573486, 12.95732], [77.573574, 12.95731], [77.573624, 12.957295]]]}}]}