{"type": "FeatureCollection", "features": [{"type": "Feature", "properties": {"region_id": "ward_276600-62", "name": "Ramaswamy Palya", "parent": "zone_276600-3", "parent_name": "East"}, "geometry": {"type": "Polygon", "coordinates": [[[77.601338, 13.008635], [77.601473, 13.008568], [77.602446, 13.008102], [77.605266, 13.006714], [77.605141, 13.00644], [77.604943, 13.005979], [77.604605, 13.006084], [77.604591, 13.006058], [77.604561, 13.005944], [77.604532, 13.005904], [77.604341, 13.005449], [77.604101, 13.005033], [77.604023, 13.004826], [77.603996, 13.004769], [77.603823, 13.004402], [77.603743, 13.004244], [77.603742, 13.00416], [77.603742, 13.004127], [77.603748, 13.004085], [77.603785, 13.003828], [77.603786, 13.003705], [77.603787, 13.003455], [77.602593, 13.001738], [77.602567, 13.001676], [77.602508, 13.00158], [77.602435, 13.001464], [77.602335, 13.001396], [77.602267, 13.001382], [77.602245, 13.001377], [77.602219, 13.001372], [77.602071, 13.001385], [77.602022, 13.001394], [77.601857, 13.001424], [77.601657, 13.001474], [77.601651, 13.00148], [77.601651, 13.001476], [77.601493, 13.001495], [77.601089, 13.001554], [77.600864, 13.001533], [77.600094, 13.001336], [77.59942, 13.001155], [77.599398, 13.001351], [77.599281, 13.001596], [77.599067, 13.001857], [77.598567, 13.002183], [77.597923, 13.002559], [77.597421, 13.002807], [77.596593, 13.003184], [77.595838, 13.003694], [77.594949, 13.004346], [77.593877, 13.005172], [77.59364, 13.00532], [77.593459, 13.005499], [77.593421, 13.005544], [77.59338, 13.005582], [77.593348, 13.005617], [77.593291, 13.005655], [77.593262, 13.005668], [77.593445, 13.006012], [77.593558, 13.006175], [77.593764, 13.006596], [77.594236, 13.007625], [77.594744, 13.009215], [77.594956, 13.009103], [77.595302, 13.009975], [77.595321, 13.010045], [77.595328, 13.010143], [77.595455, 13.010467], [77.595752, 13.011302], [77.595901, 13.011232], [77.596005, 13.011183], [77.596204, 13.011099], [77.596605, 13.010931], [77.596913, 13.010836], [77.597322, 13.010621], [77.598104, 13.010183], [77.600254, 13.009183], [77.600962, 13.008811], [77.601251, 13.008678], [77.601338, 13.008635]]]}}]}