{"type": "FeatureCollection", "features": [{"type": "Feature", "properties": {"region_id": "ward_276600-90", "name": "Halsoor", "parent": "zone_276600-3", "parent_name": "East"}, "geometry": {"type": "Polygon", "coordinates": [[[77.619326, 12.987277], [77.619329, 12.987277], [77.619416, 12.987276], [77.61943, 12.987276], [77.619631, 12.987289], [77.619979, 12.987339], [77.620842, 12.987483], [77.6215, 12.987566], [77.621849, 12.9876], [77.622232, 12.98769], [77.622323, 12.987689], [77.622394, 12.987688], [77.622463, 12.987639], [77.622528, 12.987541], [77.622532, 12.987464], [77.622531, 12.987383], [77.622501, 12.987201], [77.622515, 12.987104], [77.622491, 12.986536], [77.622446, 12.985871], [77.622449, 12.985186], [77.622424, 12.984441], [77.622453, 12.983876], [77.622475, 12.983686], [77.622533, 12.983441], [77.622674, 12.982867], [77.622781, 12.982377], [77.622882, 12.981949], [77.622906, 12.981862], [77.62292, 12.981835], [77.622951, 12.981807], [77.622982, 12.981782], [77.623024, 12.981754], [77.623056, 12.981726], [77.623105, 12.981716], [77.623154, 12.981715], [77.623182, 12.981715], [77.623242, 12.981714], [77.623309, 12.981727], [77.623619, 12.981821], [77.623746, 12.98185], [77.624136, 12.981881], [77.624212, 12.981886], [77.624381, 12.981897], [77.624429, 12.981874], [77.624454, 12.98186], [77.624465, 12.981852], [77.624475, 12.981842], [77.624483, 12.981831], [77.624494, 12.981811], [77.624494, 12.981798], [77.624494, 12.981784], [77.624494, 12.981743], [77.62448, 12.981615], [77.624368, 12.981118], [77.624343, 12.981017], [77.624338, 12.980984], [77.624338, 12.980961], [77.624337, 12.98094], [77.624342, 12.980904], [77.624382, 12.98088], [77.624426, 12.980864], [77.624566, 12.980834], [77.624813, 12.98078], [77.625118, 12.980769], [77.62534, 12.980777], [77.625496, 12.980777], [77.625568, 12.980784], [77.625546, 12.980552], [77.62553, 12.980307], [77.625668, 12.9803], [77.625774, 12.980281], [77.625779, 12.980282], [77.625909, 12.980264], [77.62574, 12.97949], [77.626102, 12.979408], [77.626221, 12.979439], [77.62628, 12.979454], [77.626404, 12.979435], [77.62643, 12.979396], [77.626337, 12.978909], [77.626289, 12.978688], [77.626461, 12.978691], [77.626729, 12.978671], [77.627023, 12.978616], [77.627238, 12.978571], [77.627505, 12.978512], [77.627681, 12.978467], [77.62804, 12.978351], [77.628281, 12.978254], [77.628513, 12.97814], [77.628427, 12.978036], [77.628302, 12.977934], [77.628196, 12.977868], [77.6281, 12.977819], [77.627778, 12.977702], [77.627424, 12.977548], [77.627323, 12.977495], [77.627291, 12.97747], [77.627252, 12.977439], [77.62725, 12.977439], [77.627244, 12.977433], [77.627236, 12.977424], [77.627208, 12.977394], [77.627133, 12.977237], [77.627037, 12.97689], [77.627002, 12.976752], [77.626991, 12.976738], [77.626923, 12.976543], [77.626679, 12.976207], [77.626547, 12.976077], [77.626228, 12.975764], [77.625749, 12.975348], [77.625345, 12.975075], [77.625276, 12.975028], [77.623416, 12.973885], [77.622012, 12.973082], [77.621557, 12.972788], [77.621303, 12.972709], [77.62092, 12.972682], [77.620575, 12.972681], [77.620188, 12.972734], [77.619967, 12.972745], [77.619769, 12.972698], [77.619477, 12.972601], [77.619367, 12.97258], [77.619173, 12.972577], [77.618801, 12.97264], [77.616861, 12.97307], [77.615078, 12.973504], [77.614103, 12.973713], [77.613933, 12.973778], [77.613902, 12.973832], [77.613914, 12.973881], [77.613916, 12.973891], [77.61392, 12.973908], [77.613935, 12.973986], [77.613945, 12.974036], [77.614072, 12.974489], [77.614321, 12.975382], [77.614328, 12.975408], [77.615013, 12.977139], [77.615244, 12.977926], [77.615446, 12.978621], [77.615447, 12.978736], [77.615434, 12.978918], [77.615417, 12.978951], [77.615325, 12.97906], [77.615243, 12.979102], [77.614792, 12.979287], [77.615063, 12.979992], [77.615296, 12.980609], [77.615413, 12.980829], [77.615494, 12.980952], [77.615559, 12.981069], [77.6156, 12.981185], [77.61561, 12.981418], [77.615612, 12.981636], [77.615601, 12.982041], [77.615556, 12.982368], [77.615526, 12.982501], [77.615424, 12.982603], [77.615329, 12.982604], [77.61521, 12.982589], [77.614947, 12.982538], [77.614582, 12.982533], [77.614297, 12.982544], [77.613798, 12.982642], [77.613118, 12.982852], [77.612966, 12.982938], [77.613376, 12.983366], [77.613381, 12.983372], [77.614087, 12.9841], [77.614264, 12.984367], [77.6143, 12.984438], [77.614307, 12.984465], [77.615098, 12.985507], [77.61582, 12.986605], [77.616604, 12.987755], [77.617244, 12.988616], [77.617254, 12.988626], [77.617678, 12.98829], [77.618266, 12.987757], [77.618376, 12.987681], [77.618998, 12.987349], [77.61906, 12.987303], [77.619144, 12.987279], [77.619237, 12.987278], [77.619326, 12.987277]]]}}]}