{"type": "FeatureCollection", "features": [{"type": "Feature", "properties": {"region_id": "ward_276600-39", "name": "Chokkasandra", "parent": "zone_276600-2", "parent_name": "Dasarahalli"}, "geometry": {"type": "Polygon", "coordinates": [[[77.507309, 13.045321], [77.507343, 13.045301], [77.507466, 13.04527], [77.508244, 13.045013], [77.508978, 13.044687], [77.509865, 13.044244], [77.510349, 13.044007], [77.511022, 13.043661], [77.511454, 13.043433], [77.512237, 13.04318], [77.513588, 13.042728], [77.515102, 13.042231], [77.51592, 13.041944], [77.516348, 13.041772], [77.516803, 13.041448], [77.516833, 13.041421], [77.517254, 13.040991], [77.518026, 13.040203], [77.518385, 13.039937], [77.518334, 13.039728], [77.518254, 13.039191], [77.518243, 13.038507], [77.518244, 13.037754], [77.51829, 13.036721], [77.518293, 13.03614], [77.518261, 13.035934], [77.518001, 13.03502], [77.517852, 13.034152], [77.517835, 13.033331], [77.517889, 13.033035], [77.518566, 13.031252], [77.518865, 13.030619], [77.519285, 13.029582], [77.519588, 13.028762], [77.519601, 13.028727], [77.51971, 13.02846], [77.518973, 13.028199], [77.517807, 13.027759], [77.517706, 13.027718], [77.516091, 13.027069], [77.515179, 13.026694], [77.514614, 13.026451], [77.514791, 13.027661], [77.515109, 13.029423], [77.515373, 13.030866], [77.51238, 13.031533], [77.510509, 13.031968], [77.510224, 13.029996], [77.509231, 13.030192], [77.508311, 13.030396], [77.507346, 13.030689], [77.50613, 13.031108], [77.505607, 13.031291], [77.504993, 13.031403], [77.504253, 13.031508], [77.503675, 13.031584], [77.502803, 13.031158], [77.50213, 13.030801], [77.501275, 13.03034], [77.500185, 13.029871], [77.499423, 13.029586], [77.498289, 13.029189], [77.49778, 13.02899], [77.497118, 13.028731], [77.496734, 13.028388], [77.496535, 13.028293], [77.496313, 13.028225], [77.496569, 13.029174], [77.496833, 13.030147], [77.496943, 13.030551], [77.497188, 13.031384], [77.497239, 13.03165], [77.497305, 13.032594], [77.497483, 13.034921], [77.497494, 13.035011], [77.497524, 13.035382], [77.497485, 13.036056], [77.497461, 13.037015], [77.497388, 13.037216], [77.497118, 13.037573], [77.497015, 13.037842], [77.496543, 13.038702], [77.496302, 13.03923], [77.496222, 13.039447], [77.4962, 13.039948], [77.496233, 13.040599], [77.496268, 13.040784], [77.496605, 13.040806], [77.496763, 13.041665], [77.496373, 13.041897], [77.496236, 13.041995], [77.496248, 13.042024], [77.496226, 13.042037], [77.495156, 13.042697], [77.494745, 13.044173], [77.494358, 13.046605], [77.494405, 13.049764], [77.494406, 13.04978], [77.495511, 13.049377], [77.498057, 13.048491], [77.499589, 13.047933], [77.501374, 13.047281], [77.502889, 13.046722], [77.504167, 13.046268], [77.505256, 13.045883], [77.506034, 13.045688], [77.507291, 13.045332], [77.507309, 13.045321]]]}}]}