{"type": "FeatureCollection", "features": [{"type": "Feature", "properties": {"region_id": "ward_276600-118", "name": "Sudham Nagara", "parent": "zone_276600-6", "parent_name": "South"}, "geometry": {"type": "Polygon", "coordinates": [[[77.594598, 12.962193], [77.594363, 12.961684], [77.593957, 12.960626], [77.59341, 12.959222], [77.592967, 12.958068], [77.592829, 12.957709], [77.592749, 12.957485], [77.592425, 12.956579], [77.592418, 12.956545], [77.592277, 12.956107], [77.592014, 12.956253], [77.591946, 12.956501], [77.591865, 12.956779], [77.591677, 12.957137], [77.591434, 12.957567], [77.591356, 12.957631], [77.591185, 12.957725], [77.59064, 12.957891], [77.58984, 12.958125], [77.588932, 12.958402], [77.588025, 12.958693], [77.587215, 12.95895], [77.586805, 12.959077], [77.586484, 12.958474], [77.586226, 12.957661], [77.585966, 12.956645], [77.585661, 12.955289], [77.58546, 12.954544], [77.585421, 12.954047], [77.585249, 12.954084], [77.585103, 12.954118], [77.584717, 12.954194], [77.584224, 12.954354], [77.583524, 12.95458], [77.583278, 12.954641], [77.583049, 12.954693], [77.582894, 12.954715], [77.582561, 12.954756], [77.581934, 12.954803], [77.581161, 12.954887], [77.580875, 12.954927], [77.580433, 12.955031], [77.580181, 12.955121], [77.580048, 12.955164], [77.579754, 12.955245], [77.579368, 12.955324], [77.579171, 12.955369], [77.578997, 12.955428], [77.578677, 12.955574], [77.578148, 12.955855], [77.577655, 12.956128], [77.577437, 12.956252], [77.577409, 12.956425], [77.577431, 12.956863], [77.577526, 12.957721], [77.577635, 12.95831], [77.577675, 12.958815], [77.578009, 12.958795], [77.578309, 12.958725], [77.578473, 12.958748], [77.578809, 12.95888], [77.57912, 12.959029], [77.579447, 12.959017], [77.579824, 12.958929], [77.580038, 12.958893], [77.580167, 12.958909], [77.5808, 12.958565], [77.581748, 12.958], [77.582164, 12.957768], [77.582278, 12.957956], [77.583212, 12.959754], [77.584246, 12.961745], [77.585195, 12.963785], [77.585658, 12.964302], [77.586483, 12.965191], [77.586774, 12.965589], [77.586966, 12.965397], [77.586988, 12.965375], [77.587004, 12.965364], [77.588288, 12.964257], [77.589128, 12.963447], [77.589138, 12.963441], [77.58929, 12.963297], [77.58956, 12.963036], [77.589755, 12.962899], [77.589963, 12.962794], [77.590319, 12.962699], [77.590505, 12.962657], [77.590746, 12.962615], [77.591133, 12.962585], [77.592066, 12.962456], [77.592991, 12.962268], [77.593281, 12.962228], [77.593598, 12.962199], [77.593959, 12.962207], [77.594234, 12.962219], [77.594432, 12.962246], [77.594656, 12.962318], [77.594598, 12.962193]]]}}]}