{"type": "FeatureCollection", "features": [{"type": "Feature", "properties": {"region_id": "ward_276600-19", "name": "Sanjaya Nagar", "parent": "zone_276600-3", "parent_name": "East"}, "geometry": {"type": "Polygon", "coordinates": [[[77.583106, 13.044549], [77.583105, 13.044547], [77.583026, 13.04394], [77.582941, 13.043009], [77.582898, 13.042598], [77.582852, 13.04217], [77.58266, 13.04219], [77.582644, 13.041985], [77.582639, 13.041537], [77.582559, 13.040745], [77.582423, 13.03949], [77.58233, 13.038617], [77.582264, 13.038114], [77.5822, 13.03788], [77.582054, 13.037231], [77.581904, 13.036703], [77.581814, 13.036687], [77.580088, 13.03683], [77.578996, 13.036896], [77.579, 13.036743], [77.578917, 13.036252], [77.578902, 13.03588], [77.578893, 13.03572], [77.579713, 13.035818], [77.579682, 13.035522], [77.5797, 13.035202], [77.57987, 13.035166], [77.580193, 13.035108], [77.580588, 13.035055], [77.580848, 13.035102], [77.58133, 13.032941], [77.58122, 13.031996], [77.580994, 13.032038], [77.58099, 13.03187], [77.580962, 13.030772], [77.580981, 13.029411], [77.580574, 13.029415], [77.580538, 13.029727], [77.579311, 13.029652], [77.578971, 13.0296], [77.578962, 13.029803], [77.578208, 13.02988], [77.577859, 13.030248], [77.577745, 13.030364], [77.577645, 13.030501], [77.577375, 13.031047], [77.57722, 13.031287], [77.57703, 13.031581], [77.57675, 13.032079], [77.576505, 13.032489], [77.576022, 13.033359], [77.5758, 13.033819], [77.575667, 13.034108], [77.575497, 13.034516], [77.575429, 13.034684], [77.574952, 13.034533], [77.5744, 13.034566], [77.574366, 13.034683], [77.574272, 13.034992], [77.573832, 13.035051], [77.573715, 13.035238], [77.572833, 13.035185], [77.5717, 13.035086], [77.571642, 13.036979], [77.571675, 13.037438], [77.572591, 13.037408], [77.572649, 13.038285], [77.572425, 13.038294], [77.572534, 13.039335], [77.572595, 13.039841], [77.572633, 13.040129], [77.572074, 13.040189], [77.572331, 13.040742], [77.572554, 13.041288], [77.572662, 13.04165], [77.572788, 13.041932], [77.572827, 13.042115], [77.573178, 13.042559], [77.573288, 13.042556], [77.573528, 13.042547], [77.573844, 13.042495], [77.57421, 13.042435], [77.574495, 13.042414], [77.574741, 13.04243], [77.574978, 13.043289], [77.575376, 13.043217], [77.575489, 13.043817], [77.575149, 13.043908], [77.574494, 13.044181], [77.574374, 13.044219], [77.574483, 13.044342], [77.574566, 13.044428], [77.574683, 13.044681], [77.575136, 13.045694], [77.575448, 13.046527], [77.575584, 13.046849], [77.575744, 13.047027], [77.575815, 13.047181], [77.575861, 13.047329], [77.575862, 13.047437], [77.576183, 13.047465], [77.576453, 13.047493], [77.576547, 13.047503], [77.576862, 13.047535], [77.577047, 13.047554], [77.577126, 13.047562], [77.577884, 13.047648], [77.578183, 13.047664], [77.578481, 13.047642], [77.578576, 13.04762], [77.578598, 13.047614], [77.578881, 13.047547], [77.578913, 13.04754], [77.578919, 13.047538], [77.579274, 13.047416], [77.579546, 13.047276], [77.579938, 13.046991], [77.580095, 13.046872], [77.580363, 13.046667], [77.58055, 13.046524], [77.581049, 13.046151], [77.581467, 13.045781], [77.58149, 13.045761], [77.581641, 13.045627], [77.581667, 13.045606], [77.581674, 13.0456], [77.582247, 13.045119], [77.582248, 13.045118], [77.582265, 13.045104], [77.582304, 13.045078], [77.582305, 13.045077], [77.582916, 13.044673], [77.583106, 13.044549]]]}}]}