{"type": "FeatureCollection", "features": [{"type": "Feature", "properties": {"region_id": "ward_276600-68", "name": "Mahalakshimpuram", "parent": "zone_276600-7", "parent_name": "West"}, "geometry": {"type": "Polygon", "coordinates": [[[77.54727, 13.010557], [77.546957, 13.008907], [77.546754, 13.008], [77.545666, 13.008203], [77.544169, 13.008464], [77.543692, 13.008555], [77.543302, 13.008629], [77.543143, 13.008618], [77.543027, 13.008304], [77.542961, 13.007768], [77.543373, 13.007656], [77.543147, 13.006955], [77.542823, 13.006171], [77.542693, 13.005864], [77.542511, 13.005585], [77.542481, 13.005538], [77.542418, 13.005605], [77.542319, 13.005705], [77.542175, 13.005796], [77.541997, 13.005866], [77.541747, 13.005966], [77.54142, 13.006047], [77.541236, 13.006083], [77.541113, 13.00609], [77.541054, 13.005544], [77.54098, 13.00491], [77.540893, 13.004215], [77.540836, 13.003628], [77.540752, 13.003032], [77.54068, 13.002474], [77.540672, 13.002434], [77.540399, 13.002299], [77.540087, 13.002133], [77.539708, 13.001978], [77.539458, 13.001891], [77.539094, 13.00181], [77.537345, 13.001391], [77.5366, 13.001215], [77.536379, 13.001955], [77.536113, 13.002833], [77.535896, 13.002576], [77.535842, 13.002636], [77.535664, 13.0028], [77.535077, 13.003306], [77.534388, 13.003833], [77.532581, 13.005298], [77.532707, 13.005451], [77.53307, 13.005907], [77.533329, 13.006297], [77.533134, 13.006425], [77.533072, 13.006462], [77.533215, 13.006668], [77.533328, 13.006834], [77.533411, 13.006942], [77.533524, 13.007065], [77.533613, 13.007183], [77.533769, 13.007295], [77.533872, 13.007366], [77.533964, 13.007408], [77.534091, 13.007435], [77.534285, 13.007514], [77.534354, 13.007537], [77.534437, 13.007603], [77.534461, 13.007655], [77.53452, 13.007721], [77.534551, 13.007733], [77.534579, 13.007744], [77.534624, 13.007724], [77.534669, 13.007715], [77.53472, 13.007696], [77.534778, 13.007679], [77.534841, 13.007655], [77.534946, 13.007574], [77.535162, 13.007328], [77.535358, 13.007139], [77.535526, 13.007088], [77.535708, 13.007086], [77.535885, 13.00722], [77.536011, 13.007405], [77.53607, 13.007468], [77.536099, 13.007529], [77.536143, 13.007534], [77.536172, 13.007529], [77.536206, 13.007514], [77.53624, 13.007485], [77.536432, 13.007345], [77.536683, 13.007191], [77.536789, 13.007128], [77.536832, 13.007094], [77.536837, 13.00708], [77.536822, 13.007004], [77.536792, 13.006914], [77.537043, 13.00675], [77.537391, 13.006524], [77.537459, 13.006495], [77.537857, 13.006727], [77.537366, 13.006959], [77.537444, 13.007354], [77.537545, 13.008014], [77.537633, 13.008723], [77.53767, 13.00919], [77.536738, 13.009316], [77.536967, 13.009331], [77.537471, 13.009363], [77.538208, 13.009726], [77.538622, 13.010134], [77.538871, 13.010004], [77.538965, 13.010193], [77.539228, 13.010785], [77.539384, 13.011307], [77.539593, 13.011255], [77.539858, 13.011132], [77.540214, 13.012279], [77.540204, 13.012332], [77.54018, 13.012356], [77.540127, 13.012356], [77.539894, 13.012288], [77.539873, 13.012484], [77.539947, 13.012507], [77.540066, 13.012525], [77.540217, 13.012561], [77.540369, 13.012535], [77.54041, 13.012519], [77.540521, 13.012473], [77.540631, 13.012439], [77.540687, 13.012438], [77.540779, 13.012437], [77.540955, 13.012471], [77.541121, 13.012512], [77.541227, 13.012536], [77.541367, 13.01259], [77.541742, 13.012482], [77.542151, 13.012257], [77.542427, 13.011982], [77.542797, 13.011913], [77.543383, 13.012089], [77.544007, 13.0122], [77.545377, 13.012629], [77.546774, 13.01307], [77.546797, 13.013075], [77.546807, 13.013069], [77.546814, 13.013056], [77.54679, 13.012676], [77.546717, 13.012629], [77.546587, 13.011564], [77.546433, 13.010798], [77.546428, 13.010772], [77.54727, 13.010557]]]}}]}