{"type": "FeatureCollection", "features": [{"type": "Feature", "properties": {"region_id": "ward_276600-141", "name": "Azad Nagar", "parent": "zone_276600-7", "parent_name": "West"}, "geometry": {"type": "Polygon", "coordinates": [[[77.554495, 12.958113], [77.555278, 12.955872], [77.55535, 12.956056], [77.5554, 12.956208], [77.555439, 12.956398], [77.55549, 12.956582], [77.555529, 12.956734], [77.555584, 12.956908], [77.555634, 12.95705], [77.555657, 12.957213], [77.555661, 12.957551], [77.555663, 12.957746], [77.555703, 12.957946], [77.555758, 12.958119], [77.555775, 12.958241], [77.555763, 12.958373], [77.556225, 12.958594], [77.55679, 12.958739], [77.557251, 12.958844], [77.557713, 12.958981], [77.558236, 12.95921], [77.558579, 12.959349], [77.558801, 12.959397], [77.558988, 12.959395], [77.559226, 12.959407], [77.559236, 12.958865], [77.559237, 12.957954], [77.559241, 12.957876], [77.55924, 12.95786], [77.55927, 12.956942], [77.559149, 12.956776], [77.558943, 12.956585], [77.558642, 12.956369], [77.558397, 12.956248], [77.557509, 12.955587], [77.557315, 12.955322], [77.557219, 12.955123], [77.557147, 12.954923], [77.557104, 12.95474], [77.557054, 12.954448], [77.557011, 12.954179], [77.556961, 12.953938], [77.556883, 12.953744], [77.556794, 12.95359], [77.556693, 12.953402], [77.556588, 12.953248], [77.556285, 12.952832], [77.556157, 12.952636], [77.55606, 12.952501], [77.555991, 12.952388], [77.555901, 12.952176], [77.555852, 12.952059], [77.555796, 12.95189], [77.555773, 12.951804], [77.555761, 12.951766], [77.555723, 12.951601], [77.555937, 12.951544], [77.55612, 12.95148], [77.556286, 12.951427], [77.556489, 12.951359], [77.556751, 12.951267], [77.556965, 12.951214], [77.557167, 12.951138], [77.557326, 12.951038], [77.557448, 12.95094], [77.557522, 12.950814], [77.557573, 12.950751], [77.557632, 12.950672], [77.557692, 12.950617], [77.557737, 12.950577], [77.55779, 12.950542], [77.557839, 12.950504], [77.557879, 12.950471], [77.55795, 12.950438], [77.558086, 12.950391], [77.558084, 12.950193], [77.557715, 12.950152], [77.557703, 12.95015], [77.557655, 12.950139], [77.557641, 12.950138], [77.557333, 12.950082], [77.556835, 12.949971], [77.556813, 12.949962], [77.556785, 12.94997], [77.556761, 12.949991], [77.55669, 12.950062], [77.556519, 12.950176], [77.556405, 12.950226], [77.556317, 12.950262], [77.556193, 12.950294], [77.555996, 12.95034], [77.555745, 12.950374], [77.555714, 12.950378], [77.555619, 12.950396], [77.55556, 12.950413], [77.554991, 12.950561], [77.554742, 12.94968], [77.554579, 12.949757], [77.554524, 12.949943], [77.5545, 12.950054], [77.55446, 12.9502], [77.5544, 12.950271], [77.554222, 12.950403], [77.554044, 12.950535], [77.553928, 12.950616], [77.553841, 12.950657], [77.553637, 12.95076], [77.553464, 12.950857], [77.553281, 12.950884], [77.552791, 12.950557], [77.55267, 12.950703], [77.552589, 12.950816], [77.55237, 12.951121], [77.552354, 12.951144], [77.552287, 12.951237], [77.551975, 12.951673], [77.551643, 12.952043], [77.551569, 12.952111], [77.551454, 12.952248], [77.550705, 12.952205], [77.549598, 12.952277], [77.549505, 12.952283], [77.549359, 12.952293], [77.54921, 12.952317], [77.549147, 12.952352], [77.549207, 12.952616], [77.549207, 12.952669], [77.54922, 12.95281], [77.549249, 12.953364], [77.54928, 12.954056], [77.549334, 12.954736], [77.549587, 12.954726], [77.549306, 12.955088], [77.549099, 12.955445], [77.549095, 12.955452], [77.548793, 12.955957], [77.548586, 12.956311], [77.548411, 12.95661], [77.548834, 12.956688], [77.548926, 12.956705], [77.550248, 12.956919], [77.550549, 12.956961], [77.550794, 12.957004], [77.551123, 12.957082], [77.551872, 12.957292], [77.552206, 12.957393], [77.552993, 12.95763], [77.554438, 12.958086], [77.554495, 12.958113]]]}}]}