{"type": "FeatureCollection", "features": [{"type": "Feature", "properties": {"region_id": "ward_276600-117", "name": "Shanthi Nagar", "parent": "zone_276600-3", "parent_name": "East"}, "geometry": {"type": "Polygon", "coordinates": [[[77.605796, 12.949978], [77.605756, 12.950096], [77.605733, 12.950099], [77.604342, 12.950293], [77.603416, 12.950438], [77.603434, 12.950503], [77.603435, 12.950506], [77.603357, 12.950507], [77.602979, 12.950406], [77.602277, 12.950219], [77.600979, 12.949881], [77.600576, 12.949768], [77.60047, 12.949747], [77.600432, 12.949752], [77.600381, 12.949759], [77.600359, 12.949761], [77.600332, 12.949775], [77.600307, 12.949788], [77.600272, 12.949814], [77.600189, 12.949862], [77.600113, 12.949907], [77.599756, 12.950172], [77.59971, 12.950205], [77.599115, 12.950694], [77.598935, 12.950841], [77.598841, 12.950928], [77.598818, 12.950949], [77.598892, 12.951023], [77.597149, 12.952378], [77.59554, 12.95367], [77.595187, 12.953936], [77.593354, 12.955323], [77.592402, 12.956018], [77.592396, 12.956017], [77.592277, 12.956107], [77.592418, 12.956545], [77.592425, 12.956579], [77.592749, 12.957485], [77.592829, 12.957709], [77.592967, 12.958068], [77.59341, 12.959222], [77.593957, 12.960626], [77.594363, 12.961684], [77.594598, 12.962193], [77.594621, 12.962218], [77.594743, 12.962315], [77.594794, 12.962349], [77.594994, 12.962482], [77.595009, 12.962491], [77.595095, 12.962442], [77.595231, 12.962374], [77.59542, 12.96235], [77.595752, 12.96231], [77.59613, 12.962254], [77.596954, 12.962127], [77.597324, 12.962079], [77.597754, 12.96197], [77.598109, 12.961848], [77.59848, 12.961745], [77.598756, 12.961657], [77.599079, 12.961543], [77.599959, 12.96118], [77.600414, 12.960892], [77.601075, 12.960489], [77.601587, 12.960172], [77.601795, 12.960022], [77.601999, 12.959915], [77.602164, 12.959846], [77.602436, 12.959767], [77.602969, 12.961255], [77.602589, 12.961374], [77.603054, 12.962852], [77.603268, 12.962802], [77.603621, 12.963928], [77.603624, 12.963956], [77.604477, 12.963613], [77.604684, 12.96475], [77.604688, 12.965893], [77.606677, 12.966205], [77.606756, 12.966208], [77.607125, 12.96633], [77.608192, 12.966552], [77.608834, 12.966632], [77.609675, 12.965425], [77.610282, 12.964608], [77.610975, 12.963583], [77.611548, 12.962896], [77.612477, 12.96174], [77.612329, 12.960223], [77.61233, 12.960199], [77.612331, 12.960087], [77.612318, 12.959963], [77.612312, 12.959911], [77.612127, 12.95844], [77.611836, 12.956127], [77.611841, 12.956125], [77.611785, 12.956007], [77.611784, 12.956005], [77.611785, 12.956004], [77.611782, 12.955996], [77.611781, 12.955996], [77.611342, 12.954854], [77.611326, 12.954814], [77.611324, 12.954807], [77.611313, 12.954749], [77.611312, 12.954746], [77.611312, 12.954683], [77.611315, 12.954638], [77.611339, 12.954593], [77.611388, 12.954537], [77.611444, 12.954474], [77.611517, 12.9544], [77.611643, 12.954309], [77.611784, 12.954242], [77.612058, 12.954149], [77.612231, 12.954102], [77.612319, 12.95406], [77.612353, 12.954045], [77.612386, 12.954031], [77.612394, 12.954025], [77.612445, 12.953982], [77.612487, 12.953913], [77.612509, 12.95386], [77.612517, 12.953826], [77.612531, 12.95379], [77.612548, 12.953746], [77.612553, 12.953705], [77.612553, 12.953703], [77.612553, 12.95366], [77.612537, 12.9536], [77.612534, 12.95359], [77.612453, 12.953383], [77.612275, 12.952923], [77.61214, 12.952573], [77.612083, 12.952426], [77.611997, 12.952214], [77.611977, 12.952156], [77.611951, 12.952123], [77.611917, 12.952094], [77.611857, 12.952062], [77.611758, 12.952022], [77.611741, 12.952014], [77.611671, 12.951984], [77.61167, 12.951983], [77.611609, 12.951938], [77.611573, 12.951907], [77.611549, 12.95188], [77.611536, 12.951861], [77.611525, 12.951845], [77.611494, 12.951736], [77.611475, 12.95167], [77.611459, 12.951647], [77.611437, 12.951626], [77.611373, 12.951623], [77.611304, 12.951623], [77.610806, 12.951652], [77.610265, 12.951677], [77.610154, 12.951685], [77.609886, 12.951742], [77.609847, 12.951377], [77.609826, 12.951263], [77.609809, 12.951166], [77.609803, 12.951124], [77.609784, 12.950966], [77.609724, 12.95076], [77.609664, 12.950589], [77.609637, 12.950513], [77.609613, 12.950386], [77.609561, 12.950107], [77.609535, 12.949982], [77.608575, 12.950218], [77.607533, 12.950392], [77.607433, 12.949791], [77.607153, 12.949825], [77.606595, 12.949916], [77.606028, 12.949989], [77.605796, 12.949978]]]}}]}