{"type": "FeatureCollection", "features": [{"type": "Feature", "properties": {"region_id": "ward_276600-116", "name": "Nilasandra", "parent": "zone_276600-3", "parent_name": "East"}, "geometry": {"type": "Polygon", "coordinates": [[[77.620015, 12.948706], [77.619501, 12.947739], [77.619442, 12.947629], [77.619367, 12.947489], [77.619366, 12.947487], [77.619337, 12.947432], [77.619248, 12.947499], [77.618201, 12.948282], [77.617582, 12.948725], [77.617312, 12.948918], [77.617019, 12.949142], [77.617104, 12.949242], [77.617104, 12.949244], [77.616985, 12.949245], [77.616649, 12.949256], [77.616192, 12.949273], [77.615149, 12.949301], [77.614455, 12.949308], [77.613651, 12.949299], [77.613127, 12.949304], [77.612489, 12.949298], [77.611754, 12.9493], [77.611702, 12.949238], [77.611573, 12.949067], [77.611468, 12.948979], [77.611282, 12.948948], [77.611099, 12.948925], [77.610748, 12.948976], [77.609962, 12.949131], [77.609581, 12.949177], [77.609314, 12.949227], [77.608456, 12.949363], [77.607315, 12.949522], [77.605881, 12.949708], [77.605863, 12.949771], [77.605862, 12.949774], [77.605843, 12.949841], [77.605796, 12.949978], [77.606028, 12.949989], [77.606595, 12.949916], [77.607153, 12.949825], [77.607433, 12.949791], [77.607533, 12.950392], [77.608575, 12.950218], [77.609535, 12.949982], [77.609561, 12.950107], [77.609613, 12.950386], [77.609637, 12.950513], [77.609664, 12.950589], [77.609724, 12.95076], [77.609784, 12.950966], [77.609803, 12.951124], [77.609809, 12.951166], [77.609826, 12.951263], [77.609847, 12.951377], [77.609886, 12.951742], [77.610154, 12.951685], [77.610265, 12.951677], [77.610806, 12.951652], [77.611304, 12.951623], [77.611373, 12.951623], [77.611437, 12.951626], [77.611459, 12.951647], [77.611475, 12.95167], [77.611494, 12.951736], [77.611525, 12.951845], [77.611536, 12.951861], [77.611549, 12.95188], [77.611573, 12.951907], [77.611609, 12.951938], [77.61167, 12.951983], [77.611671, 12.951984], [77.611741, 12.952014], [77.611758, 12.952022], [77.611857, 12.952062], [77.611917, 12.952094], [77.611951, 12.952123], [77.611977, 12.952156], [77.611997, 12.952214], [77.612083, 12.952426], [77.61214, 12.952573], [77.612275, 12.952923], [77.612453, 12.953383], [77.612534, 12.95359], [77.612537, 12.9536], [77.612553, 12.95366], [77.612553, 12.953703], [77.612553, 12.953705], [77.612548, 12.953746], [77.612531, 12.95379], [77.612517, 12.953826], [77.612509, 12.95386], [77.612487, 12.953913], [77.612445, 12.953982], [77.612394, 12.954025], [77.612432, 12.954133], [77.612448, 12.95416], [77.612614, 12.954102], [77.612807, 12.954057], [77.613099, 12.954003], [77.613378, 12.953952], [77.613313, 12.953686], [77.613415, 12.953673], [77.613561, 12.953643], [77.613724, 12.953587], [77.613791, 12.953846], [77.61406, 12.954899], [77.614174, 12.95505], [77.614201, 12.955039], [77.614207, 12.955038], [77.614207, 12.955039], [77.614213, 12.955036], [77.614399, 12.95495], [77.614502, 12.954915], [77.614973, 12.95475], [77.615252, 12.954653], [77.615835, 12.95443], [77.616147, 12.95431], [77.616216, 12.954281], [77.616716, 12.954073], [77.617054, 12.953932], [77.617376, 12.953775], [77.617525, 12.953698], [77.617614, 12.953654], [77.617627, 12.953648], [77.617757, 12.953559], [77.617728, 12.953245], [77.617799, 12.952924], [77.617974, 12.952668], [77.61842, 12.952357], [77.618518, 12.952304], [77.618765, 12.952266], [77.618891, 12.952265], [77.618871, 12.951885], [77.618899, 12.951615], [77.619041, 12.951689], [77.61926, 12.951764], [77.619449, 12.951765], [77.619811, 12.951842], [77.620015, 12.9518], [77.61975, 12.951228], [77.619424, 12.950636], [77.619196, 12.950318], [77.61898, 12.949926], [77.618915, 12.9498], [77.619027, 12.94972], [77.618898, 12.949496], [77.619177, 12.949346], [77.619105, 12.949239], [77.620015, 12.948706]]]}}]}