{"type": "FeatureCollection", "features": [{"type": "Feature", "properties": {"region_id": "ward_276600-132", "name": "Attiguppe", "parent": "zone_276600-6", "parent_name": "South"}, "geometry": {"type": "Polygon", "coordinates": [[[77.53469, 12.964344], [77.534669, 12.964297], [77.534661, 12.96429], [77.534105, 12.963048], [77.533227, 12.960895], [77.533057, 12.960344], [77.533077, 12.96001], [77.533145, 12.959768], [77.533453, 12.958891], [77.534038, 12.957643], [77.534325, 12.957007], [77.534404, 12.956685], [77.534698, 12.955578], [77.534799, 12.955162], [77.534949, 12.954954], [77.535251, 12.954675], [77.535614, 12.95432], [77.535605, 12.954313], [77.535838, 12.954083], [77.53587, 12.954051], [77.53538, 12.953608], [77.534592, 12.953074], [77.533788, 12.952737], [77.53294, 12.952536], [77.531988, 12.952263], [77.531352, 12.952021], [77.530588, 12.951605], [77.529945, 12.951222], [77.529637, 12.950903], [77.529141, 12.950219], [77.52834, 12.949064], [77.527704, 12.948139], [77.52716, 12.947325], [77.526949, 12.946983], [77.526603, 12.946292], [77.526436, 12.945913], [77.52652, 12.946605], [77.526556, 12.946949], [77.526689, 12.948011], [77.526717, 12.948651], [77.52676, 12.949288], [77.526867, 12.950041], [77.527052, 12.951154], [77.527275, 12.952425], [77.52733, 12.952701], [77.527421, 12.953161], [77.527616, 12.953848], [77.527895, 12.954651], [77.528169, 12.955468], [77.528466, 12.956401], [77.528597, 12.956771], [77.528603, 12.956828], [77.528595, 12.956874], [77.528573, 12.956902], [77.528546, 12.956937], [77.528393, 12.957072], [77.528203, 12.957244], [77.527802, 12.95753], [77.527462, 12.957734], [77.526639, 12.958138], [77.52562, 12.958626], [77.525036, 12.958868], [77.524845, 12.958911], [77.524296, 12.959005], [77.523458, 12.959114], [77.521599, 12.959327], [77.519948, 12.959542], [77.519415, 12.959608], [77.519357, 12.959641], [77.519341, 12.959669], [77.519355, 12.959697], [77.519375, 12.959738], [77.519617, 12.959938], [77.519887, 12.960122], [77.520145, 12.96029], [77.520245, 12.960362], [77.520291, 12.960418], [77.520317, 12.960467], [77.520338, 12.960527], [77.520343, 12.960576], [77.520361, 12.960734], [77.520374, 12.960819], [77.520404, 12.96092], [77.520493, 12.961191], [77.520593, 12.961583], [77.520618, 12.961656], [77.520652, 12.961713], [77.52067, 12.96174], [77.520672, 12.961817], [77.520771, 12.961811], [77.520802, 12.961818], [77.520871, 12.961817], [77.521023, 12.961816], [77.521607, 12.961786], [77.522016, 12.961786], [77.522034, 12.961786], [77.522072, 12.961795], [77.522127, 12.961825], [77.522235, 12.961885], [77.522615, 12.962097], [77.522903, 12.962203], [77.523032, 12.96225], [77.523054, 12.962256], [77.523109, 12.962271], [77.523238, 12.962306], [77.523221, 12.96218], [77.523227, 12.962062], [77.523241, 12.961965], [77.523315, 12.961832], [77.523405, 12.961757], [77.523677, 12.961727], [77.524008, 12.961684], [77.526319, 12.962231], [77.526312, 12.961995], [77.526779, 12.961961], [77.526788, 12.962057], [77.526782, 12.962205], [77.526694, 12.962442], [77.526636, 12.962665], [77.52666, 12.96285], [77.526746, 12.963113], [77.526783, 12.963308], [77.526782, 12.963538], [77.526761, 12.963572], [77.526731, 12.963656], [77.526722, 12.963748], [77.526646, 12.963951], [77.526524, 12.964276], [77.526523, 12.964284], [77.526497, 12.964421], [77.526462, 12.964599], [77.527426, 12.964716], [77.527849, 12.964767], [77.528425, 12.964817], [77.529388, 12.964928], [77.529476, 12.964924], [77.529644, 12.964883], [77.529881, 12.964834], [77.530186, 12.964756], [77.530258, 12.964725], [77.530347, 12.964698], [77.530471, 12.964669], [77.530536, 12.964656], [77.530557, 12.964652], [77.531141, 12.964639], [77.53122, 12.96464], [77.531702, 12.964644], [77.532359, 12.964651], [77.532469, 12.964661], [77.532546, 12.964668], [77.532562, 12.964669], [77.532797, 12.964711], [77.53294, 12.964724], [77.533, 12.964729], [77.533063, 12.964723], [77.533285, 12.964699], [77.533519, 12.964663], [77.533835, 12.9646], [77.533883, 12.964592], [77.534037, 12.964571], [77.534314, 12.964504], [77.534538, 12.964411], [77.53469, 12.964344]]]}}]}