{"type": "FeatureCollection", "features": [{"type": "Feature", "properties": {"region_id": "ward_276600-96", "name": "Okalipuram", "parent": "zone_276600-7", "parent_name": "West"}, "geometry": {"type": "Polygon", "coordinates": [[[77.567794, 12.988417], [77.567795, 12.988411], [77.567809, 12.988414], [77.567904, 12.988395], [77.567899, 12.988225], [77.567897, 12.98786], [77.567951, 12.986199], [77.568031, 12.985166], [77.5681, 12.983385], [77.568119, 12.982882], [77.568159, 12.982452], [77.567698, 12.982301], [77.567211, 12.982158], [77.566621, 12.981972], [77.566433, 12.981931], [77.566417, 12.981922], [77.56624, 12.981875], [77.56588, 12.981857], [77.565637, 12.981837], [77.565623, 12.981847], [77.565016, 12.981919], [77.564718, 12.98193], [77.564583, 12.981904], [77.564477, 12.981829], [77.564426, 12.981764], [77.564425, 12.981761], [77.564364, 12.980444], [77.564368, 12.98016], [77.564359, 12.979319], [77.564361, 12.979244], [77.564385, 12.979191], [77.564385, 12.979179], [77.564459, 12.978932], [77.564741, 12.978244], [77.564775, 12.978179], [77.564776, 12.97817], [77.564778, 12.978167], [77.564785, 12.978129], [77.564824, 12.977921], [77.564835, 12.97786], [77.56482, 12.977691], [77.564667, 12.976916], [77.56452, 12.976089], [77.564459, 12.975941], [77.564374, 12.975882], [77.56432, 12.975845], [77.563969, 12.975784], [77.563368, 12.975674], [77.562932, 12.975639], [77.562701, 12.97563], [77.562649, 12.975628], [77.562649, 12.97562], [77.561686, 12.975663], [77.561293, 12.975687], [77.561281, 12.975893], [77.561277, 12.975971], [77.561226, 12.976049], [77.561211, 12.976342], [77.561185, 12.976576], [77.561184, 12.976597], [77.560265, 12.976663], [77.560416, 12.977331], [77.560372, 12.97743], [77.560301, 12.977673], [77.560096, 12.978196], [77.559748, 12.97907], [77.559469, 12.979593], [77.559262, 12.979873], [77.559431, 12.979976], [77.559561, 12.980048], [77.559793, 12.980123], [77.560032, 12.980178], [77.560251, 12.980206], [77.560491, 12.980269], [77.56065, 12.980408], [77.560766, 12.980574], [77.560853, 12.980738], [77.560926, 12.980911], [77.560963, 12.981018], [77.561025, 12.981273], [77.561111, 12.981841], [77.561145, 12.981893], [77.561209, 12.981939], [77.561263, 12.981942], [77.561464, 12.981884], [77.561515, 12.98191], [77.561589, 12.981962], [77.561607, 12.982123], [77.561611, 12.982228], [77.561612, 12.982228], [77.561612, 12.982261], [77.561614, 12.982401], [77.561614, 12.982486], [77.561588, 12.982605], [77.561524, 12.982891], [77.561416, 12.983785], [77.561301, 12.984208], [77.561099, 12.984678], [77.561058, 12.984734], [77.561054, 12.984749], [77.561018, 12.984806], [77.560985, 12.984907], [77.560969, 12.985098], [77.560973, 12.985251], [77.560967, 12.985379], [77.560989, 12.985529], [77.561009, 12.985706], [77.561021, 12.985827], [77.561012, 12.985943], [77.560973, 12.986042], [77.560783, 12.986513], [77.560763, 12.986614], [77.560769, 12.986678], [77.560804, 12.986755], [77.56099, 12.986939], [77.561056, 12.986995], [77.561281, 12.987052], [77.561776, 12.987163], [77.561813, 12.987209], [77.561817, 12.987274], [77.561791, 12.987344], [77.561744, 12.987481], [77.56175, 12.987484], [77.561693, 12.987546], [77.561626, 12.987629], [77.561579, 12.987722], [77.561541, 12.9878], [77.561485, 12.987994], [77.561437, 12.988221], [77.56144, 12.988281], [77.561446, 12.988284], [77.561446, 12.988281], [77.561476, 12.988282], [77.562263, 12.988275], [77.56394, 12.988175], [77.56396, 12.988374], [77.563964, 12.988385], [77.56504, 12.988318], [77.565069, 12.988535], [77.565696, 12.988517], [77.566803, 12.988467], [77.567794, 12.988417]]]}}]}