{"type": "FeatureCollection", "features": [{"type": "Feature", "properties": {"region_id": "ward_276600-113", "name": "Konena Agrahara", "parent": "zone_276600-3", "parent_name": "East"}, "geometry": {"type": "Polygon", "coordinates": [[[77.659993, 12.961733], [77.659992, 12.961733], [77.659964, 12.961631], [77.659952, 12.961586], [77.659856, 12.961253], [77.659796, 12.961077], [77.660208, 12.960896], [77.659918, 12.960293], [77.659839, 12.960294], [77.659817, 12.960192], [77.659813, 12.96016], [77.65978, 12.959923], [77.659774, 12.959878], [77.659729, 12.959562], [77.659711, 12.959436], [77.65971, 12.95943], [77.659702, 12.959365], [77.659693, 12.959295], [77.659693, 12.959293], [77.659688, 12.959255], [77.65969, 12.9592], [77.659692, 12.959161], [77.659718, 12.959099], [77.659747, 12.959078], [77.659781, 12.959078], [77.659805, 12.959082], [77.65982, 12.959085], [77.659931, 12.959105], [77.660472, 12.959211], [77.660764, 12.959262], [77.660773, 12.959263], [77.661019, 12.959295], [77.661133, 12.959301], [77.661137, 12.959301], [77.661139, 12.959301], [77.661275, 12.959297], [77.66129, 12.959297], [77.661599, 12.959264], [77.662105, 12.9592], [77.662132, 12.959196], [77.662235, 12.95918], [77.662287, 12.959173], [77.662727, 12.959101], [77.662745, 12.959098], [77.662758, 12.959095], [77.663098, 12.959026], [77.663316, 12.958981], [77.663329, 12.958979], [77.663567, 12.958931], [77.663584, 12.958916], [77.663587, 12.958894], [77.663578, 12.958811], [77.663568, 12.958808], [77.663556, 12.958794], [77.663553, 12.958769], [77.663488, 12.958551], [77.663472, 12.958495], [77.663362, 12.958112], [77.663339, 12.958028], [77.663277, 12.957798], [77.663199, 12.95751], [77.663137, 12.957293], [77.663072, 12.957067], [77.66304, 12.956908], [77.663043, 12.956832], [77.663045, 12.956776], [77.663046, 12.956775], [77.663071, 12.956697], [77.66318, 12.956385], [77.663293, 12.956078], [77.663392, 12.955831], [77.66341, 12.955762], [77.663007, 12.955739], [77.662769, 12.955741], [77.662612, 12.955747], [77.661939, 12.955722], [77.661935, 12.955753], [77.66135, 12.955723], [77.661229, 12.955716], [77.661226, 12.955716], [77.661137, 12.955711], [77.661122, 12.95571], [77.661043, 12.955708], [77.661021, 12.955706], [77.661003, 12.955705], [77.660998, 12.955702], [77.660982, 12.955691], [77.66098, 12.955689], [77.660972, 12.955685], [77.660941, 12.955659], [77.660932, 12.955652], [77.660925, 12.955643], [77.660924, 12.95564], [77.660908, 12.955619], [77.660889, 12.955568], [77.660876, 12.955488], [77.660873, 12.955445], [77.661924, 12.955457], [77.661929, 12.955185], [77.661918, 12.955014], [77.66249, 12.954973], [77.662504, 12.954948], [77.66251, 12.954913], [77.662513, 12.954895], [77.662513, 12.95487], [77.662504, 12.954851], [77.662473, 12.954737], [77.662456, 12.954662], [77.662425, 12.954361], [77.662417, 12.95429], [77.662415, 12.954263], [77.662414, 12.954256], [77.662312, 12.954263], [77.662289, 12.954264], [77.662216, 12.954269], [77.662183, 12.954271], [77.66145, 12.954319], [77.661439, 12.95432], [77.66105, 12.954345], [77.661049, 12.954249], [77.661049, 12.954233], [77.661046, 12.954134], [77.661046, 12.954112], [77.661043, 12.95401], [77.661038, 12.953374], [77.661031, 12.95315], [77.66103, 12.953121], [77.661029, 12.953097], [77.661026, 12.952888], [77.661025, 12.952865], [77.660995, 12.952866], [77.660057, 12.952917], [77.660035, 12.952919], [77.659926, 12.952923], [77.659602, 12.952923], [77.659542, 12.952924], [77.659368, 12.952933], [77.659114, 12.952946], [77.659012, 12.952951], [77.659002, 12.952952], [77.658424, 12.952933], [77.658164, 12.952918], [77.658012, 12.952909], [77.657837, 12.952899], [77.657229, 12.952859], [77.657077, 12.952845], [77.656981, 12.952836], [77.656799, 12.952819], [77.656466, 12.952801], [77.656327, 12.952793], [77.656095, 12.95278], [77.655887, 12.952763], [77.655591, 12.952743], [77.655563, 12.95274], [77.655488, 12.952734], [77.655375, 12.952727], [77.65535, 12.952726], [77.655178, 12.952716], [77.65507, 12.95271], [77.654996, 12.952706], [77.654732, 12.952683], [77.654719, 12.952682], [77.654441, 12.952658], [77.654029, 12.95263], [77.653663, 12.952605], [77.653523, 12.952601], [77.653402, 12.952596], [77.653146, 12.952577], [77.653106, 12.952577], [77.65297, 12.952575], [77.65296, 12.952574], [77.652951, 12.952574], [77.652778, 12.952576], [77.652651, 12.95257], [77.652603, 12.952561], [77.652569, 12.952545], [77.652553, 12.952534], [77.652536, 12.952519], [77.652525, 12.952505], [77.652509, 12.952473], [77.652497, 12.952416], [77.652495, 12.952407], [77.652488, 12.952385], [77.65241, 12.952148], [77.652386, 12.952072], [77.652378, 12.952046], [77.652326, 12.951881], [77.652324, 12.951878], [77.652308, 12.95185], [77.652295, 12.951827], [77.652283, 12.951807], [77.652254, 12.951783], [77.652212, 12.951757], [77.652125, 12.951718], [77.651897, 12.951644], [77.651809, 12.951604], [77.651703, 12.95154], [77.65161, 12.951482], [77.651397, 12.951337], [77.651306, 12.951279], [77.651107, 12.951113], [77.651097, 12.951105], [77.650615, 12.95066], [77.650603, 12.950648], [77.650488, 12.950542], [77.650435, 12.950494], [77.650389, 12.950428], [77.650194, 12.950205], [77.650127, 12.950123], [77.650104, 12.950096], [77.649983, 12.949949], [77.649755, 12.949689], [77.649639, 12.949554], [77.649449, 12.94931], [77.649402, 12.949232], [77.649368, 12.949174], [77.649325, 12.949103], [77.649274, 12.949007], [77.649251, 12.948972], [77.649249, 12.94894], [77.649248, 12.948935], [77.649186, 12.9487], [77.649184, 12.948695], [77.649175, 12.948659], [77.649165, 12.948623], [77.649164, 12.948614], [77.649112, 12.948277], [77.6491, 12.947996], [77.649098, 12.947956], [77.649102, 12.947935], [77.649111, 12.947885], [77.649126, 12.947805], [77.649168, 12.947703], [77.649188, 12.947675], [77.649197, 12.947663], [77.649258, 12.947575], [77.649359, 12.947467], [77.649393, 12.947427], [77.649424, 12.947387], [77.649433, 12.947346], [77.649414, 12.947271], [77.649283, 12.946882], [77.649273, 12.946853], [77.649228, 12.946736], [77.649179, 12.946554], [77.649083, 12.946003], [77.648898, 12.94613], [77.648253, 12.946761], [77.647821, 12.947172], [77.647667, 12.947267], [77.646997, 12.947587], [77.646689, 12.947768], [77.646563, 12.947863], [77.646464, 12.947976], [77.646325, 12.948165], [77.646056, 12.948561], [77.645558, 12.949244], [77.645351, 12.949545], [77.645163, 12.949851], [77.644985, 12.95021], [77.644777, 12.950712], [77.644636, 12.951204], [77.64458, 12.951526], [77.644459, 12.952081], [77.644331, 12.952877], [77.644284, 12.953239], [77.64428, 12.953293], [77.644272, 12.953338], [77.644209, 12.953392], [77.64414, 12.95341], [77.644087, 12.953422], [77.643991, 12.953443], [77.643673, 12.95354], [77.643024, 12.95377], [77.642825, 12.953852], [77.642721, 12.953916], [77.64268, 12.953934], [77.642639, 12.953948], [77.642576, 12.953949], [77.642471, 12.953954], [77.642416, 12.953955], [77.642362, 12.953955], [77.642207, 12.953921], [77.642074, 12.95386], [77.641987, 12.953776], [77.641918, 12.953705], [77.641871, 12.953634], [77.641833, 12.953588], [77.641792, 12.953539], [77.64174, 12.953509], [77.641535, 12.953434], [77.641021, 12.953269], [77.640929, 12.953269], [77.640772, 12.953272], [77.641099, 12.953866], [77.641294, 12.954285], [77.64131, 12.954424], [77.641317, 12.954535], [77.641328, 12.954701], [77.641389, 12.954701], [77.642045, 12.954699], [77.643402, 12.954699], [77.643702, 12.955754], [77.64382, 12.956258], [77.643749, 12.956549], [77.6436, 12.957263], [77.643382, 12.957845], [77.643769, 12.957975], [77.643425, 12.958184], [77.64342, 12.958186], [77.643359, 12.958206], [77.6433, 12.958233], [77.643245, 12.958266], [77.643194, 12.958306], [77.643148, 12.95835], [77.643107, 12.9584], [77.643073, 12.958454], [77.643045, 12.958511], [77.643024, 12.958571], [77.643014, 12.95861], [77.643003, 12.958646], [77.642954, 12.958831], [77.642912, 12.959017], [77.642877, 12.959204], [77.64287, 12.959253], [77.642845, 12.959369], [77.642806, 12.959523], [77.64276, 12.959675], [77.642707, 12.959824], [77.642646, 12.959971], [77.642579, 12.960116], [77.642505, 12.960257], [77.6425, 12.960267], [77.642401, 12.960558], [77.642523, 12.960545], [77.645776, 12.960187], [77.6465, 12.960104], [77.6484, 12.95988], [77.650418, 12.959654], [77.652444, 12.959504], [77.654569, 12.959421], [77.655177, 12.959374], [77.655281, 12.95937], [77.655327, 12.959407], [77.65538, 12.959481], [77.655394, 12.959542], [77.655394, 12.959547], [77.655401, 12.959547], [77.655401, 12.959553], [77.655541, 12.959913], [77.655642, 12.960243], [77.655678, 12.960396], [77.655697, 12.960839], [77.655724, 12.961105], [77.655789, 12.961356], [77.655908, 12.96171], [77.656043, 12.962046], [77.656164, 12.962315], [77.656624, 12.962978], [77.656708, 12.96308], [77.657106, 12.963079], [77.65753, 12.963096], [77.657739, 12.963174], [77.658051, 12.963186], [77.659026, 12.963249], [77.659368, 12.963289], [77.659388, 12.963012], [77.660285, 12.962827], [77.660139, 12.962348], [77.659993, 12.961733]]]}}]}