{"type": "FeatureCollection", "features": [{"type": "Feature", "properties": {"region_id": "ward_276600-159", "name": "Kengeri", "parent": "zone_276600-5", "parent_name": "Rajarajeshwari Nagar"}, "geometry": {"type": "Polygon", "coordinates": [[[77.462107, 12.89759], [77.460222, 12.900453], [77.460103, 12.903842], [77.460641, 12.904287], [77.461525, 12.904896], [77.461697, 12.904913], [77.462518, 12.90498], [77.462957, 12.904976], [77.46332, 12.905048], [77.463838, 12.905324], [77.46405, 12.905565], [77.46438, 12.906086], [77.464654, 12.906757], [77.464658, 12.907263], [77.464663, 12.907693], [77.464764, 12.908254], [77.465017, 12.908757], [77.465153, 12.909092], [77.465441, 12.909258], [77.466061, 12.910188], [77.470518, 12.917589], [77.470516, 12.917593], [77.470507, 12.917779], [77.470508, 12.917862], [77.470568, 12.918017], [77.470752, 12.918501], [77.470843, 12.918676], [77.470892, 12.918769], [77.470945, 12.918872], [77.470999, 12.918998], [77.471151, 12.919431], [77.471804, 12.92144], [77.472233, 12.922912], [77.472336, 12.923311], [77.472407, 12.923434], [77.472478, 12.923468], [77.472548, 12.923468], [77.472667, 12.923482], [77.472721, 12.923439], [77.473166, 12.923077], [77.473536, 12.922789], [77.473784, 12.922746], [77.473868, 12.922731], [77.47415, 12.922549], [77.474311, 12.92252], [77.47434, 12.922568], [77.474597, 12.923641], [77.474795, 12.924362], [77.475462, 12.924222], [77.47614, 12.924101], [77.477083, 12.923863], [77.477856, 12.923564], [77.47817, 12.923165], [77.478306, 12.922903], [77.478536, 12.922568], [77.479032, 12.922229], [77.479189, 12.92202], [77.479259, 12.922634], [77.479413, 12.923195], [77.478793, 12.923401], [77.478948, 12.92375], [77.479587, 12.923515], [77.480428, 12.923149], [77.48093, 12.922972], [77.481009, 12.92329], [77.481211, 12.923564], [77.481274, 12.923631], [77.48121, 12.923771], [77.481164, 12.92389], [77.481395, 12.923758], [77.481725, 12.923641], [77.481973, 12.923557], [77.482276, 12.923448], [77.482338, 12.923635], [77.482475, 12.924105], [77.48273, 12.924817], [77.482901, 12.925287], [77.483858, 12.924969], [77.485114, 12.924632], [77.485488, 12.925652], [77.486255, 12.927741], [77.486731, 12.929036], [77.487158, 12.930283], [77.487501, 12.931548], [77.487774, 12.932341], [77.487909, 12.9326], [77.488143, 12.932744], [77.488623, 12.932723], [77.489317, 12.932586], [77.489944, 12.932337], [77.490441, 12.932267], [77.490557, 12.932347], [77.490792, 12.932588], [77.491027, 12.93296], [77.491363, 12.933363], [77.491376, 12.933038], [77.4913, 12.932096], [77.491179, 12.931561], [77.490824, 12.93085], [77.490635, 12.930201], [77.490525, 12.92913], [77.490466, 12.92814], [77.490243, 12.927362], [77.49002, 12.926568], [77.489731, 12.925856], [77.489444, 12.925306], [77.489289, 12.924722], [77.489128, 12.923522], [77.488994, 12.923377], [77.488509, 12.922894], [77.488202, 12.922019], [77.488114, 12.921468], [77.488323, 12.921039], [77.488937, 12.921288], [77.490373, 12.921924], [77.49158, 12.922484], [77.492787, 12.923056], [77.494196, 12.923684], [77.495656, 12.924327], [77.497053, 12.92499], [77.49817, 12.925536], [77.498536, 12.925739], [77.49854, 12.925741], [77.498734, 12.925849], [77.498939, 12.926004], [77.499009, 12.926045], [77.499137, 12.92522], [77.498952, 12.925054], [77.498845, 12.924916], [77.498495, 12.924605], [77.498049, 12.924185], [77.497586, 12.923714], [77.497149, 12.923327], [77.496775, 12.923161], [77.496262, 12.922953], [77.49588, 12.922813], [77.495496, 12.922587], [77.49506, 12.922302], [77.494677, 12.922034], [77.494216, 12.921818], [77.493816, 12.92166], [77.493554, 12.921493], [77.493317, 12.921181], [77.493115, 12.920801], [77.492895, 12.92048], [77.492693, 12.920184], [77.492422, 12.919958], [77.492065, 12.919723], [77.49175, 12.919446], [77.49147, 12.919168], [77.491268, 12.918882], [77.490987, 12.918409], [77.490731, 12.917952], [77.490258, 12.917362], [77.48996, 12.917], [77.489496, 12.916512], [77.489025, 12.916168], [77.488711, 12.915992], [77.488233, 12.915768], [77.487806, 12.915551], [77.48744, 12.915291], [77.487002, 12.914811], [77.486547, 12.914331], [77.4861, 12.913707], [77.485732, 12.913269], [77.48554, 12.913118], [77.485287, 12.91295], [77.485086, 12.912748], [77.484979, 12.912478], [77.484684, 12.911554], [77.484441, 12.910639], [77.484371, 12.910479], [77.484265, 12.910352], [77.484022, 12.910278], [77.48336, 12.910264], [77.482431, 12.910346], [77.481799, 12.91026], [77.480773, 12.909887], [77.479915, 12.909567], [77.478945, 12.90923], [77.477862, 12.908693], [77.477188, 12.90828], [77.476422, 12.907832], [77.475674, 12.907329], [77.475263, 12.90715], [77.474816, 12.907081], [77.474482, 12.907085], [77.474091, 12.906997], [77.473456, 12.90673], [77.472876, 12.906316], [77.472276, 12.905847], [77.471248, 12.905201], [77.470741, 12.904695], [77.470155, 12.903661], [77.469701, 12.902827], [77.469212, 12.902303], [77.468687, 12.901852], [77.468014, 12.901366], [77.466948, 12.900756], [77.466163, 12.900308], [77.465565, 12.899913], [77.46519, 12.899551], [77.464646, 12.899064], [77.463953, 12.898524], [77.463411, 12.898219], [77.462702, 12.897952], [77.462107, 12.89759]]]}}]}