{"type": "FeatureCollection", "features": [{"type": "Feature", "properties": {"region_id": "ward_276600-160", "name": "Rajarajeshwari Nagar", "parent": "zone_276600-5", "parent_name": "Rajarajeshwari Nagar"}, "geometry": {"type": "Polygon", "coordinates": [[[77.534335, 12.936494], [77.533744, 12.936043], [77.533622, 12.935416], [77.53277, 12.935497], [77.533543, 12.934026], [77.533592, 12.933985], [77.533648, 12.93392], [77.533681, 12.933864], [77.533696, 12.933751], [77.533689, 12.93362], [77.533697, 12.933619], [77.53378, 12.933375], [77.533896, 12.933157], [77.53394, 12.933095], [77.533961, 12.933084], [77.533973, 12.933042], [77.533975, 12.933037], [77.533989, 12.933014], [77.534002, 12.93301], [77.534025, 12.933005], [77.534045, 12.932955], [77.534052, 12.932933], [77.534061, 12.932902], [77.534094, 12.932798], [77.534087, 12.932677], [77.534077, 12.932508], [77.534174, 12.932419], [77.534222, 12.932234], [77.53422, 12.932089], [77.534218, 12.931896], [77.534217, 12.931759], [77.534207, 12.931614], [77.534205, 12.931381], [77.534251, 12.931067], [77.534248, 12.93077], [77.534246, 12.930585], [77.534334, 12.930334], [77.534447, 12.93014], [77.534593, 12.929978], [77.534722, 12.929784], [77.534826, 12.92959], [77.534858, 12.929453], [77.534836, 12.92929], [77.534845, 12.929276], [77.535145, 12.929466], [77.53509, 12.928895], [77.535062, 12.928606], [77.534994, 12.928285], [77.534975, 12.928044], [77.534996, 12.927746], [77.534978, 12.927593], [77.535002, 12.927371], [77.535097, 12.927312], [77.535272, 12.927126], [77.535514, 12.927041], [77.535784, 12.926958], [77.536291, 12.926801], [77.536609, 12.926661], [77.536747, 12.926547], [77.536811, 12.926417], [77.53681, 12.926233], [77.536782, 12.925959], [77.536729, 12.92555], [77.536733, 12.925147], [77.536731, 12.924946], [77.536729, 12.924737], [77.536735, 12.924488], [77.536678, 12.924176], [77.536716, 12.924025], [77.536809, 12.923759], [77.536818, 12.923733], [77.536838, 12.923676], [77.536881, 12.923548], [77.536997, 12.923438], [77.537103, 12.923387], [77.53717, 12.923386], [77.537276, 12.923389], [77.53743, 12.923411], [77.537624, 12.923444], [77.537739, 12.923516], [77.53785, 12.9236], [77.538132, 12.923852], [77.5382, 12.923917], [77.53828, 12.924106], [77.538504, 12.924428], [77.53864, 12.924574], [77.538731, 12.924677], [77.538809, 12.924776], [77.538819, 12.924784], [77.538856, 12.924813], [77.538885, 12.924814], [77.538901, 12.924815], [77.538943, 12.924806], [77.539027, 12.924765], [77.539046, 12.924726], [77.539112, 12.924684], [77.539355, 12.924632], [77.539422, 12.924631], [77.539529, 12.924612], [77.53967, 12.924583], [77.539853, 12.92449], [77.540161, 12.924302], [77.540197, 12.924292], [77.540251, 12.924276], [77.540289, 12.92426], [77.540335, 12.92422], [77.540368, 12.924146], [77.540357, 12.923979], [77.540327, 12.923682], [77.54029, 12.923323], [77.540286, 12.923286], [77.540228, 12.923095], [77.540148, 12.922824], [77.540074, 12.922488], [77.540028, 12.922341], [77.539991, 12.922196], [77.539897, 12.922112], [77.539866, 12.922062], [77.539731, 12.921918], [77.539718, 12.92191], [77.539691, 12.921894], [77.539611, 12.921897], [77.539534, 12.921904], [77.539496, 12.921905], [77.539458, 12.921899], [77.539448, 12.921887], [77.539434, 12.921873], [77.539397, 12.921691], [77.539311, 12.921398], [77.53927, 12.921257], [77.539208, 12.921117], [77.5392, 12.921097], [77.539121, 12.920917], [77.539087, 12.920872], [77.539062, 12.920844], [77.539055, 12.920788], [77.539025, 12.920613], [77.539022, 12.920592], [77.53902, 12.920427], [77.538995, 12.920236], [77.538994, 12.920227], [77.538996, 12.920206], [77.538974, 12.920194], [77.538963, 12.920189], [77.538894, 12.920198], [77.538554, 12.920292], [77.538052, 12.9204], [77.537619, 12.920468], [77.537595, 12.920528], [77.536312, 12.920522], [77.534213, 12.920511], [77.531109, 12.92069], [77.530427, 12.920795], [77.529812, 12.921027], [77.528892, 12.921401], [77.528375, 12.921593], [77.528342, 12.921596], [77.528291, 12.92159], [77.528264, 12.921566], [77.528232, 12.92151], [77.528205, 12.921467], [77.528192, 12.921417], [77.528179, 12.921267], [77.528259, 12.921212], [77.528411, 12.921193], [77.528442, 12.92118], [77.528472, 12.921153], [77.528483, 12.921108], [77.528504, 12.92099], [77.528648, 12.920495], [77.528826, 12.920135], [77.528985, 12.919922], [77.529169, 12.919662], [77.529193, 12.919627], [77.529204, 12.9196], [77.528111, 12.913869], [77.528472, 12.913822], [77.528117, 12.912738], [77.527979, 12.9122], [77.527785, 12.911617], [77.527529, 12.910853], [77.527363, 12.910222], [77.527237, 12.909551], [77.527182, 12.909147], [77.527101, 12.908659], [77.527025, 12.908279], [77.527027, 12.908112], [77.526841, 12.90667], [77.526568, 12.906666], [77.526526, 12.90667], [77.524557, 12.906689], [77.524504, 12.906467], [77.524579, 12.906317], [77.525556, 12.905565], [77.525629, 12.905317], [77.5257, 12.90487], [77.525697, 12.904617], [77.525694, 12.904289], [77.525737, 12.904192], [77.525833, 12.904127], [77.525885, 12.90409], [77.525909, 12.904082], [77.526517, 12.904234], [77.527987, 12.904723], [77.528707, 12.905033], [77.528882, 12.905083], [77.529145, 12.905075], [77.529385, 12.90503], [77.529813, 12.904914], [77.530198, 12.904759], [77.53073, 12.904464], [77.530855, 12.904395], [77.530969, 12.904315], [77.531099, 12.904283], [77.53117, 12.904278], [77.531256, 12.904278], [77.531383, 12.904327], [77.531593, 12.90446], [77.531844, 12.904736], [77.531991, 12.904873], [77.532151, 12.905027], [77.532163, 12.905031], [77.532591, 12.904927], [77.53365, 12.904793], [77.534098, 12.904711], [77.53405, 12.903438], [77.534417, 12.903362], [77.534486, 12.903272], [77.534447, 12.902139], [77.534424, 12.900559], [77.534542, 12.899362], [77.53457, 12.899078], [77.534333, 12.899026], [77.534119, 12.898959], [77.534054, 12.898796], [77.533752, 12.898575], [77.533703, 12.898498], [77.533624, 12.898413], [77.533512, 12.898337], [77.533299, 12.898377], [77.533124, 12.89824], [77.533021, 12.898171], [77.532846, 12.898056], [77.532781, 12.897956], [77.532645, 12.897787], [77.532534, 12.897656], [77.532371, 12.897402], [77.532228, 12.897043], [77.53194, 12.896436], [77.531767, 12.896078], [77.531517, 12.89564], [77.531282, 12.895231], [77.531281, 12.894917], [77.531231, 12.894669], [77.531112, 12.894554], [77.530946, 12.894561], [77.530664, 12.894601], [77.530482, 12.894739], [77.53023, 12.894842], [77.529962, 12.894945], [77.529682, 12.894947], [77.529465, 12.895049], [77.529306, 12.895124], [77.529159, 12.895193], [77.529088, 12.895194], [77.52893, 12.895211], [77.528724, 12.895213], [77.52833, 12.895255], [77.528211, 12.895257], [77.527998, 12.895259], [77.527769, 12.895253], [77.5275, 12.89524], [77.527216, 12.895243], [77.526987, 12.895253], [77.52664, 12.895303], [77.526348, 12.895399], [77.526183, 12.895431], [77.526041, 12.895541], [77.526003, 12.895665], [77.525925, 12.89579], [77.525784, 12.89583], [77.525649, 12.895762], [77.525561, 12.895654], [77.525488, 12.895515], [77.5254, 12.895431], [77.525305, 12.895378], [77.525131, 12.895364], [77.52495, 12.895389], [77.524776, 12.895437], [77.524658, 12.8955], [77.52451, 12.89568], [77.524425, 12.895851], [77.524426, 12.89596], [77.524466, 12.896029], [77.524553, 12.896052], [77.524664, 12.896058], [77.52476, 12.896166], [77.524824, 12.896281], [77.524921, 12.896474], [77.524979, 12.896691], [77.52498, 12.896815], [77.524957, 12.896947], [77.524911, 12.897071], [77.524857, 12.897157], [77.524755, 12.897235], [77.524558, 12.897315], [77.524424, 12.89737], [77.524187, 12.89738], [77.524043, 12.897379], [77.523743, 12.897524], [77.523571, 12.897593], [77.523408, 12.897625], [77.523277, 12.897627], [77.523193, 12.897627], [77.523088, 12.897654], [77.52303, 12.89766], [77.522967, 12.89764], [77.522919, 12.897584], [77.522824, 12.897476], [77.522702, 12.89738], [77.522617, 12.897329], [77.522538, 12.897325], [77.522497, 12.89733], [77.522293, 12.897376], [77.522146, 12.897442], [77.522134, 12.897451], [77.522104, 12.897451], [77.522048, 12.897452], [77.521983, 12.897458], [77.521912, 12.897491], [77.521857, 12.897532], [77.521798, 12.897561], [77.521695, 12.897606], [77.521601, 12.89763], [77.521524, 12.89763], [77.521462, 12.897631], [77.521392, 12.897645], [77.521322, 12.897658], [77.521273, 12.897665], [77.521236, 12.897666], [77.521207, 12.897668], [77.521154, 12.897666], [77.521089, 12.897645], [77.521051, 12.897598], [77.521013, 12.897561], [77.520986, 12.897535], [77.520957, 12.897512], [77.520943, 12.897468], [77.520892, 12.897373], [77.520847, 12.897335], [77.520815, 12.897278], [77.520726, 12.89717], [77.520698, 12.897116], [77.520664, 12.897045], [77.520572, 12.896859], [77.520562, 12.8968], [77.520555, 12.896761], [77.520623, 12.896491], [77.520741, 12.896279], [77.520859, 12.896119], [77.520876, 12.896069], [77.520885, 12.896028], [77.520891, 12.895982], [77.520897, 12.895956], [77.520906, 12.89593], [77.52091, 12.895901], [77.520906, 12.895769], [77.520919, 12.895717], [77.520948, 12.895668], [77.520958, 12.895584], [77.520981, 12.895486], [77.521011, 12.895372], [77.521141, 12.89484], [77.52115, 12.89467], [77.521143, 12.894511], [77.521126, 12.894428], [77.521132, 12.894023], [77.521135, 12.893896], [77.521126, 12.893799], [77.521121, 12.893733], [77.521057, 12.89358], [77.520977, 12.893534], [77.520914, 12.893538], [77.520844, 12.893562], [77.520773, 12.893559], [77.520709, 12.893521], [77.52067, 12.893487], [77.520603, 12.893472], [77.520198, 12.893232], [77.520044, 12.893126], [77.519735, 12.89297], [77.519612, 12.892944], [77.51949, 12.892949], [77.519384, 12.892946], [77.519183, 12.892883], [77.519026, 12.892839], [77.518947, 12.892803], [77.518853, 12.892843], [77.518797, 12.892943], [77.518733, 12.893088], [77.518696, 12.893215], [77.518644, 12.893305], [77.518563, 12.893389], [77.518475, 12.893433], [77.518403, 12.89343], [77.518173, 12.893374], [77.517883, 12.89326], [77.517741, 12.893212], [77.517644, 12.893179], [77.51737, 12.893113], [77.517311, 12.893104], [77.517236, 12.893105], [77.517189, 12.893122], [77.517143, 12.893134], [77.517123, 12.893158], [77.517102, 12.893217], [77.51706, 12.893261], [77.517032, 12.893322], [77.517003, 12.893381], [77.516903, 12.89351], [77.516861, 12.89356], [77.516804, 12.893615], [77.516663, 12.893669], [77.516592, 12.893672], [77.516539, 12.893685], [77.516511, 12.893718], [77.516509, 12.893742], [77.516491, 12.89376], [77.516442, 12.893764], [77.516398, 12.893767], [77.516349, 12.893767], [77.516269, 12.893757], [77.516234, 12.89376], [77.516179, 12.893756], [77.516148, 12.893752], [77.516023, 12.893764], [77.515924, 12.893765], [77.515886, 12.893757], [77.51585, 12.893746], [77.515826, 12.893727], [77.515819, 12.893703], [77.515809, 12.89359], [77.515809, 12.893553], [77.515775, 12.893486], [77.515759, 12.893438], [77.515726, 12.893282], [77.515716, 12.893197], [77.51574, 12.893123], [77.515826, 12.892831], [77.51584, 12.892731], [77.515884, 12.892661], [77.515888, 12.892587], [77.515896, 12.892507], [77.515882, 12.892472], [77.515853, 12.892431], [77.515833, 12.892416], [77.515804, 12.892401], [77.515788, 12.892401], [77.515755, 12.892404], [77.5157, 12.892422], [77.515631, 12.892444], [77.515574, 12.892455], [77.515337, 12.892473], [77.515297, 12.892508], [77.515269, 12.892571], [77.51526, 12.89265], [77.515074, 12.892832], [77.514977, 12.892915], [77.514927, 12.89295], [77.514799, 12.892982], [77.514791, 12.892989], [77.514774, 12.892989], [77.514488, 12.892991], [77.514232, 12.892971], [77.514022, 12.89295], [77.513836, 12.893021], [77.513837, 12.893158], [77.514102, 12.894024], [77.514141, 12.894134], [77.514154, 12.894247], [77.514118, 12.894404], [77.513979, 12.894744], [77.513953, 12.894823], [77.513942, 12.894904], [77.513902, 12.894983], [77.513867, 12.895038], [77.513867, 12.895076], [77.513882, 12.895102], [77.51393, 12.895148], [77.513984, 12.895191], [77.514046, 12.895225], [77.514114, 12.895236], [77.514147, 12.89523], [77.514221, 12.895246], [77.514271, 12.895295], [77.514286, 12.895333], [77.514309, 12.895515], [77.514295, 12.895608], [77.514259, 12.895761], [77.514123, 12.896083], [77.514107, 12.89611], [77.514033, 12.896332], [77.513978, 12.896428], [77.513961, 12.896478], [77.513942, 12.896675], [77.513979, 12.896753], [77.513982, 12.896805], [77.513981, 12.897002], [77.513973, 12.897095], [77.513933, 12.897229], [77.513864, 12.897368], [77.513768, 12.897572], [77.513695, 12.897674], [77.513646, 12.897724], [77.513573, 12.897812], [77.513457, 12.897881], [77.513432, 12.897922], [77.513364, 12.897964], [77.513317, 12.898003], [77.513277, 12.898049], [77.513259, 12.89811], [77.513271, 12.898183], [77.51329, 12.898261], [77.513329, 12.89831], [77.513413, 12.898364], [77.513464, 12.898453], [77.513551, 12.898621], [77.513579, 12.898748], [77.513548, 12.898861], [77.513504, 12.898925], [77.513426, 12.899039], [77.513238, 12.899267], [77.512957, 12.89952], [77.512905, 12.899618], [77.51287, 12.899673], [77.512832, 12.899729], [77.512771, 12.899782], [77.512672, 12.89984], [77.512584, 12.899947], [77.512469, 12.899973], [77.512422, 12.900046], [77.512379, 12.900229], [77.51238, 12.90031], [77.512422, 12.900377], [77.512547, 12.900444], [77.512654, 12.900499], [77.512728, 12.900547], [77.5128, 12.90061], [77.512889, 12.900685], [77.513021, 12.900863], [77.51308, 12.900954], [77.513114, 12.90106], [77.513159, 12.90112], [77.513234, 12.901186], [77.513357, 12.901261], [77.513588, 12.901395], [77.513661, 12.901401], [77.513744, 12.90142], [77.513842, 12.901457], [77.513938, 12.901509], [77.514007, 12.901584], [77.514052, 12.901711], [77.51405, 12.901758], [77.513998, 12.901875], [77.513966, 12.901968], [77.513872, 12.902036], [77.513804, 12.902057], [77.513424, 12.902069], [77.513314, 12.902062], [77.513234, 12.902062], [77.513184, 12.902083], [77.513134, 12.902101], [77.513071, 12.902105], [77.513036, 12.902102], [77.512976, 12.902094], [77.512914, 12.902086], [77.512875, 12.902086], [77.512712, 12.902094], [77.512543, 12.902098], [77.512472, 12.902108], [77.51238, 12.90212], [77.512315, 12.902147], [77.512164, 12.902147], [77.511995, 12.902202], [77.511921, 12.902203], [77.51182, 12.902201], [77.51168, 12.902147], [77.511362, 12.902148], [77.511204, 12.902274], [77.511039, 12.902404], [77.510972, 12.902486], [77.51094, 12.902547], [77.510949, 12.902611], [77.511036, 12.902677], [77.511084, 12.902755], [77.511115, 12.902886], [77.51109, 12.90304], [77.510997, 12.903236], [77.510989, 12.903306], [77.510981, 12.903385], [77.510949, 12.903499], [77.510902, 12.903773], [77.510897, 12.903919], [77.511809, 12.904014], [77.512213, 12.904015], [77.512248, 12.904527], [77.512246, 12.905487], [77.512227, 12.906296], [77.512156, 12.906626], [77.512091, 12.906661], [77.511937, 12.906666], [77.511516, 12.906678], [77.511054, 12.906709], [77.510805, 12.906704], [77.510753, 12.906734], [77.510635, 12.90681], [77.510522, 12.906891], [77.510461, 12.906939], [77.510446, 12.906957], [77.510417, 12.907], [77.510395, 12.907047], [77.510381, 12.907096], [77.510374, 12.907148], [77.510374, 12.907199], [77.510382, 12.90725], [77.510395, 12.907293], [77.51045, 12.907347], [77.510543, 12.907446], [77.51063, 12.907551], [77.51064, 12.907563], [77.510694, 12.907644], [77.510761, 12.907732], [77.510834, 12.907815], [77.510913, 12.907893], [77.510919, 12.907898], [77.510929, 12.907905], [77.510967, 12.907937], [77.510999, 12.907975], [77.511024, 12.908016], [77.511043, 12.908061], [77.511055, 12.908109], [77.511059, 12.908157], [77.511056, 12.908206], [77.511046, 12.90825], [77.511027, 12.90836], [77.510995, 12.908502], [77.510956, 12.908643], [77.51091, 12.908781], [77.510873, 12.908878], [77.510831, 12.908955], [77.510772, 12.909052], [77.510707, 12.909144], [77.510673, 12.909188], [77.510667, 12.909192], [77.510619, 12.909228], [77.510566, 12.909257], [77.51051, 12.909279], [77.510451, 12.909295], [77.510391, 12.909303], [77.51033, 12.909304], [77.510314, 12.909305], [77.510252, 12.909315], [77.510191, 12.909332], [77.510132, 12.909355], [77.510077, 12.909386], [77.510027, 12.909422], [77.509875, 12.909548], [77.509797, 12.909614], [77.50976, 12.90965], [77.509719, 12.909681], [77.509673, 12.909706], [77.509624, 12.909725], [77.509582, 12.909735], [77.509581, 12.909735], [77.509505, 12.909761], [77.509426, 12.90978], [77.509346, 12.909791], [77.509279, 12.909796], [77.509275, 12.909859], [77.509406, 12.910285], [77.509626, 12.910985], [77.509795, 12.911436], [77.509906, 12.911572], [77.510084, 12.911795], [77.510428, 12.912207], [77.51048, 12.912254], [77.510498, 12.912284], [77.51054, 12.912437], [77.510647, 12.912944], [77.510765, 12.913572], [77.510901, 12.914088], [77.510955, 12.914287], [77.511235, 12.914226], [77.511651, 12.914354], [77.511834, 12.914357], [77.512203, 12.914347], [77.513391, 12.914303], [77.513387, 12.91507], [77.513415, 12.916118], [77.512417, 12.916216], [77.512426, 12.916248], [77.512424, 12.9163], [77.512363, 12.916449], [77.5122, 12.917059], [77.512075, 12.917299], [77.511762, 12.917788], [77.511601, 12.918002], [77.511567, 12.91811], [77.511541, 12.9182], [77.511498, 12.918698], [77.51144, 12.91913], [77.511451, 12.919295], [77.511541, 12.919731], [77.511577, 12.919768], [77.511599, 12.91979], [77.511633, 12.919812], [77.511668, 12.919829], [77.511705, 12.91984], [77.511753, 12.919857], [77.511816, 12.91988], [77.511846, 12.91992], [77.511886, 12.920333], [77.511886, 12.920388], [77.511891, 12.920444], [77.511891, 12.92049], [77.511888, 12.920519], [77.511878, 12.920561], [77.511864, 12.920587], [77.511858, 12.920611], [77.511842, 12.920637], [77.5118, 12.920666], [77.511779, 12.920674], [77.511699, 12.920684], [77.511631, 12.92069], [77.511675, 12.921076], [77.511725, 12.921316], [77.511697, 12.921382], [77.511717, 12.921756], [77.511755, 12.921998], [77.511746, 12.922213], [77.511633, 12.92278], [77.511491, 12.923718], [77.511071, 12.923735], [77.510994, 12.923736], [77.510523, 12.923793], [77.510484, 12.923799], [77.510458, 12.92382], [77.51044, 12.923834], [77.510459, 12.923939], [77.510521, 12.924171], [77.510527, 12.924477], [77.510426, 12.924786], [77.510392, 12.924782], [77.510212, 12.924711], [77.507811, 12.924825], [77.505786, 12.925142], [77.505358, 12.925279], [77.505136, 12.925398], [77.505127, 12.925504], [77.505042, 12.925712], [77.504884, 12.925895], [77.504747, 12.926058], [77.504646, 12.92622], [77.504478, 12.926449], [77.504397, 12.926551], [77.504258, 12.926607], [77.503996, 12.926702], [77.503584, 12.927004], [77.503408, 12.927154], [77.502866, 12.927613], [77.502588, 12.927839], [77.502646, 12.927905], [77.502774, 12.928059], [77.502897, 12.928217], [77.503013, 12.92838], [77.503021, 12.928391], [77.503044, 12.92843], [77.503109, 12.928532], [77.503181, 12.928631], [77.503258, 12.928725], [77.503341, 12.928814], [77.50343, 12.928897], [77.503523, 12.928976], [77.503541, 12.92899], [77.5036, 12.929021], [77.503724, 12.929079], [77.50385, 12.929131], [77.50398, 12.929176], [77.504111, 12.929215], [77.504245, 12.929246], [77.504339, 12.929263], [77.504435, 12.929289], [77.504611, 12.929341], [77.504784, 12.929399], [77.504955, 12.929465], [77.505123, 12.929537], [77.505269, 12.929606], [77.505314, 12.929629], [77.505386, 12.929672], [77.505454, 12.92972], [77.505569, 12.929594], [77.506201, 12.929517], [77.506979, 12.929158], [77.507609, 12.929011], [77.508206, 12.929121], [77.508489, 12.929144], [77.508925, 12.929134], [77.509834, 12.929095], [77.509853, 12.928909], [77.510972, 12.928903], [77.510958, 12.929548], [77.510965, 12.929739], [77.510967, 12.92989], [77.510912, 12.930087], [77.510908, 12.930662], [77.510911, 12.931034], [77.510931, 12.931926], [77.510949, 12.932233], [77.510936, 12.93248], [77.510819, 12.932557], [77.510645, 12.932664], [77.510518, 12.932751], [77.510313, 12.932829], [77.510093, 12.932911], [77.50994, 12.933003], [77.50975, 12.93303], [77.509602, 12.933067], [77.509227, 12.933126], [77.50903, 12.933176], [77.509107, 12.933258], [77.509108, 12.933258], [77.509217, 12.933365], [77.509429, 12.933563], [77.509646, 12.933757], [77.509868, 12.933945], [77.510095, 12.934127], [77.510223, 12.934227], [77.510306, 12.934299], [77.51046, 12.934427], [77.510619, 12.93455], [77.510782, 12.934666], [77.51095, 12.934777], [77.511122, 12.934882], [77.511297, 12.93498], [77.511476, 12.935073], [77.511656, 12.935157], [77.512822, 12.935495], [77.513781, 12.935769], [77.513928, 12.93582], [77.51432, 12.935959], [77.514982, 12.936077], [77.51576, 12.936195], [77.516656, 12.936328], [77.517592, 12.936359], [77.518332, 12.936396], [77.519083, 12.936497], [77.519804, 12.936743], [77.520381, 12.93697], [77.52064, 12.937133], [77.521072, 12.937621], [77.52161, 12.938099], [77.522119, 12.938485], [77.522632, 12.938787], [77.522954, 12.939013], [77.523493, 12.939585], [77.524192, 12.940358], [77.524474, 12.940716], [77.524961, 12.941562], [77.52529, 12.942089], [77.525942, 12.943018], [77.526587, 12.943912], [77.526929, 12.944246], [77.527028, 12.944344], [77.527484, 12.944774], [77.527975, 12.945239], [77.528104, 12.94536], [77.528104, 12.945361], [77.52813, 12.945379], [77.528175, 12.945351], [77.528178, 12.945349], [77.528189, 12.945342], [77.528216, 12.945324], [77.528249, 12.945298], [77.528279, 12.945272], [77.528292, 12.945262], [77.528312, 12.945248], [77.528676, 12.945114], [77.528946, 12.944999], [77.528965, 12.944992], [77.529196, 12.944906], [77.529227, 12.944887], [77.529251, 12.944871], [77.529283, 12.944857], [77.5294, 12.944779], [77.529459, 12.94474], [77.529595, 12.944616], [77.529617, 12.944587], [77.529619, 12.944585], [77.529685, 12.944527], [77.529977, 12.944121], [77.530107, 12.943925], [77.53018, 12.943818], [77.530351, 12.943567], [77.530383, 12.94351], [77.530385, 12.943507], [77.530431, 12.943439], [77.530863, 12.942649], [77.530882, 12.942613], [77.530933, 12.942521], [77.53141, 12.941662], [77.53142, 12.941646], [77.531434, 12.94162], [77.531473, 12.941565], [77.53212, 12.94046], [77.53239, 12.940014], [77.53251, 12.939816], [77.532672, 12.939562], [77.532905, 12.939198], [77.532984, 12.939075], [77.533124, 12.938835], [77.533376, 12.938405], [77.533804, 12.937725], [77.533862, 12.937622], [77.53392, 12.937521], [77.534091, 12.93696], [77.534187, 12.936696], [77.534195, 12.936675], [77.534249, 12.9366], [77.534253, 12.936595], [77.534265, 12.936579], [77.534271, 12.936571], [77.534297, 12.936535], [77.534335, 12.936494]]]}}]}