{"type": "FeatureCollection", "features": [{"type": "Feature", "properties": {"region_id": "ward_276600-72", "name": "Herohalli", "parent": "zone_276600-5", "parent_name": "Rajarajeshwari Nagar"}, "geometry": {"type": "Polygon", "coordinates": [[[77.499344, 12.988911], [77.499125, 12.988915], [77.498883, 12.988919], [77.498193, 12.988858], [77.496615, 12.988481], [77.495738, 12.988211], [77.49562, 12.988006], [77.495023, 12.986687], [77.493835, 12.983141], [77.493093, 12.980849], [77.492831, 12.978853], [77.493038, 12.974526], [77.493031, 12.974413], [77.493136, 12.973876], [77.493166, 12.973731], [77.493163, 12.973474], [77.49307, 12.972542], [77.493141, 12.971748], [77.493041, 12.97049], [77.493042, 12.97048], [77.493728, 12.970454], [77.49442, 12.970376], [77.495377, 12.970177], [77.495535, 12.970144], [77.495566, 12.970142], [77.496104, 12.970043], [77.496413, 12.970004], [77.497077, 12.970205], [77.497762, 12.970283], [77.498145, 12.970262], [77.498469, 12.9702], [77.498059, 12.969765], [77.498807, 12.969459], [77.498373, 12.968686], [77.49825, 12.968628], [77.497925, 12.968601], [77.497476, 12.968356], [77.49722, 12.968209], [77.497046, 12.968032], [77.496712, 12.967682], [77.496732, 12.967584], [77.496814, 12.96731], [77.496829, 12.967217], [77.496817, 12.967129], [77.496822, 12.967073], [77.496794, 12.966918], [77.496741, 12.966831], [77.49646, 12.966128], [77.496322, 12.965444], [77.496363, 12.965305], [77.496467, 12.965226], [77.49654, 12.965164], [77.496555, 12.965149], [77.496655, 12.965049], [77.496784, 12.964811], [77.496809, 12.964682], [77.496802, 12.964533], [77.496759, 12.964471], [77.49668, 12.964431], [77.496591, 12.964426], [77.496522, 12.964427], [77.496449, 12.964418], [77.496338, 12.964352], [77.495806, 12.963707], [77.495428, 12.962717], [77.495228, 12.962395], [77.49492, 12.962327], [77.494386, 12.962515], [77.493137, 12.962862], [77.492923, 12.96286], [77.49273, 12.962842], [77.492402, 12.962741], [77.492243, 12.962646], [77.492084, 12.962524], [77.492048, 12.962389], [77.492042, 12.962211], [77.492025, 12.96213], [77.491974, 12.962115], [77.49188, 12.962147], [77.491837, 12.962198], [77.491798, 12.962287], [77.491783, 12.962345], [77.491792, 12.962465], [77.491791, 12.962593], [77.491502, 12.962638], [77.491042, 12.962745], [77.490921, 12.962766], [77.490497, 12.962881], [77.490181, 12.96299], [77.49005, 12.962991], [77.489927, 12.962041], [77.488604, 12.962282], [77.487182, 12.962833], [77.486233, 12.963233], [77.486307, 12.963773], [77.486223, 12.964539], [77.486008, 12.965959], [77.485924, 12.966793], [77.485477, 12.96799], [77.484752, 12.968965], [77.484277, 12.969645], [77.483525, 12.970192], [77.482291, 12.970627], [77.481748, 12.970934], [77.481276, 12.971171], [77.47874, 12.971405], [77.476889, 12.97133], [77.475987, 12.971292], [77.475111, 12.971463], [77.47409, 12.971463], [77.474055, 12.971818], [77.473813, 12.972471], [77.473817, 12.972918], [77.47433, 12.974498], [77.474335, 12.974945], [77.4743, 12.975596], [77.473824, 12.977796], [77.473169, 12.981518], [77.472495, 12.98182], [77.473008, 12.982734], [77.472074, 12.983094], [77.472398, 12.983849], [77.472547, 12.984202], [77.47262, 12.98439], [77.472608, 12.984428], [77.472546, 12.984467], [77.47346, 12.984652], [77.47403, 12.984672], [77.474274, 12.984415], [77.474899, 12.984753], [77.475708, 12.985355], [77.476438, 12.985805], [77.47683, 12.986119], [77.477833, 12.986656], [77.478109, 12.987035], [77.478344, 12.987248], [77.478645, 12.987461], [77.478679, 12.989659], [77.47863, 12.992531], [77.478415, 12.992666], [77.478419, 12.993004], [77.478504, 12.993381], [77.478629, 12.993718], [77.478692, 12.994015], [77.479048, 12.994179], [77.479474, 12.99405], [77.480301, 12.993799], [77.480841, 12.99462], [77.481137, 12.995735], [77.48158, 12.996048], [77.483777, 12.996726], [77.485443, 12.997498], [77.487149, 12.998384], [77.488338, 12.999338], [77.488874, 12.99979], [77.489189, 13.000245], [77.48952, 13.000928], [77.490072, 13.001672], [77.490334, 13.001949], [77.490897, 13.002566], [77.491407, 13.00307], [77.491739, 13.003185], [77.492882, 13.002856], [77.493864, 13.002354], [77.494151, 13.002351], [77.494987, 13.002243], [77.495137, 13.002187], [77.495595, 13.002077], [77.495134, 13.000696], [77.495133, 13.000642], [77.495069, 13.00037], [77.495037, 13.000225], [77.495349, 13.000144], [77.495629, 13.000075], [77.496409, 12.999843], [77.497329, 12.999465], [77.497935, 12.999205], [77.498712, 12.999094], [77.499128, 12.999026], [77.499112, 12.998899], [77.499065, 12.9988], [77.499433, 12.998676], [77.499839, 12.998525], [77.49987, 12.99849], [77.499878, 12.998435], [77.499869, 12.998373], [77.499793, 12.998024], [77.500294, 12.997661], [77.500555, 12.997484], [77.500822, 12.997311], [77.500869, 12.997221], [77.500669, 12.996968], [77.500271, 12.996329], [77.500207, 12.99619], [77.500144, 12.99608], [77.500264, 12.996031], [77.500272, 12.995988], [77.500097, 12.995451], [77.499883, 12.994656], [77.499601, 12.993628], [77.499348, 12.99281], [77.499258, 12.992536], [77.499258, 12.992435], [77.499283, 12.992373], [77.499345, 12.992269], [77.499349, 12.99214], [77.499293, 12.99179], [77.499304, 12.99132], [77.499337, 12.989801], [77.499344, 12.988911]]]}}]}