{"type": "FeatureCollection", "features": [{"type": "Feature", "properties": {"region_id": "ward_276600-166", "name": "Karisandra", "parent": "zone_276600-6", "parent_name": "South"}, "geometry": {"type": "Polygon", "coordinates": [[[77.579611, 12.930829], [77.579661, 12.93083], [77.579672, 12.930179], [77.579662, 12.929193], [77.57967, 12.92825], [77.579672, 12.92719], [77.579689, 12.92626], [77.579704, 12.9252], [77.579742, 12.924149], [77.579742, 12.923427], [77.579699, 12.923431], [77.57965, 12.923437], [77.579029, 12.92347], [77.577262, 12.923488], [77.576126, 12.923512], [77.574813, 12.923535], [77.573601, 12.923555], [77.573573, 12.922207], [77.573569, 12.921115], [77.573565, 12.921037], [77.573972, 12.92098], [77.574167, 12.920935], [77.574222, 12.920914], [77.574344, 12.920851], [77.574369, 12.92083], [77.574394, 12.920805], [77.574406, 12.92071], [77.574395, 12.920499], [77.574385, 12.920395], [77.574362, 12.920201], [77.574288, 12.919896], [77.574181, 12.919544], [77.574054, 12.919128], [77.573773, 12.918408], [77.573684, 12.918204], [77.573617, 12.918006], [77.573614, 12.91773], [77.573649, 12.916916], [77.573098, 12.916744], [77.572553, 12.916597], [77.57176, 12.916571], [77.571278, 12.916593], [77.570794, 12.916479], [77.570387, 12.916365], [77.570081, 12.915919], [77.569992, 12.915667], [77.569646, 12.915543], [77.569467, 12.915706], [77.569079, 12.916555], [77.568775, 12.917184], [77.568667, 12.91754], [77.568655, 12.917837], [77.568658, 12.917892], [77.568657, 12.917957], [77.568669, 12.918023], [77.568676, 12.918089], [77.568699, 12.91815], [77.569152, 12.919458], [77.569735, 12.921611], [77.570218, 12.923587], [77.570481, 12.924657], [77.57053, 12.925331], [77.570047, 12.926092], [77.569699, 12.926343], [77.569536, 12.926451], [77.569771, 12.92648], [77.570696, 12.926457], [77.570807, 12.927721], [77.571033, 12.929204], [77.571137, 12.929811], [77.571456, 12.929778], [77.571696, 12.929743], [77.57202, 12.929678], [77.57281, 12.929559], [77.572997, 12.929529], [77.573261, 12.92947], [77.573407, 12.929438], [77.573494, 12.929411], [77.573559, 12.929388], [77.573603, 12.929364], [77.573664, 12.929531], [77.574011, 12.929454], [77.574581, 12.929312], [77.575047, 12.929244], [77.575262, 12.930304], [77.575525, 12.930307], [77.576355, 12.930347], [77.576323, 12.930586], [77.576182, 12.930904], [77.577013, 12.930888], [77.577836, 12.930861], [77.579026, 12.930841], [77.579611, 12.930829]]]}}]}