{"type": "FeatureCollection", "features": [{"type": "Feature", "properties": {"region_id": "ward_276600-148", "name": "Ejipura", "parent": "zone_276600-6", "parent_name": "South"}, "geometry": {"type": "Polygon", "coordinates": [[[77.627046, 12.949323], [77.627069, 12.949304], [77.627137, 12.949246], [77.627236, 12.949162], [77.627262, 12.949137], [77.627362, 12.949025], [77.627456, 12.948904], [77.627561, 12.948752], [77.627666, 12.948594], [77.627812, 12.948327], [77.62802, 12.94796], [77.628334, 12.947447], [77.628615, 12.946954], [77.62872, 12.946791], [77.62883, 12.946634], [77.629013, 12.946356], [77.6293, 12.945853], [77.629503, 12.945507], [77.629571, 12.94536], [77.630012, 12.944402], [77.630619, 12.943031], [77.630988, 12.942241], [77.631237, 12.941623], [77.631418, 12.941163], [77.63173, 12.940498], [77.632176, 12.939514], [77.632458, 12.939], [77.632848, 12.938199], [77.633077, 12.937749], [77.633191, 12.937539], [77.633275, 12.937434], [77.63338, 12.937308], [77.633622, 12.937055], [77.634196, 12.93657], [77.634417, 12.93638], [77.634586, 12.936248], [77.635253, 12.935559], [77.635607, 12.93524], [77.635674, 12.93518], [77.635748, 12.935122], [77.635786, 12.935067], [77.635786, 12.935034], [77.635782, 12.935006], [77.635742, 12.934985], [77.635391, 12.934913], [77.635143, 12.934869], [77.635008, 12.934831], [77.634572, 12.934664], [77.634476, 12.934607], [77.634418, 12.934573], [77.634256, 12.934374], [77.634134, 12.934197], [77.634075, 12.934065], [77.633917, 12.933762], [77.633813, 12.933538], [77.633692, 12.933164], [77.633576, 12.932655], [77.63351, 12.932323], [77.633425, 12.931897], [77.633396, 12.931719], [77.633396, 12.931692], [77.633402, 12.93166], [77.633431, 12.931622], [77.633614, 12.931423], [77.633872, 12.931192], [77.633972, 12.931089], [77.633999, 12.931047], [77.634022, 12.930983], [77.634036, 12.930915], [77.634036, 12.930865], [77.634035, 12.930818], [77.634017, 12.930777], [77.633917, 12.93067], [77.633883, 12.930609], [77.63364, 12.930166], [77.633491, 12.929842], [77.633252, 12.929792], [77.633109, 12.930093], [77.632971, 12.930901], [77.63275, 12.931346], [77.632173, 12.931989], [77.631253, 12.932819], [77.630532, 12.93362], [77.629639, 12.934514], [77.628732, 12.93533], [77.627853, 12.936262], [77.626924, 12.937294], [77.626596, 12.937689], [77.626425, 12.937932], [77.62631, 12.938153], [77.626122, 12.93839], [77.625946, 12.938683], [77.625782, 12.939036], [77.625629, 12.939388], [77.625416, 12.939829], [77.625334, 12.939967], [77.62524, 12.940094], [77.625102, 12.940244], [77.62472, 12.940626], [77.624072, 12.941258], [77.623912, 12.941424], [77.623463, 12.941862], [77.622527, 12.942705], [77.621779, 12.943393], [77.621119, 12.943953], [77.62097, 12.944081], [77.620865, 12.944186], [77.620687, 12.944331], [77.620482, 12.944481], [77.620182, 12.944698], [77.619755, 12.945015], [77.61929, 12.945332], [77.619111, 12.945455], [77.618744, 12.9457], [77.618672, 12.945772], [77.618628, 12.94586], [77.618606, 12.945893], [77.618596, 12.945953], [77.618602, 12.946008], [77.618625, 12.946082], [77.618848, 12.946521], [77.619337, 12.947432], [77.619366, 12.947487], [77.619367, 12.947489], [77.619442, 12.947629], [77.619501, 12.947739], [77.620015, 12.948706], [77.620203, 12.94906], [77.620672, 12.949944], [77.620743, 12.950079], [77.6209, 12.950332], [77.621109, 12.95075], [77.621205, 12.951012], [77.621355, 12.951391], [77.621455, 12.951604], [77.621504, 12.951688], [77.621658, 12.951623], [77.621851, 12.951542], [77.622213, 12.951389], [77.622343, 12.951335], [77.622445, 12.951285], [77.62272, 12.95115], [77.62286, 12.951081], [77.623142, 12.950942], [77.623275, 12.950877], [77.623301, 12.950864], [77.623312, 12.950858], [77.623368, 12.950827], [77.623393, 12.950817], [77.623465, 12.950789], [77.623468, 12.950788], [77.623613, 12.950753], [77.623631, 12.950748], [77.624046, 12.95066], [77.624417, 12.950582], [77.624758, 12.950509], [77.624961, 12.950465], [77.625435, 12.950363], [77.625464, 12.950357], [77.625474, 12.950355], [77.625505, 12.950345], [77.625649, 12.950308], [77.625764, 12.950262], [77.625803, 12.950249], [77.62581, 12.950247], [77.625837, 12.950233], [77.626029, 12.950129], [77.626174, 12.950022], [77.62629, 12.949934], [77.626367, 12.949873], [77.626484, 12.949779], [77.626585, 12.949697], [77.626661, 12.949637], [77.626726, 12.949585], [77.626867, 12.949473], [77.626938, 12.949414], [77.626991, 12.94937], [77.627046, 12.949323]]]}}]}