{"type": "FeatureCollection", "features": [{"type": "Feature", "properties": {"region_id": "ward_276600-67", "name": "Nagapura", "parent": "zone_276600-7", "parent_name": "West"}, "geometry": {"type": "Polygon", "coordinates": [[[77.553221, 13.001863], [77.553193, 13.001676], [77.553113, 13.001241], [77.553007, 13.000946], [77.552848, 13.000498], [77.552802, 13.00025], [77.552697, 12.999671], [77.552683, 12.999599], [77.552687, 12.999542], [77.552698, 12.999346], [77.552778, 12.999106], [77.553022, 12.998388], [77.553055, 12.998286], [77.553057, 12.998266], [77.553061, 12.998263], [77.553086, 12.998201], [77.553009, 12.998184], [77.553003, 12.998182], [77.552555, 12.99809], [77.552463, 12.998071], [77.551913, 12.997957], [77.551781, 12.99793], [77.551265, 12.997823], [77.550482, 12.997651], [77.55048, 12.997651], [77.550442, 12.997642], [77.550385, 12.997637], [77.550187, 12.99762], [77.549509, 12.997566], [77.548352, 12.99751], [77.546891, 12.997429], [77.546866, 12.997427], [77.546841, 12.997427], [77.546225, 12.997421], [77.545685, 12.997451], [77.545416, 12.997454], [77.545366, 12.997454], [77.545281, 12.997455], [77.545137, 12.997488], [77.545113, 12.997493], [77.545057, 12.997506], [77.545017, 12.997516], [77.544997, 12.997521], [77.544877, 12.99755], [77.544737, 12.997605], [77.544673, 12.997629], [77.543515, 12.998076], [77.543143, 12.998223], [77.543114, 12.998235], [77.542791, 12.998363], [77.542673, 12.998432], [77.542611, 12.998467], [77.542599, 12.998474], [77.542358, 12.998612], [77.542278, 12.998658], [77.542128, 12.998746], [77.541808, 12.998934], [77.541111, 12.999343], [77.541126, 13.00035], [77.540892, 13.001308], [77.540642, 13.002337], [77.540658, 13.002373], [77.540669, 13.002418], [77.540672, 13.002434], [77.54068, 13.002474], [77.540752, 13.003032], [77.540836, 13.003628], [77.540893, 13.004215], [77.54098, 13.00491], [77.541054, 13.005544], [77.541113, 13.00609], [77.541236, 13.006083], [77.54142, 13.006047], [77.541747, 13.005966], [77.541997, 13.005866], [77.542175, 13.005796], [77.542319, 13.005705], [77.542418, 13.005605], [77.542481, 13.005538], [77.542511, 13.005585], [77.542693, 13.005864], [77.542823, 13.006171], [77.543147, 13.006955], [77.543373, 13.007656], [77.542961, 13.007768], [77.543027, 13.008304], [77.543143, 13.008618], [77.543302, 13.008629], [77.543692, 13.008555], [77.544169, 13.008464], [77.545666, 13.008203], [77.546754, 13.008], [77.546957, 13.008907], [77.54727, 13.010557], [77.549002, 13.010173], [77.549495, 13.010055], [77.549565, 13.010133], [77.550123, 13.010752], [77.55053, 13.01117], [77.550665, 13.01127], [77.551499, 13.011683], [77.552817, 13.012335], [77.553488, 13.012663], [77.553654, 13.012731], [77.554029, 13.013567], [77.554042, 13.014026], [77.554056, 13.013966], [77.554078, 13.013868], [77.554242, 13.013472], [77.554383, 13.013131], [77.554444, 13.012717], [77.554446, 13.012646], [77.554436, 13.012157], [77.554434, 13.011975], [77.554423, 13.011192], [77.554441, 13.010314], [77.554445, 13.010027], [77.554433, 13.008857], [77.554429, 13.008561], [77.554433, 13.008313], [77.554433, 13.008299], [77.55444, 13.007719], [77.554397, 13.007069], [77.554395, 13.007044], [77.554383, 13.006977], [77.554368, 13.006886], [77.554356, 13.006819], [77.554315, 13.006582], [77.554261, 13.006302], [77.554195, 13.005963], [77.554046, 13.005215], [77.553861, 13.004606], [77.553763, 13.004283], [77.553749, 13.00423], [77.553708, 13.0041], [77.553575, 13.003676], [77.553395, 13.002885], [77.553363, 13.002702], [77.55336, 13.002685], [77.55328, 13.002344], [77.553244, 13.002092], [77.55321, 13.001864], [77.553221, 13.001863]]]}}]}