{"type": "FeatureCollection", "features": [{"type": "Feature", "properties": {"region_id": "ward_276600-65", "name": "Kadu Malleshwar Ward", "parent": "zone_276600-7", "parent_name": "West"}, "geometry": {"type": "Polygon", "coordinates": [[[77.57883, 13.006344], [77.57882, 13.006297], [77.578729, 13.006081], [77.578638, 13.005842], [77.578621, 13.00572], [77.578604, 13.005622], [77.578569, 13.004582], [77.57855, 13.00372], [77.576831, 13.003736], [77.576821, 13.002776], [77.574416, 13.002809], [77.573116, 13.002841], [77.572208, 13.002871], [77.572189, 13.003278], [77.572186, 13.003317], [77.57218, 13.003338], [77.572165, 13.003353], [77.572108, 13.003387], [77.572065, 13.003396], [77.571973, 13.003391], [77.57173, 13.00337], [77.571486, 13.00336], [77.571355, 13.003349], [77.571292, 13.00335], [77.571319, 13.002114], [77.57136, 12.999415], [77.571402, 12.997333], [77.571396, 12.996833], [77.570133, 12.996766], [77.569184, 12.996775], [77.568641, 12.996781], [77.568546, 12.996782], [77.568085, 12.996786], [77.567448, 12.996819], [77.567197, 12.996843], [77.567144, 12.996848], [77.566944, 12.996873], [77.566749, 12.996869], [77.56656, 12.996837], [77.5664, 12.996783], [77.566213, 12.996708], [77.566161, 12.996685], [77.565943, 12.996829], [77.565349, 12.997575], [77.564945, 12.998094], [77.564434, 12.998776], [77.564268, 12.998752], [77.564083, 12.998177], [77.563438, 12.998272], [77.562269, 12.99844], [77.561624, 12.99854], [77.56098, 12.998666], [77.56091, 12.998779], [77.56047, 12.998865], [77.560061, 12.998945], [77.560367, 13.000064], [77.560514, 13.000544], [77.560866, 13.001794], [77.56122, 13.00323], [77.561408, 13.003949], [77.561441, 13.003984], [77.56136, 13.004158], [77.561251, 13.004395], [77.561188, 13.004598], [77.561056, 13.004887], [77.560931, 13.005233], [77.56084, 13.005556], [77.560739, 13.005811], [77.560942, 13.005829], [77.561686, 13.005848], [77.561835, 13.005839], [77.562385, 13.005816], [77.562391, 13.005726], [77.563052, 13.0057], [77.563812, 13.005687], [77.564322, 13.005665], [77.565143, 13.005641], [77.566743, 13.005577], [77.568185, 13.005508], [77.569254, 13.005468], [77.569238, 13.005508], [77.570743, 13.005454], [77.572141, 13.005401], [77.573602, 13.005399], [77.573581, 13.00632], [77.573081, 13.00634], [77.573045, 13.007015], [77.572895, 13.007159], [77.572476, 13.007479], [77.572259, 13.007702], [77.572191, 13.007771], [77.572081, 13.007848], [77.572006, 13.00793], [77.57192, 13.007984], [77.571825, 13.008032], [77.57177, 13.008057], [77.57166, 13.008081], [77.571609, 13.008105], [77.571591, 13.008379], [77.571704, 13.008377], [77.571729, 13.008378], [77.572421, 13.007919], [77.573095, 13.00767], [77.573938, 13.007609], [77.574662, 13.007694], [77.57534, 13.007792], [77.575842, 13.00778], [77.576277, 13.007737], [77.57687, 13.007455], [77.577496, 13.007061], [77.578189, 13.006713], [77.578635, 13.006439], [77.57883, 13.006344]]]}}]}