{"type": "FeatureCollection", "features": [{"type": "Feature", "properties": {"region_id": "ward_276600-15", "name": "T Dasarahalli", "parent": "zone_276600-2", "parent_name": "Dasarahalli"}, "geometry": {"type": "Polygon", "coordinates": [[[77.518594, 13.048425], [77.519229, 13.047955], [77.520452, 13.047095], [77.521899, 13.046078], [77.522199, 13.045889], [77.522141, 13.045799], [77.521498, 13.044786], [77.5209, 13.043869], [77.520329, 13.043038], [77.519844, 13.042259], [77.519302, 13.041454], [77.518737, 13.040595], [77.518385, 13.039937], [77.518026, 13.040203], [77.517254, 13.040991], [77.516833, 13.041421], [77.516803, 13.041448], [77.516348, 13.041772], [77.51592, 13.041944], [77.515102, 13.042231], [77.513588, 13.042728], [77.512237, 13.04318], [77.511454, 13.043433], [77.511022, 13.043661], [77.510349, 13.044007], [77.509865, 13.044244], [77.508978, 13.044687], [77.508244, 13.045013], [77.507466, 13.04527], [77.507343, 13.045301], [77.507309, 13.045321], [77.507363, 13.045529], [77.507472, 13.045769], [77.507762, 13.046498], [77.508044, 13.047031], [77.508092, 13.047208], [77.508093, 13.047321], [77.508081, 13.047444], [77.507985, 13.047917], [77.507844, 13.048581], [77.507742, 13.04899], [77.507699, 13.04938], [77.507739, 13.049799], [77.507802, 13.05057], [77.508285, 13.050452], [77.508866, 13.050338], [77.508767, 13.049423], [77.509062, 13.049384], [77.509912, 13.049151], [77.510406, 13.049048], [77.510376, 13.048859], [77.510806, 13.048792], [77.5112, 13.048735], [77.511599, 13.04866], [77.511813, 13.048621], [77.512497, 13.048318], [77.513446, 13.047967], [77.513857, 13.04781], [77.514483, 13.047611], [77.514225, 13.047061], [77.514239, 13.047058], [77.514155, 13.046791], [77.515001, 13.04654], [77.515236, 13.046882], [77.515314, 13.046957], [77.515543, 13.046981], [77.515663, 13.046993], [77.516094, 13.046989], [77.516775, 13.047333], [77.517073, 13.047446], [77.517201, 13.047358], [77.517334, 13.047533], [77.517336, 13.047534], [77.517744, 13.04797], [77.518314, 13.048632], [77.518594, 13.048425]]]}}]}