{"type": "FeatureCollection", "features": [{"type": "Feature", "properties": {"region_id": "ward_276600-135", "name": "Padarayanapura", "parent": "zone_276600-7", "parent_name": "West"}, "geometry": {"type": "Polygon", "coordinates": [[[77.555291, 12.964458], [77.555094, 12.964362], [77.554954, 12.964304], [77.554818, 12.964254], [77.554648, 12.964219], [77.554512, 12.964227], [77.554328, 12.96424], [77.554087, 12.964298], [77.553847, 12.964341], [77.553644, 12.964365], [77.553407, 12.964382], [77.553196, 12.964395], [77.552782, 12.964447], [77.552545, 12.964461], [77.552225, 12.964464], [77.55201, 12.964466], [77.551788, 12.964468], [77.551629, 12.964444], [77.55152, 12.964408], [77.551409, 12.964309], [77.551322, 12.964188], [77.551234, 12.964126], [77.551137, 12.964063], [77.551093, 12.96394], [77.550992, 12.963662], [77.550592, 12.962217], [77.550549, 12.962127], [77.549866, 12.962274], [77.549743, 12.962382], [77.549592, 12.962056], [77.549244, 12.962243], [77.549074, 12.961942], [77.548703, 12.960863], [77.547805, 12.960935], [77.54666, 12.961163], [77.546343, 12.961226], [77.545741, 12.961411], [77.545584, 12.961654], [77.54532, 12.962081], [77.545183, 12.962255], [77.545257, 12.962298], [77.545357, 12.962343], [77.545442, 12.962399], [77.545503, 12.962463], [77.545553, 12.962524], [77.545572, 12.962588], [77.54557, 12.962642], [77.545558, 12.962686], [77.545513, 12.962723], [77.545427, 12.962785], [77.545268, 12.962874], [77.545111, 12.962938], [77.544973, 12.962996], [77.544845, 12.963053], [77.544735, 12.963119], [77.544637, 12.963212], [77.544569, 12.96328], [77.544488, 12.963366], [77.544412, 12.963312], [77.543816, 12.964026], [77.543876, 12.964064], [77.543956, 12.964117], [77.544215, 12.964241], [77.544463, 12.964323], [77.544732, 12.964381], [77.544971, 12.964384], [77.545315, 12.964362], [77.545638, 12.964345], [77.545967, 12.964345], [77.546159, 12.964359], [77.54637, 12.964404], [77.546628, 12.964475], [77.547022, 12.964609], [77.547514, 12.964764], [77.548024, 12.964937], [77.548257, 12.96504], [77.548466, 12.965164], [77.548683, 12.965316], [77.548997, 12.965552], [77.549415, 12.965856], [77.549757, 12.966133], [77.550006, 12.966359], [77.550056, 12.966414], [77.550356, 12.966317], [77.55072, 12.966221], [77.550763, 12.96656], [77.551682, 12.966324], [77.551502, 12.965836], [77.551975, 12.965655], [77.553269, 12.965277], [77.554523, 12.964836], [77.555127, 12.964629], [77.555249, 12.964547], [77.55526, 12.96454], [77.555291, 12.964458]]]}}]}