{"type": "FeatureCollection", "features": [{"type": "Feature", "properties": {"region_id": "ward_276600-2", "name": "Chowdeswari Ward", "parent": "zone_276600-8", "parent_name": "Yelahanka"}, "geometry": {"type": "Polygon", "coordinates": [[[77.592294, 13.097196], [77.590945, 13.098422], [77.58908, 13.100057], [77.587331, 13.101375], [77.58712, 13.101557], [77.586904, 13.101727], [77.586514, 13.102033], [77.585911, 13.102505], [77.585065, 13.103173], [77.584105, 13.104024], [77.583197, 13.1049], [77.582526, 13.105613], [77.581835, 13.10642], [77.581297, 13.107069], [77.581082, 13.107362], [77.580989, 13.107561], [77.580686, 13.107877], [77.580023, 13.108276], [77.579245, 13.108733], [77.578716, 13.109149], [77.578021, 13.108352], [77.577304, 13.107331], [77.577297, 13.107305], [77.576726, 13.107552], [77.57625, 13.107727], [77.575729, 13.107839], [77.575035, 13.107952], [77.574061, 13.108345], [77.57352, 13.108521], [77.57326, 13.107928], [77.572677, 13.108107], [77.572257, 13.108055], [77.572349, 13.109587], [77.572638, 13.111641], [77.572711, 13.113154], [77.572592, 13.114633], [77.572178, 13.116936], [77.572199, 13.118974], [77.572021, 13.120229], [77.572022, 13.122136], [77.571769, 13.123447], [77.571749, 13.125223], [77.571928, 13.125913], [77.570637, 13.126543], [77.56862, 13.127049], [77.567825, 13.127196], [77.567897, 13.128249], [77.567996, 13.129334], [77.568132, 13.130615], [77.568257, 13.131435], [77.568392, 13.133192], [77.568591, 13.134377], [77.568906, 13.136276], [77.568991, 13.136416], [77.569601, 13.137427], [77.571189, 13.140059], [77.571667, 13.14057], [77.572557, 13.141666], [77.57251, 13.142816], [77.575772, 13.143509], [77.575838, 13.143495], [77.576203, 13.143579], [77.576577, 13.143663], [77.576771, 13.143666], [77.576951, 13.143664], [77.577073, 13.143654], [77.577428, 13.143627], [77.578048, 13.143665], [77.578426, 13.143659], [77.57947, 13.14358], [77.579496, 13.143556], [77.58006, 13.143476], [77.580916, 13.142593], [77.581117, 13.14232], [77.581408, 13.141804], [77.581413, 13.141752], [77.58182, 13.141273], [77.582124, 13.14066], [77.582445, 13.139745], [77.582476, 13.139664], [77.582555, 13.139348], [77.582658, 13.139036], [77.582791, 13.138527], [77.58282, 13.138464], [77.58287, 13.138143], [77.582916, 13.137459], [77.582962, 13.136798], [77.582973, 13.136622], [77.583082, 13.136341], [77.583146, 13.1354], [77.58325, 13.134811], [77.5851, 13.131631], [77.586617, 13.130821], [77.587885, 13.130298], [77.588318, 13.129272], [77.588065, 13.127175], [77.587779, 13.126668], [77.587782, 13.125667], [77.587944, 13.123785], [77.587922, 13.121702], [77.587445, 13.12069], [77.586816, 13.120061], [77.586291, 13.119768], [77.586317, 13.119563], [77.586437, 13.11851], [77.586544, 13.117706], [77.586665, 13.116766], [77.586779, 13.115873], [77.5869, 13.114976], [77.586982, 13.114446], [77.587058, 13.11411], [77.587247, 13.113555], [77.587426, 13.113148], [77.587847, 13.112389], [77.588238, 13.111746], [77.588331, 13.111574], [77.588339, 13.111558], [77.588351, 13.111558], [77.588344, 13.11155], [77.588521, 13.111223], [77.589463, 13.111551], [77.58972, 13.110989], [77.590465, 13.111115], [77.590429, 13.111485], [77.589567, 13.112102], [77.589709, 13.112742], [77.590491, 13.112552], [77.590658, 13.112339], [77.590628, 13.112087], [77.590649, 13.111944], [77.590749, 13.111844], [77.590928, 13.111776], [77.591127, 13.111803], [77.591774, 13.111256], [77.592592, 13.110712], [77.593386, 13.110019], [77.593773, 13.109324], [77.594184, 13.108712], [77.594617, 13.108094], [77.594809, 13.107572], [77.595099, 13.10721], [77.595306, 13.106583], [77.595357, 13.106003], [77.595334, 13.105485], [77.595327, 13.105329], [77.595488, 13.105051], [77.595494, 13.105045], [77.595974, 13.104675], [77.59601, 13.104539], [77.596088, 13.104238], [77.596289, 13.104191], [77.596728, 13.104175], [77.597031, 13.104052], [77.597234, 13.103656], [77.596843, 13.103564], [77.596488, 13.103448], [77.595781, 13.103456], [77.59544, 13.103483], [77.595052, 13.103654], [77.594722, 13.103657], [77.594708, 13.103407], [77.594741, 13.103131], [77.594738, 13.102821], [77.594699, 13.102606], [77.594611, 13.10238], [77.594245, 13.102336], [77.593572, 13.102079], [77.592826, 13.101916], [77.593598, 13.10024], [77.59301, 13.09884], [77.592294, 13.097196]]]}}]}