{"type": "FeatureCollection", "features": [{"type": "Feature", "properties": {"region_id": "ward_276600-171", "name": "Gurappanapalya", "parent": "zone_276600-6", "parent_name": "South"}, "geometry": {"type": "Polygon", "coordinates": [[[77.608567, 12.924868], [77.608764, 12.923835], [77.608775, 12.92374], [77.608706, 12.923681], [77.608601, 12.923666], [77.608532, 12.923643], [77.608567, 12.923548], [77.608662, 12.923341], [77.608757, 12.923209], [77.608817, 12.923118], [77.608856, 12.922935], [77.608903, 12.922792], [77.608905, 12.922602], [77.608903, 12.922423], [77.608878, 12.92234], [77.608837, 12.922278], [77.608771, 12.922159], [77.608709, 12.922057], [77.608699, 12.921867], [77.608676, 12.921629], [77.608667, 12.921515], [77.608625, 12.921313], [77.60851, 12.921128], [77.608414, 12.920887], [77.608245, 12.920501], [77.608083, 12.920134], [77.608029, 12.919964], [77.608101, 12.919932], [77.608141, 12.919896], [77.608129, 12.919832], [77.608087, 12.919718], [77.607912, 12.919181], [77.607727, 12.918525], [77.607596, 12.917944], [77.607433, 12.917355], [77.607265, 12.916731], [77.607278, 12.916591], [77.607237, 12.916592], [77.606979, 12.916598], [77.605319, 12.916637], [77.605346, 12.917055], [77.605362, 12.91741], [77.605401, 12.917846], [77.605404, 12.918087], [77.605394, 12.918248], [77.605327, 12.918558], [77.605227, 12.919064], [77.605149, 12.919444], [77.605126, 12.919586], [77.6048, 12.919513], [77.604723, 12.920127], [77.604671, 12.920407], [77.604691, 12.920506], [77.604751, 12.920572], [77.604566, 12.920792], [77.6043, 12.921047], [77.604172, 12.921117], [77.60401, 12.921291], [77.603917, 12.921407], [77.603777, 12.921443], [77.603368, 12.921458], [77.602783, 12.921441], [77.602514, 12.921432], [77.602419, 12.921364], [77.602372, 12.921285], [77.602359, 12.92117], [77.602299, 12.921067], [77.602018, 12.921024], [77.601561, 12.920983], [77.601187, 12.920952], [77.600847, 12.920944], [77.600154, 12.920915], [77.600186, 12.921396], [77.600245, 12.922862], [77.60034, 12.924689], [77.600356, 12.924823], [77.600492, 12.926625], [77.600827, 12.926629], [77.600959, 12.926633], [77.601028, 12.926663], [77.601107, 12.926735], [77.601187, 12.926822], [77.601261, 12.926888], [77.60141, 12.926969], [77.601712, 12.927152], [77.602141, 12.927416], [77.602971, 12.927842], [77.603283, 12.927988], [77.603389, 12.928013], [77.603542, 12.928043], [77.603848, 12.928076], [77.604184, 12.928083], [77.604548, 12.928074], [77.604669, 12.928067], [77.604761, 12.928053], [77.604939, 12.928035], [77.604924, 12.927968], [77.604857, 12.927768], [77.604774, 12.927424], [77.604418, 12.927536], [77.604374, 12.927425], [77.604541, 12.927379], [77.604538, 12.927281], [77.604765, 12.927221], [77.604752, 12.927132], [77.604628, 12.926705], [77.6046, 12.926645], [77.604523, 12.926448], [77.60449, 12.926323], [77.604593, 12.926253], [77.604864, 12.926099], [77.605038, 12.926006], [77.605007, 12.925912], [77.604879, 12.925183], [77.604973, 12.925179], [77.605148, 12.925189], [77.605288, 12.925205], [77.605434, 12.925246], [77.605609, 12.925293], [77.605779, 12.925323], [77.605838, 12.925362], [77.605929, 12.925424], [77.605991, 12.925498], [77.606047, 12.925572], [77.606117, 12.925629], [77.606191, 12.925654], [77.606275, 12.925656], [77.606377, 12.925646], [77.606508, 12.925622], [77.606677, 12.925574], [77.606737, 12.925558], [77.606845, 12.925527], [77.606947, 12.925489], [77.606988, 12.92546], [77.607007, 12.925414], [77.606998, 12.925359], [77.606991, 12.925299], [77.606982, 12.925191], [77.606981, 12.925128], [77.60698, 12.925051], [77.607129, 12.925024], [77.607391, 12.924967], [77.607635, 12.924921], [77.607824, 12.924891], [77.607967, 12.924866], [77.608139, 12.924842], [77.608212, 12.924844], [77.608358, 12.924827], [77.608567, 12.924868]]]}}]}