{"type": "FeatureCollection", "features": [{"type": "Feature", "properties": {"region_id": "ward_276600-24", "name": "HBR Layout", "parent": "zone_276600-3", "parent_name": "East"}, "geometry": {"type": "Polygon", "coordinates": [[[77.636681, 13.042511], [77.636806, 13.042604], [77.636983, 13.042702], [77.637159, 13.042782], [77.637401, 13.042874], [77.637439, 13.042913], [77.637622, 13.043054], [77.637831, 13.04316], [77.638102, 13.043253], [77.638479, 13.043318], [77.638807, 13.04335], [77.639059, 13.043347], [77.639328, 13.043318], [77.63954, 13.043251], [77.639787, 13.043179], [77.639959, 13.043117], [77.640338, 13.043026], [77.640603, 13.042924], [77.640775, 13.042861], [77.640863, 13.042817], [77.641065, 13.042737], [77.641193, 13.042679], [77.641312, 13.042639], [77.641382, 13.042556], [77.641443, 13.042477], [77.641482, 13.042412], [77.641526, 13.042363], [77.641596, 13.042311], [77.641666, 13.042262], [77.641715, 13.042231], [77.641779, 13.042186], [77.641725, 13.042005], [77.64158, 13.041744], [77.641496, 13.041632], [77.641434, 13.041482], [77.64143, 13.041456], [77.641428, 13.041446], [77.641408, 13.041324], [77.641393, 13.04108], [77.641404, 13.040988], [77.641427, 13.040778], [77.641441, 13.040652], [77.641472, 13.040253], [77.641477, 13.04019], [77.641469, 13.039886], [77.641475, 13.039609], [77.641526, 13.039557], [77.641667, 13.039508], [77.641697, 13.039487], [77.641863, 13.039368], [77.641875, 13.03936], [77.64189, 13.03934], [77.642018, 13.039173], [77.642118, 13.039116], [77.642166, 13.039089], [77.642335, 13.039039], [77.642649, 13.039016], [77.642954, 13.038982], [77.643031, 13.038973], [77.643091, 13.038972], [77.64341, 13.038969], [77.643624, 13.038979], [77.643752, 13.038985], [77.643797, 13.039], [77.643882, 13.03903], [77.643864, 13.038791], [77.643858, 13.038653], [77.643865, 13.038518], [77.643899, 13.038405], [77.644001, 13.038227], [77.64402, 13.038178], [77.644056, 13.038059], [77.644142, 13.037589], [77.644148, 13.037551], [77.64415, 13.037538], [77.644181, 13.037336], [77.644181, 13.037265], [77.64418, 13.037209], [77.644179, 13.037161], [77.644179, 13.037124], [77.644179, 13.037075], [77.644178, 13.037001], [77.644207, 13.036881], [77.644258, 13.036706], [77.644269, 13.036672], [77.644299, 13.03662], [77.644321, 13.03656], [77.644347, 13.036513], [77.644358, 13.036493], [77.644365, 13.036444], [77.64438, 13.036348], [77.644409, 13.036273], [77.644446, 13.036213], [77.644491, 13.036172], [77.644676, 13.036065], [77.644899, 13.035957], [77.644957, 13.035912], [77.64497, 13.035846], [77.644377, 13.035852], [77.643236, 13.035928], [77.643205, 13.035754], [77.643152, 13.035403], [77.643176, 13.035121], [77.643216, 13.034684], [77.643248, 13.03416], [77.64325, 13.034154], [77.643268, 13.034084], [77.643268, 13.034075], [77.643268, 13.034067], [77.64326, 13.034064], [77.643241, 13.034063], [77.643198, 13.034063], [77.643099, 13.034061], [77.642549, 13.034052], [77.642376, 13.03403], [77.642303, 13.034001], [77.642185, 13.033997], [77.642173, 13.033997], [77.642056, 13.034038], [77.642017, 13.034052], [77.641716, 13.034144], [77.64171, 13.034145], [77.641694, 13.03415], [77.641279, 13.034284], [77.641146, 13.034344], [77.641105, 13.034363], [77.641077, 13.034363], [77.641047, 13.03434], [77.641039, 13.034328], [77.641017, 13.034293], [77.641001, 13.034266], [77.6409, 13.034055], [77.640873, 13.033992], [77.640806, 13.033836], [77.640676, 13.033591], [77.640572, 13.033474], [77.640411, 13.03333], [77.640264, 13.033148], [77.640141, 13.032954], [77.640111, 13.032919], [77.640064, 13.032866], [77.639876, 13.032631], [77.63986, 13.0326], [77.639813, 13.032504], [77.639696, 13.032198], [77.639694, 13.032194], [77.639619, 13.031961], [77.639616, 13.031955], [77.639615, 13.031952], [77.639559, 13.031853], [77.639459, 13.031675], [77.639449, 13.031661], [77.639306, 13.031454], [77.638827, 13.031009], [77.638519, 13.03073], [77.638329, 13.030525], [77.638056, 13.030254], [77.637959, 13.030135], [77.637914, 13.030045], [77.6379, 13.030002], [77.637897, 13.029993], [77.637767, 13.029668], [77.637633, 13.029225], [77.637563, 13.028706], [77.637506, 13.028238], [77.637429, 13.027985], [77.637036, 13.027885], [77.636595, 13.027816], [77.636353, 13.027812], [77.636188, 13.027836], [77.636138, 13.027843], [77.635833, 13.027924], [77.635614, 13.028016], [77.63521, 13.028186], [77.635138, 13.028216], [77.63486, 13.02833], [77.634555, 13.028406], [77.634387, 13.028446], [77.634273, 13.028473], [77.633807, 13.028585], [77.633667, 13.02863], [77.633615, 13.028647], [77.633482, 13.028715], [77.633458, 13.028688], [77.633196, 13.028382], [77.633086, 13.028254], [77.633013, 13.028169], [77.632954, 13.028087], [77.632766, 13.027829], [77.632729, 13.02777], [77.632725, 13.027764], [77.632737, 13.027759], [77.632653, 13.027632], [77.632605, 13.0276], [77.63247, 13.027448], [77.632308, 13.027219], [77.631976, 13.026615], [77.631965, 13.026584], [77.631844, 13.026257], [77.631553, 13.02551], [77.631548, 13.025491], [77.631469, 13.025286], [77.631308, 13.024739], [77.631358, 13.024717], [77.631354, 13.024701], [77.6312, 13.024112], [77.631177, 13.024024], [77.63105, 13.023407], [77.630932, 13.023052], [77.630738, 13.022698], [77.630737, 13.022688], [77.630686, 13.022568], [77.630558, 13.02244], [77.630429, 13.022357], [77.630192, 13.022252], [77.630073, 13.022169], [77.629962, 13.022058], [77.629939, 13.022036], [77.629916, 13.021961], [77.629887, 13.021841], [77.629846, 13.021355], [77.629879, 13.020891], [77.629392, 13.021026], [77.628941, 13.021048], [77.628597, 13.020981], [77.628595, 13.020715], [77.628463, 13.020239], [77.628325, 13.019073], [77.628116, 13.018103], [77.627867, 13.016726], [77.627768, 13.015842], [77.627686, 13.015602], [77.627484, 13.015065], [77.627324, 13.014839], [77.627053, 13.014464], [77.626924, 13.014268], [77.626828, 13.014141], [77.626278, 13.013282], [77.626149, 13.013075], [77.625833, 13.012566], [77.625644, 13.012624], [77.625012, 13.012868], [77.625193, 13.013318], [77.624876, 13.013462], [77.624638, 13.013603], [77.624378, 13.013777], [77.624248, 13.013896], [77.624053, 13.013983], [77.623803, 13.014103], [77.623456, 13.014181], [77.623151, 13.01427], [77.622629, 13.014382], [77.62198, 13.014477], [77.62214, 13.014821], [77.622454, 13.015527], [77.622779, 13.016251], [77.623119, 13.017132], [77.623326, 13.018095], [77.623442, 13.01918], [77.623457, 13.01971], [77.62341, 13.020532], [77.623342, 13.020969], [77.623284, 13.02134], [77.623279, 13.021373], [77.623092, 13.022233], [77.622775, 13.023004], [77.622282, 13.023976], [77.621853, 13.024775], [77.621513, 13.025253], [77.621061, 13.02566], [77.620617, 13.025947], [77.619994, 13.026219], [77.620038, 13.026359], [77.620341, 13.027305], [77.620625, 13.02822], [77.620753, 13.029539], [77.620946, 13.030177], [77.621127, 13.030524], [77.621319, 13.030921], [77.621678, 13.031763], [77.621844, 13.032121], [77.622119, 13.032708], [77.622353, 13.033321], [77.6228, 13.034586], [77.622449, 13.034698], [77.622208, 13.034778], [77.622052, 13.034839], [77.622015, 13.034756], [77.621635, 13.034872], [77.621082, 13.035068], [77.620757, 13.035166], [77.620885, 13.035295], [77.620966, 13.035361], [77.620834, 13.035472], [77.620606, 13.035179], [77.620569, 13.035131], [77.620404, 13.034915], [77.620263, 13.034738], [77.620068, 13.034628], [77.61991, 13.034517], [77.619819, 13.034482], [77.61962, 13.034484], [77.619529, 13.034485], [77.619472, 13.034522], [77.619626, 13.034798], [77.61978, 13.035184], [77.619823, 13.035665], [77.619825, 13.037624], [77.62122, 13.037591], [77.621371, 13.038734], [77.621446, 13.039303], [77.621596, 13.039265], [77.621713, 13.039245], [77.621823, 13.039244], [77.621835, 13.038609], [77.622036, 13.038565], [77.622328, 13.038556], [77.622511, 13.038525], [77.62249, 13.038346], [77.623112, 13.038357], [77.623483, 13.038348], [77.623539, 13.038413], [77.623596, 13.038633], [77.62364, 13.038782], [77.623641, 13.038901], [77.623698, 13.03905], [77.623847, 13.039323], [77.623977, 13.039537], [77.623969, 13.039599], [77.624253, 13.040327], [77.624784, 13.041734], [77.624792, 13.041756], [77.625413, 13.042995], [77.625809, 13.043533], [77.626085, 13.043908], [77.626784, 13.044741], [77.62681, 13.044768], [77.627416, 13.045419], [77.627483, 13.045491], [77.627549, 13.045521], [77.62761, 13.045436], [77.627799, 13.045263], [77.627891, 13.045059], [77.627925, 13.044983], [77.627978, 13.044824], [77.627971, 13.04469], [77.62797, 13.044678], [77.627982, 13.044608], [77.628049, 13.044452], [77.628138, 13.044369], [77.628146, 13.044365], [77.628189, 13.044346], [77.628264, 13.044313], [77.628364, 13.044293], [77.628442, 13.044283], [77.628491, 13.044269], [77.628513, 13.044263], [77.628534, 13.044243], [77.628654, 13.044129], [77.628676, 13.044103], [77.628697, 13.044067], [77.628704, 13.044055], [77.628704, 13.044046], [77.628704, 13.043985], [77.6287, 13.043928], [77.628648, 13.043878], [77.628491, 13.043778], [77.628358, 13.043672], [77.628289, 13.043596], [77.628239, 13.043541], [77.628222, 13.043523], [77.628111, 13.043338], [77.628107, 13.043262], [77.628117, 13.043211], [77.628161, 13.043179], [77.628248, 13.043146], [77.628405, 13.043065], [77.628448, 13.043043], [77.628499, 13.043001], [77.628541, 13.042928], [77.628556, 13.042871], [77.628555, 13.042842], [77.628552, 13.042794], [77.628545, 13.042712], [77.628517, 13.042522], [77.628548, 13.042389], [77.628553, 13.042316], [77.628586, 13.04229], [77.628628, 13.042286], [77.628761, 13.042323], [77.628855, 13.04236], [77.62892, 13.042385], [77.629005, 13.042476], [77.629177, 13.042572], [77.629189, 13.042573], [77.629245, 13.042578], [77.629297, 13.042578], [77.629329, 13.042565], [77.629371, 13.042523], [77.6294, 13.042488], [77.629444, 13.042405], [77.629504, 13.042287], [77.629601, 13.042235], [77.629675, 13.042222], [77.629743, 13.042221], [77.629877, 13.042321], [77.629938, 13.042368], [77.629981, 13.042406], [77.630014, 13.042466], [77.630076, 13.042513], [77.6302, 13.042587], [77.630313, 13.042628], [77.630322, 13.042629], [77.630365, 13.042637], [77.630452, 13.042642], [77.630572, 13.042657], [77.630792, 13.042591], [77.630901, 13.042552], [77.630969, 13.042545], [77.631011, 13.042541], [77.63104, 13.04256], [77.63107, 13.042652], [77.631186, 13.042837], [77.631308, 13.042992], [77.63131, 13.042995], [77.631327, 13.043008], [77.631355, 13.043], [77.631372, 13.042994], [77.631443, 13.042978], [77.631662, 13.042934], [77.631675, 13.042934], [77.631691, 13.042934], [77.631733, 13.042933], [77.631759, 13.04293], [77.631777, 13.042926], [77.631804, 13.04292], [77.631819, 13.042903], [77.63183, 13.042891], [77.631823, 13.042852], [77.631823, 13.04285], [77.631824, 13.042846], [77.631834, 13.04279], [77.631835, 13.042786], [77.631864, 13.042754], [77.631953, 13.042656], [77.632006, 13.042598], [77.632053, 13.042546], [77.632094, 13.042514], [77.632297, 13.042225], [77.632497, 13.041992], [77.632817, 13.041955], [77.633152, 13.041787], [77.633271, 13.042342], [77.633428, 13.042341], [77.633554, 13.042354], [77.633735, 13.042353], [77.633836, 13.042352], [77.634026, 13.04233], [77.634187, 13.042323], [77.634338, 13.042273], [77.634533, 13.042177], [77.634608, 13.042132], [77.634732, 13.041982], [77.634797, 13.041903], [77.634931, 13.041788], [77.63497, 13.041603], [77.635011, 13.041484], [77.635143, 13.041322], [77.635218, 13.041262], [77.635303, 13.041232], [77.635373, 13.041192], [77.635493, 13.041166], [77.635618, 13.041115], [77.635723, 13.041015], [77.635757, 13.040936], [77.635752, 13.040872], [77.635786, 13.040798], [77.635851, 13.040743], [77.635926, 13.040717], [77.636027, 13.040702], [77.636143, 13.04073], [77.636239, 13.040808], [77.63631, 13.040876], [77.636431, 13.04091], [77.63653, 13.040951], [77.6366, 13.040985], [77.636667, 13.041031], [77.636711, 13.041095], [77.636739, 13.041198], [77.63674, 13.041306], [77.636724, 13.041435], [77.636703, 13.041543], [77.636656, 13.041672], [77.636583, 13.04185], [77.636558, 13.041944], [77.63655, 13.042065], [77.63657, 13.04222], [77.636589, 13.042361], [77.636681, 13.042511]]]}}]}