{"type": "FeatureCollection", "features": [{"type": "Feature", "properties": {"region_id": "ward_276600-99", "name": "Rajaji Nagar", "parent": "zone_276600-7", "parent_name": "West"}, "geometry": {"type": "Polygon", "coordinates": [[[77.553086, 12.998201], [77.553234, 12.997806], [77.553548, 12.997271], [77.554326, 12.996408], [77.554786, 12.995621], [77.55515, 12.994929], [77.555625, 12.99416], [77.555801, 12.993823], [77.557837, 12.991005], [77.557334, 12.990679], [77.557029, 12.990473], [77.556106, 12.989962], [77.55438, 12.989998], [77.553386, 12.989948], [77.551396, 12.990062], [77.550718, 12.990096], [77.550923, 12.991193], [77.551075, 12.99248], [77.55107, 12.993496], [77.550897, 12.993492], [77.550528, 12.993488], [77.549242, 12.99347], [77.548371, 12.993447], [77.547236, 12.993406], [77.546768, 12.993395], [77.546284, 12.993387], [77.546115, 12.993383], [77.545811, 12.993376], [77.54575, 12.993375], [77.545687, 12.993734], [77.545779, 12.99449], [77.545326, 12.994588], [77.544566, 12.994813], [77.544103, 12.994983], [77.543491, 12.995114], [77.542815, 12.995193], [77.542786, 12.995494], [77.542827, 12.996375], [77.541471, 12.997208], [77.541218, 12.997335], [77.541144, 12.997338], [77.541101, 12.997308], [77.541045, 12.997243], [77.540909, 12.997059], [77.540718, 12.996911], [77.540564, 12.996864], [77.540366, 12.996874], [77.540422, 12.997054], [77.540606, 12.997641], [77.540992, 12.998895], [77.54111, 12.999341], [77.541111, 12.999343], [77.541808, 12.998934], [77.542128, 12.998746], [77.542278, 12.998658], [77.542358, 12.998612], [77.542599, 12.998474], [77.542611, 12.998467], [77.542673, 12.998432], [77.542791, 12.998363], [77.543114, 12.998235], [77.543143, 12.998223], [77.543515, 12.998076], [77.544673, 12.997629], [77.544737, 12.997605], [77.544877, 12.99755], [77.544997, 12.997521], [77.545017, 12.997516], [77.545057, 12.997506], [77.545113, 12.997493], [77.545137, 12.997488], [77.545281, 12.997455], [77.545366, 12.997454], [77.545416, 12.997454], [77.545685, 12.997451], [77.546225, 12.997421], [77.546841, 12.997427], [77.546866, 12.997427], [77.546891, 12.997429], [77.548352, 12.99751], [77.549509, 12.997566], [77.550187, 12.99762], [77.550385, 12.997637], [77.550442, 12.997642], [77.55048, 12.997651], [77.550482, 12.997651], [77.551265, 12.997823], [77.551781, 12.99793], [77.551913, 12.997957], [77.552463, 12.998071], [77.552555, 12.99809], [77.553003, 12.998182], [77.553009, 12.998184], [77.553086, 12.998201]]]}}]}