{"type": "FeatureCollection", "features": [{"type": "Feature", "properties": {"region_id": "ward_276600-120", "name": "Cottonpete", "parent": "zone_276600-7", "parent_name": "West"}, "geometry": {"type": "Polygon", "coordinates": [[[77.569115, 12.973206], [77.569641, 12.973017], [77.569938, 12.972971], [77.570277, 12.972979], [77.570277, 12.972995], [77.570294, 12.972994], [77.57027, 12.971279], [77.570223, 12.970105], [77.570477, 12.970102], [77.571411, 12.969999], [77.571708, 12.969996], [77.571899, 12.969917], [77.572212, 12.969751], [77.573603, 12.969017], [77.574853, 12.96838], [77.574822, 12.96833], [77.574821, 12.96833], [77.574819, 12.968327], [77.574807, 12.968305], [77.574216, 12.967165], [77.573927, 12.96655], [77.573876, 12.966448], [77.573848, 12.966407], [77.573589, 12.966528], [77.573406, 12.966606], [77.573367, 12.966646], [77.573332, 12.966692], [77.573229, 12.966759], [77.573065, 12.966829], [77.572205, 12.967117], [77.571731, 12.967341], [77.57136, 12.967516], [77.570854, 12.967723], [77.570423, 12.967904], [77.570238, 12.967958], [77.57012, 12.967959], [77.569745, 12.968039], [77.568545, 12.968168], [77.568094, 12.968211], [77.568043, 12.968214], [77.567868, 12.968224], [77.567931, 12.967223], [77.567755, 12.967215], [77.567756, 12.966974], [77.567, 12.966977], [77.566446, 12.967152], [77.566406, 12.966714], [77.566312, 12.966729], [77.566164, 12.966775], [77.56602, 12.966794], [77.56577, 12.966765], [77.565534, 12.966736], [77.565524, 12.966849], [77.565503, 12.967092], [77.56554, 12.967261], [77.565576, 12.967419], [77.565567, 12.967491], [77.565319, 12.967704], [77.565205, 12.96793], [77.565067, 12.968142], [77.564962, 12.968191], [77.564353, 12.968385], [77.564287, 12.968406], [77.564271, 12.968412], [77.56427, 12.968411], [77.564219, 12.968423], [77.564145, 12.968316], [77.563918, 12.968006], [77.563441, 12.967601], [77.563076, 12.967374], [77.562536, 12.967226], [77.562057, 12.96724], [77.561617, 12.967369], [77.561121, 12.967701], [77.560724, 12.96807], [77.560336, 12.968506], [77.560699, 12.969472], [77.560793, 12.970047], [77.560868, 12.970642], [77.560847, 12.971487], [77.560902, 12.972063], [77.561101, 12.972143], [77.561507, 12.971982], [77.561564, 12.97233], [77.562614, 12.972264], [77.562674, 12.973995], [77.562672, 12.974134], [77.562701, 12.97563], [77.562932, 12.975639], [77.563368, 12.975674], [77.563969, 12.975784], [77.56432, 12.975845], [77.564374, 12.975882], [77.564481, 12.975782], [77.564735, 12.97559], [77.565155, 12.975325], [77.565481, 12.975066], [77.565812, 12.974786], [77.565992, 12.974544], [77.566135, 12.974277], [77.566252, 12.973912], [77.566367, 12.973481], [77.566564, 12.972814], [77.566643, 12.972363], [77.566728, 12.971993], [77.56685, 12.971695], [77.5669, 12.971495], [77.566867, 12.971291], [77.566754, 12.971099], [77.566687, 12.970874], [77.566667, 12.970756], [77.566648, 12.97067], [77.566647, 12.970588], [77.56666, 12.970552], [77.566734, 12.970456], [77.566904, 12.970344], [77.567101, 12.970224], [77.567132, 12.970057], [77.567087, 12.969767], [77.567077, 12.969663], [77.567113, 12.969535], [77.567203, 12.969307], [77.567388, 12.968972], [77.567473, 12.9689], [77.567702, 12.968836], [77.568039, 12.968848], [77.568034, 12.969601], [77.568186, 12.970824], [77.568607, 12.972056], [77.569115, 12.973206]]]}}]}