{"type": "FeatureCollection", "features": [{"type": "Feature", "properties": {"region_id": "ward_276600-76", "name": "Gayithri Nagar", "parent": "zone_276600-7", "parent_name": "West"}, "geometry": {"type": "Polygon", "coordinates": [[[77.560514, 13.000544], [77.560367, 13.000064], [77.560061, 12.998945], [77.56047, 12.998865], [77.56091, 12.998779], [77.56098, 12.998666], [77.561624, 12.99854], [77.562269, 12.99844], [77.563438, 12.998272], [77.564083, 12.998177], [77.564268, 12.998752], [77.564434, 12.998776], [77.564945, 12.998094], [77.565349, 12.997575], [77.565943, 12.996829], [77.566161, 12.996685], [77.566052, 12.996634], [77.566383, 12.996211], [77.566713, 12.995723], [77.566968, 12.995227], [77.567099, 12.994913], [77.567323, 12.994615], [77.567654, 12.994216], [77.568026, 12.993719], [77.568385, 12.993381], [77.567758, 12.993408], [77.567682, 12.993411], [77.566622, 12.99345], [77.565542, 12.993482], [77.564893, 12.993521], [77.564725, 12.993541], [77.564015, 12.993637], [77.563472, 12.993707], [77.563293, 12.993709], [77.562724, 12.993746], [77.562127, 12.993838], [77.561802, 12.993856], [77.560328, 12.993913], [77.560087, 12.993921], [77.560136, 12.994068], [77.560377, 12.994449], [77.560382, 12.994506], [77.560372, 12.994557], [77.560355, 12.994575], [77.560324, 12.994599], [77.560263, 12.994621], [77.560086, 12.994689], [77.559727, 12.994798], [77.559348, 12.994927], [77.559172, 12.994983], [77.559141, 12.995001], [77.559138, 12.995028], [77.559142, 12.995092], [77.559164, 12.995214], [77.559175, 12.995275], [77.559223, 12.995403], [77.559329, 12.995783], [77.559393, 12.995962], [77.559422, 12.996043], [77.559513, 12.996141], [77.559621, 12.996248], [77.559691, 12.996346], [77.559741, 12.996441], [77.559783, 12.996539], [77.55983, 12.996708], [77.559848, 12.996783], [77.559869, 12.996813], [77.559925, 12.99688], [77.560079, 12.997035], [77.560146, 12.99715], [77.560174, 12.997224], [77.560178, 12.997254], [77.560179, 12.997288], [77.560179, 12.997312], [77.560113, 12.997367], [77.559574, 12.99759], [77.558169, 12.998127], [77.557648, 12.998303], [77.557221, 12.998435], [77.556935, 12.998499], [77.55639, 12.998626], [77.55606, 12.99866], [77.555638, 12.998682], [77.555395, 12.99866], [77.55486, 12.998574], [77.554161, 12.998431], [77.553894, 12.998376], [77.553742, 12.998343], [77.553086, 12.998201], [77.553061, 12.998263], [77.553057, 12.998266], [77.553055, 12.998286], [77.553022, 12.998388], [77.552778, 12.999106], [77.552698, 12.999346], [77.552687, 12.999542], [77.552683, 12.999599], [77.552697, 12.999671], [77.552802, 13.00025], [77.552848, 13.000498], [77.553007, 13.000946], [77.553113, 13.001241], [77.553193, 13.001676], [77.553221, 13.001863], [77.553314, 13.001852], [77.553483, 13.00182], [77.553906, 13.001725], [77.554619, 13.001569], [77.554843, 13.00152], [77.555535, 13.001377], [77.555827, 13.001306], [77.556027, 13.001266], [77.556296, 13.001241], [77.557004, 13.001227], [77.557351, 13.001208], [77.557604, 13.001153], [77.557904, 13.001089], [77.55828, 13.000995], [77.55881, 13.000846], [77.559771, 13.000671], [77.560514, 13.000544]]]}}]}