{"type": "FeatureCollection", "features": [{"type": "Feature", "properties": {"region_id": "ward_276600-191", "name": "Singasandra", "parent": "zone_276600-1", "parent_name": "Bommanahalli"}, "geometry": {"type": "Polygon", "coordinates": [[[77.63811, 12.885055], [77.638956, 12.884789], [77.639089, 12.88508], [77.639167, 12.885252], [77.639213, 12.885353], [77.639402, 12.885874], [77.639438, 12.885982], [77.639729, 12.886729], [77.639806, 12.886741], [77.64061, 12.886958], [77.641158, 12.887122], [77.641104, 12.887327], [77.643521, 12.888191], [77.643785, 12.890629], [77.643861, 12.890626], [77.645344, 12.890458], [77.646375, 12.890295], [77.647151, 12.890121], [77.648535, 12.889871], [77.648701, 12.889817], [77.649172, 12.891238], [77.649387, 12.891541], [77.649619, 12.892066], [77.649964, 12.892646], [77.65028, 12.893059], [77.650523, 12.893264], [77.650979, 12.893634], [77.651464, 12.89399], [77.651863, 12.894292], [77.65219, 12.894455], [77.652474, 12.894521], [77.653041, 12.89464], [77.653493, 12.894608], [77.654016, 12.894575], [77.654495, 12.894376], [77.654875, 12.89415], [77.655269, 12.893979], [77.655636, 12.89392], [77.656059, 12.893805], [77.656384, 12.893746], [77.65678, 12.893756], [77.656993, 12.893823], [77.657237, 12.894052], [77.657468, 12.894078], [77.657808, 12.894136], [77.658272, 12.894228], [77.658691, 12.89433], [77.659093, 12.894419], [77.659935, 12.894625], [77.660113, 12.894664], [77.660238, 12.894691], [77.660324, 12.894694], [77.66042, 12.894698], [77.660531, 12.894696], [77.660647, 12.894695], [77.66075, 12.894694], [77.661254, 12.894644], [77.662027, 12.894563], [77.662279, 12.894541], [77.662672, 12.894504], [77.66301, 12.894424], [77.663129, 12.894394], [77.663302, 12.894323], [77.663385, 12.894286], [77.663438, 12.894273], [77.663471, 12.894273], [77.663478, 12.894276], [77.664717, 12.894349], [77.664961, 12.894319], [77.66597, 12.894176], [77.666959, 12.894051], [77.668251, 12.893887], [77.668381, 12.893868], [77.669596, 12.893697], [77.669837, 12.893641], [77.669827, 12.893556], [77.67057, 12.893416], [77.671498, 12.893251], [77.673341, 12.892922], [77.673155, 12.89169], [77.67186, 12.884691], [77.672488, 12.884622], [77.672813, 12.884559], [77.674084, 12.884338], [77.674526, 12.884251], [77.6748, 12.884192], [77.674728, 12.88369], [77.674689, 12.883439], [77.674656, 12.883386], [77.674643, 12.883359], [77.674625, 12.883306], [77.674616, 12.883016], [77.674553, 12.882493], [77.674529, 12.882219], [77.674566, 12.882213], [77.674466, 12.881368], [77.674442, 12.881338], [77.67443, 12.881314], [77.674425, 12.881272], [77.674418, 12.881241], [77.674415, 12.881203], [77.674415, 12.881165], [77.674419, 12.881128], [77.67443, 12.881094], [77.674433, 12.881089], [77.674356, 12.880442], [77.671988, 12.880828], [77.673575, 12.877884], [77.673694, 12.877515], [77.674073, 12.876827], [77.674293, 12.876325], [77.674593, 12.875312], [77.674619, 12.875259], [77.674667, 12.875196], [77.674767, 12.875021], [77.674936, 12.87432], [77.675039, 12.873851], [77.675177, 12.87325], [77.675286, 12.872901], [77.675408, 12.872822], [77.67545, 12.872763], [77.675444, 12.872674], [77.675433, 12.872605], [77.675416, 12.872542], [77.675204, 12.872276], [77.674883, 12.871801], [77.674025, 12.870752], [77.673747, 12.870392], [77.673336, 12.869876], [77.673132, 12.869551], [77.672895, 12.869171], [77.672855, 12.868857], [77.672907, 12.868555], [77.672645, 12.86832], [77.671307, 12.867875], [77.669444, 12.866942], [77.668019, 12.866413], [77.667204, 12.86632], [77.666717, 12.866138], [77.66634, 12.866119], [77.665941, 12.866978], [77.665755, 12.867371], [77.665277, 12.868004], [77.664607, 12.868503], [77.663833, 12.868936], [77.662472, 12.869561], [77.661803, 12.870162], [77.65905, 12.871702], [77.658719, 12.871871], [77.658024, 12.871402], [77.657827, 12.870448], [77.657815, 12.87039], [77.657932, 12.870378], [77.657897, 12.869087], [77.657338, 12.869071], [77.657339, 12.869551], [77.65683, 12.869551], [77.656815, 12.868979], [77.656521, 12.868951], [77.656267, 12.868936], [77.656136, 12.868952], [77.655961, 12.868988], [77.6559, 12.868994], [77.655904, 12.86905], [77.655966, 12.869734], [77.655331, 12.869743], [77.654941, 12.869736], [77.654017, 12.869708], [77.653835, 12.869607], [77.65296, 12.870747], [77.651701, 12.872257], [77.649495, 12.872312], [77.648315, 12.872377], [77.647803, 12.871872], [77.647058, 12.871845], [77.647038, 12.8713], [77.646894, 12.870991], [77.64658, 12.870236], [77.644843, 12.870422], [77.644172, 12.870515], [77.644104, 12.870136], [77.643816, 12.870052], [77.642815, 12.869828], [77.642146, 12.869586], [77.640801, 12.869816], [77.640859, 12.869997], [77.640859, 12.869998], [77.641244, 12.870855], [77.641392, 12.871308], [77.641414, 12.871465], [77.6414, 12.871631], [77.640947, 12.874251], [77.64037, 12.874363], [77.640354, 12.874411], [77.640301, 12.874569], [77.640195, 12.874908], [77.639966, 12.875673], [77.639846, 12.876052], [77.639811, 12.876147], [77.639783, 12.876187], [77.639714, 12.876323], [77.639385, 12.876844], [77.639038, 12.877378], [77.638706, 12.877814], [77.638141, 12.878564], [77.638122, 12.878592], [77.638076, 12.878658], [77.63795, 12.878762], [77.637866, 12.878822], [77.637807, 12.878862], [77.637751, 12.878945], [77.637562, 12.879234], [77.637266, 12.879737], [77.637219, 12.879804], [77.637191, 12.879855], [77.63718, 12.879907], [77.637201, 12.880108], [77.637265, 12.880639], [77.637345, 12.881327], [77.637365, 12.881523], [77.637345, 12.881554], [77.637317, 12.881592], [77.637314, 12.881629], [77.637307, 12.881677], [77.637298, 12.881772], [77.637283, 12.881942], [77.637325, 12.882379], [77.637329, 12.882457], [77.63811, 12.885055]]]}}]}