{"type": "FeatureCollection", "features": [{"type": "Feature", "properties": {"region_id": "ward_276600-121", "name": "Binnipete", "parent": "zone_276600-7", "parent_name": "West"}, "geometry": {"type": "Polygon", "coordinates": [[[77.562701, 12.97563], [77.562672, 12.974134], [77.562674, 12.973995], [77.562614, 12.972264], [77.561564, 12.97233], [77.561507, 12.971982], [77.561101, 12.972143], [77.560902, 12.972063], [77.560847, 12.971487], [77.560868, 12.970642], [77.560793, 12.970047], [77.560699, 12.969472], [77.560336, 12.968506], [77.560724, 12.96807], [77.561121, 12.967701], [77.561617, 12.967369], [77.562057, 12.96724], [77.562536, 12.967226], [77.563076, 12.967374], [77.563441, 12.967601], [77.563918, 12.968006], [77.564145, 12.968316], [77.564219, 12.968423], [77.56427, 12.968411], [77.564271, 12.968412], [77.564287, 12.968406], [77.564353, 12.968385], [77.564149, 12.968114], [77.56362, 12.96739], [77.563142, 12.96667], [77.562784, 12.966033], [77.562454, 12.965572], [77.562114, 12.965079], [77.561777, 12.964664], [77.561766, 12.964676], [77.561659, 12.964749], [77.561405, 12.964828], [77.56124, 12.964903], [77.561151, 12.964985], [77.561037, 12.965137], [77.560956, 12.9653], [77.560879, 12.965455], [77.560743, 12.965747], [77.560643, 12.965932], [77.560569, 12.966032], [77.560454, 12.96614], [77.560253, 12.9663], [77.560007, 12.966449], [77.559858, 12.966521], [77.559753, 12.966537], [77.558882, 12.964752], [77.558808, 12.964761], [77.558725, 12.964826], [77.558586, 12.965047], [77.558383, 12.965265], [77.558232, 12.965348], [77.55787, 12.965549], [77.557362, 12.965876], [77.557407, 12.966102], [77.557431, 12.966204], [77.557346, 12.9663], [77.557204, 12.966351], [77.556996, 12.966413], [77.556874, 12.966471], [77.556778, 12.966624], [77.556682, 12.966706], [77.556559, 12.966729], [77.55638, 12.966791], [77.556301, 12.966823], [77.556225, 12.966888], [77.556183, 12.966938], [77.55604, 12.967059], [77.555856, 12.967107], [77.55564, 12.967113], [77.555384, 12.967098], [77.554619, 12.967399], [77.5547, 12.967585], [77.554654, 12.967617], [77.554717, 12.967772], [77.555204, 12.969127], [77.555385, 12.969184], [77.555563, 12.969239], [77.555655, 12.969268], [77.555994, 12.969354], [77.556378, 12.96943], [77.556709, 12.96947], [77.556985, 12.969482], [77.557117, 12.969466], [77.557159, 12.969992], [77.557166, 12.970302], [77.557383, 12.970246], [77.557545, 12.971063], [77.557732, 12.972024], [77.557935, 12.972877], [77.557957, 12.97319], [77.557932, 12.973663], [77.55793, 12.973786], [77.558057, 12.974004], [77.558326, 12.974452], [77.558443, 12.974743], [77.558516, 12.974995], [77.558576, 12.975142], [77.558655, 12.975325], [77.558687, 12.97557], [77.558704, 12.975765], [77.558543, 12.975764], [77.555694, 12.975607], [77.554496, 12.97556], [77.554493, 12.97556], [77.554664, 12.975959], [77.554902, 12.976419], [77.555019, 12.976619], [77.555137, 12.976945], [77.555169, 12.977012], [77.555298, 12.977275], [77.555529, 12.977493], [77.555776, 12.977598], [77.556085, 12.977809], [77.556414, 12.978067], [77.556657, 12.978224], [77.556872, 12.978329], [77.556974, 12.978326], [77.557375, 12.97842], [77.557632, 12.978558], [77.557886, 12.978694], [77.558075, 12.978798], [77.558258, 12.978829], [77.558477, 12.978827], [77.558647, 12.978821], [77.55881, 12.978829], [77.558943, 12.978899], [77.559053, 12.979015], [77.559136, 12.979195], [77.559167, 12.979436], [77.55915, 12.979613], [77.559193, 12.979768], [77.559262, 12.979873], [77.559469, 12.979593], [77.559748, 12.97907], [77.560096, 12.978196], [77.560301, 12.977673], [77.560372, 12.97743], [77.560416, 12.977331], [77.560265, 12.976663], [77.561184, 12.976597], [77.561185, 12.976576], [77.561211, 12.976342], [77.561226, 12.976049], [77.561277, 12.975971], [77.561281, 12.975893], [77.561293, 12.975687], [77.561686, 12.975663], [77.562649, 12.97562], [77.562649, 12.975628], [77.562701, 12.97563]]]}}]}