{"type": "FeatureCollection", "features": [{"type": "Feature", "properties": {"region_id": "ward_276600-27", "name": "Banasavadi", "parent": "zone_276600-3", "parent_name": "East"}, "geometry": {"type": "Polygon", "coordinates": [[[77.662293, 13.012389], [77.662276, 13.012387], [77.662171, 13.012343], [77.662099, 13.012313], [77.661868, 13.012173], [77.661513, 13.011988], [77.660996, 13.011808], [77.660004, 13.011444], [77.659312, 13.011166], [77.658895, 13.010942], [77.658564, 13.010769], [77.658355, 13.010646], [77.657912, 13.010359], [77.657894, 13.010358], [77.657497, 13.01009], [77.656447, 13.009316], [77.656131, 13.00907], [77.656047, 13.008992], [77.655943, 13.008875], [77.65582, 13.008737], [77.655473, 13.008351], [77.654729, 13.007547], [77.654528, 13.00728], [77.654011, 13.006782], [77.653636, 13.006467], [77.653132, 13.006025], [77.652992, 13.005908], [77.652942, 13.005866], [77.652873, 13.005848], [77.652468, 13.00591], [77.651682, 13.006049], [77.651298, 13.006117], [77.651252, 13.006184], [77.651414, 13.006492], [77.65154, 13.006728], [77.651528, 13.006753], [77.651358, 13.006806], [77.650999, 13.006877], [77.650792, 13.006915], [77.650669, 13.006965], [77.65049, 13.007061], [77.650268, 13.007185], [77.649895, 13.007423], [77.649682, 13.007489], [77.649543, 13.007518], [77.648874, 13.00757], [77.648264, 13.007622], [77.64809, 13.007633], [77.647889, 13.007604], [77.647768, 13.007609], [77.647657, 13.00764], [77.647462, 13.007712], [77.647246, 13.00779], [77.646702, 13.008057], [77.646274, 13.007519], [77.646188, 13.007467], [77.646104, 13.007389], [77.645957, 13.007229], [77.645815, 13.007027], [77.645704, 13.006809], [77.645704, 13.006804], [77.645701, 13.006801], [77.645663, 13.006718], [77.645537, 13.006528], [77.645523, 13.006422], [77.645464, 13.00641], [77.645127, 13.006441], [77.644869, 13.006435], [77.64428, 13.006386], [77.643663, 13.006359], [77.643182, 13.006318], [77.642676, 13.006253], [77.642532, 13.006239], [77.641822, 13.006168], [77.641126, 13.006089], [77.640913, 13.006064], [77.640531, 13.006002], [77.640475, 13.005991], [77.640264, 13.00595], [77.639934, 13.00584], [77.639374, 13.005652], [77.639076, 13.005569], [77.638731, 13.005503], [77.638476, 13.005466], [77.638306, 13.005468], [77.638111, 13.0055], [77.638024, 13.005486], [77.638311, 13.005634], [77.638769, 13.005892], [77.639066, 13.00609], [77.639372, 13.006332], [77.639661, 13.006627], [77.639949, 13.006843], [77.64021, 13.007068], [77.64057, 13.007345], [77.64089, 13.007572], [77.64102, 13.007664], [77.64175, 13.008134], [77.641795, 13.008175], [77.641819, 13.008198], [77.641839, 13.00826], [77.64184, 13.008382], [77.641842, 13.008505], [77.641835, 13.008671], [77.641836, 13.008829], [77.641875, 13.009082], [77.641869, 13.009398], [77.641871, 13.009599], [77.641864, 13.009792], [77.641903, 13.010045], [77.641968, 13.010342], [77.642033, 13.010508], [77.642052, 13.010665], [77.642036, 13.010806], [77.642028, 13.010937], [77.642012, 13.011095], [77.642014, 13.011322], [77.64199, 13.011559], [77.641947, 13.011708], [77.641903, 13.011796], [77.641644, 13.011773], [77.641375, 13.01167], [77.641115, 13.011594], [77.640803, 13.011554], [77.640463, 13.011504], [77.640212, 13.011446], [77.639926, 13.011449], [77.63955, 13.011486], [77.639355, 13.01335], [77.639361, 13.014026], [77.639319, 13.014596], [77.639347, 13.015648], [77.639351, 13.017606], [77.639456, 13.019676], [77.639546, 13.021958], [77.63955, 13.021978], [77.64009, 13.021809], [77.640324, 13.024702], [77.639853, 13.024876], [77.639925, 13.025694], [77.640365, 13.025522], [77.641844, 13.024868], [77.643555, 13.024108], [77.645415, 13.0233], [77.647323, 13.022458], [77.64978, 13.021403], [77.651868, 13.020486], [77.653541, 13.019753], [77.653901, 13.019623], [77.654778, 13.019319], [77.655519, 13.019092], [77.655768, 13.018994], [77.656002, 13.018902], [77.656778, 13.018556], [77.657503, 13.018238], [77.658218, 13.017934], [77.659467, 13.017397], [77.660045, 13.017138], [77.660056, 13.017133], [77.660202, 13.017069], [77.660603, 13.016894], [77.661205, 13.016656], [77.661521, 13.01652], [77.661612, 13.016473], [77.661655, 13.016451], [77.661698, 13.016429], [77.661703, 13.016425], [77.661732, 13.016402], [77.661803, 13.016345], [77.661866, 13.016264], [77.661875, 13.01625], [77.661913, 13.01619], [77.661962, 13.016098], [77.661993, 13.016038], [77.662, 13.016016], [77.662009, 13.015984], [77.662043, 13.015868], [77.662071, 13.015676], [77.662099, 13.015444], [77.662159, 13.014872], [77.662189, 13.014596], [77.662226, 13.013742], [77.662232, 13.013539], [77.66224, 13.013279], [77.662246, 13.013075], [77.662276, 13.01256], [77.662293, 13.012389]]]}}]}