{"type": "FeatureCollection", "features": [{"type": "Feature", "properties": {"region_id": "ward_276600-73", "name": "Kottegepalya", "parent": "zone_276600-5", "parent_name": "Rajarajeshwari Nagar"}, "geometry": {"type": "Polygon", "coordinates": [[[77.527845, 12.999693], [77.527833, 12.999581], [77.527816, 12.999519], [77.527918, 12.99941], [77.528097, 12.999305], [77.528191, 12.999161], [77.52741, 12.998936], [77.52594, 12.998592], [77.525957, 12.998559], [77.526072, 12.998462], [77.526125, 12.998384], [77.526167, 12.998238], [77.526205, 12.998086], [77.526229, 12.997965], [77.526206, 12.99788], [77.526191, 12.997803], [77.526151, 12.997743], [77.526028, 12.997716], [77.525909, 12.997713], [77.525743, 12.997743], [77.525538, 12.997827], [77.525369, 12.997885], [77.525264, 12.997897], [77.52517, 12.99788], [77.525101, 12.997827], [77.52501, 12.997736], [77.524905, 12.997595], [77.52487, 12.997467], [77.52483, 12.9972], [77.52478, 12.996923], [77.52474, 12.996701], [77.524624, 12.996434], [77.524462, 12.996251], [77.524195, 12.995985], [77.52392, 12.995812], [77.523851, 12.995746], [77.523725, 12.995594], [77.523694, 12.995554], [77.523651, 12.995489], [77.523615, 12.99542], [77.523585, 12.995348], [77.523562, 12.995274], [77.523547, 12.995198], [77.523543, 12.995173], [77.523528, 12.995106], [77.523493, 12.994984], [77.523452, 12.994863], [77.523403, 12.994745], [77.523347, 12.994631], [77.523297, 12.99454], [77.523278, 12.994512], [77.52322, 12.994422], [77.523169, 12.994328], [77.523124, 12.994232], [77.523086, 12.994132], [77.523056, 12.99403], [77.523033, 12.993926], [77.523025, 12.99388], [77.523014, 12.993805], [77.523006, 12.993693], [77.523005, 12.993582], [77.523008, 12.993515], [77.523008, 12.993498], [77.523003, 12.993412], [77.522991, 12.993327], [77.522971, 12.993243], [77.522944, 12.993162], [77.522911, 12.993082], [77.52287, 12.993006], [77.522823, 12.992934], [77.522769, 12.992866], [77.522768, 12.992865], [77.522768, 12.992864], [77.522682, 12.992777], [77.522603, 12.992685], [77.522528, 12.992588], [77.522462, 12.992489], [77.522435, 12.992443], [77.522396, 12.992389], [77.522351, 12.992339], [77.522301, 12.992295], [77.522246, 12.992256], [77.522187, 12.992224], [77.522125, 12.992198], [77.52206, 12.992178], [77.522053, 12.992177], [77.521846, 12.992149], [77.52183, 12.992148], [77.521791, 12.992139], [77.521754, 12.992123], [77.521722, 12.992101], [77.521694, 12.992072], [77.521672, 12.992039], [77.521656, 12.992003], [77.521648, 12.991965], [77.521648, 12.991929], [77.521633, 12.991868], [77.521598, 12.991751], [77.521557, 12.991636], [77.521509, 12.991523], [77.521454, 12.991414], [77.521426, 12.991364], [77.521422, 12.991356], [77.52133, 12.991163], [77.521232, 12.990974], [77.521127, 12.990787], [77.521015, 12.990605], [77.520972, 12.990537], [77.520963, 12.990521], [77.5209, 12.990403], [77.520845, 12.990282], [77.520796, 12.990158], [77.520754, 12.990032], [77.52072, 12.989903], [77.520705, 12.989838], [77.520682, 12.989712], [77.520631, 12.989467], [77.520574, 12.989225], [77.520509, 12.988983], [77.520437, 12.988744], [77.520424, 12.988705], [77.520408, 12.988652], [77.520359, 12.988501], [77.520303, 12.988353], [77.52024, 12.988208], [77.52017, 12.988065], [77.520115, 12.987963], [77.520091, 12.987916], [77.520068, 12.987855], [77.520053, 12.987793], [77.520045, 12.987729], [77.520044, 12.987665], [77.520051, 12.987601], [77.520057, 12.98757], [77.520064, 12.987543], [77.520088, 12.987466], [77.52012, 12.987392], [77.520158, 12.98732], [77.520203, 12.987252], [77.520254, 12.987188], [77.520302, 12.987137], [77.520304, 12.987132], [77.520322, 12.987084], [77.520333, 12.987034], [77.520336, 12.986983], [77.520332, 12.986932], [77.52033, 12.986925], [77.5203, 12.986849], [77.520259, 12.98677], [77.520213, 12.986693], [77.52016, 12.986621], [77.520113, 12.986566], [77.520057, 12.986519], [77.519996, 12.986459], [77.51994, 12.986393], [77.51989, 12.986324], [77.519872, 12.986296], [77.519866, 12.986289], [77.519837, 12.986249], [77.519815, 12.986206], [77.519799, 12.986159], [77.519791, 12.986111], [77.51979, 12.986062], [77.519798, 12.986013], [77.519806, 12.985982], [77.519813, 12.985937], [77.519823, 12.985825], [77.519825, 12.985713], [77.51982, 12.985601], [77.519808, 12.985489], [77.519795, 12.985411], [77.519795, 12.98541], [77.519783, 12.985327], [77.519764, 12.985244], [77.519738, 12.985164], [77.519704, 12.985086], [77.519664, 12.985012], [77.51964, 12.984973], [77.519574, 12.984911], [77.519496, 12.984828], [77.519423, 12.98474], [77.519356, 12.984648], [77.519321, 12.984595], [77.519299, 12.984529], [77.519228, 12.984305], [77.519163, 12.984079], [77.519145, 12.984009], [77.519086, 12.983872], [77.519016, 12.983727], [77.518939, 12.983585], [77.518856, 12.983446], [77.51881, 12.983375], [77.518797, 12.983349], [77.51867, 12.983097], [77.518536, 12.982847], [77.5185, 12.982783], [77.51846, 12.982726], [77.51842, 12.982657], [77.518386, 12.982584], [77.51836, 12.982509], [77.51834, 12.982432], [77.518328, 12.982354], [77.518324, 12.982274], [77.518327, 12.982195], [77.518337, 12.982116], [77.518355, 12.982039], [77.518364, 12.982008], [77.518368, 12.981999], [77.518456, 12.981797], [77.51855, 12.981599], [77.518651, 12.981403], [77.518662, 12.981384], [77.518672, 12.981363], [77.518718, 12.981252], [77.518757, 12.981139], [77.518789, 12.981023], [77.518813, 12.980906], [77.518831, 12.980787], [77.518839, 12.980689], [77.518862, 12.980635], [77.518901, 12.980557], [77.518947, 12.980482], [77.518999, 12.980412], [77.519057, 12.980346], [77.51912, 12.980285], [77.519167, 12.980246], [77.51917, 12.980243], [77.519246, 12.980173], [77.519317, 12.980097], [77.519382, 12.980016], [77.51944, 12.979931], [77.519493, 12.979843], [77.519498, 12.979834], [77.519509, 12.979813], [77.519534, 12.979754], [77.519552, 12.979692], [77.519563, 12.979629], [77.519566, 12.979565], [77.519561, 12.979502], [77.51955, 12.979439], [77.51953, 12.979378], [77.519504, 12.979319], [77.519471, 12.979264], [77.519431, 12.979213], [77.519386, 12.979167], [77.519383, 12.979164], [77.519334, 12.979118], [77.519241, 12.979024], [77.519154, 12.978924], [77.519072, 12.978821], [77.518997, 12.978712], [77.518935, 12.978612], [77.5189, 12.978494], [77.518873, 12.978373], [77.518853, 12.97825], [77.518841, 12.978127], [77.518836, 12.978004], [77.518837, 12.977917], [77.51883, 12.977875], [77.518779, 12.977585], [77.518721, 12.977297], [77.518687, 12.977142], [77.51866, 12.977029], [77.51861, 12.976795], [77.518567, 12.97656], [77.518547, 12.976434], [77.518547, 12.976379], [77.518553, 12.976239], [77.518566, 12.976099], [77.518587, 12.97596], [77.518615, 12.975823], [77.51862, 12.975804], [77.518623, 12.975746], [77.518619, 12.975688], [77.518607, 12.975631], [77.518587, 12.975576], [77.518561, 12.975524], [77.518528, 12.975476], [77.518489, 12.975432], [77.518445, 12.975393], [77.518396, 12.97536], [77.518343, 12.975334], [77.518314, 12.975323], [77.518295, 12.975315], [77.518265, 12.975302], [77.518222, 12.975282], [77.518153, 12.975242], [77.518088, 12.975196], [77.518028, 12.975145], [77.517972, 12.975088], [77.517923, 12.975026], [77.517879, 12.97496], [77.517869, 12.974942], [77.517841, 12.974885], [77.517792, 12.974788], [77.517653, 12.974303], [77.517528, 12.973869], [77.517493, 12.973761], [77.517461, 12.97336], [77.517478, 12.973299], [77.517508, 12.973255], [77.517618, 12.97318], [77.51769, 12.973171], [77.517708, 12.973153], [77.517961, 12.973099], [77.518026, 12.973095], [77.518108, 12.973054], [77.518166, 12.972986], [77.518233, 12.972837], [77.518253, 12.972766], [77.518253, 12.972728], [77.518238, 12.972664], [77.518221, 12.972624], [77.518189, 12.97256], [77.518102, 12.97243], [77.518053, 12.972332], [77.517989, 12.972181], [77.517992, 12.97209], [77.517995, 12.972022], [77.518014, 12.971921], [77.518088, 12.971735], [77.518145, 12.971609], [77.518206, 12.971521], [77.518329, 12.971371], [77.518376, 12.971273], [77.518385, 12.971145], [77.518391, 12.971067], [77.518444, 12.970925], [77.518464, 12.970847], [77.518471, 12.970786], [77.51847, 12.970753], [77.518493, 12.970651], [77.518493, 12.970607], [77.518449, 12.970388], [77.518194, 12.969969], [77.517703, 12.969424], [77.517633, 12.969306], [77.517608, 12.969216], [77.517607, 12.969111], [77.51754, 12.968595], [77.517539, 12.968498], [77.517552, 12.968416], [77.51764, 12.968244], [77.517946, 12.967903], [77.518062, 12.967774], [77.518178, 12.967688], [77.518102, 12.967001], [77.518026, 12.96691], [77.517634, 12.966638], [77.517502, 12.966524], [77.51745, 12.966487], [77.517412, 12.966441], [77.517408, 12.96637], [77.517404, 12.966292], [77.51745, 12.966093], [77.517568, 12.96592], [77.517921, 12.965707], [77.518065, 12.965648], [77.51814, 12.965647], [77.518233, 12.965623], [77.518431, 12.965496], [77.518475, 12.965425], [77.518475, 12.965381], [77.518474, 12.965314], [77.51844, 12.96501], [77.518348, 12.964664], [77.518336, 12.96462], [77.518192, 12.96425], [77.517962, 12.964017], [77.5179, 12.963953], [77.517841, 12.963919], [77.517772, 12.963896], [77.517713, 12.96387], [77.517602, 12.96378], [77.517585, 12.963763], [77.51756, 12.96372], [77.517539, 12.96369], [77.51754, 12.963661], [77.517547, 12.963443], [77.517625, 12.963031], [77.517636, 12.963], [77.517799, 12.96252], [77.51784, 12.962224], [77.517842, 12.962184], [77.517838, 12.962126], [77.517826, 12.96207], [77.517807, 12.962016], [77.517781, 12.961965], [77.517749, 12.961917], [77.51771, 12.961874], [77.517701, 12.961865], [77.517634, 12.961837], [77.517556, 12.961812], [77.517476, 12.961794], [77.517394, 12.961784], [77.517313, 12.961781], [77.517231, 12.961786], [77.51715, 12.961798], [77.517082, 12.961813], [77.517041, 12.961815], [77.516774, 12.96183], [77.516508, 12.961853], [77.516374, 12.961867], [77.516366, 12.961868], [77.516315, 12.961868], [77.516264, 12.961861], [77.516215, 12.961847], [77.516168, 12.961825], [77.516126, 12.961797], [77.516088, 12.961764], [77.516079, 12.961754], [77.516058, 12.961633], [77.516034, 12.961457], [77.516018, 12.961281], [77.516009, 12.961105], [77.516007, 12.960928], [77.516009, 12.960844], [77.516004, 12.960815], [77.515977, 12.96068], [77.515942, 12.960548], [77.5159, 12.960417], [77.515852, 12.960289], [77.515796, 12.960163], [77.515769, 12.960107], [77.515728, 12.960024], [77.515659, 12.959894], [77.515583, 12.959769], [77.515501, 12.959647], [77.515476, 12.959613], [77.514485, 12.960055], [77.513364, 12.960445], [77.512286, 12.960881], [77.51178, 12.96105], [77.511425, 12.961115], [77.510997, 12.961145], [77.510055, 12.961062], [77.508222, 12.960807], [77.505252, 12.960374], [77.504949, 12.960347], [77.504708, 12.960359], [77.504515, 12.960412], [77.504385, 12.96047], [77.504413, 12.960608], [77.504559, 12.961161], [77.504815, 12.962123], [77.505071, 12.963187], [77.505105, 12.963474], [77.50508, 12.963597], [77.504905, 12.964317], [77.504833, 12.964979], [77.504849, 12.965533], [77.504938, 12.966112], [77.505111, 12.966679], [77.505475, 12.967527], [77.505898, 12.968426], [77.506171, 12.96908], [77.506563, 12.970102], [77.506713, 12.970465], [77.506825, 12.970664], [77.507122, 12.971092], [77.507642, 12.971836], [77.508162, 12.972631], [77.508524, 12.973207], [77.508816, 12.97366], [77.509067, 12.97413], [77.509275, 12.974564], [77.509441, 12.974993], [77.509699, 12.975693], [77.510007, 12.976588], [77.510203, 12.977438], [77.51033, 12.978092], [77.510539, 12.978897], [77.510572, 12.979034], [77.510656, 12.979509], [77.510786, 12.979843], [77.510869, 12.980217], [77.510951, 12.980457], [77.51097, 12.980691], [77.510987, 12.980886], [77.511003, 12.981618], [77.511041, 12.982234], [77.511045, 12.982655], [77.511007, 12.982858], [77.510923, 12.983131], [77.510853, 12.983311], [77.510799, 12.98353], [77.510778, 12.98363], [77.510757, 12.983829], [77.510726, 12.984211], [77.51075, 12.98455], [77.510795, 12.984813], [77.510882, 12.984986], [77.511062, 12.985275], [77.51124, 12.985461], [77.511384, 12.985709], [77.511564, 12.98604], [77.511759, 12.986413], [77.511948, 12.986889], [77.512107, 12.98742], [77.512241, 12.987972], [77.511807, 12.988127], [77.511181, 12.988334], [77.510862, 12.988374], [77.510617, 12.988276], [77.510168, 12.98813], [77.509796, 12.988108], [77.509425, 12.988124], [77.509272, 12.988176], [77.509056, 12.988392], [77.508714, 12.988772], [77.508511, 12.988912], [77.508242, 12.988977], [77.507667, 12.989033], [77.506861, 12.989217], [77.506223, 12.989411], [77.50572, 12.98964], [77.505678, 12.989716], [77.505694, 12.989752], [77.505628, 12.989969], [77.505354, 12.990411], [77.504751, 12.991201], [77.504653, 12.991414], [77.504647, 12.991762], [77.504646, 12.991791], [77.504649, 12.992127], [77.504621, 12.99298], [77.504466, 12.993953], [77.504441, 12.99428], [77.504299, 12.994278], [77.504243, 12.994279], [77.504204, 12.994318], [77.504124, 12.994492], [77.504025, 12.994668], [77.504005, 12.994952], [77.50402, 12.995202], [77.504024, 12.995238], [77.504049, 12.995245], [77.504067, 12.995247], [77.504165, 12.995244], [77.50449, 12.995215], [77.504521, 12.995215], [77.504596, 12.995214], [77.50465, 12.995214], [77.504699, 12.995216], [77.504759, 12.995238], [77.504868, 12.995285], [77.504959, 12.995368], [77.505048, 12.995514], [77.505142, 12.99588], [77.505303, 12.996493], [77.50545, 12.996988], [77.505598, 12.997396], [77.505823, 12.998166], [77.505958, 12.998777], [77.505971, 12.998884], [77.505978, 12.998922], [77.507275, 12.99852], [77.507247, 12.998431], [77.507934, 12.998177], [77.508009, 12.998144], [77.510049, 12.997561], [77.510076, 12.997714], [77.510322, 12.998575], [77.512732, 12.997974], [77.513014, 12.998738], [77.513208, 12.999661], [77.513272, 13.000093], [77.51332, 13.000128], [77.513523, 13.000137], [77.513762, 13.000153], [77.513941, 13.000186], [77.514032, 13.000244], [77.51411, 13.000331], [77.514206, 13.000417], [77.514315, 13.000498], [77.514435, 13.000573], [77.514554, 13.00059], [77.514692, 13.000588], [77.514816, 13.000577], [77.5149, 13.000569], [77.514989, 13.000509], [77.515054, 13.00045], [77.515071, 13.000368], [77.5151, 13.000263], [77.515063, 13.000158], [77.515043, 12.999912], [77.515071, 12.999771], [77.515171, 12.999653], [77.515385, 12.999534], [77.515534, 12.999468], [77.515628, 12.99938], [77.515711, 12.999268], [77.51583, 12.99922], [77.51593, 12.999154], [77.515979, 12.999083], [77.516042, 12.998989], [77.516179, 12.998924], [77.516286, 12.998893], [77.516447, 12.998903], [77.516686, 12.998936], [77.516776, 12.998971], [77.516842, 12.99897], [77.516865, 12.998952], [77.516956, 12.998861], [77.51706, 12.99874], [77.517161, 12.998715], [77.517281, 12.998726], [77.517388, 12.998791], [77.51743, 12.998787], [77.517603, 12.998725], [77.517693, 12.998625], [77.517682, 12.998535], [77.51752, 12.998586], [77.517438, 12.998577], [77.517406, 12.998428], [77.517378, 12.997372], [77.518055, 12.997326], [77.51829, 12.997373], [77.518475, 12.997502], [77.518588, 12.997607], [77.518655, 12.997688], [77.518715, 12.997752], [77.518787, 12.997827], [77.518818, 12.997932], [77.518808, 12.998061], [77.518808, 12.998114], [77.518809, 12.998202], [77.518804, 12.99829], [77.518805, 12.998336], [77.518806, 12.998436], [77.518812, 12.998518], [77.518861, 12.998564], [77.518909, 12.998605], [77.518921, 12.998681], [77.518952, 12.998762], [77.51897, 12.998809], [77.519018, 12.998838], [77.519072, 12.998796], [77.519113, 12.998755], [77.519161, 12.998731], [77.519232, 12.998736], [77.51931, 12.998765], [77.519364, 12.998811], [77.519413, 12.998904], [77.519414, 12.999009], [77.519415, 12.999097], [77.519416, 12.999197], [77.519363, 12.999302], [77.51931, 12.999379], [77.51921, 12.999503], [77.51914, 12.999626], [77.519105, 12.999744], [77.5191, 12.999855], [77.519089, 12.999955], [77.519066, 13.000031], [77.519037, 13.00006], [77.518953, 13.000061], [77.518845, 13.000015], [77.518794, 13.000021], [77.518573, 13.000113], [77.518407, 13.000204], [77.518255, 13.000318], [77.518254, 13.000321], [77.518252, 13.000321], [77.51799, 13.000799], [77.517865, 13.001222], [77.5179, 13.001412], [77.517911, 13.001696], [77.517838, 13.002004], [77.517847, 13.002123], [77.517863, 13.002213], [77.51794, 13.00229], [77.518111, 13.002248], [77.518582, 13.002259], [77.519211, 13.002312], [77.519879, 13.002354], [77.520029, 13.00283], [77.52016, 13.003389], [77.520977, 13.00328], [77.521008, 13.003567], [77.521342, 13.003525], [77.521293, 13.003247], [77.521292, 13.003075], [77.522366, 13.00278], [77.523512, 13.00248], [77.52365, 13.00244], [77.523443, 13.001651], [77.524061, 13.001716], [77.526282, 13.00071], [77.526157, 13.000441], [77.526165, 13.000437], [77.527352, 12.999879], [77.527845, 12.999693]]]}}]}