{"type": "FeatureCollection", "features": [{"type": "Feature", "properties": {"region_id": "ward_276600-183", "name": "Chikkalsandra", "parent": "zone_276600-6", "parent_name": "South"}, "geometry": {"type": "Polygon", "coordinates": [[[77.553323, 12.92393], [77.554349, 12.923604], [77.55439, 12.923591], [77.555354, 12.923269], [77.556281, 12.922978], [77.556169, 12.922581], [77.555972, 12.92201], [77.555784, 12.921383], [77.555646, 12.920999], [77.555524, 12.921004], [77.55525, 12.921021], [77.555219, 12.921024], [77.55519, 12.921025], [77.555119, 12.921022], [77.555049, 12.921011], [77.55498, 12.920994], [77.554914, 12.92097], [77.554897, 12.920962], [77.554817, 12.920967], [77.554736, 12.920979], [77.554657, 12.920998], [77.554617, 12.921011], [77.554546, 12.921019], [77.554466, 12.921022], [77.554386, 12.921017], [77.554307, 12.921005], [77.55423, 12.920986], [77.554155, 12.92096], [77.554131, 12.920949], [77.554042, 12.920901], [77.553715, 12.920729], [77.553555, 12.920647], [77.553506, 12.92062], [77.5534, 12.920554], [77.553297, 12.920481], [77.553199, 12.920404], [77.553163, 12.920373], [77.553097, 12.920322], [77.553026, 12.92026], [77.552961, 12.920192], [77.552902, 12.920119], [77.552882, 12.920093], [77.552859, 12.920051], [77.552683, 12.919734], [77.552682, 12.919731], [77.552676, 12.919711], [77.552667, 12.919692], [77.552655, 12.919675], [77.552639, 12.91966], [77.552622, 12.919648], [77.552602, 12.91964], [77.552581, 12.919634], [77.55256, 12.919633], [77.552538, 12.919635], [77.552518, 12.91964], [77.552498, 12.919649], [77.552483, 12.91966], [77.552474, 12.919667], [77.552426, 12.919701], [77.552374, 12.919728], [77.552319, 12.919748], [77.552262, 12.919762], [77.552204, 12.919768], [77.552196, 12.919768], [77.552144, 12.919771], [77.552143, 12.91977], [77.552037, 12.919231], [77.551981, 12.918893], [77.551943, 12.918508], [77.551998, 12.918207], [77.551956, 12.917879], [77.551736, 12.91743], [77.551619, 12.917168], [77.551531, 12.917052], [77.551009, 12.916573], [77.550738, 12.916219], [77.550614, 12.915831], [77.550472, 12.915871], [77.549472, 12.916131], [77.549168, 12.916219], [77.54888, 12.916313], [77.548676, 12.916367], [77.548536, 12.916415], [77.548499, 12.91642], [77.548457, 12.916426], [77.548387, 12.91643], [77.548183, 12.916451], [77.548079, 12.916462], [77.548034, 12.916469], [77.54801, 12.916487], [77.548001, 12.916502], [77.547999, 12.916526], [77.547999, 12.91658], [77.54805, 12.916798], [77.548108, 12.917046], [77.548135, 12.917129], [77.548185, 12.917241], [77.548397, 12.917216], [77.548455, 12.917468], [77.54848, 12.917585], [77.54853, 12.917813], [77.548574, 12.917947], [77.548584, 12.917991], [77.548601, 12.918068], [77.548451, 12.918085], [77.548091, 12.918132], [77.547851, 12.918167], [77.547687, 12.918174], [77.547528, 12.918175], [77.547414, 12.918209], [77.547032, 12.918282], [77.54679, 12.918326], [77.546777, 12.918247], [77.546729, 12.918049], [77.546402, 12.918098], [77.546206, 12.918127], [77.545926, 12.91816], [77.545675, 12.918204], [77.5448, 12.918297], [77.544722, 12.917536], [77.54442, 12.917551], [77.544395, 12.917552], [77.543948, 12.917586], [77.543447, 12.917623], [77.543311, 12.917619], [77.54318, 12.917653], [77.54311, 12.917693], [77.542871, 12.917857], [77.541965, 12.918486], [77.541967, 12.918512], [77.54198, 12.918706], [77.541996, 12.91879], [77.542019, 12.918863], [77.542313, 12.919524], [77.542758, 12.920159], [77.543098, 12.920911], [77.543467, 12.921885], [77.54346, 12.92255], [77.543449, 12.923094], [77.543587, 12.923727], [77.543848, 12.924612], [77.54401, 12.924977], [77.544265, 12.925774], [77.544336, 12.926037], [77.544525, 12.925994], [77.544835, 12.925882], [77.545228, 12.926813], [77.545385, 12.927209], [77.545611, 12.927206], [77.545828, 12.927364], [77.546113, 12.927908], [77.546243, 12.928075], [77.547248, 12.927279], [77.548263, 12.926465], [77.548759, 12.926102], [77.549119, 12.925858], [77.549933, 12.925382], [77.550255, 12.925193], [77.550933, 12.924833], [77.551096, 12.924749], [77.551168, 12.924712], [77.551706, 12.924474], [77.551935, 12.9244], [77.552398, 12.924249], [77.552435, 12.924233], [77.552928, 12.924055], [77.553323, 12.92393]]]}}]}