{"type": "FeatureCollection", "features": [{"type": "Feature", "properties": {"region_id": "ward_276600-47", "name": "Devara Jeevanahalli", "parent": "zone_276600-3", "parent_name": "East"}, "geometry": {"type": "Polygon", "coordinates": [[[77.607827, 13.019541], [77.607795, 13.019369], [77.607735, 13.019018], [77.607704, 13.018814], [77.607664, 13.018611], [77.607643, 13.018379], [77.607592, 13.018028], [77.607541, 13.017667], [77.60751, 13.017463], [77.60749, 13.017278], [77.607487, 13.017029], [77.607565, 13.016756], [77.607634, 13.016517], [77.607698, 13.016415], [77.60781, 13.01633], [77.608075, 13.016318], [77.60832, 13.016307], [77.608417, 13.016294], [77.608472, 13.016276], [77.608511, 13.016243], [77.608527, 13.016166], [77.608543, 13.015962], [77.60856, 13.015767], [77.608527, 13.015116], [77.609118, 13.015123], [77.609212, 13.015122], [77.609197, 13.01488], [77.609212, 13.014776], [77.609257, 13.01463], [77.609427, 13.014356], [77.609436, 13.014337], [77.6095, 13.014241], [77.60966, 13.013906], [77.609701, 13.013774], [77.609706, 13.013762], [77.609824, 13.013404], [77.610006, 13.01288], [77.610028, 13.012738], [77.610023, 13.012553], [77.610032, 13.012523], [77.610069, 13.012317], [77.610093, 13.012162], [77.610092, 13.012139], [77.610099, 13.012041], [77.610095, 13.011994], [77.610077, 13.011918], [77.609972, 13.011703], [77.609906, 13.011618], [77.609826, 13.011554], [77.609752, 13.011465], [77.609647, 13.011318], [77.609575, 13.01124], [77.60949, 13.011027], [77.609473, 13.010925], [77.609174, 13.010963], [77.60892, 13.010991], [77.608699, 13.011035], [77.608338, 13.011155], [77.608221, 13.011176], [77.608107, 13.011173], [77.607994, 13.011166], [77.60788, 13.011173], [77.607744, 13.011192], [77.607563, 13.01121], [77.607424, 13.011226], [77.607326, 13.011242], [77.607153, 13.011307], [77.606825, 13.011438], [77.606484, 13.01157], [77.606218, 13.011679], [77.606074, 13.011729], [77.606079, 13.011747], [77.605957, 13.011795], [77.605764, 13.011878], [77.605632, 13.011945], [77.605506, 13.012008], [77.60536, 13.012076], [77.605194, 13.012154], [77.605115, 13.012193], [77.605053, 13.012228], [77.605005, 13.012254], [77.604965, 13.01227], [77.604895, 13.012284], [77.604835, 13.012284], [77.604642, 13.012286], [77.604552, 13.012274], [77.604491, 13.012275], [77.604432, 13.012283], [77.604369, 13.012301], [77.604286, 13.012326], [77.604217, 13.012354], [77.603913, 13.012436], [77.603784, 13.012493], [77.603748, 13.012549], [77.603677, 13.012703], [77.603622, 13.012897], [77.603555, 13.012968], [77.603483, 13.013015], [77.603287, 13.013124], [77.602962, 13.013249], [77.602825, 13.012723], [77.602731, 13.012282], [77.602702, 13.012194], [77.602669, 13.012086], [77.602544, 13.011566], [77.602522, 13.011369], [77.602495, 13.01127], [77.60196, 13.009962], [77.601936, 13.009903], [77.601441, 13.008826], [77.601441, 13.008825], [77.60144, 13.008825], [77.601352, 13.008662], [77.601338, 13.008635], [77.601251, 13.008678], [77.600962, 13.008811], [77.600254, 13.009183], [77.598104, 13.010183], [77.597322, 13.010621], [77.596913, 13.010836], [77.596605, 13.010931], [77.596204, 13.011099], [77.596005, 13.011183], [77.595901, 13.011232], [77.595752, 13.011302], [77.595647, 13.011351], [77.595499, 13.011445], [77.595486, 13.011465], [77.595449, 13.011522], [77.595724, 13.012391], [77.595779, 13.012553], [77.595809, 13.012657], [77.595893, 13.012755], [77.596411, 13.013573], [77.597019, 13.014548], [77.597535, 13.015447], [77.597574, 13.015535], [77.597602, 13.015596], [77.597629, 13.015646], [77.597654, 13.015727], [77.597667, 13.01578], [77.597671, 13.015879], [77.597659, 13.01595], [77.597653, 13.016093], [77.597635, 13.016149], [77.597632, 13.016181], [77.597644, 13.016222], [77.597663, 13.016275], [77.597743, 13.016381], [77.597848, 13.016604], [77.598178, 13.017298], [77.598447, 13.01791], [77.598594, 13.018193], [77.598627, 13.018254], [77.598667, 13.018306], [77.598718, 13.018361], [77.598763, 13.01839], [77.599004, 13.018628], [77.599228, 13.018886], [77.599483, 13.019291], [77.59973, 13.019765], [77.59977, 13.019856], [77.599807, 13.019946], [77.599832, 13.020078], [77.599835, 13.020119], [77.599836, 13.02018], [77.599913, 13.020341], [77.600321, 13.021248], [77.600386, 13.021419], [77.600802, 13.022587], [77.600955, 13.022999], [77.601425, 13.022663], [77.601643, 13.022553], [77.602082, 13.022282], [77.602442, 13.022086], [77.603208, 13.02179], [77.603877, 13.021625], [77.605235, 13.021396], [77.605832, 13.02132], [77.606501, 13.021258], [77.606392, 13.02097], [77.606236, 13.020487], [77.606134, 13.020185], [77.606097, 13.020181], [77.606038, 13.019902], [77.605987, 13.01974], [77.605981, 13.019723], [77.606319, 13.019653], [77.606496, 13.019618], [77.606704, 13.019626], [77.606878, 13.019663], [77.607077, 13.019734], [77.607224, 13.019769], [77.607311, 13.019776], [77.607425, 13.019769], [77.607491, 13.019752], [77.607634, 13.019686], [77.607735, 13.019626], [77.607807, 13.019569], [77.607827, 13.019541]]]}}]}