{"type": "FeatureCollection", "features": [{"type": "Feature", "properties": {"region_id": "ward_276600-189", "name": "Hongasandra", "parent": "zone_276600-1", "parent_name": "Bommanahalli"}, "geometry": {"type": "Polygon", "coordinates": [[[77.630245, 12.892768], [77.630234, 12.892643], [77.630216, 12.892549], [77.630177, 12.892465], [77.630109, 12.892342], [77.630008, 12.892164], [77.629981, 12.892086], [77.629948, 12.892037], [77.629926, 12.892019], [77.62985, 12.892001], [77.62981, 12.891992], [77.629767, 12.891976], [77.629736, 12.891948], [77.629635, 12.891861], [77.629522, 12.891754], [77.629487, 12.891693], [77.629443, 12.891349], [77.629385, 12.891094], [77.629379, 12.891026], [77.629336, 12.890864], [77.629292, 12.890798], [77.629204, 12.890742], [77.629118, 12.890678], [77.628955, 12.890493], [77.628885, 12.890394], [77.62875, 12.890209], [77.6287, 12.890147], [77.628694, 12.890097], [77.628661, 12.889727], [77.628643, 12.889224], [77.628649, 12.889159], [77.628683, 12.888994], [77.628712, 12.888833], [77.628699, 12.888538], [77.628677, 12.888141], [77.628664, 12.888082], [77.628255, 12.888059], [77.628088, 12.888058], [77.627867, 12.888107], [77.627403, 12.888209], [77.627083, 12.88829], [77.626976, 12.888319], [77.626756, 12.88839], [77.626673, 12.88839], [77.626472, 12.888407], [77.626123, 12.8884], [77.625603, 12.888401], [77.625608, 12.88855], [77.625193, 12.888582], [77.624768, 12.888589], [77.624286, 12.888574], [77.624059, 12.888552], [77.623937, 12.888547], [77.623769, 12.888543], [77.623608, 12.888559], [77.623384, 12.888597], [77.623098, 12.888639], [77.622747, 12.888698], [77.62237, 12.888727], [77.621925, 12.888782], [77.62159, 12.888827], [77.62153, 12.888831], [77.621484, 12.888811], [77.621471, 12.888764], [77.621422, 12.888695], [77.621362, 12.888659], [77.621313, 12.888652], [77.621149, 12.888664], [77.620979, 12.888694], [77.62052, 12.888774], [77.620092, 12.888825], [77.619902, 12.888839], [77.619998, 12.889017], [77.620106, 12.889342], [77.620189, 12.889736], [77.620179, 12.890448], [77.62016, 12.891126], [77.62011, 12.891392], [77.620067, 12.891462], [77.619927, 12.891506], [77.619631, 12.891569], [77.6198, 12.892725], [77.62013, 12.894206], [77.620277, 12.894839], [77.620484, 12.895446], [77.620753, 12.896036], [77.620834, 12.896283], [77.620975, 12.896411], [77.621091, 12.896555], [77.621179, 12.896692], [77.621255, 12.896963], [77.621356, 12.89738], [77.621446, 12.897693], [77.621524, 12.897916], [77.621597, 12.898115], [77.621764, 12.898481], [77.621884, 12.898814], [77.621993, 12.899067], [77.622102, 12.899325], [77.622062, 12.899365], [77.622146, 12.899613], [77.622481, 12.900162], [77.622754, 12.900542], [77.623178, 12.901093], [77.623526, 12.901554], [77.623754, 12.902035], [77.62403, 12.90255], [77.624202, 12.902986], [77.624739, 12.903144], [77.625292, 12.90335], [77.625529, 12.903355], [77.625905, 12.903392], [77.626171, 12.903512], [77.626521, 12.903666], [77.626667, 12.903705], [77.627265, 12.903416], [77.627267, 12.903649], [77.627304, 12.903921], [77.627483, 12.904362], [77.628364, 12.904063], [77.628988, 12.903972], [77.629404, 12.903934], [77.629296, 12.903594], [77.629989, 12.903519], [77.630752, 12.903495], [77.631138, 12.903424], [77.631004, 12.903641], [77.631718, 12.903725], [77.631962, 12.903904], [77.632253, 12.903962], [77.632314, 12.903938], [77.632334, 12.904003], [77.632378, 12.904124], [77.632556, 12.904387], [77.632468, 12.905013], [77.632558, 12.905473], [77.63255, 12.906047], [77.632527, 12.906622], [77.632594, 12.906622], [77.633263, 12.906646], [77.633935, 12.906983], [77.634669, 12.907194], [77.635116, 12.907314], [77.635238, 12.90727], [77.635081, 12.907237], [77.634777, 12.906104], [77.634901, 12.906103], [77.634893, 12.905988], [77.634835, 12.905402], [77.634945, 12.905374], [77.634919, 12.904848], [77.634858, 12.903288], [77.634858, 12.90295], [77.634799, 12.902256], [77.634562, 12.902245], [77.634512, 12.90152], [77.635001, 12.901557], [77.634956, 12.9007], [77.634982, 12.900092], [77.634452, 12.900268], [77.633901, 12.900551], [77.63309, 12.9009], [77.632373, 12.901408], [77.632457, 12.901271], [77.632946, 12.900492], [77.633635, 12.899346], [77.634412, 12.898084], [77.635229, 12.89676], [77.636071, 12.895391], [77.636163, 12.895241], [77.635967, 12.895193], [77.635328, 12.89505], [77.634918, 12.894979], [77.634695, 12.894859], [77.634335, 12.894849], [77.634099, 12.894899], [77.633623, 12.895108], [77.633451, 12.895204], [77.632764, 12.89381], [77.632611, 12.893805], [77.632521, 12.893806], [77.63232, 12.893754], [77.632187, 12.893721], [77.632035, 12.893722], [77.631862, 12.893724], [77.631626, 12.893761], [77.630852, 12.893918], [77.629607, 12.89425], [77.62952, 12.893204], [77.630303, 12.893141], [77.630245, 12.892768]]]}}]}