{"type": "FeatureCollection", "features": [{"type": "Feature", "properties": {"region_id": "ward_276600-170", "name": "Jayanagar East", "parent": "zone_276600-6", "parent_name": "South"}, "geometry": {"type": "Polygon", "coordinates": [[[77.60052, 12.928349], [77.600536, 12.927455], [77.600533, 12.927167], [77.600511, 12.926879], [77.600492, 12.926625], [77.600356, 12.924823], [77.60034, 12.924689], [77.600245, 12.922862], [77.600186, 12.921396], [77.600154, 12.920915], [77.600847, 12.920944], [77.601187, 12.920952], [77.601561, 12.920983], [77.602018, 12.921024], [77.602299, 12.921067], [77.602359, 12.92117], [77.602372, 12.921285], [77.602419, 12.921364], [77.602514, 12.921432], [77.602783, 12.921441], [77.603368, 12.921458], [77.603777, 12.921443], [77.603917, 12.921407], [77.60401, 12.921291], [77.604172, 12.921117], [77.6043, 12.921047], [77.604566, 12.920792], [77.604751, 12.920572], [77.604691, 12.920506], [77.604671, 12.920407], [77.604723, 12.920127], [77.6048, 12.919513], [77.605126, 12.919586], [77.605149, 12.919444], [77.605227, 12.919064], [77.605327, 12.918558], [77.605394, 12.918248], [77.605404, 12.918087], [77.605401, 12.917846], [77.605362, 12.91741], [77.605346, 12.917055], [77.605319, 12.916637], [77.604298, 12.916661], [77.603277, 12.916676], [77.602849, 12.916712], [77.600983, 12.91674], [77.600191, 12.916743], [77.600102, 12.916746], [77.593291, 12.916902], [77.593312, 12.918937], [77.593318, 12.918979], [77.593119, 12.918977], [77.592629, 12.918978], [77.592654, 12.919052], [77.592833, 12.919555], [77.592973, 12.920148], [77.593126, 12.920355], [77.593174, 12.920405], [77.59327, 12.920482], [77.59333, 12.92052], [77.593356, 12.920533], [77.593456, 12.923238], [77.597046, 12.923136], [77.597098, 12.924887], [77.597162, 12.926939], [77.596217, 12.926972], [77.59535, 12.926994], [77.595388, 12.92846], [77.595505, 12.928457], [77.597151, 12.928428], [77.598694, 12.928418], [77.60052, 12.928349]]]}}]}