{"type": "FeatureCollection", "features": [{"type": "Feature", "properties": {"region_id": "ward_276600-44", "name": "Marappana Palya", "parent": "zone_276600-7", "parent_name": "West"}, "geometry": {"type": "Polygon", "coordinates": [[[77.554005, 13.015329], [77.554035, 13.01517], [77.55406, 13.014947], [77.554042, 13.014026], [77.554029, 13.013567], [77.553654, 13.012731], [77.553488, 13.012663], [77.552817, 13.012335], [77.551499, 13.011683], [77.550665, 13.01127], [77.55053, 13.01117], [77.550123, 13.010752], [77.549565, 13.010133], [77.549495, 13.010055], [77.549002, 13.010173], [77.54727, 13.010557], [77.546428, 13.010772], [77.546433, 13.010798], [77.546587, 13.011564], [77.546717, 13.012629], [77.54679, 13.012676], [77.546814, 13.013056], [77.546807, 13.013069], [77.546797, 13.013075], [77.546774, 13.01307], [77.545377, 13.012629], [77.544007, 13.0122], [77.543383, 13.012089], [77.542797, 13.011913], [77.542427, 13.011982], [77.542151, 13.012257], [77.541742, 13.012482], [77.541367, 13.01259], [77.541227, 13.012536], [77.541121, 13.012512], [77.540955, 13.012471], [77.540779, 13.012437], [77.540687, 13.012438], [77.540631, 13.012439], [77.540521, 13.012473], [77.54041, 13.012519], [77.540369, 13.012535], [77.540217, 13.012561], [77.540066, 13.012525], [77.539947, 13.012507], [77.539873, 13.012484], [77.539868, 13.012529], [77.538889, 13.011764], [77.538811, 13.011704], [77.538712, 13.011669], [77.538616, 13.011634], [77.538643, 13.011508], [77.537881, 13.011594], [77.537837, 13.011809], [77.537661, 13.012091], [77.537414, 13.012355], [77.537835, 13.012947], [77.538179, 13.013409], [77.538263, 13.013504], [77.538545, 13.013909], [77.538732, 13.014326], [77.538777, 13.014502], [77.538855, 13.014708], [77.538966, 13.015076], [77.539059, 13.015319], [77.539167, 13.01556], [77.539253, 13.015763], [77.539459, 13.016345], [77.539516, 13.016573], [77.539582, 13.016933], [77.539623, 13.01737], [77.538386, 13.017534], [77.537243, 13.017636], [77.537221, 13.017585], [77.537142, 13.017626], [77.53716, 13.017674], [77.537305, 13.017889], [77.537429, 13.018052], [77.537599, 13.018238], [77.537889, 13.018734], [77.538019, 13.019222], [77.538067, 13.019997], [77.538894, 13.019517], [77.539511, 13.019167], [77.539588, 13.019123], [77.539748, 13.019028], [77.539778, 13.019021], [77.539801, 13.019028], [77.539888, 13.019156], [77.540158, 13.019608], [77.540229, 13.019726], [77.540548, 13.020259], [77.541104, 13.021209], [77.541569, 13.02195], [77.542363, 13.023356], [77.54268, 13.023895], [77.542691, 13.023914], [77.543247, 13.024828], [77.543812, 13.025691], [77.544212, 13.026349], [77.54608, 13.025317], [77.547902, 13.024318], [77.550042, 13.023059], [77.55158, 13.022069], [77.551808, 13.021817], [77.551845, 13.021744], [77.552244, 13.021046], [77.552595, 13.020283], [77.553138, 13.019127], [77.55337, 13.018271], [77.553583, 13.017533], [77.55373, 13.016465], [77.553828, 13.015907], [77.553937, 13.015649], [77.553961, 13.015512], [77.553996, 13.015379], [77.554005, 13.015329]]]}}]}