{"type": "FeatureCollection", "features": [{"type": "Feature", "properties": {"region_id": "ward_276600-173", "name": "Jakkasandra", "parent": "zone_276600-6", "parent_name": "South"}, "geometry": {"type": "Polygon", "coordinates": [[[77.639192, 12.924147], [77.639231, 12.924132], [77.639501, 12.924029], [77.639974, 12.923835], [77.639782, 12.923459], [77.639398, 12.922616], [77.639055, 12.92196], [77.638835, 12.921532], [77.63869, 12.921099], [77.638658, 12.920977], [77.638468, 12.920341], [77.638401, 12.919996], [77.638344, 12.919315], [77.638286, 12.917707], [77.638214, 12.916458], [77.638202, 12.915944], [77.638125, 12.915945], [77.637996, 12.915946], [77.637472, 12.915988], [77.636757, 12.916095], [77.635993, 12.916184], [77.634804, 12.916296], [77.633602, 12.916408], [77.632869, 12.916476], [77.631929, 12.91657], [77.631396, 12.916627], [77.631152, 12.916654], [77.629956, 12.916717], [77.62896, 12.916769], [77.628643, 12.916794], [77.628529, 12.916804], [77.628446, 12.916823], [77.628332, 12.916861], [77.628166, 12.916905], [77.627671, 12.917055], [77.626871, 12.917287], [77.626084, 12.91754], [77.625777, 12.917622], [77.625576, 12.917654], [77.625364, 12.917665], [77.625071, 12.917665], [77.624771, 12.917653], [77.62458, 12.917637], [77.624394, 12.917608], [77.62398, 12.917537], [77.623656, 12.917476], [77.623387, 12.917434], [77.62297, 12.917356], [77.622812, 12.917306], [77.622777, 12.917369], [77.622725, 12.917337], [77.622107, 12.918325], [77.621678, 12.918938], [77.6215, 12.919164], [77.621454, 12.919175], [77.620224, 12.921159], [77.621864, 12.92207], [77.622872, 12.922636], [77.624008, 12.923074], [77.624856, 12.923332], [77.626004, 12.923531], [77.627224, 12.923786], [77.628243, 12.924014], [77.629023, 12.924203], [77.629121, 12.924198], [77.629285, 12.924188], [77.629454, 12.924187], [77.629749, 12.924212], [77.63014, 12.924272], [77.630411, 12.924306], [77.63132, 12.924474], [77.632102, 12.924603], [77.63271, 12.924701], [77.633442, 12.924831], [77.634988, 12.925069], [77.635519, 12.925164], [77.635975, 12.92524], [77.636374, 12.925293], [77.636546, 12.925319], [77.636694, 12.925322], [77.636834, 12.92532], [77.63692, 12.925315], [77.637059, 12.925274], [77.637255, 12.925199], [77.637406, 12.925117], [77.637672, 12.92499], [77.638137, 12.924683], [77.638512, 12.924433], [77.638757, 12.924314], [77.639192, 12.924147]]]}}]}