{"type": "FeatureCollection", "features": [{"type": "Feature", "properties": {"region_id": "ward_276600-86", "name": "Marathahalli", "parent": "zone_276600-4", "parent_name": "Mahadevapura"}, "geometry": {"type": "Polygon", "coordinates": [[[77.673147, 12.948188], [77.67324, 12.948223], [77.673373, 12.948272], [77.673389, 12.948274], [77.673398, 12.948272], [77.67341, 12.948271], [77.673831, 12.948388], [77.674349, 12.948528], [77.674994, 12.948677], [77.675294, 12.948756], [77.675341, 12.948766], [77.675378, 12.948765], [77.67544, 12.94875], [77.675571, 12.948715], [77.675721, 12.948679], [77.676388, 12.948556], [77.677163, 12.948422], [77.677433, 12.948379], [77.677646, 12.948348], [77.677974, 12.948308], [77.678208, 12.948266], [77.678517, 12.948242], [77.678667, 12.948243], [77.67929, 12.948227], [77.679543, 12.948225], [77.679589, 12.948235], [77.679645, 12.948253], [77.679756, 12.948259], [77.679981, 12.948253], [77.680114, 12.948251], [77.680237, 12.948296], [77.680321, 12.948344], [77.680501, 12.94848], [77.680547, 12.94852], [77.68057, 12.948527], [77.680618, 12.948528], [77.681208, 12.948566], [77.681917, 12.948617], [77.682439, 12.94865], [77.682462, 12.948653], [77.682474, 12.948651], [77.682485, 12.948652], [77.682496, 12.948655], [77.682505, 12.948657], [77.682516, 12.948663], [77.682536, 12.948665], [77.682986, 12.948698], [77.683452, 12.948735], [77.684144, 12.948784], [77.684718, 12.948837], [77.685056, 12.948862], [77.685533, 12.948914], [77.685912, 12.948948], [77.686391, 12.948992], [77.686779, 12.949027], [77.68683, 12.948976], [77.687384, 12.949021], [77.687919, 12.949103], [77.688472, 12.949236], [77.688661, 12.949304], [77.688823, 12.94939], [77.689019, 12.949563], [77.689194, 12.949787], [77.68932, 12.949972], [77.689381, 12.950089], [77.689415, 12.950165], [77.689431, 12.950236], [77.689453, 12.950333], [77.689463, 12.950427], [77.689479, 12.950545], [77.689501, 12.950869], [77.68952, 12.951285], [77.689508, 12.951804], [77.68948, 12.952305], [77.689429, 12.952878], [77.689407, 12.953037], [77.689387, 12.953132], [77.689352, 12.953232], [77.68929, 12.953336], [77.689203, 12.953462], [77.689073, 12.953601], [77.688812, 12.953838], [77.688003, 12.954591], [77.687769, 12.954829], [77.68768, 12.954919], [77.687673, 12.95496], [77.687669, 12.955008], [77.68767, 12.955027], [77.687685, 12.955049], [77.687712, 12.95506], [77.687738, 12.955078], [77.68778, 12.955089], [77.68783, 12.955096], [77.687938, 12.955117], [77.688085, 12.955146], [77.689116, 12.955329], [77.689629, 12.955429], [77.689591, 12.955514], [77.689902, 12.955563], [77.694002, 12.956214], [77.694036, 12.956221], [77.693816, 12.957368], [77.694038, 12.95761], [77.69428, 12.957852], [77.694401, 12.958007], [77.69457, 12.958035], [77.694949, 12.95805], [77.695398, 12.958104], [77.695638, 12.958199], [77.695918, 12.958284], [77.695968, 12.958362], [77.695963, 12.958831], [77.695894, 12.9589], [77.695616, 12.958942], [77.695546, 12.958953], [77.694989, 12.958968], [77.694991, 12.960092], [77.693385, 12.959854], [77.693237, 12.960969], [77.694355, 12.961163], [77.695555, 12.961619], [77.697199, 12.962569], [77.69775, 12.962886], [77.69801, 12.962991], [77.69849, 12.963113], [77.699468, 12.963318], [77.699738, 12.963383], [77.699848, 12.96346], [77.700188, 12.963623], [77.701092, 12.964297], [77.701918, 12.965187], [77.701647, 12.96308], [77.701327, 12.96113], [77.701113, 12.959735], [77.701088, 12.959335], [77.701067, 12.95892], [77.701278, 12.958964], [77.701424, 12.958941], [77.701491, 12.959222], [77.701505, 12.959394], [77.701532, 12.959437], [77.701626, 12.959482], [77.701858, 12.959562], [77.70199, 12.959589], [77.70199, 12.959593], [77.702226, 12.959689], [77.702345, 12.959716], [77.702963, 12.95989], [77.703587, 12.960008], [77.704009, 12.96005], [77.704479, 12.956815], [77.701059, 12.956911], [77.700015, 12.953566], [77.699292, 12.949641], [77.699216, 12.949224], [77.699034, 12.948364], [77.698804, 12.947596], [77.698571, 12.946935], [77.698321, 12.946171], [77.698195, 12.945659], [77.698026, 12.944954], [77.697964, 12.944804], [77.697049, 12.944895], [77.695562, 12.945323], [77.694757, 12.945107], [77.693486, 12.944257], [77.691713, 12.942926], [77.68971, 12.941521], [77.688673, 12.941007], [77.688032, 12.941914], [77.686807, 12.941739], [77.685493, 12.941212], [77.685389, 12.941291], [77.685108, 12.941458], [77.684759, 12.941634], [77.684251, 12.941939], [77.683728, 12.942244], [77.682861, 12.942604], [77.68202, 12.94313], [77.681459, 12.943525], [77.680766, 12.943697], [77.680545, 12.943751], [77.680417, 12.943925], [77.68032, 12.944135], [77.680168, 12.944115], [77.679984, 12.944057], [77.679725, 12.944134], [77.679383, 12.944265], [77.678904, 12.944412], [77.677663, 12.944732], [77.676553, 12.945155], [77.675997, 12.94534], [77.675656, 12.945524], [77.675345, 12.945691], [77.674942, 12.945815], [77.674256, 12.945995], [77.673777, 12.946119], [77.673595, 12.946241], [77.673246, 12.946432], [77.67304, 12.946479], [77.673003, 12.946614], [77.673007, 12.946966], [77.672971, 12.947168], [77.672912, 12.947386], [77.672938, 12.947588], [77.672947, 12.94776], [77.672979, 12.947909], [77.673027, 12.948059], [77.673147, 12.948188]]]}}]}