{"type": "FeatureCollection", "features": [{"type": "Feature", "properties": {"region_id": "ward_276600-79", "name": "Sarvagna Nagar", "parent": "zone_276600-3", "parent_name": "East"}, "geometry": {"type": "Polygon", "coordinates": [[[77.637163, 12.992723], [77.637226, 12.992722], [77.637526, 12.99265], [77.637731, 12.99264], [77.637882, 12.99263], [77.637984, 12.992606], [77.638228, 12.992549], [77.63867, 12.992436], [77.63953, 12.992249], [77.640224, 12.992111], [77.64095, 12.992002], [77.641644, 12.991895], [77.642489, 12.99177], [77.643357, 12.991629], [77.644114, 12.991497], [77.644887, 12.991334], [77.644982, 12.99131], [77.645447, 12.991182], [77.646401, 12.991032], [77.646693, 12.990929], [77.64715, 12.990784], [77.647353, 12.990604], [77.647572, 12.990354], [77.647783, 12.99015], [77.647971, 12.989947], [77.648134, 12.989705], [77.648227, 12.989502], [77.64832, 12.9893], [77.648357, 12.989129], [77.648418, 12.988911], [77.64844, 12.988709], [77.648496, 12.988388], [77.648261, 12.98708], [77.648038, 12.98699], [77.647403, 12.986734], [77.646484, 12.986342], [77.64559, 12.986001], [77.64502, 12.985769], [77.644842, 12.985697], [77.644438, 12.985545], [77.643349, 12.985141], [77.642239, 12.984674], [77.641477, 12.984415], [77.640481, 12.984079], [77.639559, 12.983718], [77.63823, 12.983236], [77.637301, 12.982868], [77.637166, 12.982828], [77.636982, 12.982785], [77.636639, 12.982726], [77.635737, 12.982624], [77.634801, 12.982547], [77.633563, 12.982372], [77.632888, 12.9823], [77.632693, 12.982291], [77.63247, 12.982248], [77.632307, 12.982191], [77.631824, 12.981874], [77.631489, 12.981656], [77.630708, 12.981569], [77.630047, 12.981528], [77.629315, 12.981607], [77.628427, 12.98178], [77.627588, 12.981942], [77.626712, 12.982092], [77.625859, 12.982077], [77.624884, 12.981958], [77.624429, 12.981874], [77.624381, 12.981897], [77.624212, 12.981886], [77.624136, 12.981881], [77.623746, 12.98185], [77.623619, 12.981821], [77.623309, 12.981727], [77.623242, 12.981714], [77.623182, 12.981715], [77.623154, 12.981715], [77.623105, 12.981716], [77.623056, 12.981726], [77.623024, 12.981754], [77.622982, 12.981782], [77.622951, 12.981807], [77.62292, 12.981835], [77.622906, 12.981862], [77.622882, 12.981949], [77.622781, 12.982377], [77.622674, 12.982867], [77.622533, 12.983441], [77.622475, 12.983686], [77.622453, 12.983876], [77.622424, 12.984441], [77.622449, 12.985186], [77.622446, 12.985871], [77.622491, 12.986536], [77.622515, 12.987104], [77.622501, 12.987201], [77.622531, 12.987383], [77.622532, 12.987464], [77.622528, 12.987541], [77.622463, 12.987639], [77.622394, 12.987688], [77.622323, 12.987689], [77.622232, 12.98769], [77.621849, 12.9876], [77.6215, 12.987566], [77.620842, 12.987483], [77.619979, 12.987339], [77.619631, 12.987289], [77.61943, 12.987276], [77.619416, 12.987276], [77.619329, 12.987277], [77.619326, 12.987277], [77.619333, 12.987448], [77.619407, 12.988249], [77.619499, 12.988889], [77.619522, 12.989546], [77.619527, 12.990112], [77.619473, 12.990603], [77.619446, 12.990774], [77.619369, 12.991293], [77.619338, 12.9915], [77.619303, 12.991675], [77.619182, 12.991976], [77.618943, 12.992493], [77.618506, 12.993316], [77.618117, 12.994119], [77.617805, 12.994669], [77.617533, 12.995122], [77.617222, 12.995425], [77.616943, 12.995598], [77.61691, 12.995621], [77.616707, 12.995726], [77.616828, 12.995781], [77.616859, 12.995919], [77.616857, 12.996118], [77.616935, 12.996461], [77.617264, 12.997094], [77.617577, 12.997681], [77.617663, 12.997899], [77.617891, 12.998335], [77.617902, 12.998355], [77.617976, 12.998372], [77.618295, 12.998458], [77.618735, 12.998652], [77.618931, 12.998788], [77.619098, 12.99892], [77.619215, 12.999077], [77.61945, 12.999423], [77.620165, 12.999958], [77.620752, 12.99945], [77.622042, 12.998315], [77.623701, 12.996867], [77.624376, 12.996228], [77.624622, 12.996047], [77.624975, 12.995817], [77.625394, 12.995577], [77.626056, 12.995259], [77.626835, 12.994975], [77.62742, 12.994831], [77.628447, 12.994647], [77.62912, 12.994505], [77.629059, 12.994267], [77.63021, 12.994091], [77.631142, 12.993913], [77.63193, 12.993773], [77.633389, 12.993465], [77.634093, 12.993313], [77.634372, 12.993294], [77.634761, 12.993237], [77.635347, 12.993099], [77.635696, 12.99303], [77.636983, 12.99275], [77.637163, 12.992723]]]}}]}