{"type": "FeatureCollection", "features": [{"type": "Feature", "properties": {"region_id": "ward_276600-100", "name": "Basaveshwara Nagar", "parent": "zone_276600-7", "parent_name": "West"}, "geometry": {"type": "Polygon", "coordinates": [[[77.54575, 12.993375], [77.545832, 12.992786], [77.545857, 12.992609], [77.545921, 12.992205], [77.545986, 12.991691], [77.54601, 12.991509], [77.546028, 12.991372], [77.546027, 12.991278], [77.546013, 12.991197], [77.54598, 12.991066], [77.545914, 12.990828], [77.545861, 12.990623], [77.545807, 12.990348], [77.545745, 12.989948], [77.545678, 12.98958], [77.54563, 12.989311], [77.545596, 12.989086], [77.545574, 12.988811], [77.545531, 12.988355], [77.545484, 12.987429], [77.545295, 12.985842], [77.545291, 12.98581], [77.545201, 12.985101], [77.545185, 12.985013], [77.545185, 12.985011], [77.54409, 12.985222], [77.5433, 12.985405], [77.542919, 12.985521], [77.542874, 12.985539], [77.542453, 12.98567], [77.542428, 12.985678], [77.542426, 12.985679], [77.542107, 12.985799], [77.541832, 12.985882], [77.541045, 12.986309], [77.539205, 12.987284], [77.539175, 12.9873], [77.538906, 12.987457], [77.538252, 12.987748], [77.53754, 12.987957], [77.537457, 12.987971], [77.537502, 12.988184], [77.537624, 12.988518], [77.537722, 12.988955], [77.537833, 12.989462], [77.537934, 12.990097], [77.538068, 12.990557], [77.538202, 12.991006], [77.538387, 12.991575], [77.538411, 12.991605], [77.538435, 12.991649], [77.539028, 12.993287], [77.539115, 12.993528], [77.539241, 12.993875], [77.539458, 12.99447], [77.53971, 12.995036], [77.539789, 12.995249], [77.539876, 12.995483], [77.54007, 12.996009], [77.540234, 12.996452], [77.540366, 12.996874], [77.540564, 12.996864], [77.540718, 12.996911], [77.540909, 12.997059], [77.541045, 12.997243], [77.541101, 12.997308], [77.541144, 12.997338], [77.541218, 12.997335], [77.541471, 12.997208], [77.542827, 12.996375], [77.542786, 12.995494], [77.542815, 12.995193], [77.543491, 12.995114], [77.544103, 12.994983], [77.544566, 12.994813], [77.545326, 12.994588], [77.545779, 12.99449], [77.545687, 12.993734], [77.54575, 12.993375]]]}}]}