{"type": "FeatureCollection", "features": [{"type": "Feature", "properties": {"region_id": "ward_276600-110", "name": "Sampangiram Nagar", "parent": "zone_276600-3", "parent_name": "East"}, "geometry": {"type": "Polygon", "coordinates": [[[77.597146, 12.984457], [77.597333, 12.984297], [77.597592, 12.984126], [77.597868, 12.984009], [77.598167, 12.984017], [77.600469, 12.984456], [77.601397, 12.984632], [77.601647, 12.984651], [77.601742, 12.984666], [77.601998, 12.984506], [77.602684, 12.98433], [77.603414, 12.984146], [77.603547, 12.984132], [77.604503, 12.984111], [77.605038, 12.984106], [77.605644, 12.983985], [77.606569, 12.983739], [77.606635, 12.983757], [77.606845, 12.984208], [77.607236, 12.984144], [77.607656, 12.984049], [77.608153, 12.983888], [77.608669, 12.983691], [77.609442, 12.983436], [77.609823, 12.98329], [77.610167, 12.983181], [77.610647, 12.983053], [77.61079, 12.983321], [77.610975, 12.983612], [77.611128, 12.98357], [77.611854, 12.983311], [77.612361, 12.983122], [77.612578, 12.982933], [77.61276, 12.982722], [77.612906, 12.982875], [77.612966, 12.982938], [77.613118, 12.982852], [77.613798, 12.982642], [77.614297, 12.982544], [77.614582, 12.982533], [77.614947, 12.982538], [77.61521, 12.982589], [77.615329, 12.982604], [77.615424, 12.982603], [77.615526, 12.982501], [77.615556, 12.982368], [77.615601, 12.982041], [77.615612, 12.981636], [77.61561, 12.981418], [77.6156, 12.981185], [77.615559, 12.981069], [77.615494, 12.980952], [77.615413, 12.980829], [77.615296, 12.980609], [77.615063, 12.979992], [77.614792, 12.979287], [77.615243, 12.979102], [77.615325, 12.97906], [77.615417, 12.978951], [77.615434, 12.978918], [77.615447, 12.978736], [77.615446, 12.978621], [77.615244, 12.977926], [77.615013, 12.977139], [77.614328, 12.975408], [77.614321, 12.975382], [77.614257, 12.975405], [77.613734, 12.975592], [77.611306, 12.976383], [77.609464, 12.977011], [77.607525, 12.97763], [77.605779, 12.978224], [77.603561, 12.978938], [77.601357, 12.979644], [77.599449, 12.980287], [77.598802, 12.980503], [77.597555, 12.980936], [77.597543, 12.980939], [77.597545, 12.980936], [77.597524, 12.980943], [77.59749, 12.980947], [77.597362, 12.9808], [77.597626, 12.980245], [77.598951, 12.977396], [77.599107, 12.976929], [77.599178, 12.976755], [77.599183, 12.97675], [77.599179, 12.976744], [77.599195, 12.976724], [77.599208, 12.976684], [77.599197, 12.976623], [77.598473, 12.976088], [77.597202, 12.975192], [77.596286, 12.974466], [77.595379, 12.973706], [77.595122, 12.973498], [77.594859, 12.973192], [77.594628, 12.972913], [77.594103, 12.972217], [77.594046, 12.972069], [77.594003, 12.971913], [77.593994, 12.971898], [77.593993, 12.971883], [77.594077, 12.971528], [77.594735, 12.968763], [77.594983, 12.967747], [77.594979, 12.967385], [77.594975, 12.96699], [77.594975, 12.966987], [77.594979, 12.966969], [77.594978, 12.966959], [77.594985, 12.966695], [77.595026, 12.966569], [77.5951, 12.966429], [77.595568, 12.965605], [77.595749, 12.965349], [77.595981, 12.965112], [77.596045, 12.965074], [77.59616, 12.965006], [77.596336, 12.964946], [77.596505, 12.964917], [77.596684, 12.964916], [77.596771, 12.964882], [77.596772, 12.964864], [77.596787, 12.964679], [77.596796, 12.96458], [77.596793, 12.964575], [77.596492, 12.964], [77.596432, 12.963884], [77.596428, 12.963861], [77.596263, 12.963639], [77.596071, 12.963397], [77.595882, 12.963199], [77.595533, 12.962904], [77.595293, 12.962679], [77.595063, 12.962527], [77.595009, 12.962491], [77.594994, 12.962482], [77.594794, 12.962349], [77.594743, 12.962315], [77.594621, 12.962218], [77.594598, 12.962193], [77.594656, 12.962318], [77.594432, 12.962246], [77.594234, 12.962219], [77.593959, 12.962207], [77.593598, 12.962199], [77.593281, 12.962228], [77.592991, 12.962268], [77.592066, 12.962456], [77.591133, 12.962585], [77.590746, 12.962615], [77.590505, 12.962657], [77.590319, 12.962699], [77.589963, 12.962794], [77.589755, 12.962899], [77.58956, 12.963036], [77.58929, 12.963297], [77.589138, 12.963441], [77.589128, 12.963447], [77.588288, 12.964257], [77.587004, 12.965364], [77.586988, 12.965375], [77.586966, 12.965397], [77.586774, 12.965589], [77.586661, 12.965655], [77.586622, 12.965733], [77.586616, 12.965928], [77.587326, 12.966799], [77.587298, 12.966822], [77.587257, 12.966848], [77.587244, 12.966851], [77.587006, 12.967015], [77.586494, 12.967225], [77.585642, 12.967624], [77.585271, 12.96777], [77.585201, 12.967814], [77.585105, 12.967896], [77.584958, 12.968083], [77.584773, 12.968297], [77.584491, 12.968546], [77.584352, 12.968701], [77.584378, 12.969919], [77.584398, 12.970391], [77.584329, 12.97046], [77.584307, 12.970473], [77.583172, 12.971631], [77.582768, 12.972043], [77.582768, 12.972042], [77.582402, 12.972276], [77.581953, 12.972563], [77.581858, 12.972615], [77.58142, 12.972855], [77.58101, 12.973047], [77.581011, 12.973048], [77.581038, 12.973082], [77.581269, 12.973372], [77.581702, 12.974163], [77.582892, 12.975669], [77.583922, 12.977266], [77.584404, 12.978013], [77.584888, 12.978886], [77.585915, 12.980421], [77.586991, 12.982071], [77.587668, 12.983292], [77.588178, 12.984428], [77.588013, 12.984465], [77.588216, 12.984694], [77.588301, 12.984971], [77.588387, 12.985249], [77.588532, 12.985548], [77.588641, 12.985802], [77.588738, 12.986021], [77.588823, 12.986333], [77.589014, 12.986494], [77.58954, 12.985967], [77.590021, 12.986536], [77.590496, 12.986982], [77.592815, 12.989748], [77.593355, 12.989119], [77.594093, 12.988149], [77.595507, 12.986372], [77.596839, 12.984824], [77.597019, 12.984605], [77.597146, 12.984457]]]}}]}