{"type": "FeatureCollection", "features": [{"type": "Feature", "properties": {"region_id": "ward_276600-169", "name": "Byrasandra", "parent": "zone_276600-6", "parent_name": "South"}, "geometry": {"type": "Polygon", "coordinates": [[[77.595388, 12.92846], [77.59535, 12.926994], [77.594372, 12.927019], [77.592304, 12.927057], [77.591302, 12.927061], [77.589716, 12.92706], [77.589633, 12.927122], [77.589211, 12.92753], [77.589175, 12.92757], [77.589038, 12.927685], [77.589007, 12.927705], [77.588933, 12.927739], [77.588834, 12.927757], [77.588706, 12.927761], [77.588475, 12.927763], [77.588279, 12.927759], [77.588133, 12.927777], [77.587983, 12.927821], [77.587864, 12.927867], [77.587748, 12.927938], [77.587643, 12.928011], [77.587539, 12.928107], [77.587491, 12.928172], [77.58743, 12.928268], [77.587365, 12.928399], [77.587357, 12.928444], [77.587346, 12.928481], [77.58731, 12.928545], [77.587254, 12.928593], [77.587203, 12.928616], [77.58716, 12.928631], [77.587082, 12.928627], [77.587012, 12.928627], [77.586897, 12.928625], [77.586661, 12.928621], [77.586061, 12.928616], [77.583834, 12.928707], [77.583922, 12.932953], [77.584829, 12.932935], [77.584884, 12.93461], [77.584904, 12.936489], [77.584903, 12.936646], [77.585196, 12.936639], [77.585429, 12.936615], [77.585601, 12.936583], [77.585781, 12.936523], [77.585931, 12.936477], [77.586132, 12.93635], [77.586696, 12.93589], [77.587083, 12.935649], [77.58728, 12.935523], [77.587394, 12.935441], [77.587536, 12.935334], [77.587607, 12.935279], [77.587692, 12.935237], [77.587763, 12.935224], [77.587797, 12.935224], [77.587844, 12.935223], [77.58792, 12.935251], [77.587979, 12.935272], [77.588098, 12.935333], [77.588443, 12.935512], [77.588604, 12.935622], [77.588808, 12.935728], [77.588927, 12.935776], [77.589016, 12.935796], [77.589088, 12.9358], [77.589168, 12.935799], [77.589227, 12.935782], [77.589312, 12.935752], [77.58948, 12.935642], [77.589657, 12.935603], [77.590045, 12.935583], [77.590174, 12.936347], [77.590627, 12.936142], [77.59107, 12.936614], [77.59111, 12.936672], [77.591387, 12.936487], [77.591578, 12.936395], [77.591743, 12.936341], [77.592007, 12.936286], [77.592437, 12.936211], [77.592704, 12.93618], [77.592724, 12.935706], [77.592721, 12.934961], [77.592651, 12.933236], [77.592607, 12.931977], [77.592546, 12.930693], [77.592505, 12.929275], [77.592507, 12.92869], [77.592528, 12.928581], [77.59255, 12.928551], [77.592589, 12.928529], [77.592645, 12.92852], [77.593488, 12.928507], [77.595388, 12.92846]]]}}]}