{"type": "FeatureCollection", "features": [{"type": "Feature", "properties": {"region_id": "ward_276600-85", "name": "Dodda Nekkundi", "parent": "zone_276600-4", "parent_name": "Mahadevapura"}, "geometry": {"type": "Polygon", "coordinates": [[[77.689902, 12.955563], [77.689772, 12.961095], [77.689793, 12.961191], [77.689691, 12.961545], [77.689541, 12.962113], [77.688966, 12.962219], [77.688965, 12.962241], [77.688636, 12.966453], [77.688563, 12.966945], [77.688142, 12.967165], [77.687925, 12.969073], [77.687336, 12.969087], [77.686652, 12.969259], [77.68639, 12.969486], [77.686273, 12.969782], [77.686396, 12.970005], [77.686215, 12.969995], [77.686059, 12.970044], [77.686062, 12.970268], [77.686246, 12.970655], [77.686435, 12.971443], [77.686596, 12.97189], [77.686709, 12.972325], [77.686776, 12.972926], [77.686851, 12.973161], [77.686398, 12.973544], [77.686099, 12.973759], [77.685921, 12.973926], [77.685742, 12.974093], [77.685731, 12.974152], [77.685696, 12.974318], [77.685486, 12.974703], [77.684687, 12.975333], [77.684112, 12.975754], [77.684085, 12.9762], [77.684296, 12.976829], [77.684727, 12.977593], [77.68544, 12.978293], [77.686658, 12.979295], [77.686927, 12.979483], [77.6887, 12.97851], [77.688879, 12.978826], [77.690322, 12.98187], [77.691811, 12.981763], [77.692439, 12.981894], [77.693155, 12.981984], [77.693457, 12.981488], [77.693721, 12.981574], [77.694284, 12.981522], [77.694338, 12.981447], [77.694402, 12.981371], [77.694527, 12.981322], [77.694854, 12.98124], [77.695092, 12.981158], [77.695142, 12.981348], [77.695164, 12.981431], [77.695193, 12.981546], [77.695264, 12.981739], [77.695441, 12.982074], [77.695443, 12.982078], [77.697338, 12.981705], [77.699752, 12.9807], [77.69984, 12.980909], [77.700402, 12.982232], [77.701092, 12.982478], [77.70044, 12.982822], [77.700688, 12.983721], [77.700641, 12.983799], [77.700294, 12.983974], [77.699826, 12.984616], [77.700049, 12.984632], [77.702332, 12.984792], [77.702547, 12.984993], [77.704218, 12.987166], [77.705809, 12.987077], [77.705729, 12.988101], [77.705802, 12.988101], [77.706168, 12.988097], [77.707081, 12.987908], [77.707329, 12.987151], [77.70802, 12.985008], [77.708084, 12.984236], [77.70839, 12.983712], [77.709417, 12.983935], [77.710335, 12.984158], [77.71116, 12.984329], [77.711543, 12.984146], [77.711999, 12.984015], [77.712889, 12.983414], [77.713342, 12.983032], [77.713413, 12.982762], [77.713883, 12.982273], [77.714394, 12.982088], [77.714961, 12.982082], [77.715397, 12.981826], [77.715302, 12.981486], [77.714825, 12.981401], [77.71436, 12.979001], [77.714164, 12.977836], [77.716758, 12.977379], [77.71877, 12.977268], [77.721129, 12.977028], [77.725425, 12.976624], [77.726994, 12.976554], [77.72697, 12.976411], [77.726876, 12.975226], [77.726867, 12.974627], [77.726826, 12.973793], [77.726804, 12.973131], [77.726737, 12.972454], [77.726652, 12.971369], [77.726625, 12.971371], [77.72659, 12.971077], [77.725554, 12.971212], [77.724302, 12.968033], [77.727852, 12.967494], [77.72777, 12.967016], [77.727724, 12.966709], [77.727663, 12.966379], [77.727605, 12.966199], [77.727615, 12.966197], [77.727594, 12.966113], [77.727582, 12.966], [77.727556, 12.965966], [77.727455, 12.965578], [77.727451, 12.965476], [77.727398, 12.965116], [77.727417, 12.965032], [77.727359, 12.964636], [77.727284, 12.963904], [77.72721, 12.963201], [77.727184, 12.963196], [77.727099, 12.962654], [77.727101, 12.962318], [77.727054, 12.961893], [77.726959, 12.961757], [77.726857, 12.961638], [77.726659, 12.961429], [77.726371, 12.961302], [77.726048, 12.961264], [77.725848, 12.961275], [77.725763, 12.961257], [77.725761, 12.961257], [77.725756, 12.961256], [77.725239, 12.961186], [77.725236, 12.961182], [77.725188, 12.961201], [77.72512, 12.961214], [77.724605, 12.961198], [77.724574, 12.961189], [77.724568, 12.961177], [77.724658, 12.960869], [77.724583, 12.960854], [77.724582, 12.960854], [77.724309, 12.960806], [77.724166, 12.960772], [77.724048, 12.960669], [77.724174, 12.957665], [77.724001, 12.955837], [77.723699, 12.95396], [77.723733, 12.953048], [77.723907, 12.952076], [77.72418, 12.951199], [77.724477, 12.950049], [77.724722, 12.948722], [77.724931, 12.947772], [77.72502, 12.947461], [77.725057, 12.94682], [77.725113, 12.946538], [77.724997, 12.946402], [77.723003, 12.946347], [77.721255, 12.945388], [77.719464, 12.945156], [77.718436, 12.944615], [77.717198, 12.943576], [77.715794, 12.947496], [77.715351, 12.950968], [77.715017, 12.954078], [77.714879, 12.954413], [77.714626, 12.954554], [77.71452, 12.955962], [77.709972, 12.956279], [77.706615, 12.956583], [77.704479, 12.956815], [77.704009, 12.96005], [77.703587, 12.960008], [77.702963, 12.95989], [77.702345, 12.959716], [77.702226, 12.959689], [77.70199, 12.959593], [77.70199, 12.959589], [77.701858, 12.959562], [77.701626, 12.959482], [77.701532, 12.959437], [77.701505, 12.959394], [77.701491, 12.959222], [77.701424, 12.958941], [77.701278, 12.958964], [77.701067, 12.95892], [77.701088, 12.959335], [77.701113, 12.959735], [77.701327, 12.96113], [77.701647, 12.96308], [77.701918, 12.965187], [77.701092, 12.964297], [77.700188, 12.963623], [77.699848, 12.96346], [77.699738, 12.963383], [77.699468, 12.963318], [77.69849, 12.963113], [77.69801, 12.962991], [77.69775, 12.962886], [77.697199, 12.962569], [77.695555, 12.961619], [77.694355, 12.961163], [77.693237, 12.960969], [77.693385, 12.959854], [77.694991, 12.960092], [77.694989, 12.958968], [77.695546, 12.958953], [77.695616, 12.958942], [77.695894, 12.9589], [77.695963, 12.958831], [77.695968, 12.958362], [77.695918, 12.958284], [77.695638, 12.958199], [77.695398, 12.958104], [77.694949, 12.95805], [77.69457, 12.958035], [77.694401, 12.958007], [77.69428, 12.957852], [77.694038, 12.95761], [77.693816, 12.957368], [77.694036, 12.956221], [77.694002, 12.956214], [77.689902, 12.955563]]]}}]}