{"type": "FeatureCollection", "features": [{"type": "Feature", "properties": {"region_id": "ward_276600-50", "name": "Benniganahalli", "parent": "zone_276600-3", "parent_name": "East"}, "geometry": {"type": "Polygon", "coordinates": [[[77.664037, 12.997522], [77.664042, 12.997515], [77.66369, 12.997335], [77.663381, 12.997177], [77.66291, 12.996895], [77.662786, 12.996828], [77.66322, 12.996092], [77.663332, 12.995905], [77.663363, 12.995852], [77.663607, 12.995436], [77.663799, 12.995114], [77.663804, 12.995106], [77.664065, 12.994676], [77.664126, 12.994567], [77.664128, 12.994564], [77.664031, 12.994524], [77.66386, 12.994455], [77.663672, 12.99436], [77.663466, 12.994257], [77.663278, 12.994163], [77.662185, 12.993682], [77.661064, 12.993167], [77.660059, 12.992676], [77.658927, 12.992143], [77.657837, 12.991583], [77.657294, 12.991353], [77.656641, 12.991021], [77.655611, 12.990529], [77.654266, 12.989871], [77.653166, 12.989359], [77.652076, 12.988854], [77.65104, 12.988363], [77.650096, 12.987905], [77.649212, 12.987474], [77.648399, 12.987136], [77.648261, 12.98708], [77.648496, 12.988388], [77.64844, 12.988709], [77.648418, 12.988911], [77.648357, 12.989129], [77.64832, 12.9893], [77.648227, 12.989502], [77.648134, 12.989705], [77.647971, 12.989947], [77.647783, 12.99015], [77.647572, 12.990354], [77.647353, 12.990604], [77.64715, 12.990784], [77.646693, 12.990929], [77.646401, 12.991032], [77.645447, 12.991182], [77.644982, 12.99131], [77.644887, 12.991334], [77.644114, 12.991497], [77.643357, 12.991629], [77.642489, 12.99177], [77.641644, 12.991895], [77.64095, 12.992002], [77.640224, 12.992111], [77.63953, 12.992249], [77.63867, 12.992436], [77.638228, 12.992549], [77.637984, 12.992606], [77.637882, 12.99263], [77.637731, 12.99264], [77.637526, 12.99265], [77.637226, 12.992722], [77.637163, 12.992723], [77.63726, 12.992942], [77.637476, 12.993613], [77.637939, 12.993599], [77.637979, 12.993803], [77.638065, 12.994241], [77.637979, 12.99427], [77.637942, 12.994311], [77.637813, 12.99436], [77.637902, 12.995273], [77.637959, 12.995474], [77.638111, 12.995476], [77.638301, 12.995438], [77.63847, 12.995375], [77.638581, 12.995366], [77.638863, 12.995363], [77.639036, 12.995337], [77.639193, 12.995298], [77.639195, 12.995296], [77.6393, 12.99527], [77.639538, 12.995234], [77.639693, 12.995205], [77.639882, 12.995191], [77.640405, 12.995078], [77.640558, 12.995501], [77.640601, 12.995581], [77.640664, 12.995834], [77.64098, 12.995614], [77.641199, 12.995426], [77.641296, 12.99584], [77.64133, 12.995854], [77.641402, 12.995875], [77.641458, 12.995887], [77.641482, 12.995889], [77.64149, 12.995888], [77.641618, 12.995902], [77.641751, 12.995909], [77.641841, 12.995924], [77.641897, 12.995951], [77.641932, 12.995989], [77.642616, 12.995982], [77.64221, 12.996546], [77.641539, 12.99758], [77.640956, 12.998444], [77.640393, 12.999425], [77.639901, 13.000315], [77.639618, 13.000807], [77.639486, 13.001021], [77.639138, 13.001526], [77.63883, 13.001982], [77.638733, 13.002141], [77.638669, 13.002254], [77.638612, 13.002465], [77.638543, 13.002626], [77.638497, 13.002697], [77.638448, 13.002743], [77.638334, 13.002811], [77.637942, 13.003003], [77.637014, 13.003502], [77.636664, 13.003698], [77.636487, 13.003796], [77.636324, 13.003892], [77.636248, 13.003944], [77.6363, 13.003993], [77.636432, 13.004104], [77.636457, 13.004134], [77.636457, 13.004135], [77.636466, 13.004137], [77.636901, 13.004497], [77.637503, 13.00516], [77.637572, 13.005232], [77.637728, 13.005337], [77.638024, 13.005486], [77.638111, 13.0055], [77.638306, 13.005468], [77.638476, 13.005466], [77.638731, 13.005503], [77.639076, 13.005569], [77.639374, 13.005652], [77.639934, 13.00584], [77.640264, 13.00595], [77.640475, 13.005991], [77.640531, 13.006002], [77.640913, 13.006064], [77.641126, 13.006089], [77.641822, 13.006168], [77.642532, 13.006239], [77.642676, 13.006253], [77.643182, 13.006318], [77.643663, 13.006359], [77.64428, 13.006386], [77.644869, 13.006435], [77.645127, 13.006441], [77.645464, 13.00641], [77.645523, 13.006422], [77.645537, 13.006528], [77.645663, 13.006718], [77.645701, 13.006801], [77.645704, 13.006804], [77.645704, 13.006809], [77.645815, 13.007027], [77.645957, 13.007229], [77.646104, 13.007389], [77.646188, 13.007467], [77.646274, 13.007519], [77.646702, 13.008057], [77.647246, 13.00779], [77.647462, 13.007712], [77.647657, 13.00764], [77.647768, 13.007609], [77.647889, 13.007604], [77.64809, 13.007633], [77.648264, 13.007622], [77.648874, 13.00757], [77.649543, 13.007518], [77.649682, 13.007489], [77.649895, 13.007423], [77.650268, 13.007185], [77.65049, 13.007061], [77.650669, 13.006965], [77.650792, 13.006915], [77.650999, 13.006877], [77.651358, 13.006806], [77.651528, 13.006753], [77.65154, 13.006728], [77.651414, 13.006492], [77.651252, 13.006184], [77.651298, 13.006117], [77.651682, 13.006049], [77.652468, 13.00591], [77.652873, 13.005848], [77.652942, 13.005866], [77.652992, 13.005908], [77.653132, 13.006025], [77.653636, 13.006467], [77.654011, 13.006782], [77.654528, 13.00728], [77.654729, 13.007547], [77.655473, 13.008351], [77.65582, 13.008737], [77.655943, 13.008875], [77.656047, 13.008992], [77.656131, 13.00907], [77.656447, 13.009316], [77.657497, 13.01009], [77.657894, 13.010358], [77.657912, 13.010359], [77.658355, 13.010646], [77.658564, 13.010769], [77.658895, 13.010942], [77.659312, 13.011166], [77.660004, 13.011444], [77.660996, 13.011808], [77.661513, 13.011988], [77.661868, 13.012173], [77.662099, 13.012313], [77.662171, 13.012343], [77.662276, 13.012387], [77.662293, 13.012389], [77.662344, 13.011845], [77.662371, 13.011261], [77.662427, 13.010561], [77.662431, 13.010515], [77.662476, 13.01001], [77.662497, 13.00959], [77.662511, 13.009331], [77.662532, 13.009004], [77.662552, 13.00869], [77.662588, 13.008305], [77.662646, 13.007845], [77.662755, 13.007275], [77.662851, 13.006625], [77.662998, 13.00575], [77.663126, 13.005005], [77.663129, 13.00498], [77.663178, 13.004528], [77.663184, 13.004474], [77.663233, 13.003685], [77.66326, 13.003101], [77.663275, 13.003066], [77.663385, 13.001545], [77.663444, 13.000249], [77.66356, 12.998707], [77.6636, 12.998347], [77.663744, 12.998029], [77.663857, 12.997814], [77.663961, 12.997644], [77.663968, 12.997633], [77.664037, 12.997522]]]}}]}