{"type": "FeatureCollection", "features": [{"type": "Feature", "properties": {"region_id": "ward_276600-161", "name": "Hosakerehalli", "parent": "zone_276600-6", "parent_name": "South"}, "geometry": {"type": "Polygon", "coordinates": [[[77.539328, 12.933636], [77.539385, 12.933601], [77.54066, 12.932712], [77.541513, 12.932075], [77.541704, 12.931932], [77.542422, 12.931397], [77.543062, 12.930866], [77.544083, 12.929915], [77.544949, 12.929141], [77.54556, 12.928634], [77.546063, 12.928217], [77.546243, 12.928075], [77.546113, 12.927908], [77.545828, 12.927364], [77.545611, 12.927206], [77.545385, 12.927209], [77.545228, 12.926813], [77.544835, 12.925882], [77.544525, 12.925994], [77.544336, 12.926037], [77.544265, 12.925774], [77.54401, 12.924977], [77.543848, 12.924612], [77.543587, 12.923727], [77.543449, 12.923094], [77.54346, 12.92255], [77.543467, 12.921885], [77.543098, 12.920911], [77.542758, 12.920159], [77.542313, 12.919524], [77.542019, 12.918863], [77.541918, 12.91889], [77.541853, 12.918904], [77.541837, 12.918901], [77.541834, 12.918889], [77.541825, 12.918875], [77.541816, 12.918859], [77.541809, 12.918842], [77.541808, 12.918825], [77.541792, 12.918807], [77.541762, 12.918782], [77.541745, 12.918772], [77.541698, 12.918753], [77.541623, 12.918732], [77.541417, 12.918599], [77.541273, 12.918501], [77.541225, 12.918478], [77.541205, 12.918469], [77.541155, 12.918453], [77.541135, 12.91845], [77.541106, 12.918446], [77.540895, 12.918349], [77.540558, 12.918153], [77.540084, 12.917895], [77.539902, 12.917821], [77.539667, 12.917697], [77.539531, 12.917637], [77.539396, 12.917605], [77.539354, 12.917601], [77.539289, 12.917602], [77.539251, 12.917602], [77.539231, 12.917602], [77.539142, 12.917631], [77.539098, 12.917673], [77.53903, 12.917732], [77.53891, 12.917809], [77.538718, 12.917906], [77.538478, 12.918043], [77.538406, 12.918098], [77.538384, 12.918134], [77.538382, 12.918167], [77.538383, 12.918207], [77.538383, 12.918245], [77.538388, 12.918273], [77.538389, 12.918323], [77.538396, 12.918349], [77.538425, 12.918365], [77.538447, 12.918368], [77.538476, 12.918367], [77.538515, 12.918376], [77.538546, 12.918402], [77.538632, 12.918475], [77.538798, 12.918651], [77.538832, 12.918686], [77.538864, 12.918738], [77.538869, 12.918792], [77.53886, 12.918837], [77.538841, 12.918875], [77.538808, 12.918951], [77.538785, 12.919042], [77.538728, 12.919135], [77.538651, 12.919237], [77.538611, 12.919318], [77.538605, 12.91937], [77.538612, 12.91942], [77.538625, 12.919493], [77.538657, 12.919573], [77.538694, 12.919639], [77.538724, 12.919679], [77.538753, 12.9197], [77.538777, 12.919722], [77.538801, 12.919745], [77.538816, 12.919787], [77.538849, 12.919884], [77.538955, 12.920101], [77.538963, 12.920158], [77.538974, 12.920194], [77.538996, 12.920206], [77.538994, 12.920227], [77.538995, 12.920236], [77.53902, 12.920427], [77.539022, 12.920592], [77.539025, 12.920613], [77.539055, 12.920788], [77.539062, 12.920844], [77.539087, 12.920872], [77.539121, 12.920917], [77.5392, 12.921097], [77.539208, 12.921117], [77.53927, 12.921257], [77.539311, 12.921398], [77.539397, 12.921691], [77.539434, 12.921873], [77.539448, 12.921887], [77.539458, 12.921899], [77.539496, 12.921905], [77.539534, 12.921904], [77.539611, 12.921897], [77.539691, 12.921894], [77.539718, 12.92191], [77.539731, 12.921918], [77.539866, 12.922062], [77.539897, 12.922112], [77.539991, 12.922196], [77.540028, 12.922341], [77.540074, 12.922488], [77.540148, 12.922824], [77.540228, 12.923095], [77.540286, 12.923286], [77.54029, 12.923323], [77.540327, 12.923682], [77.540357, 12.923979], [77.540368, 12.924146], [77.540335, 12.92422], [77.540289, 12.92426], [77.540251, 12.924276], [77.540197, 12.924292], [77.540161, 12.924302], [77.539853, 12.92449], [77.53967, 12.924583], [77.539529, 12.924612], [77.539422, 12.924631], [77.539355, 12.924632], [77.539112, 12.924684], [77.539046, 12.924726], [77.539027, 12.924765], [77.538943, 12.924806], [77.538901, 12.924815], [77.538885, 12.924814], [77.538856, 12.924813], [77.538819, 12.924784], [77.538809, 12.924776], [77.538731, 12.924677], [77.53864, 12.924574], [77.538504, 12.924428], [77.53828, 12.924106], [77.5382, 12.923917], [77.538132, 12.923852], [77.53785, 12.9236], [77.537739, 12.923516], [77.537624, 12.923444], [77.53743, 12.923411], [77.537276, 12.923389], [77.53717, 12.923386], [77.537103, 12.923387], [77.536997, 12.923438], [77.536881, 12.923548], [77.536838, 12.923676], [77.536818, 12.923733], [77.536809, 12.923759], [77.536716, 12.924025], [77.536678, 12.924176], [77.536735, 12.924488], [77.536729, 12.924737], [77.536731, 12.924946], [77.536733, 12.925147], [77.536729, 12.92555], [77.536782, 12.925959], [77.53681, 12.926233], [77.536811, 12.926417], [77.536747, 12.926547], [77.536609, 12.926661], [77.536291, 12.926801], [77.535784, 12.926958], [77.535514, 12.927041], [77.535272, 12.927126], [77.535097, 12.927312], [77.535002, 12.927371], [77.534978, 12.927593], [77.534996, 12.927746], [77.534975, 12.928044], [77.534994, 12.928285], [77.535062, 12.928606], [77.53509, 12.928895], [77.535145, 12.929466], [77.534845, 12.929276], [77.534836, 12.92929], [77.534858, 12.929453], [77.534826, 12.92959], [77.534722, 12.929784], [77.534593, 12.929978], [77.534447, 12.93014], [77.534334, 12.930334], [77.534246, 12.930585], [77.534248, 12.93077], [77.534251, 12.931067], [77.534205, 12.931381], [77.534207, 12.931614], [77.534217, 12.931759], [77.534218, 12.931896], [77.53422, 12.932089], [77.534222, 12.932234], [77.534174, 12.932419], [77.534077, 12.932508], [77.534087, 12.932677], [77.534094, 12.932798], [77.534061, 12.932902], [77.534052, 12.932933], [77.534045, 12.932955], [77.534025, 12.933005], [77.534002, 12.93301], [77.533989, 12.933014], [77.533975, 12.933037], [77.533973, 12.933042], [77.533961, 12.933084], [77.53394, 12.933095], [77.533896, 12.933157], [77.53378, 12.933375], [77.533697, 12.933619], [77.533689, 12.93362], [77.533696, 12.933751], [77.533681, 12.933864], [77.533648, 12.93392], [77.533592, 12.933985], [77.533543, 12.934026], [77.53277, 12.935497], [77.533622, 12.935416], [77.533744, 12.936043], [77.534335, 12.936494], [77.534364, 12.936462], [77.534376, 12.93645], [77.534587, 12.936289], [77.534604, 12.936245], [77.534767, 12.936154], [77.535376, 12.935835], [77.536027, 12.935513], [77.537191, 12.934867], [77.538955, 12.933861], [77.539, 12.933834], [77.539215, 12.933704], [77.539328, 12.933636]]]}}]}