{"type": "FeatureCollection", "features": [{"type": "Feature", "properties": {"region_id": "ward_276600-34", "name": "Gangenahalli", "parent": "zone_276600-3", "parent_name": "East"}, "geometry": {"type": "Polygon", "coordinates": [[[77.592699, 13.014977], [77.592708, 13.014906], [77.592735, 13.014741], [77.592754, 13.014688], [77.592792, 13.014646], [77.592807, 13.014635], [77.592868, 13.014593], [77.593026, 13.014535], [77.593103, 13.014515], [77.593184, 13.014467], [77.593237, 13.014429], [77.593346, 13.014329], [77.593408, 13.014243], [77.593512, 13.014087], [77.593573, 13.013973], [77.593643, 13.013722], [77.593642, 13.013633], [77.593636, 13.013547], [77.593581, 13.013284], [77.593559, 13.013025], [77.593558, 13.012931], [77.593595, 13.012775], [77.593651, 13.012652], [77.593802, 13.012395], [77.593828, 13.012352], [77.59393, 13.012208], [77.594177, 13.011851], [77.593994, 13.011853], [77.593696, 13.011858], [77.59364, 13.011847], [77.593584, 13.011831], [77.593538, 13.01181], [77.593428, 13.011782], [77.592958, 13.011569], [77.591624, 13.010616], [77.590645, 13.009944], [77.590616, 13.009987], [77.590181, 13.010654], [77.589777, 13.011262], [77.589066, 13.012318], [77.588348, 13.013235], [77.588143, 13.013497], [77.587882, 13.013732], [77.587669, 13.013867], [77.587264, 13.014082], [77.586842, 13.014258], [77.586572, 13.014332], [77.58598, 13.014416], [77.584659, 13.014512], [77.583993, 13.014524], [77.583998, 13.015445], [77.583972, 13.016643], [77.583949, 13.017086], [77.583924, 13.018032], [77.5839, 13.01912], [77.583897, 13.019601], [77.5839, 13.019826], [77.583907, 13.020184], [77.583921, 13.020383], [77.58395, 13.020527], [77.583971, 13.020703], [77.584093, 13.021167], [77.584533, 13.022715], [77.584591, 13.022897], [77.584654, 13.023092], [77.584706, 13.023288], [77.585083, 13.023179], [77.585108, 13.023172], [77.585207, 13.023134], [77.585294, 13.023124], [77.585273, 13.023022], [77.585373, 13.022975], [77.586077, 13.022755], [77.586436, 13.02269], [77.586523, 13.022696], [77.586894, 13.022601], [77.58695, 13.022697], [77.587051, 13.022958], [77.587556, 13.022768], [77.587721, 13.023137], [77.58789, 13.023612], [77.588042, 13.023945], [77.588394, 13.023801], [77.588758, 13.023615], [77.58893, 13.023529], [77.588998, 13.023467], [77.58899, 13.023321], [77.589207, 13.023289], [77.589566, 13.023243], [77.58952, 13.022982], [77.589422, 13.022582], [77.589428, 13.022503], [77.589862, 13.022522], [77.590371, 13.02259], [77.590305, 13.022804], [77.59027, 13.022986], [77.590342, 13.023435], [77.59047, 13.023781], [77.591077, 13.023708], [77.591163, 13.023695], [77.591446, 13.023639], [77.591373, 13.02375], [77.591853, 13.023828], [77.591907, 13.023836], [77.591895, 13.024187], [77.591941, 13.024562], [77.59199, 13.024856], [77.592042, 13.025053], [77.592179, 13.025052], [77.59242, 13.025025], [77.592716, 13.024987], [77.592848, 13.024968], [77.592906, 13.024939], [77.592931, 13.024914], [77.592956, 13.024885], [77.592955, 13.024832], [77.592809, 13.023907], [77.592769, 13.023522], [77.592686, 13.022994], [77.592609, 13.022547], [77.592563, 13.021807], [77.592555, 13.021524], [77.592474, 13.020586], [77.592383, 13.019738], [77.592315, 13.019263], [77.592288, 13.01898], [77.592229, 13.018806], [77.592144, 13.018519], [77.591855, 13.017551], [77.591795, 13.017301], [77.591745, 13.017118], [77.591556, 13.016511], [77.591436, 13.016102], [77.591397, 13.015894], [77.59141, 13.015739], [77.591407, 13.015659], [77.591436, 13.015602], [77.591464, 13.015574], [77.591507, 13.01555], [77.591584, 13.01553], [77.591651, 13.015529], [77.591776, 13.015528], [77.591877, 13.015504], [77.591954, 13.015484], [77.592188, 13.015321], [77.592494, 13.015153], [77.592577, 13.015102], [77.592618, 13.015077], [77.592671, 13.015024], [77.592699, 13.014977]]]}}]}