{"type": "FeatureCollection", "features": [{"type": "Feature", "properties": {"region_id": "ward_276600-167", "name": "Yediyur", "parent": "zone_276600-6", "parent_name": "South"}, "geometry": {"type": "Polygon", "coordinates": [[[77.584903, 12.936646], [77.584904, 12.936489], [77.584884, 12.93461], [77.584829, 12.932935], [77.583922, 12.932953], [77.583821, 12.932955], [77.582349, 12.932991], [77.58126, 12.933024], [77.579649, 12.933058], [77.579584, 12.933056], [77.579611, 12.930829], [77.579026, 12.930841], [77.577836, 12.930861], [77.577013, 12.930888], [77.576182, 12.930904], [77.576323, 12.930586], [77.576355, 12.930347], [77.575525, 12.930307], [77.575262, 12.930304], [77.575047, 12.929244], [77.574581, 12.929312], [77.574011, 12.929454], [77.573664, 12.929531], [77.573603, 12.929364], [77.573559, 12.929388], [77.573494, 12.929411], [77.573407, 12.929438], [77.573261, 12.92947], [77.572997, 12.929529], [77.57281, 12.929559], [77.57202, 12.929678], [77.571696, 12.929743], [77.571456, 12.929778], [77.571137, 12.929811], [77.571009, 12.929824], [77.569724, 12.929907], [77.56934, 12.929919], [77.568575, 12.929941], [77.567824, 12.929956], [77.567105, 12.929955], [77.566673, 12.92996], [77.566815, 12.93031], [77.567091, 12.931015], [77.567262, 12.93152], [77.567326, 12.931727], [77.567379, 12.931848], [77.567414, 12.931884], [77.567435, 12.931911], [77.567439, 12.931915], [77.567494, 12.931966], [77.567574, 12.932062], [77.567641, 12.932158], [77.56769, 12.932257], [77.567786, 12.932486], [77.567885, 12.932805], [77.567988, 12.933141], [77.568041, 12.933298], [77.568059, 12.933368], [77.568105, 12.933604], [77.568127, 12.93374], [77.56816, 12.93374], [77.568416, 12.933722], [77.568559, 12.933713], [77.56877, 12.933687], [77.568888, 12.933661], [77.569054, 12.933612], [77.569205, 12.933565], [77.569288, 12.933835], [77.569323, 12.933826], [77.56947, 12.933807], [77.569598, 12.933778], [77.569788, 12.933737], [77.570134, 12.933657], [77.570338, 12.933602], [77.57074, 12.933484], [77.570858, 12.933452], [77.571034, 12.933421], [77.57115, 12.933414], [77.57123, 12.933419], [77.571369, 12.933423], [77.571517, 12.933421], [77.571632, 12.934436], [77.57167, 12.934867], [77.57169, 12.934927], [77.571728, 12.93496], [77.571838, 12.934959], [77.572831, 12.93494], [77.573041, 12.934923], [77.573227, 12.934898], [77.57347, 12.934854], [77.573832, 12.934761], [77.573824, 12.935034], [77.573831, 12.939574], [77.573798, 12.940632], [77.574028, 12.940636], [77.576252, 12.940602], [77.577657, 12.940588], [77.577748, 12.940587], [77.577757, 12.940257], [77.577756, 12.940128], [77.577736, 12.940031], [77.577668, 12.939903], [77.57767, 12.939774], [77.577683, 12.939671], [77.577917, 12.939381], [77.57916, 12.937828], [77.579738, 12.937113], [77.579941, 12.936879], [77.580016, 12.936823], [77.580102, 12.936761], [77.580177, 12.936754], [77.580302, 12.936753], [77.580607, 12.93675], [77.582882, 12.936721], [77.584903, 12.936646]]]}}]}