{"type": "FeatureCollection", "features": [{"type": "Feature", "properties": {"region_id": "ward_276600-123", "name": "Vijayanagar", "parent": "zone_276600-6", "parent_name": "South"}, "geometry": {"type": "Polygon", "coordinates": [[[77.551556, 12.969945], [77.551333, 12.969808], [77.551153, 12.96973], [77.550902, 12.96969], [77.550629, 12.969586], [77.550421, 12.969486], [77.550301, 12.969418], [77.550191, 12.969275], [77.550091, 12.969073], [77.549969, 12.968898], [77.549892, 12.968782], [77.549765, 12.968585], [77.549637, 12.968395], [77.549429, 12.968247], [77.549298, 12.968323], [77.548411, 12.968702], [77.548686, 12.969531], [77.547426, 12.969591], [77.547267, 12.968991], [77.54626, 12.969286], [77.544851, 12.969742], [77.543141, 12.970316], [77.542315, 12.970591], [77.540737, 12.971128], [77.53939, 12.971581], [77.537842, 12.972085], [77.537877, 12.972181], [77.537871, 12.972183], [77.537952, 12.972328], [77.538213, 12.972613], [77.538646, 12.972907], [77.538697, 12.972942], [77.539591, 12.973255], [77.541472, 12.973651], [77.542208, 12.973805], [77.54347, 12.974068], [77.544257, 12.974164], [77.54505, 12.97417], [77.546247, 12.974203], [77.547275, 12.974226], [77.547314, 12.974218], [77.547384, 12.97421], [77.547454, 12.974209], [77.547524, 12.974216], [77.547593, 12.97423], [77.54766, 12.974251], [77.547724, 12.97428], [77.547785, 12.974315], [77.547841, 12.974356], [77.547893, 12.974403], [77.547898, 12.974409], [77.54792, 12.97444], [77.548014, 12.974576], [77.548033, 12.974598], [77.548364, 12.97506], [77.548381, 12.975043], [77.54858, 12.974835], [77.549461, 12.974055], [77.549506, 12.974012], [77.549577, 12.973953], [77.549652, 12.9739], [77.549732, 12.973852], [77.549815, 12.973811], [77.549902, 12.973776], [77.54999, 12.973748], [77.550081, 12.973728], [77.550173, 12.973714], [77.550267, 12.973708], [77.55036, 12.973709], [77.550453, 12.973717], [77.550545, 12.973732], [77.550635, 12.973755], [77.550723, 12.973784], [77.550809, 12.97382], [77.550891, 12.973863], [77.55097, 12.973912], [77.551045, 12.973967], [77.551114, 12.974028], [77.551179, 12.974094], [77.55118, 12.974095], [77.551389, 12.974232], [77.552512, 12.975119], [77.552937, 12.975379], [77.553431, 12.975524], [77.553992, 12.975546], [77.554348, 12.975547], [77.554351, 12.975555], [77.554493, 12.97556], [77.554496, 12.97556], [77.554408, 12.97529], [77.554278, 12.974924], [77.554096, 12.974554], [77.553962, 12.974257], [77.553886, 12.974014], [77.553817, 12.973664], [77.553754, 12.973452], [77.553664, 12.973188], [77.553583, 12.972928], [77.553472, 12.97269], [77.553374, 12.972525], [77.55329, 12.97235], [77.553226, 12.972112], [77.553146, 12.971925], [77.553119, 12.971852], [77.55306, 12.971648], [77.553025, 12.97155], [77.552941, 12.971427], [77.552769, 12.971237], [77.552571, 12.971076], [77.552417, 12.970894], [77.552232, 12.9707], [77.552008, 12.97045], [77.551818, 12.970213], [77.551669, 12.970065], [77.551556, 12.969945]]]}}]}