{"type": "FeatureCollection", "features": [{"type": "Feature", "properties": {"region_id": "ward_276600-78", "name": "Pulikeshinagar", "parent": "zone_276600-3", "parent_name": "East"}, "geometry": {"type": "Polygon", "coordinates": [[[77.620064, 13.000081], [77.620059, 13.000079], [77.620132, 13.000001], [77.620154, 12.999977], [77.620165, 12.999958], [77.61945, 12.999423], [77.619215, 12.999077], [77.619098, 12.99892], [77.618931, 12.998788], [77.618735, 12.998652], [77.618295, 12.998458], [77.617976, 12.998372], [77.617902, 12.998355], [77.617891, 12.998335], [77.617663, 12.997899], [77.617577, 12.997681], [77.617264, 12.997094], [77.616935, 12.996461], [77.616857, 12.996118], [77.616859, 12.995919], [77.616828, 12.995781], [77.616707, 12.995726], [77.61691, 12.995621], [77.616943, 12.995598], [77.617222, 12.995425], [77.617533, 12.995122], [77.617805, 12.994669], [77.618117, 12.994119], [77.618506, 12.993316], [77.618943, 12.992493], [77.619182, 12.991976], [77.619303, 12.991675], [77.619338, 12.9915], [77.619369, 12.991293], [77.619446, 12.990774], [77.619473, 12.990603], [77.619527, 12.990112], [77.619522, 12.989546], [77.619499, 12.988889], [77.619407, 12.988249], [77.619333, 12.987448], [77.619326, 12.987277], [77.619237, 12.987278], [77.619144, 12.987279], [77.61906, 12.987303], [77.618998, 12.987349], [77.618376, 12.987681], [77.618266, 12.987757], [77.617678, 12.98829], [77.617254, 12.988626], [77.617121, 12.98873], [77.617121, 12.988731], [77.616715, 12.989014], [77.616247, 12.989299], [77.615004, 12.989993], [77.613914, 12.990592], [77.613697, 12.990732], [77.613248, 12.99097], [77.613053, 12.991082], [77.612876, 12.991177], [77.612799, 12.991213], [77.612592, 12.991308], [77.612503, 12.991321], [77.612355, 12.991363], [77.612113, 12.991412], [77.611976, 12.991442], [77.611899, 12.991449], [77.611781, 12.991491], [77.611692, 12.991515], [77.611278, 12.9917], [77.611048, 12.991807], [77.610316, 12.99228], [77.609864, 12.992619], [77.609785, 12.992678], [77.609709, 12.992735], [77.608979, 12.99326], [77.60879, 12.993396], [77.608707, 12.993438], [77.60863, 12.993462], [77.608571, 12.993491], [77.6085, 12.99351], [77.608435, 12.993522], [77.608299, 12.993535], [77.608174, 12.993536], [77.607676, 12.993582], [77.607401, 12.993592], [77.607286, 12.993482], [77.607241, 12.993354], [77.607222, 12.99294], [77.607164, 12.991553], [77.607119, 12.99052], [77.607106, 12.990358], [77.606921, 12.990288], [77.60673, 12.990247], [77.606603, 12.990213], [77.606601, 12.990212], [77.606462, 12.990188], [77.606061, 12.990172], [77.605603, 12.990183], [77.605296, 12.990183], [77.60528, 12.990332], [77.605265, 12.990531], [77.605201, 12.990736], [77.605136, 12.990906], [77.605067, 12.991059], [77.604958, 12.991264], [77.604893, 12.99143], [77.604797, 12.991574], [77.604561, 12.991846], [77.604307, 12.992183], [77.604036, 12.992499], [77.603834, 12.992775], [77.602836, 12.992549], [77.602534, 12.992529], [77.60229, 12.992531], [77.602095, 12.992539], [77.60187, 12.992565], [77.601505, 12.992658], [77.601232, 12.992733], [77.600687, 12.992941], [77.599163, 12.993591], [77.598526, 12.993814], [77.597406, 12.994206], [77.596635, 12.994433], [77.596531, 12.994477], [77.596571, 12.994548], [77.596838, 12.994612], [77.597175, 12.994709], [77.598663, 12.995191], [77.599869, 12.99556], [77.600046, 12.995614], [77.600161, 12.995655], [77.600214, 12.995683], [77.600258, 12.995701], [77.60031, 12.99571], [77.600387, 12.995733], [77.60043, 12.995737], [77.600502, 12.995741], [77.600603, 12.99574], [77.600756, 12.995715], [77.601534, 12.995547], [77.602408, 12.99536], [77.603558, 12.99502], [77.604783, 12.994586], [77.605502, 12.994245], [77.605681, 12.994473], [77.606927, 12.996322], [77.607669, 12.997442], [77.608125, 12.998081], [77.608501, 12.998686], [77.608676, 12.998933], [77.608747, 12.999033], [77.608914, 12.99927], [77.609377, 12.999788], [77.610548, 13.000863], [77.611193, 13.001264], [77.612084, 13.001654], [77.612135, 13.001676], [77.612286, 13.001718], [77.61257, 13.001825], [77.61339, 13.002014], [77.613889, 13.00211], [77.613939, 13.002111], [77.613969, 13.002117], [77.614584, 13.002178], [77.615198, 13.002183], [77.615552, 13.00216], [77.616084, 13.002081], [77.616427, 13.002021], [77.616728, 13.001964], [77.617037, 13.001875], [77.617715, 13.001618], [77.618063, 13.00147], [77.618324, 13.001329], [77.618645, 13.001138], [77.619017, 13.000901], [77.619182, 13.000786], [77.619209, 13.000767], [77.619364, 13.000649], [77.619718, 13.000361], [77.620064, 13.000081]]]}}]}