{"type": "FeatureCollection", "features": [{"type": "Feature", "properties": {"region_id": "ward_276600-89", "name": "Jogupalya", "parent": "zone_276600-3", "parent_name": "East"}, "geometry": {"type": "Polygon", "coordinates": [[[77.641121, 12.972664], [77.640295, 12.972639], [77.639601, 12.97259], [77.638658, 12.972531], [77.638131, 12.97251], [77.637588, 12.972352], [77.636321, 12.971848], [77.634929, 12.971278], [77.633981, 12.970843], [77.632539, 12.970382], [77.630325, 12.969634], [77.628967, 12.969202], [77.628229, 12.970414], [77.627369, 12.97185], [77.626161, 12.973758], [77.625345, 12.975075], [77.625749, 12.975348], [77.626228, 12.975764], [77.626547, 12.976077], [77.626679, 12.976207], [77.626923, 12.976543], [77.626991, 12.976738], [77.627002, 12.976752], [77.627037, 12.97689], [77.627133, 12.977237], [77.627208, 12.977394], [77.627236, 12.977424], [77.627244, 12.977433], [77.62725, 12.977439], [77.627252, 12.977439], [77.627291, 12.97747], [77.627323, 12.977495], [77.627424, 12.977548], [77.627778, 12.977702], [77.6281, 12.977819], [77.628196, 12.977868], [77.628302, 12.977934], [77.628427, 12.978036], [77.628513, 12.97814], [77.628827, 12.977912], [77.629168, 12.977697], [77.629697, 12.977377], [77.630208, 12.977092], [77.630716, 12.976845], [77.631246, 12.976641], [77.63164, 12.976456], [77.631744, 12.976395], [77.631849, 12.976286], [77.631992, 12.97612], [77.632296, 12.975695], [77.632521, 12.975365], [77.632638, 12.975195], [77.632698, 12.975065], [77.632744, 12.974853], [77.63284, 12.974352], [77.632992, 12.973777], [77.633065, 12.973893], [77.63322, 12.974196], [77.633417, 12.974558], [77.633492, 12.974697], [77.633518, 12.974747], [77.633524, 12.974775], [77.633525, 12.974818], [77.633525, 12.974868], [77.633519, 12.974926], [77.633438, 12.975593], [77.633382, 12.97592], [77.633532, 12.97585], [77.633684, 12.975801], [77.633983, 12.975725], [77.634403, 12.975634], [77.634748, 12.975551], [77.63516, 12.97546], [77.635422, 12.975419], [77.635594, 12.97539], [77.635621, 12.975587], [77.635626, 12.975627], [77.635663, 12.975968], [77.635729, 12.975966], [77.635858, 12.975964], [77.63669, 12.975969], [77.637748, 12.975991], [77.638774, 12.976041], [77.639305, 12.976053], [77.639984, 12.976057], [77.64095, 12.976058], [77.64098, 12.975251], [77.64105, 12.974008], [77.641116, 12.972775], [77.641121, 12.972664]]]}}]}