{
"type": "FeatureCollection",
"name": "South",
"crs": { "type": "name", "properties": { "name": "urn:ogc:def:crs:OGC:1.3:CRS84" } },
"features": [
{ "type": "Feature", "properties": { "region_id": "corp_GBA_South", "name": "South", "parent": "ulb_276600", "parent_name": "GBA" }, "geometry": { "type": "Polygon", "coordinates": [ [ [ 77.576863277819101, 12.838467546664999 ], [ 77.574285894400603, 12.838868888611101 ], [ 77.573793240604502, 12.838975356496601 ], [ 77.573138232053793, 12.839130845926 ], [ 77.572295046841006, 12.8391729866562 ], [ 77.571073974666902, 12.839233506178401 ], [ 77.570799705691499, 12.8392553899555 ], [ 77.570424258602898, 12.8392872984669 ], [ 77.570338017939704, 12.839294918583199 ], [ 77.5691978887413, 12.8393930341795 ], [ 77.568544166117704, 12.8394491197938 ], [ 77.566787412594493, 12.839573584021901 ], [ 77.566702909152397, 12.8395823153205 ], [ 77.566668408122197, 12.8395849112118 ], [ 77.566426382780506, 12.8396087340156 ], [ 77.565681318022101, 12.839680386674299 ], [ 77.564906456561104, 12.8395377564022 ], [ 77.563308896620498, 12.8392450501876 ], [ 77.562199434715296, 12.839019848505 ], [ 77.5607210111732, 12.8399097973392 ], [ 77.560504114601997, 12.8400403588233 ], [ 77.559982125420305, 12.8403198757048 ], [ 77.558245361177498, 12.8411137829913 ], [ 77.557278808020001, 12.8415342759069 ], [ 77.557293247432099, 12.8431321399549 ], [ 77.557277845044197, 12.8432415162676 ], [ 77.5571804999542, 12.843932805281799 ], [ 77.556465400831598, 12.8449776270903 ], [ 77.555922704894002, 12.845999311746599 ], [ 77.555476026708405, 12.8467851597775 ], [ 77.554951540854702, 12.8476734050403 ], [ 77.554482497911295, 12.8480122539371 ], [ 77.554127870092998, 12.8479422990196 ], [ 77.553246209235397, 12.8477690557117 ], [ 77.553262340520902, 12.8475430318062 ], [ 77.553034370310101, 12.8471364304228 ], [ 77.552023355637004, 12.847488452485299 ], [ 77.551931362488602, 12.8475537192005 ], [ 77.551426866339497, 12.847915494788699 ], [ 77.551397747723101, 12.847938364618701 ], [ 77.551369204526495, 12.847961228852 ], [ 77.550422817436498, 12.8479320307818 ], [ 77.550016395911399, 12.8479190402981 ], [ 77.549485061290099, 12.847902745398599 ], [ 77.548911031066794, 12.847875570727 ], [ 77.548097498049302, 12.8478382976738 ], [ 77.545712839099096, 12.847738343180501 ], [ 77.545006323221799, 12.847698892860301 ], [ 77.544865198913598, 12.847691174797401 ], [ 77.544872757054804, 12.847596869995799 ], [ 77.544683287978003, 12.8476161072567 ], [ 77.544650736089395, 12.8474001828813 ], [ 77.544357900910995, 12.8469902820027 ], [ 77.544495080792501, 12.8467285547085 ], [ 77.544576125819304, 12.8463123121116 ], [ 77.544388828151995, 12.8452793868768 ], [ 77.544314063938501, 12.8443685816575 ], [ 77.543724176682701, 12.844054903450401 ], [ 77.543274588824701, 12.843730514339599 ], [ 77.542774926789903, 12.8433707304964 ], [ 77.542253039546395, 12.8432865452972 ], [ 77.541676535944603, 12.843324980758201 ], [ 77.541485582662105, 12.8435332492882 ], [ 77.541264994690593, 12.844273129626499 ], [ 77.541262245070797, 12.8442755802712 ], [ 77.541272495716299, 12.8442872574179 ], [ 77.541262245070797, 12.8442755802712 ], [ 77.540491615778294, 12.844961510560401 ], [ 77.539044503745998, 12.8453189316145 ], [ 77.538333874716201, 12.845303950675699 ], [ 77.538346208760302, 12.8448911924611 ], [ 77.538162009612293, 12.844231783484901 ], [ 77.537931154104996, 12.843410459455001 ], [ 77.537876830964905, 12.8424682190286 ], [ 77.537574510710897, 12.841737318393101 ], [ 77.536779848475405, 12.8414856534219 ], [ 77.535783760672103, 12.841169340288801 ], [ 77.535108063583905, 12.840954117117899 ], [ 77.534525736217105, 12.8404514899375 ], [ 77.533913931681894, 12.8399239962114 ], [ 77.533612481529602, 12.839908533687201 ], [ 77.533434160091105, 12.8397015013737 ], [ 77.531280543930393, 12.840051437476999 ], [ 77.530969608742495, 12.8400907204164 ], [ 77.529089705485404, 12.8403214093009 ], [ 77.5260566191956, 12.8406418359518 ], [ 77.524462376600894, 12.840212209788 ], [ 77.524206093039197, 12.8401406320049 ], [ 77.523518466331595, 12.8399450337806 ], [ 77.523244761336002, 12.8412324193357 ], [ 77.523123586549303, 12.8417988027694 ], [ 77.522955448154505, 12.842527781902801 ], [ 77.522868182383704, 12.8429052889276 ], [ 77.522772111726198, 12.843400200221099 ], [ 77.522704784165796, 12.843764710532399 ], [ 77.522542010888898, 12.8444106022736 ], [ 77.522503210166306, 12.8445645589817 ], [ 77.522416853953899, 12.8448560597532 ], [ 77.522393643475397, 12.8449343405085 ], [ 77.522287510666402, 12.8452922732289 ], [ 77.522262790589707, 12.845408893531999 ], [ 77.521700300774995, 12.848077335949201 ], [ 77.521681444201207, 12.8481674078593 ], [ 77.521674453619696, 12.8482009031791 ], [ 77.521641153649895, 12.848359905442701 ], [ 77.5216282874066, 12.848541832513099 ], [ 77.521600443980901, 12.8489301761016 ], [ 77.521494755788197, 12.849106529770999 ], [ 77.5212600304354, 12.8496341706867 ], [ 77.521032359844398, 12.8501460754735 ], [ 77.520995414846595, 12.850242606754801 ], [ 77.520857083485694, 12.8506029485975 ], [ 77.520174614137701, 12.8523733430075 ], [ 77.519682404877997, 12.853640835645701 ], [ 77.519507605566503, 12.854089607878 ], [ 77.519210036471307, 12.854855647567501 ], [ 77.519148014056398, 12.854999650451401 ], [ 77.519086633177395, 12.8555444023901 ], [ 77.518974840286504, 12.856546331470099 ], [ 77.518838933660106, 12.8577699590656 ], [ 77.518746543395295, 12.8584244223577 ], [ 77.518637988824693, 12.8592650503744 ], [ 77.518580028949998, 12.8597205165856 ], [ 77.518539941774904, 12.8600372059593 ], [ 77.518521337303696, 12.8601844157768 ], [ 77.518496317575298, 12.8603860049851 ], [ 77.518458835091906, 12.860687620835 ], [ 77.5184182500155, 12.861075589460601 ], [ 77.518408738561902, 12.861166480582201 ], [ 77.518908929927093, 12.861653560910099 ], [ 77.519448188383805, 12.862043164768 ], [ 77.519551106966006, 12.8621183948498 ], [ 77.519571491130606, 12.8623054848526 ], [ 77.519591535061807, 12.8624891123351 ], [ 77.519728306251594, 12.863734025147799 ], [ 77.519753809423094, 12.863964776621399 ], [ 77.520220496551403, 12.866343057486899 ], [ 77.522919009263404, 12.8705587742165 ], [ 77.5229824490129, 12.8705663820345 ], [ 77.522039413579193, 12.8711261653375 ], [ 77.520874760518794, 12.8718174922892 ], [ 77.520267033611006, 12.872178230241801 ], [ 77.519436663297299, 12.8717898121968 ], [ 77.518576699490794, 12.8709160504834 ], [ 77.517289856976504, 12.8695980298907 ], [ 77.516368339265597, 12.868804103237 ], [ 77.516351000309001, 12.8685149999672 ], [ 77.516717000100101, 12.868486000428501 ], [ 77.516794000053693, 12.8666369996977 ], [ 77.515571000311994, 12.862605999966901 ], [ 77.516098000333102, 12.8623990003135 ], [ 77.515925000449101, 12.8616790003855 ], [ 77.515475000381599, 12.8609849998578 ], [ 77.515843000264894, 12.8605969999515 ], [ 77.515827000426398, 12.859325999795001 ], [ 77.516534999800996, 12.858488999867401 ], [ 77.516545000262198, 12.8578490000312 ], [ 77.503841999918805, 12.8578649998698 ], [ 77.504294000078403, 12.860014000046 ], [ 77.505068999844895, 12.8601530001608 ], [ 77.506029000048699, 12.861270999556901 ], [ 77.506898999699501, 12.863467000101901 ], [ 77.506782999746093, 12.864300999891199 ], [ 77.508769999646205, 12.8651579998418 ], [ 77.499119999798395, 12.871792000000699 ], [ 77.497995000079399, 12.872784999927701 ], [ 77.497577578546, 12.8721488486295 ], [ 77.497022000175406, 12.870629000328099 ], [ 77.496612000153902, 12.8687530001508 ], [ 77.496221000109301, 12.8687180003354 ], [ 77.495318999882102, 12.868516000013299 ], [ 77.491878000379501, 12.8684339998292 ], [ 77.491569905839697, 12.8685329269164 ], [ 77.490963000452197, 12.8688639998736 ], [ 77.489864000133593, 12.8685099997367 ], [ 77.490106999648404, 12.865362000256001 ], [ 77.487775000026303, 12.864788999912401 ], [ 77.487061000374894, 12.8647580002814 ], [ 77.486763000122394, 12.8642520003295 ], [ 77.485564999734905, 12.862776999758699 ], [ 77.485355999989395, 12.862354000037 ], [ 77.485377000058506, 12.861828000062101 ], [ 77.4853250003585, 12.8616010003858 ], [ 77.485318000035704, 12.861309000409999 ], [ 77.485392187760496, 12.8607356177908 ], [ 77.485569999965506, 12.8601900000684 ], [ 77.485528999873395, 12.860191000114501 ], [ 77.483009999721602, 12.8608029995587 ], [ 77.482987999606394, 12.860727999697399 ], [ 77.482907000367703, 12.8607489997665 ], [ 77.482926000344605, 12.860823999627801 ], [ 77.482847000298705, 12.860842999604699 ], [ 77.482904000229397, 12.861076999603799 ], [ 77.480969000029205, 12.8615430004091 ], [ 77.480568000422807, 12.8615170001094 ], [ 77.480225999939805, 12.8609859999039 ], [ 77.478365000454204, 12.8621060002916 ], [ 77.478234999855204, 12.861890000223299 ], [ 77.477753000110596, 12.862141000107 ], [ 77.478306999578194, 12.862887000334799 ], [ 77.479210999897603, 12.8637990001237 ], [ 77.481010000121302, 12.862776999758699 ], [ 77.482246999609202, 12.864474999821301 ], [ 77.488873442481506, 12.871820764054499 ], [ 77.489018180165999, 12.8717766440524 ], [ 77.489018180165999, 12.8717766440524 ], [ 77.4897949632349, 12.872615077681299 ], [ 77.490151044423598, 12.873003223007 ], [ 77.490609725642798, 12.8735344959111 ], [ 77.492239534160007, 12.875749867040801 ], [ 77.492832752887495, 12.8765329400116 ], [ 77.493253672672395, 12.8772331945944 ], [ 77.493939028849297, 12.877654567884999 ], [ 77.494241445221405, 12.8781720305414 ], [ 77.494609375797694, 12.878569138052301 ], [ 77.495034313882002, 12.8791401508528 ], [ 77.495574871772703, 12.879544090840101 ], [ 77.4957243142359, 12.8800336828997 ], [ 77.496484680267301, 12.879883527910099 ], [ 77.496416838067802, 12.880562019821699 ], [ 77.497045542625997, 12.880866104174499 ], [ 77.497346089833002, 12.881283539911699 ], [ 77.497641370009006, 12.881352618204501 ], [ 77.498048518460706, 12.8816714296893 ], [ 77.499100601900693, 12.8824964502149 ], [ 77.501067072902202, 12.8838272807346 ], [ 77.502032496015303, 12.8843928723396 ], [ 77.503409778937694, 12.885153794061001 ], [ 77.506386086971801, 12.886557021633401 ], [ 77.507590670800994, 12.8871442992629 ], [ 77.508135444525394, 12.8874690354106 ], [ 77.508772397660593, 12.8879091416728 ], [ 77.509430917436703, 12.8884360934379 ], [ 77.509898173725503, 12.8888614874972 ], [ 77.510291278496894, 12.889261922740101 ], [ 77.510633548868597, 12.889681462330399 ], [ 77.510993217118695, 12.8901644401375 ], [ 77.511342526729194, 12.8906546813195 ], [ 77.511661957127302, 12.891127997129299 ], [ 77.5121998563598, 12.891892254620901 ], [ 77.512669773138299, 12.892496341118299 ], [ 77.513111966630106, 12.8930141545626 ], [ 77.514106240670401, 12.8940357930282 ], [ 77.514381723720703, 12.8943184039343 ], [ 77.514381723803993, 12.89431840402 ], [ 77.517832913962295, 12.8978678975382 ], [ 77.518407787782195, 12.898346173332801 ], [ 77.525298084514105, 12.903784272519299 ], [ 77.525520233237401, 12.9040388876143 ], [ 77.525828640295401, 12.904277305123101 ], [ 77.525871108631804, 12.9042912433531 ], [ 77.525870880091006, 12.9042976905475 ], [ 77.526382882928402, 12.904980711593799 ], [ 77.527682979704906, 12.9070927218738 ], [ 77.528428390971101, 12.9083155290959 ], [ 77.529497773784101, 12.9099165568612 ], [ 77.530127725180094, 12.9109967069595 ], [ 77.531085716005904, 12.913104013615801 ], [ 77.531323771432298, 12.914083816259801 ], [ 77.5313757146032, 12.914297607872699 ], [ 77.531782013045202, 12.9177925079565 ], [ 77.533130381131102, 12.9180952404402 ], [ 77.534427356862494, 12.918359680722499 ], [ 77.536429384292603, 12.9192492406215 ], [ 77.537849703388801, 12.918562294088799 ], [ 77.538157226240202, 12.9182329249082 ], [ 77.538361400370704, 12.918101065715501 ], [ 77.5383636342805, 12.9180942679472 ], [ 77.538488052057303, 12.9179880295702 ], [ 77.538698272023694, 12.9178278778602 ], [ 77.538832782646693, 12.9177520334514 ], [ 77.538845377165302, 12.917745134940899 ], [ 77.538890597743503, 12.9177198497262 ], [ 77.538975698263499, 12.9176815389376 ], [ 77.539090588539096, 12.917629816400501 ], [ 77.539127830694596, 12.917612514125199 ], [ 77.539251011854105, 12.917554849171999 ], [ 77.539273334307197, 12.917542209335799 ], [ 77.539293929989299, 12.917529586291099 ], [ 77.539308217010699, 12.9175192832794 ], [ 77.539466738887498, 12.917597924799299 ], [ 77.539628138798406, 12.917676538211801 ], [ 77.539642608442705, 12.917684302859101 ], [ 77.539694087051302, 12.9177086476447 ], [ 77.539853520587101, 12.9177635638656 ], [ 77.539875461493196, 12.9177701264815 ], [ 77.540001545125904, 12.9178287550271 ], [ 77.540106297729395, 12.917884202997399 ], [ 77.540236063346697, 12.917965382395201 ], [ 77.540250544439104, 12.917974276231201 ], [ 77.540351439285104, 12.9180467017172 ], [ 77.540361269991294, 12.9180511234304 ], [ 77.540394791243301, 12.9180643493654 ], [ 77.540448423901296, 12.918073991595101 ], [ 77.540468501047698, 12.918067020206299 ], [ 77.540514376981605, 12.918049633732499 ], [ 77.5405765407166, 12.9180490288672 ], [ 77.540646632477205, 12.918092391101199 ], [ 77.540655323427501, 12.9180979532325 ], [ 77.540821289808306, 12.9182296003166 ], [ 77.540932865309301, 12.918333543102801 ], [ 77.540960779185795, 12.918361504939 ], [ 77.540965429595602, 12.9183659770398 ], [ 77.541011579640895, 12.918375691959 ], [ 77.541090042717698, 12.9183929977613 ], [ 77.541099297855496, 12.9183974250435 ], [ 77.541195337060898, 12.918445051916599 ], [ 77.541313442936499, 12.918511662733501 ], [ 77.541346434382305, 12.9185294110402 ], [ 77.541376029402599, 12.9185528390986 ], [ 77.5415146923105, 12.918659905920199 ], [ 77.541684654330197, 12.918788125391901 ], [ 77.5417435360186, 12.918804492252701 ], [ 77.5417735581687, 12.9188132346878 ], [ 77.541861623640102, 12.9188123773167 ], [ 77.541959394174398, 12.9188035200541 ], [ 77.541986976848705, 12.9187987341483 ], [ 77.541984030336096, 12.9187919868032 ], [ 77.541976319129603, 12.918769475104099 ], [ 77.541932714295498, 12.918442391364101 ], [ 77.541928748140094, 12.9182210795489 ], [ 77.542788685281707, 12.9178151790424 ], [ 77.542814919649402, 12.9178034079179 ], [ 77.5431720508533, 12.9176431739451 ], [ 77.544341317347204, 12.9175425650634 ], [ 77.544343711180701, 12.9175515764334 ], [ 77.544484828959099, 12.9175385049684 ], [ 77.544697975537105, 12.9175187613386 ], [ 77.544708237428907, 12.917793090162499 ], [ 77.544763898935898, 12.918287197152599 ], [ 77.545343992886004, 12.918214911762099 ], [ 77.545909708000906, 12.918143894679099 ], [ 77.546724239855607, 12.918029793541001 ], [ 77.546729683416103, 12.9180557151532 ], [ 77.546788086000404, 12.918195183042799 ], [ 77.546843530589797, 12.9183267744153 ], [ 77.546856757664898, 12.9183255160559 ], [ 77.546864438126093, 12.9182881730807 ], [ 77.546984484122603, 12.9182621566846 ], [ 77.547293703756495, 12.918215095999599 ], [ 77.547588095345205, 12.918181731662701 ], [ 77.547864677948496, 12.918151928796 ], [ 77.547899731499896, 12.918145940058301 ], [ 77.548110605435298, 12.9181077434776 ], [ 77.548294080188896, 12.9180924008306 ], [ 77.548623871269598, 12.9180304565316 ], [ 77.548549334179697, 12.9177759546742 ], [ 77.548534417621795, 12.9177241509187 ], [ 77.548455164565695, 12.917174938902299 ], [ 77.548100996761804, 12.917160325964399 ], [ 77.548087097086494, 12.9170384935197 ], [ 77.548074554735607, 12.916936975840301 ], [ 77.548038723249505, 12.9166391812683 ], [ 77.548035507837795, 12.916492399198299 ], [ 77.548254232414905, 12.916433798128701 ], [ 77.548514295735202, 12.9163646294432 ], [ 77.548829454413706, 12.9162791120875 ], [ 77.548998815898898, 12.9162345442712 ], [ 77.549179067538205, 12.9161853527125 ], [ 77.549238192094094, 12.916168964866401 ], [ 77.549481562824695, 12.916099958265001 ], [ 77.550229827656807, 12.9158894343028 ], [ 77.550604007583502, 12.9157841584633 ], [ 77.550604007683802, 12.9157841589355 ], [ 77.550656879943801, 12.9160331526473 ], [ 77.550676260992105, 12.9161244302092 ], [ 77.550680968805906, 12.916134548213799 ], [ 77.550730672689497, 12.9162108572971 ], [ 77.550803755232195, 12.916321947288999 ], [ 77.550872118552206, 12.9164217900293 ], [ 77.550919222166101, 12.916468761826501 ], [ 77.550919222166002, 12.916468761826501 ], [ 77.550919222166101, 12.916468761826501 ], [ 77.551009392106096, 12.9165732701997 ], [ 77.551531312627603, 12.917051889726499 ], [ 77.551618671912294, 12.917168444063099 ], [ 77.551956231916293, 12.917878987197 ], [ 77.551997869819402, 12.918207322145401 ], [ 77.551954183327794, 12.9182924345104 ], [ 77.551904341574399, 12.9185403942242 ], [ 77.551902697891805, 12.9186127850469 ], [ 77.551915711824904, 12.918722384546699 ], [ 77.551948307862503, 12.918862000886101 ], [ 77.551955743259896, 12.91888556646 ], [ 77.551955743259896, 12.9188855664601 ], [ 77.551955743259896, 12.9188855664601 ], [ 77.551955743259896, 12.91888556646 ], [ 77.551955743259896, 12.9188855664601 ], [ 77.552123031808193, 12.919668218925199 ], [ 77.552153451729097, 12.919662964236201 ], [ 77.552173255073001, 12.9197695032327 ], [ 77.552319318497197, 12.9197483300599 ], [ 77.5524262852135, 12.919700624854499 ], [ 77.552517690393103, 12.919640348273299 ], [ 77.552581177170794, 12.9196342733267 ], [ 77.552639254282099, 12.9196601507754 ], [ 77.552682126956697, 12.9197313428604 ], [ 77.552881946831207, 12.9200925742963 ], [ 77.553026209130195, 12.9202595655957 ], [ 77.553233765169793, 12.9204369611685 ], [ 77.553506415760296, 12.920619737234301 ], [ 77.554041549428305, 12.9209008928015 ], [ 77.554154988741601, 12.9209595704728 ], [ 77.554386243533997, 12.9210169886352 ], [ 77.554616693768097, 12.9210105079969 ], [ 77.554736294560001, 12.9209786830321 ], [ 77.554897051767497, 12.9209623371832 ], [ 77.555119431515806, 12.921021567139899 ], [ 77.555645699301607, 12.920998816862101 ], [ 77.555971975068999, 12.9220100232032 ], [ 77.556169292081904, 12.9225810402836 ], [ 77.556281300055602, 12.922978109771799 ], [ 77.558751026086895, 12.9221869142961 ], [ 77.559116740482693, 12.922082747667201 ], [ 77.560309309752299, 12.9218466758639 ], [ 77.561612293975998, 12.921609517261899 ], [ 77.561694158225393, 12.9215158690702 ], [ 77.561845239851607, 12.921083498177399 ], [ 77.561845239851607, 12.921083498177399 ], [ 77.561942696919203, 12.9208182801743 ], [ 77.562123014559901, 12.9204370580114 ], [ 77.562124602519205, 12.920433095217501 ], [ 77.562182517768207, 12.9202885327334 ], [ 77.562202824188702, 12.920247677814499 ], [ 77.562275865599204, 12.9201848481738 ], [ 77.5624313995676, 12.9200828118539 ], [ 77.562797941635594, 12.919843185438101 ], [ 77.563026804241204, 12.919706549316601 ], [ 77.563252811700707, 12.919572199713601 ], [ 77.563358488028996, 12.919492109599499 ], [ 77.563433198037799, 12.9194236167295 ], [ 77.563577022841002, 12.919246030309299 ], [ 77.563888856523405, 12.918778817020099 ], [ 77.564101840534903, 12.918440187647301 ], [ 77.564153825806002, 12.918344814121699 ], [ 77.564278677770503, 12.918113206415899 ], [ 77.564346557110795, 12.9179709264951 ], [ 77.564497910020194, 12.917653678188501 ], [ 77.564614610368807, 12.9173566498777 ], [ 77.564686405466404, 12.917171865392699 ], [ 77.564728584696994, 12.9170666085642 ], [ 77.564850876766499, 12.916761435761099 ], [ 77.564855054369701, 12.916751043392599 ], [ 77.564898413288105, 12.9167785085356 ], [ 77.565394881964707, 12.9172998531159 ], [ 77.5654674754132, 12.917404383489799 ], [ 77.565745147065599, 12.9179793257988 ], [ 77.566026917418498, 12.9187645066112 ], [ 77.568698767849298, 12.9181501601508 ], [ 77.568675542182206, 12.9180894082082 ], [ 77.568657228718195, 12.917956540303599 ], [ 77.568654971559695, 12.9178367545546 ], [ 77.568666800081701, 12.917539919458299 ], [ 77.568775217115501, 12.917183713197 ], [ 77.568858890512701, 12.916967092792699 ], [ 77.568858890512701, 12.916967092792699 ], [ 77.568858890512701, 12.916967092792699 ], [ 77.569111414526802, 12.9164507743525 ], [ 77.569249404925998, 12.9161535355517 ], [ 77.569351355135097, 12.915934574225901 ], [ 77.569566824267199, 12.915502184293899 ], [ 77.569723208225795, 12.9155401715708 ], [ 77.569774561091805, 12.915552088723301 ], [ 77.569897608150995, 12.9155949212028 ], [ 77.569934675686397, 12.9156171427533 ], [ 77.569975312145104, 12.9156506223419 ], [ 77.570090524524403, 12.915827920500799 ], [ 77.570126979387993, 12.9159027037292 ], [ 77.570129586202299, 12.9159080518127 ], [ 77.570188781803694, 12.9160294868799 ], [ 77.570235164462702, 12.9161246364859 ], [ 77.570292115409302, 12.916233619625601 ], [ 77.570366585731804, 12.916310809435499 ], [ 77.570403676516904, 12.916335289295899 ], [ 77.570648999618498, 12.9164017626307 ], [ 77.570707294209299, 12.9164169991699 ], [ 77.571001300612096, 12.9165157430241 ], [ 77.57106419982, 12.916530934137899 ], [ 77.571102867196501, 12.916540717251801 ], [ 77.571237655246094, 12.9165495538921 ], [ 77.5714102461978, 12.916539949150501 ], [ 77.571643249127106, 12.9165274907128 ], [ 77.571969667335793, 12.9165309758184 ], [ 77.572028388063401, 12.9165316026391 ], [ 77.572556765959703, 12.916582863386701 ], [ 77.572748743713007, 12.9166114634564 ], [ 77.572814439892994, 12.9166187213655 ], [ 77.572893443613694, 12.9166326240213 ], [ 77.573103602116205, 12.916750260494601 ], [ 77.573326550607703, 12.9168801931699 ], [ 77.573534210559103, 12.9169786555094 ], [ 77.573517426972003, 12.9176476294676 ], [ 77.573512955584704, 12.9178258503417 ], [ 77.573536695726105, 12.917895633798601 ], [ 77.573649317026707, 12.918212990155901 ], [ 77.573913607362996, 12.918838283088 ], [ 77.574096814837503, 12.919302883186701 ], [ 77.574232582658695, 12.919744235236401 ], [ 77.574247762041793, 12.919877344496699 ], [ 77.574292481765099, 12.9202529647467 ], [ 77.574402092707999, 12.920837997205799 ], [ 77.573561281096204, 12.921025848804099 ], [ 77.573567178999198, 12.921545274859101 ], [ 77.573575969927006, 12.9223470007217 ], [ 77.573579557081999, 12.9226970525028 ], [ 77.573583581065506, 12.923033548207 ], [ 77.573588962149103, 12.9235586258441 ], [ 77.575295201525705, 12.9235222556577 ], [ 77.575508613486306, 12.923517705786599 ], [ 77.575561268439202, 12.9235165835724 ], [ 77.575972824548103, 12.9235136511702 ], [ 77.576208745547802, 12.9235045466679 ], [ 77.576457317804099, 12.9234941877534 ], [ 77.576760373963097, 12.9234836845974 ], [ 77.577618628851994, 12.923453938897699 ], [ 77.577687607923394, 12.9234515483123 ], [ 77.577937999282497, 12.9234502045155 ], [ 77.578313106482, 12.9234490513848 ], [ 77.578435915518597, 12.923448673828799 ], [ 77.578483998898307, 12.923448198791601 ], [ 77.579242044221701, 12.923440708553301 ], [ 77.579702202698599, 12.9234361606586 ], [ 77.5797022606978, 12.9234418066274 ], [ 77.579696038620199, 12.923956832754399 ], [ 77.579690476221501, 12.9243679559809 ], [ 77.579668419280395, 12.9255268443539 ], [ 77.579697161589294, 12.926643446055101 ], [ 77.5797073774974, 12.927234107837 ], [ 77.579708507745394, 12.9272994619207 ], [ 77.579709651909596, 12.9273547867068 ], [ 77.579703139303305, 12.927393247573599 ], [ 77.579692385797401, 12.928083361153201 ], [ 77.579689899982796, 12.9282335837076 ], [ 77.579666463760802, 12.928691550202 ], [ 77.579663533795198, 12.928748808892299 ], [ 77.579659660109797, 12.928819993603099 ], [ 77.579652894626804, 12.9295620158875 ], [ 77.579648554666804, 12.9299799027673 ], [ 77.579640188485897, 12.930846164714501 ], [ 77.579639169674707, 12.9309150625743 ], [ 77.579620271183998, 12.9316526875454 ], [ 77.579606638819996, 12.9321745626149 ], [ 77.579611741442093, 12.9326149422157 ], [ 77.579617315364899, 12.9330451533696 ], [ 77.580136053119901, 12.933051315239901 ], [ 77.580137984003798, 12.9330151583016 ], [ 77.580198411077006, 12.933013431200701 ], [ 77.580652587745107, 12.9330111962838 ], [ 77.580706683121605, 12.9330095317155 ], [ 77.581287365153798, 12.9329936215358 ], [ 77.582593170307106, 12.9329569791811 ], [ 77.582676034220199, 12.932953900032199 ], [ 77.583901311097407, 12.932923695109601 ], [ 77.583935260141004, 12.9329222294672 ], [ 77.584835387194204, 12.932900137068399 ], [ 77.584861267982205, 12.932899502029199 ], [ 77.584876388451804, 12.9339202425859 ], [ 77.584901980020803, 12.9346721050453 ], [ 77.584901228810494, 12.935604917111799 ], [ 77.584908938616394, 12.936632506725999 ], [ 77.5851080656672, 12.9366271446764 ], [ 77.585267475420494, 12.9366221762742 ], [ 77.585296244405995, 12.936620761726299 ], [ 77.585730703692604, 12.936604031341 ], [ 77.586138543707406, 12.936462211700899 ], [ 77.586272020945401, 12.9363987761917 ], [ 77.586362809735604, 12.9363267296372 ], [ 77.586434818014595, 12.9362198609829 ], [ 77.586559333501995, 12.9360130928985 ], [ 77.586708688066395, 12.9358704485972 ], [ 77.587216643978806, 12.9355006448128 ], [ 77.587553667775893, 12.9352465958845 ], [ 77.587629158914098, 12.9351984161424 ], [ 77.587703132837603, 12.935170578859999 ], [ 77.587796323861895, 12.9351640816596 ], [ 77.587816457729105, 12.9351626784745 ], [ 77.587866041544004, 12.9351700915216 ], [ 77.587937778008595, 12.9352043879358 ], [ 77.588388175578402, 12.93544949314 ], [ 77.588729432014304, 12.9355500011961 ], [ 77.588886883079795, 12.935634264867501 ], [ 77.589061458063298, 12.935760142503799 ], [ 77.589112554470205, 12.9358025485658 ], [ 77.589134520835401, 12.9358113648574 ], [ 77.589148934363806, 12.935813480341601 ], [ 77.589172534325797, 12.935813246009699 ], [ 77.589201233188305, 12.935805055946799 ], [ 77.589244205724995, 12.9357854311504 ], [ 77.589322621244904, 12.935741739108501 ], [ 77.589383698551899, 12.93569144342 ], [ 77.589450520261593, 12.935639961378 ], [ 77.589519010490704, 12.9355828162559 ], [ 77.5895557561674, 12.9355734169517 ], [ 77.589622601117796, 12.935524193245399 ], [ 77.589625479157505, 12.9355241646638 ], [ 77.589936661535404, 12.935499617465799 ], [ 77.590116115883603, 12.936321094130999 ], [ 77.590556236632096, 12.936128128982901 ], [ 77.590624399127904, 12.936206502696001 ], [ 77.591041939196103, 12.9366698835278 ], [ 77.591257394547, 12.9365268096221 ], [ 77.591306086326497, 12.936494475902 ], [ 77.591741410539001, 12.936338823354101 ], [ 77.592700241998301, 12.9362050684956 ], [ 77.592704702695698, 12.936079672169599 ], [ 77.592723517653695, 12.9354493373308 ], [ 77.592727739628899, 12.935287378544 ], [ 77.592728052220494, 12.935275380494099 ], [ 77.592720675366607, 12.9350366933289 ], [ 77.592709467609694, 12.934668028717301 ], [ 77.592704275083193, 12.934579740394801 ], [ 77.592698010942101, 12.934485171184599 ], [ 77.592686347057096, 12.9343034703 ], [ 77.592682701660607, 12.934222195336901 ], [ 77.592658605052506, 12.9336848921241 ], [ 77.592620173794899, 12.932827963658299 ], [ 77.592613043684395, 12.932668976560899 ], [ 77.592593845608505, 12.931972390900301 ], [ 77.592578972469497, 12.931432734552599 ], [ 77.592570490905103, 12.931113227663801 ], [ 77.592550915900901, 12.930556325290899 ], [ 77.592543778465995, 12.930310562601001 ], [ 77.5925417646894, 12.9300598785502 ], [ 77.592537090522498, 12.9298860131716 ], [ 77.592530535000094, 12.9296545732109 ], [ 77.592519739495998, 12.929265071900399 ], [ 77.592511029352906, 12.928938794136499 ], [ 77.592507533437896, 12.9288078276322 ], [ 77.592499320938998, 12.928514291832199 ], [ 77.592498337176394, 12.928474776186899 ], [ 77.592878191842502, 12.9284676134387 ], [ 77.593561347322193, 12.9284540473201 ], [ 77.5941765944699, 12.9284422839598 ], [ 77.594727950856395, 12.928431154583199 ], [ 77.595361028936296, 12.9284180818085 ], [ 77.595432977564201, 12.9284173660643 ], [ 77.596426879209005, 12.928393925177099 ], [ 77.597158922406706, 12.9283764752655 ], [ 77.598027931599106, 12.9283554008473 ], [ 77.598545878570107, 12.9283423375452 ], [ 77.599084546420997, 12.9283290667989 ], [ 77.600496250254196, 12.9282946722321 ], [ 77.600510316716296, 12.9287078526229 ], [ 77.600512616695298, 12.9287631649676 ], [ 77.600521826094806, 12.9287630731693 ], [ 77.600539339304305, 12.929064419349199 ], [ 77.600589156060096, 12.9299278304683 ], [ 77.600599168204397, 12.9301163222667 ], [ 77.600658106003607, 12.930582131884201 ], [ 77.600675673470604, 12.930721988820901 ], [ 77.600676496142299, 12.9307411162285 ], [ 77.600698155741298, 12.9312444845354 ], [ 77.600702970911897, 12.9313563781648 ], [ 77.600704632552706, 12.9315167209044 ], [ 77.600786817524593, 12.9320037550868 ], [ 77.601064720846594, 12.9336565237772 ], [ 77.6014582056373, 12.9357406563779 ], [ 77.601693514374702, 12.9370595777212 ], [ 77.601703863570194, 12.937058345163299 ], [ 77.601703864500493, 12.937058346057499 ], [ 77.601693515305001, 12.937059578615401 ], [ 77.601698424650195, 12.9370888911603 ], [ 77.601698423719895, 12.9370888902662 ], [ 77.600484391762706, 12.937315566765401 ], [ 77.600378690757594, 12.937336948228801 ], [ 77.599933496298803, 12.937428343415201 ], [ 77.599376947115104, 12.9376066742619 ], [ 77.599093188728006, 12.937777767611299 ], [ 77.599013489955894, 12.9378485707926 ], [ 77.598753789986603, 12.938079283914099 ], [ 77.5985819913966, 12.9382774931459 ], [ 77.598473900555604, 12.9384016633483 ], [ 77.598068371972005, 12.939043755198201 ], [ 77.597863471630106, 12.9394365323861 ], [ 77.597843216657495, 12.939487968886199 ], [ 77.597666589218704, 12.9399365124347 ], [ 77.597659281671, 12.9399535246457 ], [ 77.597603502143997, 12.9402928683225 ], [ 77.597456453653194, 12.9417691900997 ], [ 77.597420130489297, 12.942041711647899 ], [ 77.597381855732294, 12.9423481314347 ], [ 77.5973015741572, 12.9428785698383 ], [ 77.597255264011395, 12.9431873283052 ], [ 77.597770838752893, 12.943053450389 ], [ 77.597975116472398, 12.942989303075599 ], [ 77.598142683023895, 12.9429379438076 ], [ 77.598499041413007, 12.9428835729155 ], [ 77.598568527684904, 12.942867070023899 ], [ 77.598677626437706, 12.9428400085195 ], [ 77.598967388042297, 12.942803240423199 ], [ 77.599080069169204, 12.942788565244699 ], [ 77.599286894452106, 12.9427481067092 ], [ 77.599883295125295, 12.9426435935071 ], [ 77.600157546298504, 12.9425955328364 ], [ 77.600229870667405, 12.9425828584284 ], [ 77.600746493237594, 12.942493098217801 ], [ 77.600898755170704, 12.942466643183201 ], [ 77.600935311975903, 12.9424945106222 ], [ 77.600947952162201, 12.9424921259012 ], [ 77.601443104470704, 12.942387806631899 ], [ 77.601734333642199, 12.9423261766024 ], [ 77.601985891875003, 12.942273721864 ], [ 77.602629294323705, 12.9421388137068 ], [ 77.602632358173295, 12.9421523336721 ], [ 77.602787960620503, 12.942838517405599 ], [ 77.602861538655404, 12.943160759061101 ], [ 77.602863435551001, 12.9434171183805 ], [ 77.602863437411699, 12.9434171201688 ], [ 77.602864373098498, 12.943544689686799 ], [ 77.602848189633406, 12.9439265507683 ], [ 77.602844191886405, 12.9440959839411 ], [ 77.602787755380902, 12.944375482695101 ], [ 77.602787754259893, 12.944375482744601 ], [ 77.602725376984196, 12.9446843996644 ], [ 77.602676044486799, 12.944923172230499 ], [ 77.602650808456801, 12.9450431288501 ], [ 77.602552131533699, 12.9455195448294 ], [ 77.602518687729599, 12.9460133779033 ], [ 77.602517970247902, 12.946055168741101 ], [ 77.602516769760499, 12.946161333842801 ], [ 77.602485938011, 12.9464631618008 ], [ 77.602443638286005, 12.9468802917274 ], [ 77.602442569097605, 12.9468882074258 ], [ 77.602415254334801, 12.9469743061739 ], [ 77.602422545322497, 12.9471775052667 ], [ 77.602424036581695, 12.947210239735499 ], [ 77.602425549013603, 12.947355902833801 ], [ 77.602449756111398, 12.947580389425999 ], [ 77.602502169173107, 12.9478045942523 ], [ 77.602582339484599, 12.9481516141814 ], [ 77.602620410047706, 12.9483251442448 ], [ 77.6026299484829, 12.948356669024401 ], [ 77.602653254132093, 12.9484388742334 ], [ 77.602745868129702, 12.9486536430037 ], [ 77.602791869792298, 12.9487593364834 ], [ 77.602840244396603, 12.9488717819663 ], [ 77.602915743205102, 12.9490460672528 ], [ 77.602919279099595, 12.949053936938499 ], [ 77.602996034863196, 12.949238373210999 ], [ 77.603146609977998, 12.9496016285258 ], [ 77.603151954900696, 12.949617385141501 ], [ 77.603348977764696, 12.9501845771135 ], [ 77.603369159390994, 12.950243098361801 ], [ 77.603443306875704, 12.950508869122199 ], [ 77.603909561555696, 12.9503924092001 ], [ 77.604802525945303, 12.950232156839199 ], [ 77.605690190189804, 12.950115996766201 ], [ 77.6057916560964, 12.949797652549201 ], [ 77.605791656105794, 12.949797653452499 ], [ 77.608979905927995, 12.9493061229239 ], [ 77.609429965321894, 12.949238375295099 ], [ 77.609929483300306, 12.9491656142946 ], [ 77.611036756028895, 12.948965928526601 ], [ 77.611436279608995, 12.9490206464785 ], [ 77.611664938633197, 12.949307450088501 ], [ 77.612763802063299, 12.9492953018593 ], [ 77.613798207705898, 12.9492849250336 ], [ 77.614421635760905, 12.949280927577499 ], [ 77.614521220343093, 12.9492799281219 ], [ 77.615133676673906, 12.949272651243399 ], [ 77.615586143590306, 12.949270367185999 ], [ 77.615769779633496, 12.9492696525962 ], [ 77.616376010442806, 12.9492725988024 ], [ 77.616693697663905, 12.9492637615134 ], [ 77.616858161908795, 12.949246299582899 ], [ 77.616888386224602, 12.949218893329601 ], [ 77.616901508650201, 12.9492074687429 ], [ 77.616951363222398, 12.949185511669301 ], [ 77.616964057488801, 12.9491764836408 ], [ 77.6169640469341, 12.949176463463999 ], [ 77.616964056548994, 12.9491764818434 ], [ 77.6170045073724, 12.949147710767599 ], [ 77.616975971504502, 12.9491163776937 ], [ 77.617041696886204, 12.949070546368199 ], [ 77.617102852607701, 12.949028148767001 ], [ 77.617161283475298, 12.949000459122001 ], [ 77.617186445935602, 12.948984396460901 ], [ 77.617208569778597, 12.9489692243825 ], [ 77.617383645352703, 12.9488491606444 ], [ 77.617492176900797, 12.9487678915914 ], [ 77.617656170061096, 12.948644438312099 ], [ 77.617752645236493, 12.948572168238201 ], [ 77.617880594437395, 12.9484760233651 ], [ 77.618002353211807, 12.9483934919629 ], [ 77.618156723342295, 12.9482883065557 ], [ 77.6182635850829, 12.9482158289699 ], [ 77.618388209907295, 12.948132139351999 ], [ 77.618513938699095, 12.948043921491999 ], [ 77.618648916227997, 12.9479352637963 ], [ 77.618776542705206, 12.9478323660678 ], [ 77.618890183120101, 12.9477442695843 ], [ 77.619019940875006, 12.947656011045099 ], [ 77.619244003545603, 12.947502435734799 ], [ 77.619291449743798, 12.9474703390483 ], [ 77.619318878628306, 12.9474508658666 ], [ 77.619318878986803, 12.9474508665221 ], [ 77.619333553662997, 12.9474778215803 ], [ 77.620046897513603, 12.9488065800585 ], [ 77.620218344537193, 12.949126698738199 ], [ 77.620254669029194, 12.949187317772999 ], [ 77.620254669308395, 12.9491873173514 ], [ 77.620590983705497, 12.949748566984701 ], [ 77.620760996260202, 12.950039359149301 ], [ 77.620799920551406, 12.950105937277399 ], [ 77.620903414084793, 12.950282957748099 ], [ 77.621035859382403, 12.9505616848054 ], [ 77.621169928762399, 12.9508855663099 ], [ 77.621197187288701, 12.950959824011701 ], [ 77.621296116942105, 12.9512264660833 ], [ 77.621343230483703, 12.9513276264799 ], [ 77.621498729115601, 12.9516637139787 ], [ 77.622031619163806, 12.951424590566701 ], [ 77.622310674403295, 12.9512998198371 ], [ 77.622885945734595, 12.951022193745199 ], [ 77.623149821513294, 12.9508949958665 ], [ 77.623298199804594, 12.9508257452694 ], [ 77.623326263694395, 12.9508119113743 ], [ 77.623549426127298, 12.9507373903795 ], [ 77.623721810747398, 12.9507007685955 ], [ 77.624174959588203, 12.9506046108385 ], [ 77.624216897554405, 12.9505962834376 ], [ 77.624255969209401, 12.9505891141785 ], [ 77.6249447450286, 12.9504412844705 ], [ 77.625420843033893, 12.9503390998375 ], [ 77.625485687582994, 12.950319248674299 ], [ 77.625653261421704, 12.950269001007401 ], [ 77.625918580743203, 12.950152270290999 ], [ 77.626048172071293, 12.9500702130014 ], [ 77.626186797330305, 12.949982434501299 ], [ 77.626194221276904, 12.9499767133102 ], [ 77.626307236299297, 12.949884103118499 ], [ 77.626377362254303, 12.949827611114999 ], [ 77.626467649288898, 12.9497548783987 ], [ 77.6264921999108, 12.949735433294 ], [ 77.626619463263694, 12.949629128120099 ], [ 77.626773544064505, 12.949499967116299 ], [ 77.626803227897099, 12.949475953155501 ], [ 77.627012836121907, 12.9493168711408 ], [ 77.627047608792296, 12.9492848467593 ], [ 77.627283100414303, 12.9490679650954 ], [ 77.627508264467593, 12.9488003161952 ], [ 77.627651107013904, 12.9485877023737 ], [ 77.628051139280501, 12.9478677116082 ], [ 77.628200860092903, 12.9475974356334 ], [ 77.628413877460702, 12.947214723616099 ], [ 77.628437603400897, 12.9471715721055 ], [ 77.628652785133497, 12.9468306210608 ], [ 77.628828549624401, 12.9465736333905 ], [ 77.628830252785207, 12.9465713576726 ], [ 77.628923123089194, 12.9464338687905 ], [ 77.628925487627697, 12.946430367694401 ], [ 77.628931160876704, 12.946422405584601 ], [ 77.629106325540505, 12.946163165342499 ], [ 77.629425127784998, 12.9455478859142 ], [ 77.629546444495503, 12.9453140327926 ], [ 77.629642919743503, 12.945126730262601 ], [ 77.629670004233105, 12.9450745106846 ], [ 77.629905089697999, 12.944545900148301 ], [ 77.630009137331598, 12.9443122212446 ], [ 77.630014751278594, 12.944298613393 ], [ 77.630189257236395, 12.9439219358455 ], [ 77.630440315755493, 12.943379612787 ], [ 77.630472378609696, 12.9433081463139 ], [ 77.630472379023203, 12.943308146316699 ], [ 77.630568016795195, 12.943096008293301 ], [ 77.630759844770907, 12.942669468113699 ], [ 77.630866721126296, 12.9424106439014 ], [ 77.631171912036507, 12.941671554877599 ], [ 77.631263423889806, 12.9414504243266 ], [ 77.631276918433201, 12.941419797934801 ], [ 77.631431678920407, 12.941081714540401 ], [ 77.631431677989895, 12.941081713646399 ], [ 77.631437867417503, 12.941068099979001 ], [ 77.631530637668803, 12.9408571200906 ], [ 77.631692559526698, 12.9404884742024 ], [ 77.631950983609499, 12.939880579069399 ], [ 77.632051930027004, 12.939680809235499 ], [ 77.632130878332205, 12.9395241735646 ], [ 77.632394242459696, 12.939003181820899 ], [ 77.632644651420094, 12.9385094231629 ], [ 77.632653860939598, 12.9385093301624 ], [ 77.632656919098594, 12.938502511949601 ], [ 77.632764515842496, 12.938262611410201 ], [ 77.632856357709102, 12.9380578380557 ], [ 77.632924404436295, 12.937904700196601 ], [ 77.633113944832502, 12.9375899798398 ], [ 77.633302445550697, 12.937340767232101 ], [ 77.633484352315406, 12.9371763159363 ], [ 77.633849292586405, 12.9368451431792 ], [ 77.634269310622898, 12.936496474682199 ], [ 77.634491881353298, 12.9363124146002 ], [ 77.634531757543598, 12.936272487493101 ], [ 77.634567076444398, 12.936237123480799 ], [ 77.634598550468894, 12.9361645326386 ], [ 77.634586214077601, 12.936140942765 ], [ 77.634576814924202, 12.9361229695273 ], [ 77.634637892978702, 12.936073794085001 ], [ 77.634719514302702, 12.9360074721125 ], [ 77.634756417597401, 12.9359585409226 ], [ 77.634809223875607, 12.935889122305801 ], [ 77.634899497096697, 12.935769637524499 ], [ 77.634974223062599, 12.935704514440999 ], [ 77.635029931190402, 12.9356555928556 ], [ 77.635048373401403, 12.9356393971598 ], [ 77.635154798441803, 12.9355231368923 ], [ 77.635237885269603, 12.935431956228999 ], [ 77.635319269001002, 12.935343051286299 ], [ 77.635663572299705, 12.9349657856836 ], [ 77.635679319707293, 12.9349483849454 ], [ 77.636178225062807, 12.934380852980301 ], [ 77.637168729315704, 12.933254042507199 ], [ 77.637762233339203, 12.9324717894306 ], [ 77.637873095374601, 12.932325670249501 ], [ 77.638005523081503, 12.932051641579299 ], [ 77.638093549241006, 12.9318443920271 ], [ 77.638521719963606, 12.9312833150414 ], [ 77.638812397621706, 12.930904429460099 ], [ 77.639050639434302, 12.9307884174808 ], [ 77.639469633670203, 12.930598627213699 ], [ 77.6395232617934, 12.9305564302508 ], [ 77.6395457949383, 12.9304956152227 ], [ 77.639490255433898, 12.930356068665301 ], [ 77.639474251406796, 12.930303215945299 ], [ 77.639465970194806, 12.930250285079801 ], [ 77.6394772358437, 12.9302198771266 ], [ 77.639515098814698, 12.930147546640599 ], [ 77.639588991101107, 12.9298287137223 ], [ 77.639579051207804, 12.9296863661878 ], [ 77.639579052056803, 12.9296863659163 ], [ 77.639936260693901, 12.9295721380812 ], [ 77.641003972299998, 12.9293998469717 ], [ 77.641245107192205, 12.929449351531 ], [ 77.641500617053794, 12.9293880430388 ], [ 77.641768767349006, 12.9293243477982 ], [ 77.641901009919906, 12.9292552531489 ], [ 77.641875667978894, 12.928925766626 ], [ 77.641845711048703, 12.928212379273299 ], [ 77.641869872982198, 12.928211005347899 ], [ 77.641823670017899, 12.9279777168996 ], [ 77.641706700060496, 12.927583661125 ], [ 77.641593432111407, 12.9271037441501 ], [ 77.641400514435304, 12.926439435053 ], [ 77.641333604169702, 12.9262074852297 ], [ 77.6413204784957, 12.9261635770323 ], [ 77.6410956460915, 12.9259671033762 ], [ 77.640550243164199, 12.925939874662101 ], [ 77.640380066655993, 12.925959664849699 ], [ 77.640145427071602, 12.9259801071747 ], [ 77.640040626625407, 12.925997175747399 ], [ 77.640040626540696, 12.925997174997001 ], [ 77.639871898444298, 12.9260246562772 ], [ 77.639737851620396, 12.926031658686 ], [ 77.639640367768607, 12.926012318188199 ], [ 77.639560655152394, 12.925986022325301 ], [ 77.639478195312805, 12.9259721760797 ], [ 77.6393564310046, 12.9259429177356 ], [ 77.639313014504197, 12.9259196424322 ], [ 77.639236731572296, 12.9258910532483 ], [ 77.639166002504794, 12.9258432104488 ], [ 77.639115827391194, 12.925669811896 ], [ 77.639195729232796, 12.925385559549399 ], [ 77.639213238982094, 12.9251346867687 ], [ 77.639316453784502, 12.924823096413499 ], [ 77.639297341286806, 12.924592920711399 ], [ 77.639265655412004, 12.924207034295 ], [ 77.639277581881601, 12.9241368995662 ], [ 77.639290564520394, 12.9240577200774 ], [ 77.639885774524402, 12.923840528357299 ], [ 77.639924770016506, 12.9238265827861 ], [ 77.640325084677102, 12.923687021986201 ], [ 77.640861057658299, 12.9234749446729 ], [ 77.641087031301794, 12.9233969976554 ], [ 77.641242722045504, 12.923368319864499 ], [ 77.641374643191995, 12.923378277333599 ], [ 77.641548372589497, 12.923422818576 ], [ 77.6418353862137, 12.923511383293899 ], [ 77.642341634175096, 12.923647415399699 ], [ 77.642852979323806, 12.9237754900018 ], [ 77.6430913853291, 12.923839701761301 ], [ 77.643533616642102, 12.9239639578192 ], [ 77.643865163043401, 12.9240723955609 ], [ 77.644014707785601, 12.924116050740199 ], [ 77.644436398084906, 12.9242574520341 ], [ 77.644543280418304, 12.9242947636415 ], [ 77.644727044839797, 12.924362915210301 ], [ 77.6448933880108, 12.9244165628788 ], [ 77.645166114115995, 12.9244600980967 ], [ 77.6453659988981, 12.924473881528501 ], [ 77.645581292839907, 12.924475086787499 ], [ 77.645760902233505, 12.9244766536558 ], [ 77.645856420845007, 12.9244734267205 ], [ 77.646095276828106, 12.924471004899299 ], [ 77.646122441634205, 12.924472076429 ], [ 77.646391267552303, 12.924482683773199 ], [ 77.646687412960503, 12.924509041035099 ], [ 77.646924815915099, 12.9245326060156 ], [ 77.647326292270606, 12.924574275539401 ], [ 77.647469946828295, 12.924589185137499 ], [ 77.647906011887301, 12.924619767696701 ], [ 77.648136988456599, 12.924634362717001 ], [ 77.648343767846001, 12.924646944588 ], [ 77.648862232582402, 12.924685723276401 ], [ 77.649173493099298, 12.924694262692899 ], [ 77.649192732568693, 12.924694790100199 ], [ 77.649489949248505, 12.9246590243672 ], [ 77.649630781577798, 12.924640655706501 ], [ 77.649756927098807, 12.9245942048216 ], [ 77.650215560675093, 12.924405962051001 ], [ 77.650264723580307, 12.9243857830942 ], [ 77.650454430056897, 12.924362400670701 ], [ 77.650687601019399, 12.924366807901199 ], [ 77.650890723931397, 12.9243602276493 ], [ 77.651072336720404, 12.924333539254601 ], [ 77.651637128294894, 12.924235202616901 ], [ 77.651737707043495, 12.924220629641299 ], [ 77.6516859081365, 12.924003210792501 ], [ 77.651622831318207, 12.923698954273901 ], [ 77.651559635497406, 12.9233834064174 ], [ 77.651517907558798, 12.923192987142 ], [ 77.651492846836007, 12.9230001400188 ], [ 77.651478724941896, 12.9227529777593 ], [ 77.651482293499896, 12.9224367515291 ], [ 77.651486821090103, 12.9223203927911 ], [ 77.651479890161397, 12.9219365182178 ], [ 77.651488284579202, 12.9215321614533 ], [ 77.651500871437193, 12.9211977755969 ], [ 77.651501303939796, 12.9211842202035 ], [ 77.651585945030206, 12.921186748150999 ], [ 77.651592851587495, 12.9211866779915 ], [ 77.651817171614795, 12.921170848164699 ], [ 77.652325310533399, 12.9211047058948 ], [ 77.653599923204297, 12.920961887696199 ], [ 77.653599565125106, 12.9207100689688 ], [ 77.653599269834302, 12.920627636844999 ], [ 77.653611797487002, 12.9204513467584 ], [ 77.653956020354698, 12.920452364287399 ], [ 77.6540181432742, 12.920448344936499 ], [ 77.654088994792104, 12.9204532708071 ], [ 77.654138586991195, 12.9204618005594 ], [ 77.654185313405605, 12.9204714886882 ], [ 77.654381129465804, 12.920481919315201 ], [ 77.654419031808004, 12.9204736291658 ], [ 77.654462913903103, 12.9204693389783 ], [ 77.654462914823995, 12.920469338968999 ], [ 77.654663986570895, 12.9204496833754 ], [ 77.660354104711502, 12.916344548497101 ], [ 77.661995281391498, 12.918261083833301 ], [ 77.662216167342393, 12.918790704202101 ], [ 77.662785587557494, 12.9211809615074 ], [ 77.662789656972294, 12.9211980428956 ], [ 77.662694979043195, 12.9212261105005 ], [ 77.662407459615906, 12.921306960962101 ], [ 77.662037275479094, 12.921408980561701 ], [ 77.661593423348606, 12.9215117508933 ], [ 77.661593422418207, 12.9215117499994 ], [ 77.661556671458897, 12.9215200294383 ], [ 77.661160480246195, 12.9216121499247 ], [ 77.661327754799004, 12.922351227059 ], [ 77.661598032244001, 12.923035371464399 ], [ 77.661601016122304, 12.923042924116899 ], [ 77.662471959896294, 12.9261417109795 ], [ 77.663099237375704, 12.927430547911101 ], [ 77.6632654268995, 12.927632114706199 ], [ 77.663285577501696, 12.928229276851001 ], [ 77.663427165022597, 12.928173627922099 ], [ 77.663763039411705, 12.9280380777773 ], [ 77.663845401071995, 12.928037236840799 ], [ 77.664099739868405, 12.9280346398037 ], [ 77.6645943822991, 12.9280521731056 ], [ 77.664932593109498, 12.9281367992212 ], [ 77.665114504303901, 12.9283551424463 ], [ 77.665855224565107, 12.930350841932301 ], [ 77.666151591752893, 12.9307227196879 ], [ 77.666401542711, 12.931005861708501 ], [ 77.666723292547999, 12.9311257911362 ], [ 77.666920509094396, 12.931199301718699 ], [ 77.667528663186999, 12.931281163300399 ], [ 77.668034809582807, 12.931243238630699 ], [ 77.667994047125504, 12.930765988900299 ], [ 77.667966777904198, 12.9305833316355 ], [ 77.667817169898697, 12.9295595156395 ], [ 77.6676910200013, 12.928792925220099 ], [ 77.668458571153295, 12.928708287284 ], [ 77.668574468186506, 12.928239598356001 ], [ 77.668633483684502, 12.9279973383365 ], [ 77.668725890052102, 12.9274848495384 ], [ 77.668781911186997, 12.9273765140374 ], [ 77.668898479915896, 12.927151088963701 ], [ 77.668932750132299, 12.9262055685709 ], [ 77.668889284921093, 12.9258183494067 ], [ 77.668845641949503, 12.9254295456696 ], [ 77.668807037521802, 12.924601932723 ], [ 77.6688008956435, 12.9244690239997 ], [ 77.668773103357495, 12.9233163587934 ], [ 77.6682024036065, 12.9232363721454 ], [ 77.668029078029093, 12.922634002754799 ], [ 77.667793221925393, 12.921563639092399 ], [ 77.667078113611595, 12.921218625154999 ], [ 77.666618569901004, 12.920981663476899 ], [ 77.666192407128307, 12.9210153769502 ], [ 77.665471579838794, 12.921053228133699 ], [ 77.665471579712104, 12.9210532290878 ], [ 77.665181652546394, 12.9210697403485 ], [ 77.664915658786597, 12.9207924048844 ], [ 77.664769817226798, 12.920618818361101 ], [ 77.664769817226798, 12.920618818361101 ], [ 77.665131682276197, 12.9205947543355 ], [ 77.668724698970195, 12.9188606592654 ], [ 77.670415000118297, 12.9183401563233 ], [ 77.673185577783698, 12.9169599807397 ], [ 77.673435517432694, 12.916648010307799 ], [ 77.673572074287407, 12.916120389975299 ], [ 77.673984302691693, 12.915589946878899 ], [ 77.675530968138801, 12.9145690899631 ], [ 77.677615407257207, 12.9139627274962 ], [ 77.677615407257207, 12.9139627274962 ], [ 77.677615407257207, 12.9139627274962 ], [ 77.678103211338794, 12.913773661403599 ], [ 77.678484977234802, 12.913626334287301 ], [ 77.678729579391202, 12.913516548885701 ], [ 77.679153954339796, 12.9133168394264 ], [ 77.680015577498395, 12.912883409899001 ], [ 77.680390479960195, 12.9126864648986 ], [ 77.681124288991199, 12.912304030058801 ], [ 77.6814689042032, 12.912127720779701 ], [ 77.682408970927895, 12.911649399062 ], [ 77.682565175844999, 12.911569918997101 ], [ 77.682824495829607, 12.911437394792801 ], [ 77.682974065007201, 12.9113760096254 ], [ 77.683745960369194, 12.9110575433719 ], [ 77.684516750609106, 12.910743603437901 ], [ 77.685142071621598, 12.910497781056799 ], [ 77.685821810813295, 12.910227684230399 ], [ 77.686371427603106, 12.910007480579999 ], [ 77.686371427603106, 12.9100074805801 ], [ 77.687079074160096, 12.909731332321799 ], [ 77.687093630166402, 12.909725652038 ], [ 77.687399717795898, 12.9096073228759 ], [ 77.687493709314694, 12.9095702967671 ], [ 77.687493709314694, 12.9095702967671 ], [ 77.687493709314793, 12.9095702967671 ], [ 77.688029611842197, 12.9093591891112 ], [ 77.688817726849393, 12.909051835439801 ], [ 77.689690824574896, 12.908779739833401 ], [ 77.689774630139098, 12.9087585510695 ], [ 77.6906229470341, 12.9085375226668 ], [ 77.6906872337522, 12.9085210515304 ], [ 77.692057631580596, 12.908143326319101 ], [ 77.692617853832303, 12.908000917995301 ], [ 77.693039119546498, 12.9078893005411 ], [ 77.693204990503105, 12.9078458097694 ], [ 77.693266974768804, 12.907829361794001 ], [ 77.693416192520701, 12.907789430216701 ], [ 77.693683132826393, 12.907724571349901 ], [ 77.6939333513305, 12.907664438551 ], [ 77.6939333513305, 12.907664438551 ], [ 77.693967877007793, 12.907656141014501 ], [ 77.694429377379294, 12.907539589811799 ], [ 77.694765721890903, 12.907452559106099 ], [ 77.695180582015098, 12.907334229312101 ], [ 77.6955488871574, 12.9072220252965 ], [ 77.695568381315695, 12.9072150488959 ], [ 77.696224124254002, 12.9070174458396 ], [ 77.696649329293805, 12.906897878002299 ], [ 77.696738827592895, 12.9068709824026 ], [ 77.697211628244503, 12.9067351135258 ], [ 77.697530656839803, 12.9066437415206 ], [ 77.697806177973604, 12.906574273412501 ], [ 77.697989250816306, 12.9065249562387 ], [ 77.698133311344606, 12.906487333915001 ], [ 77.6982675884732, 12.9064498125482 ], [ 77.698344486124796, 12.906428692638 ], [ 77.698483930466793, 12.9063899885988 ], [ 77.698783869748596, 12.9062897786714 ], [ 77.699032565906506, 12.906187839328201 ], [ 77.699064084526498, 12.906175092438 ], [ 77.699441247339493, 12.9059769720209 ], [ 77.700404265980197, 12.9054521017668 ], [ 77.701053732957405, 12.905099851224399 ], [ 77.70173862323, 12.9047235197805 ], [ 77.702335947452298, 12.9043932607541 ], [ 77.702887345262496, 12.9040880613257 ], [ 77.702851175811404, 12.904045851745099 ], [ 77.702847280256805, 12.904041305841901 ], [ 77.702847280298201, 12.9040413058189 ], [ 77.702396233927701, 12.903576220389599 ], [ 77.700817799024307, 12.9040317996404 ], [ 77.700356387560305, 12.904102061884799 ], [ 77.699328124344504, 12.9042854539878 ], [ 77.697853470014905, 12.9045445913736 ], [ 77.697659046852905, 12.904179604325799 ], [ 77.697395159480806, 12.9041529686329 ], [ 77.696964315871696, 12.9040682073672 ], [ 77.696784170231197, 12.9041220101777 ], [ 77.696360036009906, 12.904126386514699 ], [ 77.696260774976096, 12.9039941633874 ], [ 77.6958771687233, 12.904020705052099 ], [ 77.695740330762007, 12.9041403986063 ], [ 77.695740330734793, 12.904140399426 ], [ 77.695630269497798, 12.904236672444 ], [ 77.695340710916796, 12.904070276821299 ], [ 77.694667462264306, 12.9041912702518 ], [ 77.693934755953705, 12.904295936740899 ], [ 77.693593844466093, 12.9044175170509 ], [ 77.693593844466093, 12.9044175170509 ], [ 77.693393502645804, 12.904488965475601 ], [ 77.693093752853699, 12.9044457567622 ], [ 77.692946686486493, 12.9042564346641 ], [ 77.692809613965196, 12.9041404085518 ], [ 77.6918660411947, 12.9040101063345 ], [ 77.691779033721005, 12.9040008395529 ], [ 77.691526679877001, 12.903976337403799 ], [ 77.691446177877197, 12.904198493170799 ], [ 77.691395287048707, 12.9043909843175 ], [ 77.691199777764396, 12.9044076775594 ], [ 77.691214175292501, 12.904677412404499 ], [ 77.691191954516995, 12.9049136478059 ], [ 77.691080896922799, 12.9049159206995 ], [ 77.690997578619005, 12.9053052297366 ], [ 77.6909251086567, 12.9055250443416 ], [ 77.690179157715804, 12.905468359370101 ], [ 77.690096335139401, 12.905473728873 ], [ 77.689922657221203, 12.905486808927799 ], [ 77.6899234217193, 12.905450666048401 ], [ 77.689924749632894, 12.9054133881504 ], [ 77.689293221194404, 12.905453764781299 ], [ 77.688255285442494, 12.9054881581375 ], [ 77.688148447475896, 12.905992889557 ], [ 77.688119430903399, 12.906132082185 ], [ 77.688076369225399, 12.906195761524501 ], [ 77.687751507349205, 12.9064418857382 ], [ 77.687664466474104, 12.9064834329953 ], [ 77.687367502273901, 12.9065395607629 ], [ 77.687264440207699, 12.9065361038306 ], [ 77.687264440207599, 12.9065361038306 ], [ 77.686847914559493, 12.9064494731367 ], [ 77.687310701740799, 12.9047279707024 ], [ 77.685780390168603, 12.9044327474057 ], [ 77.686318622207907, 12.903879735929801 ], [ 77.687371406236295, 12.9034578758859 ], [ 77.687581931390994, 12.9033382720696 ], [ 77.687446968326199, 12.902449833505999 ], [ 77.687276186465397, 12.9023567348373 ], [ 77.686211009196995, 12.902367684126601 ], [ 77.686211009196995, 12.902367684126601 ], [ 77.686160317532696, 12.9023682050939 ], [ 77.685529272689294, 12.902183850952801 ], [ 77.685323386475304, 12.9018754298913 ], [ 77.684559245864804, 12.901839239452601 ], [ 77.684454820583099, 12.9018696717583 ], [ 77.684220465589505, 12.9016439752557 ], [ 77.683972156640493, 12.9016747556577 ], [ 77.683379460259999, 12.9015780814448 ], [ 77.683012634376894, 12.9015592624615 ], [ 77.682449478226005, 12.9014261475805 ], [ 77.682358835430094, 12.901345773508201 ], [ 77.682219091132893, 12.900870674204601 ], [ 77.682174088482995, 12.900158594437 ], [ 77.682276707832997, 12.8999587977796 ], [ 77.681967963413499, 12.8996723379204 ], [ 77.681851780666193, 12.8995645405157 ], [ 77.680642856304303, 12.8985120781636 ], [ 77.679777859996804, 12.8977598459148 ], [ 77.6795919630584, 12.897598013053599 ], [ 77.678854721680906, 12.8965734523472 ], [ 77.678460359155693, 12.8959135054049 ], [ 77.678052716185206, 12.8953033795627 ], [ 77.677491387874994, 12.8946914385076 ], [ 77.677243650814702, 12.8942885810539 ], [ 77.675998921256095, 12.8939241570103 ], [ 77.674842902326503, 12.8937293331986 ], [ 77.674073099224103, 12.893699940411199 ], [ 77.673839239125201, 12.893194176385499 ], [ 77.673801077010296, 12.892906612006801 ], [ 77.6737511421627, 12.8927027312213 ], [ 77.673702261939198, 12.892327196136099 ], [ 77.673664004375695, 12.892030598776 ], [ 77.673579529398694, 12.8916091288463 ], [ 77.673395942243303, 12.890688421165001 ], [ 77.673293533288501, 12.8902038971094 ], [ 77.6731743287759, 12.8895467717218 ], [ 77.673134370303401, 12.889360856370001 ], [ 77.673090767353997, 12.889156910488101 ], [ 77.672896178747607, 12.888554758165901 ], [ 77.672891251457898, 12.8885243191735 ], [ 77.672893317683901, 12.8885066088332 ], [ 77.672894944110098, 12.888492662885 ], [ 77.672934280521602, 12.888132035241 ], [ 77.672799540623302, 12.8876918809835 ], [ 77.672675807241006, 12.887204186276399 ], [ 77.672538647964899, 12.886590154226401 ], [ 77.672437275754206, 12.885985919602801 ], [ 77.672328141851594, 12.8846500197119 ], [ 77.673753023776698, 12.8843700963612 ], [ 77.674341255921405, 12.8838333464111 ], [ 77.674223939378393, 12.8824320368938 ], [ 77.674152840292706, 12.881209803029501 ], [ 77.674060278644703, 12.8801752970118 ], [ 77.674028779449301, 12.879823241715 ], [ 77.673705884546607, 12.8798739673926 ], [ 77.672943015313294, 12.8800059731276 ], [ 77.671981736742694, 12.8801512942493 ], [ 77.671041220212203, 12.880300917148601 ], [ 77.671291627408394, 12.879981046743399 ], [ 77.671620955061002, 12.8795598688554 ], [ 77.672112223793704, 12.8788886061458 ], [ 77.672473665627095, 12.8784569368086 ], [ 77.672714152514899, 12.878341558521999 ], [ 77.673243391007205, 12.8780493299593 ], [ 77.673433768772895, 12.8776589294626 ], [ 77.673574249244098, 12.8774474574706 ], [ 77.673751534907893, 12.8770707413944 ], [ 77.673857405901401, 12.8767433115926 ], [ 77.6740235295253, 12.8763994572545 ], [ 77.674058189401407, 12.876327444828499 ], [ 77.674078148716504, 12.876285976083 ], [ 77.674259845775495, 12.875782740657 ], [ 77.674427118869204, 12.8754930777583 ], [ 77.674576995729595, 12.8753537805931 ], [ 77.674612937179603, 12.8752156469944 ], [ 77.674746800243398, 12.8747061246332 ], [ 77.674889106211197, 12.8741634186716 ], [ 77.674971355193406, 12.8738490012918 ], [ 77.675214427464297, 12.872917813510901 ], [ 77.675288782742697, 12.872632962420701 ], [ 77.674295219267606, 12.871304965519199 ], [ 77.673691373183601, 12.8705296987076 ], [ 77.672799470872206, 12.8692898650099 ], [ 77.672892636691003, 12.8682522761295 ], [ 77.672444389114702, 12.8682026450142 ], [ 77.6722654348563, 12.8682044701647 ], [ 77.672086278467702, 12.8681328968831 ], [ 77.671144871069103, 12.8678138875222 ], [ 77.670830219113896, 12.8676635186083 ], [ 77.670224243513502, 12.8673919019002 ], [ 77.6699481639006, 12.867226547996999 ], [ 77.669864592381401, 12.867176494335199 ], [ 77.669487603966104, 12.867062894260201 ], [ 77.668838042640701, 12.8668052686628 ], [ 77.667820990664893, 12.866406839930701 ], [ 77.667085926958805, 12.866335275233901 ], [ 77.667045989485999, 12.8662046897593 ], [ 77.666559249182896, 12.866215289173899 ], [ 77.666455736041996, 12.8659920850502 ], [ 77.666436758482405, 12.865951163820499 ], [ 77.665949948575701, 12.865192749078499 ], [ 77.665570711307296, 12.8645935912157 ], [ 77.665323856360402, 12.8642144177907 ], [ 77.665197862247098, 12.864054217339699 ], [ 77.664989542968996, 12.863563985755301 ], [ 77.664925610053501, 12.8633952493658 ], [ 77.6647719556223, 12.863201846390201 ], [ 77.664668409015704, 12.863071512989499 ], [ 77.664621467556799, 12.86282242747 ], [ 77.664506232297995, 12.862373030839899 ], [ 77.664006716917697, 12.8624266652572 ], [ 77.663837350533797, 12.861919097509899 ], [ 77.663744981517695, 12.861018899515001 ], [ 77.663643720675907, 12.860857317249399 ], [ 77.663569912472795, 12.860679646587799 ], [ 77.663345646882604, 12.8605317355127 ], [ 77.663042129615505, 12.8602355689371 ], [ 77.662331763273698, 12.8596668685091 ], [ 77.662196095251105, 12.859571131005399 ], [ 77.661842313855104, 12.859316623377699 ], [ 77.661816865768699, 12.859298316176501 ], [ 77.661677277473302, 12.859212781338799 ], [ 77.661246167806297, 12.858931458152 ], [ 77.661142492724295, 12.858868143368801 ], [ 77.661148984891994, 12.8587743500423 ], [ 77.660537014374299, 12.8585863299128 ], [ 77.660228600326306, 12.858589459129201 ], [ 77.659649950616796, 12.8586145264271 ], [ 77.659307012316802, 12.8586180047546 ], [ 77.659012932413205, 12.8585069331196 ], [ 77.658563784778394, 12.8583703314314 ], [ 77.657660247720301, 12.8581457363066 ], [ 77.657491298679005, 12.858386849472399 ], [ 77.657494427112198, 12.858324206765401 ], [ 77.657550706799299, 12.8571971478856 ], [ 77.656586051524002, 12.856960745708401 ], [ 77.656381578332201, 12.856997823795099 ], [ 77.656443132480902, 12.856503717899599 ], [ 77.656298653719801, 12.8564453310976 ], [ 77.656154578908797, 12.8564253346296 ], [ 77.655949797164197, 12.8564330549183 ], [ 77.655754131975797, 12.856377444678801 ], [ 77.655753502470304, 12.856317600758301 ], [ 77.655795804654304, 12.8559625876062 ], [ 77.655848465225304, 12.855717006896199 ], [ 77.655509229253994, 12.8555250815861 ], [ 77.655284191604196, 12.8562331421106 ], [ 77.654913125718593, 12.856188341055899 ], [ 77.654934141349401, 12.856052618116999 ], [ 77.654445806569996, 12.855855425210001 ], [ 77.653077027552897, 12.855494363666701 ], [ 77.653118319459296, 12.8553166532178 ], [ 77.652945594076996, 12.855198699607501 ], [ 77.652603643578004, 12.8549672735658 ], [ 77.652140095295806, 12.854828546134801 ], [ 77.651815751073997, 12.854739226830199 ], [ 77.651614060275506, 12.8547672388216 ], [ 77.651447267619005, 12.8546661628572 ], [ 77.651335588083398, 12.8546074413235 ], [ 77.650624930366007, 12.8543910316405 ], [ 77.6503435624914, 12.8543938749406 ], [ 77.650393924107703, 12.8538739085397 ], [ 77.649949455939804, 12.853688684334401 ], [ 77.649960211286299, 12.853178152030999 ], [ 77.650008102074807, 12.852971014397299 ], [ 77.650140413177994, 12.8529120856593 ], [ 77.650277780752901, 12.8521834571774 ], [ 77.650077243823105, 12.8521019181672 ], [ 77.649795010282602, 12.8522414091365 ], [ 77.649619215240904, 12.852927514047501 ], [ 77.649215133176895, 12.8527520435448 ], [ 77.649312236251504, 12.852134488836301 ], [ 77.648655349174504, 12.852106115047199 ], [ 77.648205817859704, 12.851986435095901 ], [ 77.647726847240406, 12.8518580173592 ], [ 77.647635494524906, 12.8522011044909 ], [ 77.647594513618102, 12.852353967914301 ], [ 77.646629292474302, 12.852116400225 ], [ 77.646377507799997, 12.852141525511099 ], [ 77.646199885045306, 12.8521049224929 ], [ 77.646170469109094, 12.8520984436626 ], [ 77.646145099215801, 12.8518739770092 ], [ 77.645753678912399, 12.8516983726714 ], [ 77.645595959958897, 12.8519687270354 ], [ 77.645180846326298, 12.851838531133399 ], [ 77.644905462421505, 12.8517532254383 ], [ 77.644909683878495, 12.8521563287423 ], [ 77.644019593147405, 12.8516469707101 ], [ 77.643129504687707, 12.8511376089464 ], [ 77.642879918715195, 12.851207879072399 ], [ 77.642900962457901, 12.851404158636701 ], [ 77.642957786676803, 12.8519832786943 ], [ 77.642978301038994, 12.8526945746389 ], [ 77.643014906622795, 12.8536941552293 ], [ 77.643011792241694, 12.854021093378799 ], [ 77.642966018317793, 12.8546433179042 ], [ 77.642900580808799, 12.855931372511 ], [ 77.642907153641403, 12.8562294313097 ], [ 77.642916976773506, 12.857002876412301 ], [ 77.642916369719501, 12.8570548285561 ], [ 77.642893662548303, 12.858293857165201 ], [ 77.642874038797302, 12.8589478972801 ], [ 77.642844022543898, 12.8594337822057 ], [ 77.642828466743197, 12.8594870142872 ], [ 77.642590951507998, 12.860326191050699 ], [ 77.642532460310505, 12.8605108502316 ], [ 77.6424739808742, 12.860696638556099 ], [ 77.642254042069197, 12.861345922248701 ], [ 77.642005319218299, 12.8623241112332 ], [ 77.641866949895402, 12.8630143555452 ], [ 77.641796661139594, 12.863611314250299 ], [ 77.641792507019304, 12.8636542680715 ], [ 77.641732253465904, 12.8636706850185 ], [ 77.641478237110604, 12.8637037351108 ], [ 77.641264912107403, 12.864270516006099 ], [ 77.641223690248097, 12.8644007965752 ], [ 77.641331761483698, 12.8650490332691 ], [ 77.6409419649749, 12.865048636961401 ], [ 77.6405174431478, 12.8650482046879 ], [ 77.639494576017, 12.8649616398314 ], [ 77.638836115958, 12.864905912397999 ], [ 77.638693998077102, 12.8643031868161 ], [ 77.638605443166696, 12.863944345246701 ], [ 77.638448811697401, 12.8633096436873 ], [ 77.637394184382998, 12.862891136341601 ], [ 77.636804811815594, 12.8631037213336 ], [ 77.636428710801596, 12.8631289604721 ], [ 77.635768695332999, 12.862969595823399 ], [ 77.635244861797204, 12.8629556650771 ], [ 77.634748334966105, 12.8627460954771 ], [ 77.634621657618396, 12.8626841297142 ], [ 77.634563809038298, 12.862655350162999 ], [ 77.634544032539694, 12.862635222103 ], [ 77.6345259587291, 12.862612818392501 ], [ 77.634184398968401, 12.8621430875572 ], [ 77.6342540515802, 12.8619244388636 ], [ 77.633226272357604, 12.861651318244901 ], [ 77.633014410274896, 12.8615879486248 ], [ 77.632942822712195, 12.861566082240101 ], [ 77.632239998650505, 12.8612505863052 ], [ 77.632192336714994, 12.8612291913478 ], [ 77.631727118436203, 12.8608758832093 ], [ 77.631644490717505, 12.8607886295489 ], [ 77.631466190679305, 12.860687655638101 ], [ 77.631333242796899, 12.8605760629621 ], [ 77.631167661046106, 12.8604806075017 ], [ 77.631067182581603, 12.860337069197 ], [ 77.6308348265745, 12.860129356458501 ], [ 77.630637665484997, 12.8599303244848 ], [ 77.630392850314706, 12.858582171913 ], [ 77.629886628314395, 12.8579932525389 ], [ 77.629062798300197, 12.8569117653898 ], [ 77.627276301972202, 12.8570550189465 ], [ 77.626826283825096, 12.857165678929601 ], [ 77.626449729675798, 12.857382474304799 ], [ 77.626349197840895, 12.8574403541809 ], [ 77.625478504314202, 12.8575507078424 ], [ 77.624556981284599, 12.8576431223314 ], [ 77.623635456945806, 12.8577355346108 ], [ 77.622713931279193, 12.8578279428739 ], [ 77.621398999608701, 12.8579415970139 ], [ 77.620279674238901, 12.8579392329349 ], [ 77.619720086750405, 12.8579730560381 ], [ 77.619506643365895, 12.8580246508277 ], [ 77.619042723013905, 12.858136792358099 ], [ 77.618849038411497, 12.857828174485901 ], [ 77.618907560937998, 12.857589311703901 ], [ 77.618062936212297, 12.857439646182 ], [ 77.617274519981606, 12.857493816884 ], [ 77.616794749018794, 12.8575663618763 ], [ 77.616398056568698, 12.855826706855099 ], [ 77.615488467108193, 12.8552937231585 ], [ 77.614974502341099, 12.8548426171368 ], [ 77.614361269841098, 12.854252467867401 ], [ 77.614115292964797, 12.853894677467901 ], [ 77.613590192589697, 12.853145547257199 ], [ 77.613197932902295, 12.852609656496499 ], [ 77.612880469169596, 12.852016555546699 ], [ 77.612701772682001, 12.851653575739499 ], [ 77.612216468817294, 12.851691157775999 ], [ 77.6115716034667, 12.851490918436101 ], [ 77.611107160850906, 12.851431171961901 ], [ 77.610537100332806, 12.8513973199471 ], [ 77.609852770900105, 12.8513318540505 ], [ 77.609176427173196, 12.851259531140901 ], [ 77.609170762901599, 12.8511754048147 ], [ 77.609064270107694, 12.8495938150611 ], [ 77.609039700205898, 12.8486635246317 ], [ 77.609065660156702, 12.848223972795299 ], [ 77.609064911406094, 12.847538501330501 ], [ 77.609139372680005, 12.846891807253799 ], [ 77.609323408302799, 12.846045268818701 ], [ 77.608389165462498, 12.846686958153001 ], [ 77.6071859834056, 12.847476995592199 ], [ 77.606645670153497, 12.847648368932299 ], [ 77.605978472080196, 12.8478481043794 ], [ 77.605465710938802, 12.8479570908569 ], [ 77.604553663928897, 12.8482416923753 ], [ 77.603928122013599, 12.8483517954822 ], [ 77.603455844664197, 12.848368903788 ], [ 77.602858751208203, 12.848391766528 ], [ 77.602671791801299, 12.848398138115501 ], [ 77.602171777557302, 12.848292426042899 ], [ 77.601280169677494, 12.8481036392803 ], [ 77.600626994208696, 12.8481010789551 ], [ 77.600486595818595, 12.848102470322001 ], [ 77.600400942281496, 12.847999423814301 ], [ 77.600196034999001, 12.8479393429207 ], [ 77.599914153814197, 12.847981061349399 ], [ 77.599844387939498, 12.8479913868133 ], [ 77.599366151845999, 12.8480446842237 ], [ 77.599183312872398, 12.848060046854499 ], [ 77.598986954558697, 12.8481037757086 ], [ 77.598616131558401, 12.8482497397142 ], [ 77.598227687030104, 12.8482490689345 ], [ 77.597777923035807, 12.8483291848504 ], [ 77.5974046809757, 12.8484638782791 ], [ 77.596893334327305, 12.848655273718901 ], [ 77.5965570331809, 12.848800893513401 ], [ 77.596338383466801, 12.848859522046601 ], [ 77.595616974043907, 12.8491614065685 ], [ 77.5953985139694, 12.8487344331778 ], [ 77.5952287878101, 12.848401838773301 ], [ 77.595181952888893, 12.8481561143376 ], [ 77.5948495654455, 12.8474502000757 ], [ 77.594578765678804, 12.8465212037288 ], [ 77.594524479364594, 12.846334276323701 ], [ 77.594423949834393, 12.8457909466474 ], [ 77.594391034859399, 12.845611713015 ], [ 77.594321208254499, 12.8439670102315 ], [ 77.594305693949394, 12.843632890152399 ], [ 77.594304762528594, 12.8434860900865 ], [ 77.594218766532407, 12.8427325661076 ], [ 77.594073077317105, 12.841937847620899 ], [ 77.594161065963206, 12.841932460983299 ], [ 77.594119335858494, 12.8417326371793 ], [ 77.593851182307205, 12.840445972706799 ], [ 77.593851044592199, 12.840445525072999 ], [ 77.5934999567462, 12.8393043290194 ], [ 77.593272167539396, 12.8385273595374 ], [ 77.592853761891604, 12.8371187322905 ], [ 77.592319823985207, 12.8360590694174 ], [ 77.5917858912252, 12.8349994045256 ], [ 77.591536909632197, 12.8345117428408 ], [ 77.591211897419697, 12.8346346555564 ], [ 77.5906504106119, 12.8348728308925 ], [ 77.590542045903405, 12.834911166745201 ], [ 77.590535818446696, 12.835539122135399 ], [ 77.589881158276597, 12.835445069916 ], [ 77.589560671943602, 12.8354482298245 ], [ 77.589251199605499, 12.8352344538736 ], [ 77.589050832687604, 12.8350546105587 ], [ 77.588369642950695, 12.834561040875 ], [ 77.587488931826002, 12.833913589792299 ], [ 77.587078573550301, 12.833625140624401 ], [ 77.586435960840603, 12.8340335025605 ], [ 77.5852838918982, 12.8347608260749 ], [ 77.584326384050001, 12.835382334849401 ], [ 77.583487378437596, 12.8360568822898 ], [ 77.582667723691799, 12.836710909916301 ], [ 77.582431980637807, 12.836898435238201 ], [ 77.581983505586507, 12.8371038623233 ], [ 77.581780016797296, 12.8372379924061 ], [ 77.581279377085295, 12.8375195952772 ], [ 77.580607052109599, 12.8378378932566 ], [ 77.5804339897837, 12.837888490400999 ], [ 77.579767677063501, 12.838083296176499 ], [ 77.579248894614096, 12.8381663147163 ], [ 77.579036668187001, 12.8382338993214 ], [ 77.578949393087498, 12.838252825471701 ], [ 77.578851668799402, 12.8382628196902 ], [ 77.578787411492996, 12.8382690963796 ], [ 77.578029021176505, 12.8383431732437 ], [ 77.576863277819101, 12.838467546664999 ] ] ] } }
]
}
