{
"type": "FeatureCollection",
"name": "West",
"crs": { "type": "name", "properties": { "name": "urn:ogc:def:crs:OGC:1.3:CRS84" } },
"features": [
{ "type": "Feature", "properties": { "region_id": "corp_GBA_West", "name": "West", "parent": "ulb_276600", "parent_name": "GBA" }, "geometry": { "type": "Polygon", "coordinates": [ [ [ 77.511342526729194, 12.8906546813195 ], [ 77.510993217118695, 12.8901644401375 ], [ 77.510633548868597, 12.889681462330399 ], [ 77.510291278496894, 12.889261922740101 ], [ 77.509898173725503, 12.8888614874972 ], [ 77.509430917436703, 12.8884360934379 ], [ 77.508772397660593, 12.8879091416728 ], [ 77.508135444525394, 12.8874690354106 ], [ 77.507590670800994, 12.8871442992629 ], [ 77.506386086971801, 12.886557021633401 ], [ 77.503409778937694, 12.885153794061001 ], [ 77.502032496015303, 12.8843928723396 ], [ 77.501067072902202, 12.8838272807346 ], [ 77.499100601900693, 12.8824964502149 ], [ 77.498048518460706, 12.8816714296893 ], [ 77.497641370009006, 12.881352618204501 ], [ 77.497346089833002, 12.881283539911699 ], [ 77.497045542625997, 12.880866104174499 ], [ 77.496416838067802, 12.880562019821699 ], [ 77.496484680267301, 12.879883527910099 ], [ 77.4957243142359, 12.8800336828997 ], [ 77.495574871772703, 12.879544090840101 ], [ 77.495034313882002, 12.8791401508528 ], [ 77.494609375797694, 12.878569138052301 ], [ 77.494241445221405, 12.8781720305414 ], [ 77.493939028849297, 12.877654567884999 ], [ 77.493253672672395, 12.8772331945944 ], [ 77.492832752887495, 12.8765329400116 ], [ 77.492239534160007, 12.875749867040801 ], [ 77.490609725642798, 12.8735344959111 ], [ 77.490151044423598, 12.873003223007 ], [ 77.4897949632349, 12.872615077681299 ], [ 77.489018180165999, 12.8717766440524 ], [ 77.488883033831598, 12.8718198507424 ], [ 77.482246999609202, 12.864474999821301 ], [ 77.4767159999532, 12.865229000417999 ], [ 77.476972000067505, 12.8658830000004 ], [ 77.477086999974901, 12.866087999561501 ], [ 77.477183999951393, 12.8662099997916 ], [ 77.477456999950405, 12.866452000159599 ], [ 77.477635000065007, 12.866655999674601 ], [ 77.477564000388099, 12.866632000366501 ], [ 77.477460000088797, 12.866635999651599 ], [ 77.477312999605005, 12.8666850001126 ], [ 77.477262999997194, 12.866750999558899 ], [ 77.477240999882099, 12.866754999743399 ], [ 77.477209000204994, 12.866686000158699 ], [ 77.477191000274203, 12.8666609999052 ], [ 77.476924999698795, 12.8662879997913 ], [ 77.476558999907695, 12.866731000435299 ], [ 77.476016000048105, 12.8667589999279 ], [ 77.475984000371099, 12.867252000179599 ], [ 77.476393000346505, 12.867344999971699 ], [ 77.476470000300097, 12.867747999670399 ], [ 77.476426000069594, 12.868417999990699 ], [ 77.478170999601801, 12.8684709997368 ], [ 77.478033000432404, 12.868639000289599 ], [ 77.4777170002491, 12.8697759996626 ], [ 77.477494999904096, 12.871444000140499 ], [ 77.477489999673594, 12.872032000276601 ], [ 77.477638000203399, 12.8720310002304 ], [ 77.477747999880094, 12.877932999907999 ], [ 77.475706000141599, 12.8781710000916 ], [ 77.475594000372595, 12.8782599996991 ], [ 77.475708068585504, 12.8784417940618 ], [ 77.475827387083399, 12.8784296661523 ], [ 77.475649710933993, 12.878825695003 ], [ 77.475454242304707, 12.879102314539301 ], [ 77.475113208929798, 12.879559769831101 ], [ 77.474958179798904, 12.879779041168 ], [ 77.474824143046604, 12.880048377492299 ], [ 77.474865346162105, 12.880416583396901 ], [ 77.474943081169599, 12.8806772174568 ], [ 77.475157616679496, 12.8809499600117 ], [ 77.475649794473398, 12.881310551369699 ], [ 77.476068168289501, 12.881612278125001 ], [ 77.476182823427195, 12.881682345442901 ], [ 77.476526703640999, 12.8820009695272 ], [ 77.476934382207304, 12.8823686826223 ], [ 77.477354834805396, 12.8827475678971 ], [ 77.477546740659506, 12.8830055117949 ], [ 77.4779448491946, 12.8833947717686 ], [ 77.478264707823797, 12.883787030571201 ], [ 77.478507298497206, 12.8841066100586 ], [ 77.478711013007796, 12.884277477785901 ], [ 77.4789020770056, 12.8844495945063 ], [ 77.478979748578894, 12.884621655639499 ], [ 77.479018345486296, 12.884683406556 ], [ 77.479006283672305, 12.8847445078873 ], [ 77.479007017120296, 12.884819040715801 ], [ 77.478958069723106, 12.8849923010712 ], [ 77.478884531856295, 12.885240334110099 ], [ 77.478897804993693, 12.8853023248782 ], [ 77.478900360971494, 12.885562060501099 ], [ 77.478875648286106, 12.885624411049699 ], [ 77.478838971420004, 12.885699298212399 ], [ 77.478801585637896, 12.885760639400299 ], [ 77.478751548987901, 12.885823229795401 ], [ 77.478739620456196, 12.8858978825563 ], [ 77.478727814160706, 12.8859849574572 ], [ 77.478741198462799, 12.886058241083999 ], [ 77.478767133626405, 12.8861201119276 ], [ 77.478856256465093, 12.886168960975301 ], [ 77.478944681537399, 12.886205393300401 ], [ 77.479108956262806, 12.886228683797301 ], [ 77.479336296357701, 12.8862265301464 ], [ 77.479499837408795, 12.8861752875956 ], [ 77.479776393684602, 12.8860857042596 ], [ 77.480141105316804, 12.885946721512999 ], [ 77.480570460694693, 12.8859426523412 ], [ 77.480696627007802, 12.885953879759599 ], [ 77.480759936766304, 12.885953279657199 ], [ 77.480924088927694, 12.885964146894301 ], [ 77.481125982216398, 12.8859498096748 ], [ 77.481453552234498, 12.8858970108954 ], [ 77.481813363548198, 12.8858450353774 ], [ 77.481965061973597, 12.885818750251699 ], [ 77.482077831810301, 12.885755564433399 ], [ 77.482494524305295, 12.8857516122499 ], [ 77.482633352355094, 12.885762718631099 ], [ 77.482849854985801, 12.885945884348001 ], [ 77.482926720386203, 12.886094234257801 ], [ 77.482966654271394, 12.8862914981784 ], [ 77.482967745206395, 12.8864021677892 ], [ 77.482866663171606, 12.8866583683642 ], [ 77.482707018869803, 12.887104861624 ], [ 77.482509388088801, 12.887551715242299 ], [ 77.482456271385402, 12.887779384175699 ], [ 77.482376291317706, 12.888122189270099 ], [ 77.482243464572605, 12.8887784942217 ], [ 77.482009155988493, 12.8893002353398 ], [ 77.481841872807706, 12.8895559344419 ], [ 77.481729223792399, 12.889631542570401 ], [ 77.481591728981201, 12.889755950009899 ], [ 77.481404197512205, 12.8899429483148 ], [ 77.481341743635099, 12.8900305035332 ], [ 77.481254173745299, 12.8900810271194 ], [ 77.481128041791393, 12.8901319163775 ], [ 77.481052766789801, 12.8901450534905 ], [ 77.481000900669898, 12.8901455453287 ], [ 77.480787436971596, 12.8901475694631 ], [ 77.480699132633603, 12.890123560188799 ], [ 77.4805599349218, 12.890075186850799 ], [ 77.480470810334793, 12.890026338708999 ], [ 77.480344274858894, 12.889977845192799 ], [ 77.480216807938206, 12.889893219980801 ], [ 77.479988694508094, 12.8897587261784 ], [ 77.479684766806699, 12.889699490381 ], [ 77.4795460587017, 12.889700804936499 ], [ 77.479420135044094, 12.8897144215571 ], [ 77.479307485041602, 12.8897900287862 ], [ 77.479271566624803, 12.8900004356822 ], [ 77.479261584077307, 12.890272713258 ], [ 77.479265609184495, 12.8906815142724 ], [ 77.4792170778084, 12.891247798533801 ], [ 77.479217522591696, 12.891292969915501 ], [ 77.479212317225006, 12.8914658159021 ], [ 77.479203894726794, 12.891721137838999 ], [ 77.479202523893306, 12.891757291307099 ], [ 77.479204739843993, 12.8918069634618 ], [ 77.479205240245193, 12.8918577812645 ], [ 77.4791988228381, 12.8919075352376 ], [ 77.479181469834998, 12.8919573928479 ], [ 77.479091148640904, 12.892137821812 ], [ 77.479070186582206, 12.892171902163399 ], [ 77.479042239981794, 12.892198142974401 ], [ 77.479005682239404, 12.892226724167299 ], [ 77.478942693277503, 12.8922600733884 ], [ 77.478895188782403, 12.8922876289139 ], [ 77.478847706513605, 12.892317443002099 ], [ 77.478805979819498, 12.8923472025447 ], [ 77.4787746020546, 12.8923757346284 ], [ 77.478737457575406, 12.8924031919626 ], [ 77.478704364236904, 12.892432869686701 ], [ 77.478671259772298, 12.892461418123 ], [ 77.478615399767094, 12.892517287538301 ], [ 77.478558088438703, 12.8925426771579 ], [ 77.4785232016756, 12.8925655955161 ], [ 77.478480832633593, 12.8925885847638 ], [ 77.478430439102098, 12.892615038205999 ], [ 77.478391567867007, 12.8926425118635 ], [ 77.478354943276599, 12.8926643172786 ], [ 77.478314211943896, 12.8926782558641 ], [ 77.478274145098297, 12.8927012232731 ], [ 77.478228433810997, 12.892735538057901 ], [ 77.478179911408503, 12.892776655812201 ], [ 77.478130780081301, 12.892814391156801 ], [ 77.478097686611704, 12.892844068826101 ], [ 77.478012837174802, 12.8928787543538 ], [ 77.4778323717061, 12.893023896513601 ], [ 77.477794808504896, 12.893062824192899 ], [ 77.477717236828994, 12.8932062733344 ], [ 77.477588828701698, 12.893372099718199 ], [ 77.477504461664694, 12.8934482490832 ], [ 77.477435312390995, 12.893509182797301 ], [ 77.477401500539997, 12.8935570323383 ], [ 77.477295214720897, 12.8937001778386 ], [ 77.477214437377299, 12.893839676390501 ], [ 77.477160468655896, 12.8939207429282 ], [ 77.477083858862301, 12.894019924282601 ], [ 77.4770480102313, 12.8940873929989 ], [ 77.477016726493801, 12.8941548184828 ], [ 77.476994437708996, 12.8942087334798 ], [ 77.476949331704304, 12.894262862750599 ], [ 77.476863418553606, 12.894344231770299 ], [ 77.476791195489895, 12.8944254711322 ], [ 77.476736874287397, 12.894470738344699 ], [ 77.476641348688403, 12.8945029695104 ], [ 77.476572588840497, 12.894472293974699 ], [ 77.476421685359895, 12.8944423961795 ], [ 77.476219659962297, 12.894319000606201 ], [ 77.476146116105397, 12.894265992908799 ], [ 77.476022417904403, 12.8942179368851 ], [ 77.475862476463703, 12.8941970744938 ], [ 77.475739350450198, 12.894207190165799 ], [ 77.475662035801903, 12.894234773498701 ], [ 77.475584852230995, 12.8942757808857 ], [ 77.475521623762006, 12.8943435095156 ], [ 77.475490471585999, 12.894424359865001 ], [ 77.475468709585101, 12.894531971971199 ], [ 77.475455856475307, 12.8946171242332 ], [ 77.475465686754703, 12.8946886355867 ], [ 77.475489340167002, 12.8947734423245 ], [ 77.475531160684397, 12.8948491259919 ], [ 77.475667594379502, 12.895264037390801 ], [ 77.475867083048598, 12.8955933193134 ], [ 77.476110972530606, 12.8957968732072 ], [ 77.476336535108402, 12.8959318637456 ], [ 77.476577562708499, 12.8960693259764 ], [ 77.477333036276605, 12.896504891935001 ], [ 77.477108869314094, 12.8966549656291 ], [ 77.476689746456401, 12.896998882186899 ], [ 77.475443094288806, 12.897657828022799 ], [ 77.475165829910097, 12.8978524493698 ], [ 77.474692551844896, 12.8981336301106 ], [ 77.474111216471996, 12.898314187229399 ], [ 77.473358588539398, 12.898402623842401 ], [ 77.4724658817114, 12.8969473710403 ], [ 77.472395028253104, 12.896824936897699 ], [ 77.4713099737411, 12.8954765301443 ], [ 77.470220581043904, 12.8940954052328 ], [ 77.469583691742201, 12.8924852519417 ], [ 77.469381333149499, 12.8919247223307 ], [ 77.468782940641205, 12.8898951949734 ], [ 77.468757947940205, 12.8898118553399 ], [ 77.468368416532797, 12.888477193384301 ], [ 77.467795339732803, 12.8893228715218 ], [ 77.4668040587391, 12.8905485824138 ], [ 77.465861469721403, 12.891809972945801 ], [ 77.465795567072107, 12.891898687349901 ], [ 77.465044832945793, 12.8930024106471 ], [ 77.464316240740303, 12.8941341592556 ], [ 77.463308252779299, 12.8955971944655 ], [ 77.462172936780505, 12.897285048250501 ], [ 77.462246100344998, 12.897349864715199 ], [ 77.462230780732995, 12.8973725970139 ], [ 77.462102504915407, 12.897564970212301 ], [ 77.462032223218998, 12.8976703700352 ], [ 77.461948772168697, 12.8978484719712 ], [ 77.461819095725005, 12.898126396551501 ], [ 77.461542839241602, 12.898719675083299 ], [ 77.460676650448804, 12.8984985590906 ], [ 77.460684767244899, 12.8993285943993 ], [ 77.460713497749197, 12.9000296836366 ], [ 77.460315865629894, 12.9001946676023 ], [ 77.4602817944035, 12.900208803996 ], [ 77.460200068257805, 12.900386889468001 ], [ 77.4601564166326, 12.9016330327565 ], [ 77.460128170300095, 12.9030416651766 ], [ 77.460138607761095, 12.904108853492099 ], [ 77.460131211046502, 12.9047651066629 ], [ 77.460050698948393, 12.905067415290601 ], [ 77.460316783095806, 12.9066110639219 ], [ 77.4607902250265, 12.9065783710719 ], [ 77.462225714338103, 12.906441744949699 ], [ 77.463718205990006, 12.906483019124 ], [ 77.465080533780394, 12.9065869166377 ], [ 77.466671543996895, 12.906877790990601 ], [ 77.466675895142103, 12.907363154544701 ], [ 77.466623475782797, 12.9079464189783 ], [ 77.466596414707695, 12.9083566460745 ], [ 77.466499418512598, 12.910146528877601 ], [ 77.467214355126202, 12.9112578821218 ], [ 77.468189317716494, 12.912292235228101 ], [ 77.468698502403001, 12.9130260488839 ], [ 77.468967696994397, 12.9134142756364 ], [ 77.469253666877705, 12.913986434919 ], [ 77.469439233177795, 12.9143585105331 ], [ 77.470027076252407, 12.915128846434699 ], [ 77.470208902761797, 12.9158815626735 ], [ 77.470437470299601, 12.9167625874002 ], [ 77.470652898843895, 12.9175951719519 ], [ 77.470840408797798, 12.9183399274668 ], [ 77.4709019857589, 12.918572000004801 ], [ 77.471497021773004, 12.920364363311799 ], [ 77.471768506043603, 12.921217873384 ], [ 77.472045011285104, 12.922171851265 ], [ 77.4721962320979, 12.9226210469827 ], [ 77.472434413623304, 12.9234827765997 ], [ 77.472594100578306, 12.9240988926404 ], [ 77.472761750024105, 12.924745724741101 ], [ 77.472899089341396, 12.9253614557001 ], [ 77.473143598501395, 12.9264576532733 ], [ 77.473192260966002, 12.9266638708265 ], [ 77.474822207507501, 12.9266800404029 ], [ 77.475887395338702, 12.926695911907901 ], [ 77.477396937592502, 12.9264703890713 ], [ 77.478234466634106, 12.9262851224578 ], [ 77.479595264078895, 12.9259170846393 ], [ 77.479608319660301, 12.9259375913285 ], [ 77.479651974561193, 12.9260546598891 ], [ 77.479617917241498, 12.9261269914237 ], [ 77.479622678159004, 12.9262179016059 ], [ 77.479704743467096, 12.926311869241299 ], [ 77.4797326453306, 12.926398768387999 ], [ 77.479706203060701, 12.9264596569035 ], [ 77.479552158384493, 12.9265103899791 ], [ 77.479475417143505, 12.9265641768788 ], [ 77.479380406220898, 12.926724251872599 ], [ 77.479258540243407, 12.926903533128201 ], [ 77.479108956603298, 12.927014858172999 ], [ 77.479086262802994, 12.9270643421805 ], [ 77.479094924735804, 12.9271590073661 ], [ 77.479118778545896, 12.9272269975462 ], [ 77.479200918910905, 12.9273285414315 ], [ 77.479360023582998, 12.927399036705401 ], [ 77.479523181914303, 12.9274884426552 ], [ 77.4796588444609, 12.9275326316251 ], [ 77.479821251564402, 12.927546247272 ], [ 77.479952643303406, 12.9275487869304 ], [ 77.480064901967495, 12.927570461294099 ], [ 77.480177051056899, 12.927580763272401 ], [ 77.480262641994699, 12.927640589625399 ], [ 77.480871058079202, 12.927433941088401 ], [ 77.480986694463596, 12.9274063145994 ], [ 77.481179401797306, 12.927749356915401 ], [ 77.481231235598102, 12.9279118253496 ], [ 77.481243723710605, 12.9280026619036 ], [ 77.481344883037295, 12.928073707725 ], [ 77.481461343673203, 12.928129448908701 ], [ 77.481645389319496, 12.928377826632801 ], [ 77.481831198052106, 12.928804309517201 ], [ 77.481917277705506, 12.928913394315099 ], [ 77.482037377739204, 12.9289463619403 ], [ 77.482222853568203, 12.9289483857989 ], [ 77.482315648150305, 12.928955082462799 ], [ 77.482519687504407, 12.9292714884284 ], [ 77.482601687660207, 12.929514929901099 ], [ 77.482674929858106, 12.9297323685877 ], [ 77.482872143547596, 12.930139794227401 ], [ 77.482970526657894, 12.930320769148899 ], [ 77.483122432354904, 12.930444388586601 ], [ 77.483201274973496, 12.930602809892401 ], [ 77.483229179683804, 12.9306897110341 ], [ 77.483203974400098, 12.9308756533266 ], [ 77.483082258127396, 12.9310700911144 ], [ 77.483021382127703, 12.931165417772201 ], [ 77.4828948308337, 12.9312613659253 ], [ 77.483030870722899, 12.931343447600399 ], [ 77.483224152531307, 12.931352978367901 ], [ 77.483318915615399, 12.931343861567701 ], [ 77.483469588954804, 12.931560398213399 ], [ 77.483472371475798, 12.9318415882869 ], [ 77.483316208243906, 12.932117515321799 ], [ 77.483226926607102, 12.9322290449274 ], [ 77.483235214576098, 12.932310281668499 ], [ 77.483160977925095, 12.9324295737235 ], [ 77.483087266775598, 12.9324856152598 ], [ 77.483071260349107, 12.9324970614768 ], [ 77.483073115197399, 12.93268452157 ], [ 77.4831638886278, 12.9327819138121 ], [ 77.483209823082802, 12.932827781242 ], [ 77.483256881061607, 12.932812651234499 ], [ 77.483312517897701, 12.9327917926226 ], [ 77.483346771761006, 12.932820830474901 ], [ 77.483387536582399, 12.9328678764701 ], [ 77.483475912690906, 12.9328975283728 ], [ 77.483528553841694, 12.932923002968501 ], [ 77.483572710838601, 12.933254621297699 ], [ 77.483564489619596, 12.933296486774699 ], [ 77.483519678181096, 12.9334222750552 ], [ 77.483633511590497, 12.9336391621276 ], [ 77.483621484296705, 12.9339363045277 ], [ 77.483645477234901, 12.9339756044696 ], [ 77.483709860841799, 12.934082282770399 ], [ 77.483780654933099, 12.9341968056782 ], [ 77.483805245935599, 12.9342383586672 ], [ 77.4838229689352, 12.9343297819636 ], [ 77.4839326505261, 12.9348955757007 ], [ 77.484042305071696, 12.935271745218801 ], [ 77.484124155817696, 12.9358051637206 ], [ 77.484101202444094, 12.9358708865882 ], [ 77.484126515513097, 12.9361597675002 ], [ 77.484044358922802, 12.936235089411401 ], [ 77.484159602983397, 12.9364779382873 ], [ 77.484138393559803, 12.936603501846101 ], [ 77.4841512632904, 12.936708110985199 ], [ 77.484181305055202, 12.936893568514799 ], [ 77.484177892811701, 12.936894230256501 ], [ 77.483840107531094, 12.936959737252799 ], [ 77.483072777679993, 12.9370659072073 ], [ 77.482384748952995, 12.9371611031918 ], [ 77.482101654927305, 12.9372002718593 ], [ 77.481734265356195, 12.937238533118601 ], [ 77.481054826180696, 12.937309291739799 ], [ 77.481030218299097, 12.9373118542292 ], [ 77.480396453125095, 12.937366380555201 ], [ 77.479347682137302, 12.937456608448199 ], [ 77.478839664369005, 12.937507547388099 ], [ 77.478773863029801, 12.937514145143 ], [ 77.478356953900402, 12.937562226592799 ], [ 77.476915628894602, 12.9380362078965 ], [ 77.476272886393403, 12.938309367452201 ], [ 77.476391406741897, 12.938601928937199 ], [ 77.476397603275302, 12.938617225251001 ], [ 77.4759162961454, 12.9389861273779 ], [ 77.475344058225303, 12.939424723547701 ], [ 77.475190243336002, 12.9395501339988 ], [ 77.475023728190394, 12.9396851473134 ], [ 77.474960575131306, 12.939736352560599 ], [ 77.474735835399699, 12.9399146067156 ], [ 77.474460188456305, 12.9400224634084 ], [ 77.473875269581001, 12.9402151104187 ], [ 77.473634546588002, 12.940236104624301 ], [ 77.473251571198503, 12.940333464204601 ], [ 77.473718389799501, 12.941141066833801 ], [ 77.473780149905593, 12.9412737488357 ], [ 77.473975061159294, 12.9416558918061 ], [ 77.474232339090406, 12.942115370450299 ], [ 77.474318062796598, 12.9423426935258 ], [ 77.474540137219293, 12.942968526123099 ], [ 77.474744964360994, 12.943421725459199 ], [ 77.4748057023196, 12.9439756790528 ], [ 77.474835954439996, 12.9442407983389 ], [ 77.474916544083896, 12.944647742654199 ], [ 77.474932308278099, 12.9447322059029 ], [ 77.475069731863897, 12.9454684832826 ], [ 77.475155922181401, 12.9456845073836 ], [ 77.475360881736293, 12.9463839111404 ], [ 77.475536166277394, 12.9469932453366 ], [ 77.475820569017301, 12.947633165289799 ], [ 77.476279094854604, 12.948822571211201 ], [ 77.476129542873196, 12.948895144084901 ], [ 77.475778224924397, 12.949000127824499 ], [ 77.4755237452448, 12.9491166142704 ], [ 77.475179980106006, 12.949111974797299 ], [ 77.4749447123382, 12.9491334095234 ], [ 77.474186554128494, 12.949201597852101 ], [ 77.473703029385504, 12.9492118363777 ], [ 77.473057608968801, 12.9493275148156 ], [ 77.472730556622494, 12.949266243949401 ], [ 77.472432819595298, 12.949550288106799 ], [ 77.471058863550198, 12.9495859118233 ], [ 77.471121911796502, 12.950724870354 ], [ 77.471230575278199, 12.950732502411499 ], [ 77.471674438323106, 12.9507636746418 ], [ 77.472142408041407, 12.950868784890501 ], [ 77.472252012881299, 12.9510653881333 ], [ 77.472374250695907, 12.951316645953099 ], [ 77.4725123502581, 12.9516005072499 ], [ 77.472513226945296, 12.951806048064 ], [ 77.471477396450894, 12.952267635093801 ], [ 77.471561317114507, 12.9528371815084 ], [ 77.471576886526194, 12.9530730765853 ], [ 77.471636702650699, 12.953767084665399 ], [ 77.471763754409395, 12.9540979199117 ], [ 77.471890568846902, 12.9543463117306 ], [ 77.471948793631796, 12.9546340147325 ], [ 77.471965622272194, 12.9547171690031 ], [ 77.471995325239206, 12.9550432810628 ], [ 77.472099650483202, 12.955054714030901 ], [ 77.472474084746295, 12.9559490248192 ], [ 77.472858122867905, 12.9560662228564 ], [ 77.473504628392305, 12.957108156166599 ], [ 77.473820742461101, 12.9576892731925 ], [ 77.474184925522493, 12.9583587515319 ], [ 77.474256410173197, 12.958490161915799 ], [ 77.474712284829494, 12.959467267809901 ], [ 77.475105313579903, 12.960101046675099 ], [ 77.475283922454807, 12.960389060857301 ], [ 77.474409590339505, 12.9615554810071 ], [ 77.474242835694795, 12.961777942094299 ], [ 77.4737224765165, 12.9625125086437 ], [ 77.473526771645595, 12.9627887749665 ], [ 77.472912844614299, 12.963589699202499 ], [ 77.472283749056103, 12.963671345183799 ], [ 77.472485320468607, 12.9643221806555 ], [ 77.472596586193504, 12.9646814359433 ], [ 77.472997563653294, 12.965872394311001 ], [ 77.473176132991199, 12.966402765129001 ], [ 77.473485335704396, 12.9669859789459 ], [ 77.473272290545907, 12.967102072461801 ], [ 77.473925509112604, 12.968120217865399 ], [ 77.474137412520307, 12.9685056309347 ], [ 77.474525317811697, 12.9692100201342 ], [ 77.474796246047205, 12.969590305423999 ], [ 77.475017213960697, 12.970042217046601 ], [ 77.475026915595294, 12.970324471645601 ], [ 77.475039948055695, 12.970710598199901 ], [ 77.475070241237404, 12.9715938578228 ], [ 77.475074748695107, 12.971725586441 ], [ 77.475080084099901, 12.9722066547245 ], [ 77.475085032711206, 12.9729395800583 ], [ 77.475084149392799, 12.972966693761499 ], [ 77.475079800429697, 12.972992711058801 ], [ 77.474957276067599, 12.9737613635836 ], [ 77.474923119868194, 12.973975639791799 ], [ 77.474864637694793, 12.9743500235932 ], [ 77.474836822561898, 12.975670542199699 ], [ 77.474543437139999, 12.9777931947322 ], [ 77.474432995084499, 12.978618337358499 ], [ 77.474303233525504, 12.9795878189273 ], [ 77.474268871719204, 12.979781271254099 ], [ 77.474043922132594, 12.980624902750501 ], [ 77.473995975591905, 12.980971604054201 ], [ 77.473963397842994, 12.9811202497082 ], [ 77.473940671771103, 12.9812239441248 ], [ 77.473836486722803, 12.9817285640503 ], [ 77.473793237992197, 12.9822241462468 ], [ 77.473725509028, 12.982478903128101 ], [ 77.473454040458506, 12.983318635212401 ], [ 77.473315067086304, 12.9835877113445 ], [ 77.473277594514599, 12.983660262970799 ], [ 77.473265828385806, 12.983678980938601 ], [ 77.473062619380798, 12.9840022582488 ], [ 77.472303229403806, 12.984799744174699 ], [ 77.4722587009677, 12.984846506181899 ], [ 77.471686476971897, 12.985123335499599 ], [ 77.470857160929697, 12.985722690242 ], [ 77.470373358479605, 12.985987580381201 ], [ 77.469803495612695, 12.9862995883298 ], [ 77.468405230223695, 12.986709365251199 ], [ 77.468682085977505, 12.987221737338601 ], [ 77.469112056729799, 12.9880195191016 ], [ 77.469310521828007, 12.988407272642601 ], [ 77.469929555683393, 12.9896312939807 ], [ 77.470004730144794, 12.9897796586948 ], [ 77.470060299890704, 12.9898718848487 ], [ 77.470087278267002, 12.9899166593544 ], [ 77.470363485455294, 12.9906537830828 ], [ 77.470550581288293, 12.9914053064991 ], [ 77.470708080627602, 12.9919007397075 ], [ 77.470821430458201, 12.992240736994001 ], [ 77.471096255231998, 12.9933031362197 ], [ 77.471330343528194, 12.9938565680288 ], [ 77.471229868341297, 12.9942358694418 ], [ 77.471253088655502, 12.9946038292236 ], [ 77.471303557131904, 12.994699346973601 ], [ 77.471657251287198, 12.995409754171201 ], [ 77.4717547724767, 12.995461185485899 ], [ 77.471806600958203, 12.9954885190784 ], [ 77.472449630246601, 12.996806039520701 ], [ 77.472882459068003, 12.996726248486 ], [ 77.473049477667402, 12.9973096802825 ], [ 77.4731669702321, 12.9974858748719 ], [ 77.473281379190993, 12.9978816515902 ], [ 77.4734889693855, 12.998599770900499 ], [ 77.473567096597094, 12.998871208696499 ], [ 77.474202258467699, 12.999218653690599 ], [ 77.474354194932602, 12.9998485323287 ], [ 77.474534946838105, 13.000596721532901 ], [ 77.474780590257296, 13.000745717285 ], [ 77.474848675349094, 13.0011076008979 ], [ 77.475266157182404, 13.0025571386576 ], [ 77.475419562847804, 13.003392549788799 ], [ 77.475271204180999, 13.003414293825401 ], [ 77.475194156957201, 13.003426322552 ], [ 77.475180342465606, 13.0039993836179 ], [ 77.4751713095973, 13.0043740945891 ], [ 77.474998808125406, 13.0048647637167 ], [ 77.475007160836896, 13.004894048062701 ], [ 77.475232841863502, 13.005700535039299 ], [ 77.475361827644903, 13.006283088636399 ], [ 77.475398034209704, 13.006446611865501 ], [ 77.474894393645897, 13.0065880720596 ], [ 77.474583451478594, 13.006707364596901 ], [ 77.474219472573694, 13.0068791143353 ], [ 77.474037440435495, 13.006931672569999 ], [ 77.473308148051103, 13.007140786065399 ], [ 77.472839495218295, 13.0072683565053 ], [ 77.4731210219324, 13.008828743815601 ], [ 77.473442858812803, 13.0087624297533 ], [ 77.473740206712407, 13.0092463597639 ], [ 77.473968114765995, 13.009617702294699 ], [ 77.473988977849601, 13.009651695532501 ], [ 77.474724849653995, 13.0112077450159 ], [ 77.474839127716294, 13.011465283758101 ], [ 77.474903903996704, 13.0116092269117 ], [ 77.475238666817404, 13.013018892276399 ], [ 77.475260914471505, 13.013113548222201 ], [ 77.476371014880598, 13.014309131855301 ], [ 77.476952497947195, 13.0148716578015 ], [ 77.476983841812, 13.0150197836633 ], [ 77.477087250057195, 13.0155084718685 ], [ 77.477117444799802, 13.0156493562551 ], [ 77.477125331152493, 13.015747537214599 ], [ 77.477164007108897, 13.0160464541409 ], [ 77.477363679434106, 13.0169570874834 ], [ 77.477470777392995, 13.017302784496 ], [ 77.478123797523594, 13.0185140169989 ], [ 77.478372341862695, 13.019068426066999 ], [ 77.478388074475504, 13.019202672057601 ], [ 77.478693213143501, 13.020814769691301 ], [ 77.478959735511694, 13.022007210617501 ], [ 77.4789632390994, 13.0220228836318 ], [ 77.478435894468703, 13.0221578060442 ], [ 77.4784208132468, 13.0229575522324 ], [ 77.478406013262102, 13.0237855302372 ], [ 77.478438830825098, 13.024363459530401 ], [ 77.478682814473501, 13.0262528388199 ], [ 77.478750247367202, 13.0264893636525 ], [ 77.479105637242597, 13.0277090823186 ], [ 77.479607299962495, 13.0292741193237 ], [ 77.479028254927101, 13.0297709420499 ], [ 77.478478669731004, 13.0302189185897 ], [ 77.478191080776895, 13.0304882042134 ], [ 77.477858030611202, 13.030761312682699 ], [ 77.4776524228363, 13.030934945564599 ], [ 77.477285046305497, 13.031173371034299 ], [ 77.477023029513006, 13.031466128165199 ], [ 77.476939071802505, 13.0315369527983 ], [ 77.477219125792701, 13.032072989293001 ], [ 77.4776463572924, 13.0328718924205 ], [ 77.477890487754806, 13.0333280852859 ], [ 77.478239094012693, 13.033980919523399 ], [ 77.478267208659702, 13.034028084438001 ], [ 77.478523120439704, 13.034452540877201 ], [ 77.478738271316004, 13.0348322119022 ], [ 77.478841401840697, 13.035067265059601 ], [ 77.479394793202403, 13.0354052979824 ], [ 77.479898434549199, 13.035721218385399 ], [ 77.479956753859696, 13.036244008680899 ], [ 77.479998991405793, 13.0366226291491 ], [ 77.480031662347798, 13.037184746956999 ], [ 77.480064990276205, 13.0376971657473 ], [ 77.480047491954295, 13.0379062684916 ], [ 77.480747962477196, 13.0384958687499 ], [ 77.481343136293702, 13.03955742648 ], [ 77.481732844498495, 13.039709544443401 ], [ 77.482174597807997, 13.0398826208115 ], [ 77.482570325084495, 13.040580168629999 ], [ 77.482223199897902, 13.0408285727485 ], [ 77.4819200225716, 13.041094625115299 ], [ 77.481664547125604, 13.0411772606836 ], [ 77.481549572640006, 13.0415454108115 ], [ 77.481507144635302, 13.0416802135571 ], [ 77.481457670559806, 13.042725362183001 ], [ 77.481345500346805, 13.042912785050801 ], [ 77.481063539585705, 13.043112000236301 ], [ 77.480795108762095, 13.043224123374101 ], [ 77.4804910632147, 13.0432880243975 ], [ 77.480117706140106, 13.0433322605741 ], [ 77.480027424115306, 13.0433466783733 ], [ 77.480022522441999, 13.043374959814701 ], [ 77.479885251801903, 13.0438178624145 ], [ 77.479745273593906, 13.044162535008001 ], [ 77.479572089043799, 13.044353930268899 ], [ 77.479542250886396, 13.044480706633101 ], [ 77.479512390194301, 13.0446052244563 ], [ 77.4795407248087, 13.044905367715099 ], [ 77.479599954319198, 13.045242484378299 ], [ 77.479778681144793, 13.0451447743202 ], [ 77.479821437923107, 13.0457937572333 ], [ 77.479714947342401, 13.0459156214012 ], [ 77.479530178829606, 13.046389472543799 ], [ 77.479868920568606, 13.0474941461262 ], [ 77.480004711780495, 13.047942336964899 ], [ 77.480069799527797, 13.048462356332999 ], [ 77.480075444598697, 13.0485086067174 ], [ 77.4801030661, 13.0485060831393 ], [ 77.480130100418904, 13.048502435809899 ], [ 77.480204890807499, 13.0484938130865 ], [ 77.480393012940198, 13.0484716805076 ], [ 77.480491958013303, 13.048459437958 ], [ 77.4814439631499, 13.0482786420583 ], [ 77.482538613776299, 13.048020805774501 ], [ 77.482648775834207, 13.047981178104701 ], [ 77.484119154945006, 13.047452239204899 ], [ 77.486112638599806, 13.0466515627491 ], [ 77.486209510808607, 13.046593892102001 ], [ 77.486243754330602, 13.046573505348301 ], [ 77.487505368543196, 13.0462530594158 ], [ 77.487724823453803, 13.0461967394561 ], [ 77.488942598978497, 13.0458603038556 ], [ 77.489118258307499, 13.045811773956601 ], [ 77.489266356289406, 13.0457617861543 ], [ 77.489700340003793, 13.0456175683649 ], [ 77.490466866252603, 13.045264603810301 ], [ 77.490991941886307, 13.045072073761601 ], [ 77.491733321223094, 13.0472683347566 ], [ 77.492025540062201, 13.048093347498799 ], [ 77.492098959665597, 13.0489249850798 ], [ 77.492173858925497, 13.0501914152181 ], [ 77.492177420570499, 13.0503743386307 ], [ 77.492203185503996, 13.0506462682189 ], [ 77.492205207596101, 13.050675612319401 ], [ 77.492465308677495, 13.0515709537771 ], [ 77.4932005190864, 13.0515401503975 ], [ 77.494392118041802, 13.051244059757201 ], [ 77.494536897909995, 13.0512076529781 ], [ 77.496125985571894, 13.050861416755 ], [ 77.496872557281193, 13.050700616711501 ], [ 77.497293874779402, 13.0506141053486 ], [ 77.496661144162005, 13.0492062486487 ], [ 77.496653600792001, 13.048957770739101 ], [ 77.496653405070305, 13.0489578382224 ], [ 77.496760798725404, 13.048920686709399 ], [ 77.497313608707103, 13.048736910568801 ], [ 77.497411195847107, 13.0487043461968 ], [ 77.498295237769995, 13.0484112097742 ], [ 77.498468492805003, 13.0483429039584 ], [ 77.498657827774593, 13.048269925267601 ], [ 77.498918291512297, 13.048168025258301 ], [ 77.4991368726198, 13.0480823407395 ], [ 77.499322175763098, 13.048009400578399 ], [ 77.499373837187093, 13.047991960990799 ], [ 77.500115976208704, 13.047735200359 ], [ 77.500652643159796, 13.0475504445729 ], [ 77.500910971741007, 13.0474655038868 ], [ 77.501421880552897, 13.047296806771801 ], [ 77.501511437742593, 13.047267706762799 ], [ 77.502706118444706, 13.0468236067665 ], [ 77.502869072621806, 13.046762174197699 ], [ 77.503889086625705, 13.0464180135482 ], [ 77.504991143816596, 13.046042562299601 ], [ 77.505160545339507, 13.0459923596295 ], [ 77.505551053976802, 13.0458790303197 ], [ 77.505917431268301, 13.0457715809984 ], [ 77.506062746954598, 13.0457317753069 ], [ 77.506390731920703, 13.045643896341099 ], [ 77.506898085002803, 13.045466189224101 ], [ 77.507124790760898, 13.045387196224 ], [ 77.507303378003598, 13.045333532380001 ], [ 77.507781117816606, 13.0451899742522 ], [ 77.507832767636401, 13.045179021211499 ], [ 77.508417337678594, 13.0450550603263 ], [ 77.508698804451598, 13.044923584802399 ], [ 77.508822506281803, 13.044856814065399 ], [ 77.509063126446094, 13.0447269322894 ], [ 77.509376333812796, 13.0445581470491 ], [ 77.509707574501405, 13.044379643084 ], [ 77.509821199496599, 13.044318411382701 ], [ 77.509957347334804, 13.0442473182784 ], [ 77.510023797793394, 13.044211663675201 ], [ 77.510028969444804, 13.0442104841527 ], [ 77.510187682952207, 13.0441287602992 ], [ 77.510305148544205, 13.044068894277 ], [ 77.510422956448394, 13.044007981365899 ], [ 77.510516826720703, 13.043959527614399 ], [ 77.510668407115801, 13.0438812850748 ], [ 77.510731447587006, 13.0438501808277 ], [ 77.511431180789899, 13.043503454823 ], [ 77.511616857549896, 13.0434113043686 ], [ 77.511947995160597, 13.043294025389599 ], [ 77.511992167774906, 13.043278851748999 ], [ 77.512526542836895, 13.0430952892201 ], [ 77.512624090602799, 13.043059332125599 ], [ 77.512956298980001, 13.0429341361443 ], [ 77.513048099105106, 13.042899364078099 ], [ 77.513269707969997, 13.0428294507229 ], [ 77.513403479458702, 13.0427874947987 ], [ 77.513748160153696, 13.042679588693099 ], [ 77.514125733901594, 13.0425613845665 ], [ 77.514381222856599, 13.0424795820651 ], [ 77.514525872499107, 13.042433268145899 ], [ 77.514659044733705, 13.042389058762 ], [ 77.514661912757703, 13.042387901541399 ], [ 77.514872014141901, 13.042319228134501 ], [ 77.515544647576306, 13.042084561777401 ], [ 77.515612362407893, 13.0420601871875 ], [ 77.515712178415896, 13.042020818968499 ], [ 77.516021624986195, 13.0418968319199 ], [ 77.516113711350499, 13.041859935648899 ], [ 77.516280067218005, 13.0417939452441 ], [ 77.516488467362805, 13.041671078405299 ], [ 77.5165600303758, 13.041628596578001 ], [ 77.516730193336201, 13.0414835143961 ], [ 77.516920699497604, 13.041299836393801 ], [ 77.517238523764803, 13.0409489055834 ], [ 77.517502598154195, 13.0406933627219 ], [ 77.517621227607506, 13.040578144489899 ], [ 77.517726310040203, 13.040490162389901 ], [ 77.517792563832202, 13.040435309115001 ], [ 77.517801697949196, 13.0404273148134 ], [ 77.518441313253106, 13.039890297906799 ], [ 77.518500920143097, 13.040146080126799 ], [ 77.518730022142094, 13.040532346724 ], [ 77.519056909497905, 13.041076899374801 ], [ 77.519210665083307, 13.0413024017965 ], [ 77.519376121619004, 13.0415458597395 ], [ 77.519580211660099, 13.0418629191051 ], [ 77.519751786657693, 13.042129463311401 ], [ 77.519802424847299, 13.0422068374326 ], [ 77.520223294732901, 13.0428499130056 ], [ 77.520562721226597, 13.043380788291801 ], [ 77.520810834335194, 13.043766866710101 ], [ 77.520997552834302, 13.0440620658336 ], [ 77.521428298569901, 13.0447377352871 ], [ 77.521520178760994, 13.0448813962196 ], [ 77.521529553292098, 13.0448971157078 ], [ 77.521957632177404, 13.0455366706676 ], [ 77.522192160457493, 13.0459012239539 ], [ 77.523144824590105, 13.0452375808122 ], [ 77.523908920906905, 13.044697293697901 ], [ 77.523981675064206, 13.0446461429748 ], [ 77.524838430292903, 13.0440437846193 ], [ 77.525358119050793, 13.0437282169505 ], [ 77.525434837205296, 13.0436816322387 ], [ 77.528266549033603, 13.0416809607649 ], [ 77.530266568506605, 13.0402592425535 ], [ 77.530352199000902, 13.040199333727401 ], [ 77.531172715868294, 13.0396252852237 ], [ 77.531213850526797, 13.039596505836199 ], [ 77.531924740861001, 13.038905060904799 ], [ 77.532934861870103, 13.0381193063171 ], [ 77.533652096340504, 13.0376778954494 ], [ 77.535164249701296, 13.036654520901401 ], [ 77.536419423621098, 13.035696349792399 ], [ 77.537600546212303, 13.0347906559896 ], [ 77.537781283464597, 13.034652064418299 ], [ 77.538979371845201, 13.03368791978 ], [ 77.540747797101403, 13.0325031566588 ], [ 77.540749010654096, 13.032502343378599 ], [ 77.541225244032603, 13.0346305955263 ], [ 77.541465380487907, 13.035851036824599 ], [ 77.541630425865705, 13.0366881111191 ], [ 77.541950707926901, 13.0383124810532 ], [ 77.5421479604165, 13.0385293973785 ], [ 77.542954611964603, 13.0392900363727 ], [ 77.543421255912193, 13.038710953477899 ], [ 77.543855871661194, 13.0382464160261 ], [ 77.544358012889802, 13.0376142038788 ], [ 77.544508345009106, 13.037503181397399 ], [ 77.544728660024603, 13.03715686334 ], [ 77.544841629154007, 13.0369792849074 ], [ 77.545008796505797, 13.0366351190362 ], [ 77.545073973743101, 13.0365009320802 ], [ 77.545324449905806, 13.035985246939999 ], [ 77.545796385485104, 13.0350534287352 ], [ 77.546614238777494, 13.033538863536499 ], [ 77.547687937676699, 13.0314763158693 ], [ 77.547863342834802, 13.0310961458132 ], [ 77.548190088505805, 13.0303879597387 ], [ 77.5484723246377, 13.0297762403265 ], [ 77.548801790664896, 13.029062151153701 ], [ 77.548854645417606, 13.028939994551701 ], [ 77.549205167381103, 13.028129876117401 ], [ 77.550040247632197, 13.026051604344399 ], [ 77.550183850429605, 13.0257904461627 ], [ 77.5505787947491, 13.0250663872496 ], [ 77.5505787947491, 13.0250663872496 ], [ 77.553765312502605, 13.019322084394901 ], [ 77.553910611193302, 13.019221121371 ], [ 77.554342148356696, 13.0198160262774 ], [ 77.554373621573404, 13.0197965176402 ], [ 77.554593662068399, 13.019804663848699 ], [ 77.554638625099699, 13.0198063284674 ], [ 77.5548390252834, 13.0198058764934 ], [ 77.554935770189402, 13.019805658305801 ], [ 77.555173145972802, 13.0198168702274 ], [ 77.555374855789296, 13.0198318215157 ], [ 77.555486104359105, 13.019842017928999 ], [ 77.555561910306906, 13.0200073810086 ], [ 77.555576230967105, 13.020038760517 ], [ 77.555832444670202, 13.0205952479988 ], [ 77.556050950039804, 13.021068537178101 ], [ 77.5560744962104, 13.0211009296745 ], [ 77.556085997336695, 13.021116752314001 ], [ 77.556185222321005, 13.021302111572099 ], [ 77.556293860976197, 13.0215630423761 ], [ 77.556387861063996, 13.0218004017614 ], [ 77.556434776032106, 13.021938845371 ], [ 77.556488577759097, 13.022074962386 ], [ 77.556490704012802, 13.0220815727792 ], [ 77.556496905756006, 13.0221008545966 ], [ 77.556765154284705, 13.0227633776943 ], [ 77.556905955140195, 13.0231278880897 ], [ 77.556916869756407, 13.0231547792678 ], [ 77.556916869765701, 13.0231547801712 ], [ 77.556931365522502, 13.023190880172301 ], [ 77.557017536415202, 13.023450902736 ], [ 77.557110557474005, 13.023734671635999 ], [ 77.5571105569, 13.023734671829301 ], [ 77.5572214659163, 13.0240745324234 ], [ 77.557317763731106, 13.0243672050832 ], [ 77.557355223263002, 13.024482025943801 ], [ 77.557424568302395, 13.024707311071699 ], [ 77.557480332146199, 13.024888475353199 ], [ 77.5575613461573, 13.025150807044501 ], [ 77.557577045494099, 13.025206016718201 ], [ 77.557721465755606, 13.0257138859315 ], [ 77.55773367754, 13.0257419902184 ], [ 77.557886617657104, 13.0260939652497 ], [ 77.557890729647497, 13.0261018298838 ], [ 77.558459165728493, 13.0273384672363 ], [ 77.558819817509303, 13.028193186805501 ], [ 77.559101428028498, 13.028859793029 ], [ 77.559450531596795, 13.029687171295199 ], [ 77.559743587851202, 13.0303817111886 ], [ 77.559973496006094, 13.0309256460481 ], [ 77.559975558595099, 13.0309305250885 ], [ 77.5597975725846, 13.031151371785 ], [ 77.559363245258794, 13.031814056176399 ], [ 77.559235481431102, 13.031990441566499 ], [ 77.558915865806696, 13.0324316901649 ], [ 77.5586199225, 13.0328389163789 ], [ 77.558332571197099, 13.0332336287064 ], [ 77.558096661984706, 13.033586037966 ], [ 77.557818121337505, 13.0340021299419 ], [ 77.557772737991499, 13.0340692080231 ], [ 77.557716587527494, 13.034153332232099 ], [ 77.557446415681198, 13.0345760991883 ], [ 77.557381044548407, 13.0346783916637 ], [ 77.557397848642793, 13.0346883895565 ], [ 77.557394941990097, 13.034715257198799 ], [ 77.557387329400697, 13.0347856148516 ], [ 77.557375163818406, 13.034890761638099 ], [ 77.557373842339501, 13.034930300839999 ], [ 77.557371717224498, 13.035003727536299 ], [ 77.557392251843694, 13.0351525947579 ], [ 77.557503244382701, 13.0356416226169 ], [ 77.557535040992093, 13.0357655335453 ], [ 77.557574049590997, 13.0359187354958 ], [ 77.557576010680407, 13.036109570919299 ], [ 77.557564058457203, 13.036291509241099 ], [ 77.557507868444802, 13.0367641193921 ], [ 77.557484359849596, 13.037020180178599 ], [ 77.557450895179002, 13.0373846779937 ], [ 77.557406091792899, 13.0379565556901 ], [ 77.557389339857096, 13.0381758089438 ], [ 77.557330318081696, 13.038372893435501 ], [ 77.557310724440796, 13.038483760207599 ], [ 77.557297291173697, 13.0385776263442 ], [ 77.557421688523206, 13.0385775266616 ], [ 77.558734646223201, 13.0386763538742 ], [ 77.558765777473496, 13.0386794340907 ], [ 77.559442192792204, 13.0389313602508 ], [ 77.5600826669383, 13.0392163900428 ], [ 77.560483031681798, 13.0395060519774 ], [ 77.560770516891296, 13.0397957006266 ], [ 77.560857872358, 13.0398896988407 ], [ 77.560962689708205, 13.040001593281501 ], [ 77.561055862058296, 13.0401011804222 ], [ 77.561529637757999, 13.040942705664801 ], [ 77.562111822016703, 13.041975555196601 ], [ 77.562245603551901, 13.0418240318812 ], [ 77.562802552865193, 13.041100273458399 ], [ 77.563030779159703, 13.0407898977454 ], [ 77.563645907482595, 13.0399533544759 ], [ 77.563910078609695, 13.0395940934682 ], [ 77.564158878011, 13.0393149471725 ], [ 77.564286816930604, 13.039155575934 ], [ 77.564349922544807, 13.0390758988593 ], [ 77.564655259194694, 13.038694554018599 ], [ 77.564870174517296, 13.038424777537999 ], [ 77.565024147972196, 13.038221104945 ], [ 77.565082669572604, 13.038143731817 ], [ 77.565193090187705, 13.037997126199301 ], [ 77.565440028078498, 13.0376692673594 ], [ 77.565986024893505, 13.0370020792621 ], [ 77.566019627598905, 13.036965608224699 ], [ 77.5663368731025, 13.036622800086599 ], [ 77.566642162971704, 13.036293143385899 ], [ 77.567104523404296, 13.035807457436899 ], [ 77.567236967652804, 13.035668383629201 ], [ 77.567349088462706, 13.035550951044099 ], [ 77.5675776790209, 13.0353115308324 ], [ 77.5678657610122, 13.0349890790245 ], [ 77.567870321187897, 13.034984516557101 ], [ 77.568075533894202, 13.034723869229399 ], [ 77.568321682753904, 13.034411996818299 ], [ 77.568563270878897, 13.0341046867557 ], [ 77.5685726289922, 13.034091016008601 ], [ 77.569034171080602, 13.033416782935101 ], [ 77.569476640309901, 13.032875970965801 ], [ 77.569852750920703, 13.032266929245001 ], [ 77.569989318144906, 13.031995669207699 ], [ 77.570047748292097, 13.031853925768001 ], [ 77.570110104341396, 13.031701979587 ], [ 77.570181491863707, 13.031476538714999 ], [ 77.570297465787306, 13.0311072331686 ], [ 77.570329262640001, 13.031007538454899 ], [ 77.570390048655895, 13.030842241352699 ], [ 77.570681048212194, 13.0300509107783 ], [ 77.570894460106004, 13.0294694574792 ], [ 77.571251475968495, 13.028461958934701 ], [ 77.571443169126695, 13.028454409537 ], [ 77.571530532060805, 13.0284377319666 ], [ 77.572008771221803, 13.0283505444767 ], [ 77.573455772920596, 13.0279962518996 ], [ 77.573463235349394, 13.0279939191523 ], [ 77.574022488959699, 13.0278889837739 ], [ 77.574559907133406, 13.0277887815013 ], [ 77.574627156087004, 13.0277767658774 ], [ 77.575819935690106, 13.027565075698099 ], [ 77.575830288880894, 13.0275638434493 ], [ 77.575886614723402, 13.027553119640899 ], [ 77.576717175968497, 13.027399179464799 ], [ 77.576935109961099, 13.027367649782899 ], [ 77.576958107914606, 13.027364033101399 ], [ 77.577684358035896, 13.0272585583633 ], [ 77.577687731173199, 13.027250619679799 ], [ 77.577707262458006, 13.027245908126799 ], [ 77.577719451419597, 13.0271994854263 ], [ 77.577724672987301, 13.026925012879801 ], [ 77.577726590611505, 13.0268877268051 ], [ 77.577780060400997, 13.0268792896485 ], [ 77.578286864827405, 13.0268317501796 ], [ 77.578506694134305, 13.026811076062801 ], [ 77.578623410860899, 13.026792974812199 ], [ 77.578729786130296, 13.026777235054199 ], [ 77.578945392333097, 13.026743468382699 ], [ 77.579023587301606, 13.0267313969422 ], [ 77.579103509725897, 13.0267193082819 ], [ 77.579241990635495, 13.02668969708 ], [ 77.579499059575497, 13.026635773369801 ], [ 77.579999357079004, 13.026530829408101 ], [ 77.5801045336095, 13.0265105838527 ], [ 77.580085248104098, 13.026539008442001 ], [ 77.580267522389306, 13.026345211965101 ], [ 77.580467237383203, 13.026111716170499 ], [ 77.580638263751496, 13.0259440054776 ], [ 77.5806570786268, 13.025925749258199 ], [ 77.580839501614307, 13.0258019676741 ], [ 77.580950672413906, 13.0257489124188 ], [ 77.581015777606396, 13.025696316033301 ], [ 77.581088966369606, 13.0254380603859 ], [ 77.581096334465798, 13.025412059153901 ], [ 77.581140522861006, 13.0253416023273 ], [ 77.581140523791603, 13.025341603221401 ], [ 77.581155261052402, 13.0253188704009 ], [ 77.581279147892801, 13.0252148698673 ], [ 77.581432096512003, 13.0251365536453 ], [ 77.581696930633797, 13.025018726333901 ], [ 77.581847174514706, 13.0249573763552 ], [ 77.582144593379098, 13.0248719736399 ], [ 77.5823493279823, 13.0247897529712 ], [ 77.582576534992597, 13.0246531018176 ], [ 77.582609721611107, 13.0246324436514 ], [ 77.5827372964674, 13.0245509918021 ], [ 77.5836852727641, 13.023670851839499 ], [ 77.584623813962395, 13.022936483032 ], [ 77.584655236659302, 13.022912454372101 ], [ 77.584590072718996, 13.022681598302499 ], [ 77.5844490275053, 13.0221861139885 ], [ 77.5842057594853, 13.0213291441518 ], [ 77.584204572736098, 13.021325768091099 ], [ 77.584165246082904, 13.0211985495409 ], [ 77.584073374798393, 13.0208911671737 ], [ 77.584025061955103, 13.020674823610401 ], [ 77.583971416809206, 13.020388516688399 ], [ 77.583961363840501, 13.0202519718188 ], [ 77.583918104676599, 13.0196900125067 ], [ 77.583928437957198, 13.0192980429567 ], [ 77.583933556279504, 13.0191252092791 ], [ 77.583946950034402, 13.017973191362399 ], [ 77.5839649451881, 13.0172649418418 ], [ 77.5839743011894, 13.0168899214811 ], [ 77.583968723770894, 13.015907487323201 ], [ 77.583944597623997, 13.0148021443921 ], [ 77.583972694243599, 13.01451276393 ], [ 77.583994993660198, 13.0145124658161 ], [ 77.584641741232204, 13.014503837105201 ], [ 77.585250835251699, 13.014488730532401 ], [ 77.585507905681695, 13.014456339405699 ], [ 77.586019743980003, 13.014391848609201 ], [ 77.586522352617607, 13.0143258534433 ], [ 77.586666605678104, 13.0142984406325 ], [ 77.586853222974696, 13.0142468898828 ], [ 77.587175481242795, 13.0141149349452 ], [ 77.587583003421699, 13.0139313105163 ], [ 77.587795192241899, 13.013791418928101 ], [ 77.588119826082604, 13.013500208642 ], [ 77.588287150129901, 13.0133099462529 ], [ 77.588741613240302, 13.0127114005897 ], [ 77.589112101041195, 13.0122333981232 ], [ 77.589802487943203, 13.0112304671239 ], [ 77.590662540166505, 13.0099310949737 ], [ 77.590667640986794, 13.0099231389712 ], [ 77.591152093910907, 13.0092192672605 ], [ 77.5917006086367, 13.008418765168701 ], [ 77.592281307917105, 13.007446288439001 ], [ 77.592310731733505, 13.0073963055513 ], [ 77.592679375171201, 13.0067974846067 ], [ 77.592964833419003, 13.0063395270271 ], [ 77.593117991865299, 13.006005984444901 ], [ 77.593142680125197, 13.005943626637899 ], [ 77.593170481041597, 13.0059038235575 ], [ 77.593238213210896, 13.0057168134259 ], [ 77.593262901423998, 13.0056544556173 ], [ 77.593438835300205, 13.0049638291616 ], [ 77.593554522727302, 13.004460138035601 ], [ 77.593776176195803, 13.0037363051781 ], [ 77.5940428331714, 13.002910386247599 ], [ 77.594194861553305, 13.002413107651201 ], [ 77.594289512463305, 13.0021016063902 ], [ 77.594382706476594, 13.0017607581244 ], [ 77.594659042163102, 13.000979914086299 ], [ 77.594810953266901, 13.0004713437616 ], [ 77.594978467063996, 12.9999682639081 ], [ 77.595096298908899, 12.9996158764299 ], [ 77.595659011639498, 12.997746920853601 ], [ 77.595821846809301, 12.9970711063597 ], [ 77.595921715298303, 12.996430929482299 ], [ 77.596112445274201, 12.9955583396378 ], [ 77.596231076499393, 12.9950613950756 ], [ 77.596253776924797, 12.9949742127554 ], [ 77.596228514741298, 12.9949812410897 ], [ 77.596197790911205, 12.994850550629099 ], [ 77.596119185777098, 12.994711304568201 ], [ 77.596103416785496, 12.9946900057143 ], [ 77.595008492328205, 12.995212519499001 ], [ 77.594676028301606, 12.995357003451 ], [ 77.594405532835395, 12.995425205313699 ], [ 77.594175599127098, 12.9954625107813 ], [ 77.593950083563499, 12.9954817032463 ], [ 77.593462288645, 12.995473024546 ], [ 77.591746195715302, 12.9953986872986 ], [ 77.5914310884976, 12.9953848930473 ], [ 77.589679485329995, 12.9953289650164 ], [ 77.589550167361594, 12.9956295180887 ], [ 77.589516149599007, 12.9956806756625 ], [ 77.589491027563597, 12.9957012535342 ], [ 77.589124423388199, 12.9958855968835 ], [ 77.589094648481506, 12.995901703941399 ], [ 77.588008778827401, 12.996467014616099 ], [ 77.587996182585002, 12.996473915957701 ], [ 77.587511247776703, 12.9967972111801 ], [ 77.587311244953199, 12.9969448837734 ], [ 77.586818879525893, 12.997329234133799 ], [ 77.586580359874901, 12.9974829365862 ], [ 77.586551794577701, 12.9975046778502 ], [ 77.586485276446297, 12.997531314432599 ], [ 77.586379065583102, 12.997561734343201 ], [ 77.586329046266698, 12.9975690084527 ], [ 77.585902469764505, 12.9976342399767 ], [ 77.585266353957095, 12.997704945512901 ], [ 77.585211151840895, 12.99771227103 ], [ 77.584361287562601, 12.9978268869856 ], [ 77.584305531944693, 12.9980589484429 ], [ 77.5842430618127, 12.998643418215201 ], [ 77.584172336333495, 12.9990981007358 ], [ 77.584163139741094, 12.999266457929901 ], [ 77.584187654727202, 12.999409634918299 ], [ 77.584186407695995, 12.9994627117643 ], [ 77.584186406765397, 12.9994627108701 ], [ 77.583407695560894, 12.9993247951464 ], [ 77.583156738541007, 12.9992787327516 ], [ 77.582998101409899, 12.9992509495628 ], [ 77.582084067763105, 12.9985067993998 ], [ 77.58205790177, 12.998482215036599 ], [ 77.581873588450506, 12.998310135845101 ], [ 77.581670527752394, 12.9981200593535 ], [ 77.581603798519097, 12.9980575968018 ], [ 77.581568867836793, 12.9980206772135 ], [ 77.581270730057994, 12.997699532182001 ], [ 77.580866039338005, 12.9972642571172 ], [ 77.580862549793693, 12.997260903900299 ], [ 77.580838675393693, 12.9972351672839 ], [ 77.580030231133307, 12.997290633561899 ], [ 77.579445447965597, 12.9973312234132 ], [ 77.579440665628994, 12.9973364088087 ], [ 77.579445539695101, 12.9974624358252 ], [ 77.579442945380293, 12.9974625320705 ], [ 77.578316426400804, 12.997504325804799 ], [ 77.578324477325395, 12.9976621813255 ], [ 77.578333762485698, 12.9977806660682 ], [ 77.578341028825704, 12.9978709382499 ], [ 77.578353013589506, 12.998027792523001 ], [ 77.578357062946097, 12.998085346825899 ], [ 77.578366780385906, 12.9982828713402 ], [ 77.5783667803952, 12.9982828722436 ], [ 77.578368725267893, 12.9983223858051 ], [ 77.578370658230597, 12.998398029995 ], [ 77.578373631236104, 12.998497834579799 ], [ 77.5783750640188, 12.998545925097901 ], [ 77.578388422047894, 12.998724222494401 ], [ 77.578400520410199, 12.9987805675378 ], [ 77.578401662705502, 12.998790723508399 ], [ 77.578401661788305, 12.9987907235528 ], [ 77.5784119338159, 12.9988820906492 ], [ 77.578432889242606, 12.999126941515 ], [ 77.578335348416005, 12.999160660207901 ], [ 77.578226774817495, 12.9991854540157 ], [ 77.578129448867003, 12.999190209719 ], [ 77.578081741726706, 12.999192541022801 ], [ 77.577947484774, 12.999183710664701 ], [ 77.577833791901199, 12.999158865751401 ], [ 77.577676843691407, 12.9991113745604 ], [ 77.577523030398694, 12.9990648314682 ], [ 77.577215311084899, 12.9989865768386 ], [ 77.577031711001496, 12.998940386073 ], [ 77.576999394120307, 12.9989322551789 ], [ 77.576907144368803, 12.9989207486097 ], [ 77.576852435557996, 12.9989201623989 ], [ 77.576598525581304, 12.9989226828136 ], [ 77.576395212479596, 12.998917924968801 ], [ 77.576303643370494, 12.9989165751765 ], [ 77.575954651331401, 12.9989121334677 ], [ 77.575790536440394, 12.9989115033859 ], [ 77.575147883279897, 12.998907715745901 ], [ 77.575136943834707, 12.9989078242684 ], [ 77.574623894732198, 12.998908396119701 ], [ 77.574403930905405, 12.9989083190776 ], [ 77.573979513752903, 12.998904622710301 ], [ 77.573974919310601, 12.998905797575601 ], [ 77.573941129056394, 12.999370278139899 ], [ 77.573940082331504, 12.999380452289399 ], [ 77.573890408827296, 12.999812340432999 ], [ 77.573879989439604, 13.0000304001587 ], [ 77.573854846055895, 13.0003841228275 ], [ 77.573853638946304, 13.000602091200101 ], [ 77.573832088612903, 13.0008575284633 ], [ 77.573798602394106, 13.0009606275412 ], [ 77.573775931854101, 13.000995861799799 ], [ 77.573771240554294, 13.0009956887836 ], [ 77.573727545155904, 13.000994082103 ], [ 77.573295790641893, 13.0010051390072 ], [ 77.573207710091296, 13.001007141589 ], [ 77.572579444473504, 13.0010032058759 ], [ 77.572558327710595, 13.0018594312209 ], [ 77.572277352770897, 13.001862216209901 ], [ 77.572256545852099, 13.0021899220315 ], [ 77.572213361529506, 13.0028046941234 ], [ 77.572213408088203, 13.0028092108977 ], [ 77.572174380608303, 13.0032748739184 ], [ 77.572166233773899, 13.003372074334701 ], [ 77.572102253251103, 13.0033659326463 ], [ 77.571774819050006, 13.003330781363299 ], [ 77.5712950496102, 13.0033208546196 ], [ 77.571301712912103, 13.0028498664716 ], [ 77.571334691571906, 13.0018591351235 ], [ 77.571339902118893, 13.0016942042813 ], [ 77.571351148252703, 13.000997308754799 ], [ 77.571357038908204, 13.000618931624301 ], [ 77.571365461623202, 13.0001569577684 ], [ 77.571381690160507, 12.999266903570399 ], [ 77.571411989729995, 12.9982953969403 ], [ 77.571433118305706, 12.9976074379216 ], [ 77.571456474596104, 12.996856215470499 ], [ 77.571016997326595, 12.9968436283001 ], [ 77.570425461821301, 12.996826899338201 ], [ 77.569523167940702, 12.996827925863 ], [ 77.569439075587596, 12.996820670841 ], [ 77.569429226405504, 12.996819821106399 ], [ 77.568728349213998, 12.9967533512963 ], [ 77.568532661107994, 12.9967620632397 ], [ 77.568492957017199, 12.9967647146649 ], [ 77.568142447902105, 12.9967806044982 ], [ 77.567964032428307, 12.9967891451612 ], [ 77.567775206804697, 12.9967932714122 ], [ 77.567637047925103, 12.996796896445 ], [ 77.567112466659594, 12.9968517737355 ], [ 77.566916190814595, 12.9968593609781 ], [ 77.566787185898704, 12.996857248491001 ], [ 77.566596180017896, 12.9968173522096 ], [ 77.566407635086506, 12.9967367761455 ], [ 77.566334717981604, 12.9967013588754 ], [ 77.566305779126793, 12.9966869638442 ], [ 77.566135844348807, 12.996624272620901 ], [ 77.566109830731804, 12.9966143659083 ], [ 77.566099985892293, 12.996608817270401 ], [ 77.566261901970194, 12.9963395696993 ], [ 77.566426155753902, 12.9960736866443 ], [ 77.566789225384696, 12.9954873716649 ], [ 77.566897982810602, 12.995312382193299 ], [ 77.567019762818305, 12.9951158069975 ], [ 77.567178770587105, 12.9947878633486 ], [ 77.567496244772499, 12.994415438952 ], [ 77.567499864799601, 12.994410894965901 ], [ 77.567499865741794, 12.9944108949305 ], [ 77.567780207905102, 12.9940591624069 ], [ 77.567780502603696, 12.9940587926919 ], [ 77.567780502614795, 12.9940587924456 ], [ 77.568329625777096, 12.9933693591205 ], [ 77.567810931506699, 12.9933801351032 ], [ 77.567810931497405, 12.9933801341998 ], [ 77.567820887864201, 12.9930604401374 ], [ 77.567841393239902, 12.9923894307985 ], [ 77.567843291598294, 12.9923272943839 ], [ 77.567870373227805, 12.9916889755175 ], [ 77.5678901224763, 12.9912257510057 ], [ 77.567891327290496, 12.9911749199997 ], [ 77.567894413149801, 12.990983468191001 ], [ 77.567902280097698, 12.9904994796954 ], [ 77.567903676516906, 12.9904204157696 ], [ 77.567909764286796, 12.9900692051135 ], [ 77.567914734164404, 12.989755141842201 ], [ 77.567933204219102, 12.9889192674071 ], [ 77.567937610532397, 12.988731757836 ], [ 77.567935874064602, 12.9886188436673 ], [ 77.567932115599504, 12.988421250983301 ], [ 77.567933011723895, 12.988396397231099 ], [ 77.567721290511599, 12.9884131710945 ], [ 77.567427814212095, 12.9884307527982 ], [ 77.567392129958805, 12.9884322347813 ], [ 77.567234400490705, 12.9884360521994 ], [ 77.566808631458997, 12.9884673630043 ], [ 77.566563458759802, 12.988478796407399 ], [ 77.566255553983098, 12.9884931549068 ], [ 77.565781271445502, 12.9885102622099 ], [ 77.565110730606094, 12.9885360825291 ], [ 77.565110429152398, 12.9885067232998 ], [ 77.565104288815206, 12.9883012484873 ], [ 77.563989601349306, 12.988363071816201 ], [ 77.563961497848396, 12.988261711636399 ], [ 77.563956080700194, 12.9881827129428 ], [ 77.563702928609104, 12.9882021510718 ], [ 77.563665506377902, 12.9882025203742 ], [ 77.563665505447503, 12.98820251948 ], [ 77.563537103652095, 12.9882026572591 ], [ 77.563230925325101, 12.9882169716067 ], [ 77.563172234613702, 12.9882209503856 ], [ 77.562899495368299, 12.988239439941999 ], [ 77.562650925703593, 12.988256573223801 ], [ 77.562344148152803, 12.988268633818899 ], [ 77.562280851323194, 12.9882726460875 ], [ 77.562132943625798, 12.9882797514743 ], [ 77.561963146136407, 12.9882859433371 ], [ 77.561963146136193, 12.9882859443548 ], [ 77.561953946778303, 12.9882871642822 ], [ 77.561918837187605, 12.988288639845999 ], [ 77.5616574156452, 12.9882878298428 ], [ 77.561626325581202, 12.9882881364132 ], [ 77.561450067493297, 12.988281969144399 ], [ 77.561450067484003, 12.988281968240999 ], [ 77.561483103764203, 12.9880783651664 ], [ 77.561484738368094, 12.988069314501001 ], [ 77.561556528229403, 12.9877704665645 ], [ 77.561631932380706, 12.987655661903901 ], [ 77.561765876711505, 12.9875222109004 ], [ 77.561849638912406, 12.9873802201505 ], [ 77.561857808676194, 12.9872785009431 ], [ 77.561847832666203, 12.987204064306599 ], [ 77.561815981750001, 12.9871863092852 ], [ 77.561536606119702, 12.987119046198901 ], [ 77.561265762493207, 12.9870415348037 ], [ 77.561031155828701, 12.9869602779376 ], [ 77.560881353578793, 12.9868386587773 ], [ 77.560835141073298, 12.9867679671729 ], [ 77.560785393152401, 12.9866894051671 ], [ 77.560806365592597, 12.986544645600899 ], [ 77.560923740715296, 12.9861990463674 ], [ 77.561038413456203, 12.985926879505101 ], [ 77.561044682810405, 12.9858082392104 ], [ 77.5610356200376, 12.985768307278599 ], [ 77.560995837675506, 12.9855930207095 ], [ 77.560976491123697, 12.9851098628064 ], [ 77.561006440906098, 12.9848859624342 ], [ 77.561038655990203, 12.9848269203305 ], [ 77.561100794755603, 12.984709988022001 ], [ 77.561230598006105, 12.9844534825449 ], [ 77.561351093783301, 12.9841315682899 ], [ 77.5613726734789, 12.983933724776501 ], [ 77.561385845735003, 12.9837020845656 ], [ 77.561397935983905, 12.9834772309333 ], [ 77.561458318080994, 12.983020390944599 ], [ 77.561576521866797, 12.982699628639001 ], [ 77.561584188590203, 12.9826611562314 ], [ 77.5616521185989, 12.982322820350401 ], [ 77.561729129919101, 12.981915506521601 ], [ 77.5614788129798, 12.981873930224101 ], [ 77.561263522873602, 12.981822973940099 ], [ 77.561182249976895, 12.9817582743327 ], [ 77.561135468906599, 12.9815757856049 ], [ 77.560988321664695, 12.9810385502015 ], [ 77.560981696750702, 12.980953916520001 ], [ 77.560842008140199, 12.980582617380399 ], [ 77.560759581703095, 12.980461462927799 ], [ 77.560630729901106, 12.9803610935398 ], [ 77.560529237941694, 12.980289816870799 ], [ 77.560354134332101, 12.980227170480999 ], [ 77.560098085000703, 12.980187907610899 ], [ 77.559815908429997, 12.9801274446863 ], [ 77.559604661600602, 12.9800775761959 ], [ 77.559249250356004, 12.979950074491899 ], [ 77.559253141702598, 12.979936484328601 ], [ 77.559211065361495, 12.9798759152633 ], [ 77.559181490873499, 12.979742946563 ], [ 77.559194642597205, 12.979509047644701 ], [ 77.559111621171297, 12.9791609047851 ], [ 77.559019475965101, 12.978990155083499 ], [ 77.558955924812494, 12.9789128575147 ], [ 77.558939020849905, 12.978892696130901 ], [ 77.558908875664201, 12.978883052131399 ], [ 77.558843127473097, 12.9788620190605 ], [ 77.5586995647961, 12.978843104363801 ], [ 77.558568277172199, 12.9788421379145 ], [ 77.558559054071196, 12.9788410993685 ], [ 77.558436862428195, 12.9788287501119 ], [ 77.558415707451303, 12.978830514065301 ], [ 77.558283260297699, 12.978841554989099 ], [ 77.558118994740994, 12.978825102343199 ], [ 77.5580126229097, 12.9787832348359 ], [ 77.557961609454196, 12.9787635761486 ], [ 77.557882307197602, 12.9787330155105 ], [ 77.557861171529296, 12.978724871007801 ], [ 77.557758610471893, 12.978674940470301 ], [ 77.557636072196402, 12.9786152828501 ], [ 77.557487462120406, 12.9785656570676 ], [ 77.557353551050795, 12.978520940535301 ], [ 77.557236915136201, 12.9784655856244 ], [ 77.557034170647398, 12.978369364964401 ], [ 77.556891931192794, 12.9783109098758 ], [ 77.5568680781426, 12.9783013473766 ], [ 77.556655468218807, 12.978216113687401 ], [ 77.556356595088303, 12.978042878316799 ], [ 77.556239359756802, 12.977965980376901 ], [ 77.555918360481101, 12.9777546923314 ], [ 77.5554457567264, 12.9774837831071 ], [ 77.555205776659605, 12.977101042232 ], [ 77.5551624695741, 12.9770325790671 ], [ 77.555066400484094, 12.976815563584699 ], [ 77.554822411467995, 12.9762657214699 ], [ 77.554493491511195, 12.9755744183737 ], [ 77.554472178488695, 12.975573498431499 ], [ 77.555475594422106, 12.9756144583957 ], [ 77.556096902891895, 12.9756318856217 ], [ 77.556361341461098, 12.9756393016869 ], [ 77.556757632962601, 12.9756504162276 ], [ 77.556846943340304, 12.9756552984758 ], [ 77.557563013555395, 12.9756944445207 ], [ 77.557563014485794, 12.975694445415 ], [ 77.557755993494496, 12.9757038404026 ], [ 77.558126915429298, 12.975716001936799 ], [ 77.558712107032605, 12.9757362183816 ], [ 77.558703257461502, 12.975546579434599 ], [ 77.558668672178101, 12.9753176674686 ], [ 77.558479649770604, 12.9748508588403 ], [ 77.558451240665804, 12.9747190076978 ], [ 77.558412998308299, 12.974639202099899 ], [ 77.558412998299005, 12.974639201196499 ], [ 77.558360651032402, 12.974531301309099 ], [ 77.558175771361903, 12.974215123826999 ], [ 77.557897109676105, 12.973738559798599 ], [ 77.557949878684198, 12.9737188422759 ], [ 77.557979000072294, 12.973019505293999 ], [ 77.557951031182498, 12.972987030040301 ], [ 77.557942497810998, 12.9729408117531 ], [ 77.557923115038506, 12.9727908025109 ], [ 77.557910884945301, 12.972720904807399 ], [ 77.557790940018506, 12.9722522862953 ], [ 77.557709387976402, 12.9719346193229 ], [ 77.557699000602597, 12.971875996693299 ], [ 77.557543075449601, 12.970985364968101 ], [ 77.557538860817701, 12.970967337243399 ], [ 77.557375457557498, 12.970246177150599 ], [ 77.557355929848001, 12.9702508864299 ], [ 77.557185868192207, 12.970286438028699 ], [ 77.557175528630395, 12.9702887983217 ], [ 77.557157755770902, 12.970014547498 ], [ 77.557113308065396, 12.9693836927171 ], [ 77.556863534812393, 12.9693940531177 ], [ 77.556534291711102, 12.9694029356536 ], [ 77.556112911072006, 12.9692975320855 ], [ 77.555945171811302, 12.9692604615857 ], [ 77.555945171820596, 12.969260462489 ], [ 77.555662803309801, 12.9691980575183 ], [ 77.5555802483577, 12.9691762820525 ], [ 77.555553879907194, 12.9691692826971 ], [ 77.554501230376601, 12.968889867385 ], [ 77.554501230367293, 12.9688898664816 ], [ 77.554485651868404, 12.9688866314784 ], [ 77.554418098930498, 12.9688680962705 ], [ 77.553508754343795, 12.968625445069399 ], [ 77.553491483393898, 12.9686208361871 ], [ 77.552858586936097, 12.968441775659301 ], [ 77.552777786301107, 12.9684189150104 ], [ 77.552698615447397, 12.968397061963801 ], [ 77.552370317932102, 12.9683064423311 ], [ 77.552149593067398, 12.9682455153955 ], [ 77.552072806132998, 12.9682248114456 ], [ 77.551865910893, 12.968148917344999 ], [ 77.551591981240193, 12.9680488353115 ], [ 77.551565214431506, 12.9680313014326 ], [ 77.551301555778295, 12.967858595577299 ], [ 77.551225076403597, 12.967808498691699 ], [ 77.551103505070202, 12.967686872303 ], [ 77.551018573416897, 12.967601597879501 ], [ 77.550943905481901, 12.9675063370945 ], [ 77.550796925783501, 12.9673203792086 ], [ 77.550063127679806, 12.9663890304071 ], [ 77.548814787504995, 12.9653611489352 ], [ 77.548506908816805, 12.965149591691199 ], [ 77.548502975445402, 12.965146712927501 ], [ 77.548494727247004, 12.965140676351499 ], [ 77.547788712879694, 12.9647873333428 ], [ 77.547253414562505, 12.9646035372617 ], [ 77.54637202104, 12.964300905896501 ], [ 77.546000619598203, 12.964240167850599 ], [ 77.545690412555899, 12.9642522372546 ], [ 77.544769600585894, 12.9642906060174 ], [ 77.544715059081597, 12.964281376502401 ], [ 77.544634626869197, 12.9642677659246 ], [ 77.544498212677894, 12.9642446821262 ], [ 77.544353191642898, 12.964220141653399 ], [ 77.543904421455196, 12.964024636832001 ], [ 77.543864953936094, 12.9639934020857 ], [ 77.543930885128404, 12.963909186957499 ], [ 77.544208829027696, 12.9635552469449 ], [ 77.544208829018501, 12.9635552460415 ], [ 77.544423674727099, 12.9632809761329 ], [ 77.544423674736294, 12.9632809770363 ], [ 77.544550085105996, 12.963312491793401 ], [ 77.544601427619995, 12.9632092204305 ], [ 77.544748854125203, 12.963099362910601 ], [ 77.544951592774794, 12.9629934817912 ], [ 77.545145949363501, 12.9629125278459 ], [ 77.545354467518493, 12.9628088486135 ], [ 77.5454304363939, 12.9627493803028 ], [ 77.545527706694102, 12.962689703635199 ], [ 77.545546372408097, 12.9626567704154 ], [ 77.545523853178693, 12.962593748020099 ], [ 77.545443960840203, 12.962494018756599 ], [ 77.545396260566406, 12.9624459239459 ], [ 77.545349159884196, 12.9624000819255 ], [ 77.545266654211602, 12.962326352804901 ], [ 77.545171334176004, 12.9622380676277 ], [ 77.545171333245705, 12.9622380667334 ], [ 77.545212761593305, 12.9621789362737 ], [ 77.545472131601301, 12.961810495826199 ], [ 77.545769729066805, 12.9613513347257 ], [ 77.545820092565094, 12.9612650128366 ], [ 77.545962343911597, 12.9610220671318 ], [ 77.546066831767405, 12.960843616996501 ], [ 77.546174509999801, 12.9606601367582 ], [ 77.546235480775593, 12.9605562461745 ], [ 77.546257495624005, 12.9605131171539 ], [ 77.546257496127794, 12.960513117088301 ], [ 77.546290254254899, 12.960450683358999 ], [ 77.546290254245704, 12.960450682455599 ], [ 77.546622279420603, 12.959810490953 ], [ 77.546626793009807, 12.959801412138701 ], [ 77.546869914850703, 12.959364240726501 ], [ 77.547098896610905, 12.958952052876 ], [ 77.547237757394797, 12.9586796545589 ], [ 77.547243975015306, 12.958668300404 ], [ 77.547591070690402, 12.958040383635501 ], [ 77.547727899931999, 12.957792850398 ], [ 77.547913897446406, 12.9574567481119 ], [ 77.548068806753307, 12.9571774165883 ], [ 77.548375780549506, 12.956622169268799 ], [ 77.548405175641307, 12.956568803004201 ], [ 77.548467350901205, 12.9564552613529 ], [ 77.548969194594207, 12.955587540364199 ], [ 77.549307377566706, 12.955044409726399 ], [ 77.549567275560705, 12.9547290407434 ], [ 77.549581483424404, 12.954710832354399 ], [ 77.549346218185903, 12.9547312049318 ], [ 77.549294990020201, 12.954392907267399 ], [ 77.549288186501499, 12.954346671315101 ], [ 77.549274342581995, 12.9540046196616 ], [ 77.549264273414806, 12.9537506188345 ], [ 77.549263628801498, 12.953743849160499 ], [ 77.549242921919202, 12.953462848515899 ], [ 77.549237558209498, 12.9533883651927 ], [ 77.5492294033332, 12.9533093494036 ], [ 77.549215203731407, 12.953171752507901 ], [ 77.549187703978006, 12.952902111626999 ], [ 77.549187093842605, 12.9528987296066 ], [ 77.549171689155799, 12.952766716158299 ], [ 77.549156819282302, 12.9526392798434 ], [ 77.549123344819904, 12.9523482401157 ], [ 77.549131438595793, 12.952351548892601 ], [ 77.549502663118602, 12.9522835435218 ], [ 77.550483954308604, 12.9521395459407 ], [ 77.550718323275206, 12.9521328292742 ], [ 77.550723384456802, 12.952132683941899 ], [ 77.550824817073703, 12.9520865173904 ], [ 77.550898226086503, 12.9520586945369 ], [ 77.550990108621207, 12.9520790757218 ], [ 77.551093260224704, 12.9521019575051 ], [ 77.551160865803595, 12.9521261405696 ], [ 77.551211593179502, 12.952132419671001 ], [ 77.551296643340294, 12.952112524411 ], [ 77.551322443258002, 12.952106488620601 ], [ 77.551368911007401, 12.9520902228347 ], [ 77.551463044510001, 12.9520057303705 ], [ 77.551469825975801, 12.951993241320199 ], [ 77.551477194603294, 12.9519818758471 ], [ 77.551583460911402, 12.952071181154301 ], [ 77.551674428503503, 12.951958486420599 ], [ 77.551762423849894, 12.951850533250999 ], [ 77.552091213542298, 12.9514462051075 ], [ 77.552255981467198, 12.9512311475874 ], [ 77.552699447791994, 12.950650847293799 ], [ 77.552726405040403, 12.950615571236 ], [ 77.552766747679499, 12.950563226789599 ], [ 77.552766747688693, 12.950563227692999 ], [ 77.552945582165094, 12.950655209279599 ], [ 77.553128478664306, 12.9508070052779 ], [ 77.553197178674196, 12.9508255304755 ], [ 77.553238577995899, 12.950827629081401 ], [ 77.553290492126607, 12.950830261553699 ], [ 77.553358938079796, 12.9508239439885 ], [ 77.553426796859597, 12.950816502834099 ], [ 77.553534894254099, 12.9508030205659 ], [ 77.553623396196002, 12.950787471703 ], [ 77.5537555101224, 12.9507579433203 ], [ 77.553948125751404, 12.950733468322399 ], [ 77.554253605391494, 12.950541875439599 ], [ 77.554403380854097, 12.950211772652301 ], [ 77.554536335116595, 12.949982344873501 ], [ 77.554603998058994, 12.9498427741581 ], [ 77.554795737823596, 12.949788944768599 ], [ 77.554853476004794, 12.9500201578618 ], [ 77.554989008877001, 12.950562896442401 ], [ 77.555482220893694, 12.9504327031263 ], [ 77.555511430323094, 12.9504242068236 ], [ 77.555518383682099, 12.9504221844226 ], [ 77.5555757536671, 12.950402423051999 ], [ 77.555697021619693, 12.9503820347689 ], [ 77.555733218936993, 12.9503749036766 ], [ 77.555819981962003, 12.950358241850701 ], [ 77.556036739840394, 12.9503301405428 ], [ 77.556060276946994, 12.9503268938362 ], [ 77.556168968201902, 12.9503119031552 ], [ 77.556353730746395, 12.9502513651275 ], [ 77.556527192190003, 12.950160178692601 ], [ 77.556563890826894, 12.9501408874224 ], [ 77.556687909647906, 12.9500515828906 ], [ 77.556720905994197, 12.9500128619911 ], [ 77.556755709946799, 12.949982028622401 ], [ 77.5567642410969, 12.9499717809655 ], [ 77.556766520678707, 12.9499694999417 ], [ 77.556943237863393, 12.950018140530799 ], [ 77.556996300044105, 12.950032745410599 ], [ 77.557173890175804, 12.950059235268 ], [ 77.557391269731795, 12.950092110318201 ], [ 77.5575024981095, 12.9501034408881 ], [ 77.557828699721398, 12.950137505782999 ], [ 77.557837910216193, 12.9501374153439 ], [ 77.557903468632006, 12.9501386625476 ], [ 77.558072846973502, 12.950141884301001 ], [ 77.558078939244695, 12.9502875072544 ], [ 77.558064237313204, 12.950313626079 ], [ 77.557972742550703, 12.950317912527 ], [ 77.557844555616299, 12.9503372404504 ], [ 77.557745070792095, 12.950348381222099 ], [ 77.557665147372205, 12.950414666776901 ], [ 77.557647533151794, 12.950493892419001 ], [ 77.557641259807696, 12.950612533056001 ], [ 77.557626938161206, 12.950675915831599 ], [ 77.557613077539699, 12.9507844670491 ], [ 77.557587495669694, 12.9508163393081 ], [ 77.557496265765707, 12.9508465974803 ], [ 77.557430468503, 12.9508867698442 ], [ 77.557372442890696, 12.9509550990034 ], [ 77.557277955430806, 12.951061053833399 ], [ 77.557139856127606, 12.951180988686801 ], [ 77.557044584879904, 12.9512101570828 ], [ 77.556993316680504, 12.9512072723966 ], [ 77.556912724451394, 12.9512080635308 ], [ 77.556802278614498, 12.951217052956499 ], [ 77.556718670257993, 12.951260787982999 ], [ 77.556652757517398, 12.9512896680742 ], [ 77.556568354535102, 12.9513119536856 ], [ 77.556436793554795, 12.9513392194144 ], [ 77.556308168432693, 12.951372102894601 ], [ 77.556187948097005, 12.951438783594099 ], [ 77.556078619149304, 12.951500840066499 ], [ 77.555826135078107, 12.951582370450099 ], [ 77.555792297830095, 12.951595125055499 ], [ 77.555650156048898, 12.9516575033457 ], [ 77.555789801484096, 12.9520276812513 ], [ 77.555968673076507, 12.9524053793329 ], [ 77.556313947671399, 12.9529542307084 ], [ 77.556533542754195, 12.953260380927899 ], [ 77.557597310400396, 12.953187823626299 ], [ 77.557898220721199, 12.9531690578651 ], [ 77.558482195488295, 12.9531317006342 ], [ 77.558478109120699, 12.9531825603285 ], [ 77.558477579585499, 12.953187082824 ], [ 77.558616337337796, 12.9531879783099 ], [ 77.558807791765304, 12.9532188477035 ], [ 77.559131432679095, 12.953396359363699 ], [ 77.559346721295, 12.953506046698401 ], [ 77.559504074580502, 12.953580164896 ], [ 77.559660771518494, 12.9536463841758 ], [ 77.559811377280496, 12.9536799128726 ], [ 77.5601084771356, 12.9536826390471 ], [ 77.560257976411194, 12.9536642295402 ], [ 77.560356909645407, 12.9536553516613 ], [ 77.560480814248095, 12.953611219260299 ], [ 77.560762608998601, 12.953468412701101 ], [ 77.561024083580804, 12.9533653319597 ], [ 77.561201743751795, 12.9533421277433 ], [ 77.5616919435668, 12.9533677981472 ], [ 77.561762033906604, 12.952508824942401 ], [ 77.561783257469401, 12.952275976109901 ], [ 77.561791037958102, 12.9521923298449 ], [ 77.561793555274804, 12.951650231103899 ], [ 77.561820091635795, 12.9515991506704 ], [ 77.561896868559799, 12.9514504545033 ], [ 77.562292740210594, 12.950809623799801 ], [ 77.562272003234199, 12.9503580995818 ], [ 77.562214129381999, 12.9500469763639 ], [ 77.562120604707104, 12.9499089898056 ], [ 77.561970044298903, 12.9497670468512 ], [ 77.561934146002898, 12.949747072125501 ], [ 77.5619039926993, 12.9497259115739 ], [ 77.561877868972104, 12.949704711389501 ], [ 77.561858699261506, 12.9496879600976 ], [ 77.561738081039906, 12.949592187281199 ], [ 77.561735069343499, 12.949589795633299 ], [ 77.561603494332402, 12.9494465363733 ], [ 77.561495488038403, 12.9493561233745 ], [ 77.561495059551802, 12.9492578775452 ], [ 77.561495059557103, 12.949257877545501 ], [ 77.561634182714798, 12.9492384404295 ], [ 77.562190077095195, 12.948875705389501 ], [ 77.562191208077294, 12.9488749678872 ], [ 77.562354211296096, 12.9489388652923 ], [ 77.562400494298004, 12.948960996474201 ], [ 77.562520266951694, 12.9490196723614 ], [ 77.562600604855305, 12.949050503085999 ], [ 77.562679309117698, 12.9490903844145 ], [ 77.5627716327283, 12.949110933292401 ], [ 77.562826274334398, 12.949105878475001 ], [ 77.562967295583206, 12.949046895803299 ], [ 77.563205403603305, 12.948911293419 ], [ 77.563440828517599, 12.948794915696901 ], [ 77.563658203859703, 12.9487148536415 ], [ 77.563757962657704, 12.948674345762999 ], [ 77.563792822243599, 12.9486491576845 ], [ 77.563823803367498, 12.948638688922999 ], [ 77.563992377241306, 12.9486279953612 ], [ 77.564111200759896, 12.9485940756473 ], [ 77.564239395270903, 12.948519408162801 ], [ 77.564238681900704, 12.948505863355299 ], [ 77.564237122189894, 12.948353420630699 ], [ 77.564226529616207, 12.947712071628199 ], [ 77.564203452241202, 12.9472007171673 ], [ 77.564202081458603, 12.9471792735932 ], [ 77.564221295141706, 12.946806409166101 ], [ 77.564228726491095, 12.946632420873501 ], [ 77.564234730340303, 12.946487808928699 ], [ 77.5642386808927, 12.946198664328801 ], [ 77.564238680883406, 12.946198663425401 ], [ 77.564244986093101, 12.945745744358 ], [ 77.564247926007894, 12.945526627489301 ], [ 77.564248883031695, 12.945226219141899 ], [ 77.564249822972599, 12.944755283740101 ], [ 77.564249238048106, 12.9444729596615 ], [ 77.564256101849793, 12.9441871743271 ], [ 77.564263183308796, 12.943866377948099 ], [ 77.564263643454296, 12.943855080226699 ], [ 77.564281430014105, 12.9431174596556 ], [ 77.564282551016206, 12.9428893261029 ], [ 77.564284567489096, 12.942579872736999 ], [ 77.564285428281806, 12.9424951653092 ], [ 77.564289217938594, 12.942190211769701 ], [ 77.564295535913104, 12.941738421818 ], [ 77.564345639141905, 12.941740187534601 ], [ 77.565098717964901, 12.9417474586281 ], [ 77.564978880931605, 12.941006675364299 ], [ 77.564401849300694, 12.940030974157899 ], [ 77.564289377139204, 12.939841225532 ], [ 77.564203834361905, 12.9396952554123 ], [ 77.564044492593894, 12.939425785923699 ], [ 77.563973019173702, 12.939304522334901 ], [ 77.564029983285096, 12.939301703442499 ], [ 77.564338519992802, 12.9392986687104 ], [ 77.564477868172304, 12.939301815256 ], [ 77.565907026714299, 12.939331796102399 ], [ 77.565922894663203, 12.9397573929388 ], [ 77.565949781993695, 12.939909586259899 ], [ 77.5659875580657, 12.9400006892033 ], [ 77.566028959193204, 12.940052230314601 ], [ 77.566075748973205, 12.9401240460991 ], [ 77.566169601735197, 12.940181846762201 ], [ 77.566324526895798, 12.9401882268376 ], [ 77.566494913142904, 12.9401865493743 ], [ 77.566647938040006, 12.9401760081979 ], [ 77.566671755279003, 12.9407031650533 ], [ 77.566721240566807, 12.941094551008 ], [ 77.566727540098199, 12.9411475669041 ], [ 77.566771997677705, 12.9413289492541 ], [ 77.566848887240099, 12.9415292106021 ], [ 77.566998445362998, 12.941742308051101 ], [ 77.567492603025002, 12.942269349179 ], [ 77.567648045723601, 12.942494810585099 ], [ 77.567781267694102, 12.9426866112684 ], [ 77.567844638896702, 12.942803435846599 ], [ 77.567834958945198, 12.943600828713301 ], [ 77.570344239622898, 12.943640463737101 ], [ 77.570363822801298, 12.9436413999093 ], [ 77.570390093646694, 12.943620813145699 ], [ 77.570711931618703, 12.9436232852989 ], [ 77.571061411579194, 12.9436266136693 ], [ 77.571071900386201, 12.9436389326465 ], [ 77.571111630781701, 12.9436396700003 ], [ 77.571543449610203, 12.9436444440113 ], [ 77.571843424811306, 12.9436482597928 ], [ 77.572374862953694, 12.9436554372539 ], [ 77.572712829859398, 12.943658877029399 ], [ 77.572843498842502, 12.9436575870666 ], [ 77.572866744381798, 12.9436788145176 ], [ 77.572886315947599, 12.9436786212996 ], [ 77.573780391580001, 12.943681086194999 ], [ 77.573771269673202, 12.9432972102731 ], [ 77.573778512174897, 12.9421520165474 ], [ 77.573787737608299, 12.940695113073399 ], [ 77.573842997801904, 12.940694567441399 ], [ 77.573844732425499, 12.9406392140294 ], [ 77.573844616531005, 12.9406279220545 ], [ 77.575335531018197, 12.9406160180689 ], [ 77.576828144821206, 12.9406040923693 ], [ 77.576894341744904, 12.9406034379791 ], [ 77.577260451053306, 12.940600947808701 ], [ 77.577756639904095, 12.9405960414984 ], [ 77.577756129196601, 12.940546356962001 ], [ 77.577757635538902, 12.9405248851988 ], [ 77.577702962228997, 12.939966417968099 ], [ 77.577675930976099, 12.9396888752685 ], [ 77.578102837859404, 12.9391606544834 ], [ 77.5788145250106, 12.938281767949 ], [ 77.5794247792916, 12.9375281401792 ], [ 77.580035029143801, 12.9367745116405 ], [ 77.580089136971097, 12.936773976239399 ], [ 77.580842245809905, 12.936751871683899 ], [ 77.580842245809905, 12.936751871683899 ], [ 77.581138295661106, 12.9367431817079 ], [ 77.581200775213105, 12.9367413476976 ], [ 77.581830598564395, 12.936722859174401 ], [ 77.582746790103798, 12.936695716708901 ], [ 77.584009427272093, 12.936659331517999 ], [ 77.584908938616394, 12.936632506725999 ], [ 77.584901228810494, 12.935604917111799 ], [ 77.584901980020803, 12.9346721050453 ], [ 77.584876388451804, 12.9339202425859 ], [ 77.584861267982205, 12.932899502029199 ], [ 77.583935260141004, 12.9329222294672 ], [ 77.583901311097407, 12.932923695109601 ], [ 77.582676034220199, 12.932953900032199 ], [ 77.582593170307106, 12.9329569791811 ], [ 77.581769851067094, 12.9329800832004 ], [ 77.581287365153798, 12.9329936215358 ], [ 77.580917977657606, 12.933003742579301 ], [ 77.580706683121605, 12.9330095317155 ], [ 77.580652587745107, 12.9330111962838 ], [ 77.580198411077006, 12.933013431200701 ], [ 77.580137984003798, 12.9330151583016 ], [ 77.580136053119901, 12.933051315239901 ], [ 77.580108450980205, 12.933050987506901 ], [ 77.579617290489395, 12.9330451527122 ], [ 77.579611741442093, 12.9326149422157 ], [ 77.579606730203295, 12.9321824668662 ], [ 77.579606638819996, 12.9321745626149 ], [ 77.579613370784003, 12.931916858444801 ], [ 77.579620271183998, 12.9316526875454 ], [ 77.579639169674707, 12.9309150625743 ], [ 77.579640188485897, 12.930846164714501 ], [ 77.579648554666804, 12.9299799027673 ], [ 77.579652894626804, 12.9295620158875 ], [ 77.579659660109797, 12.928819993603099 ], [ 77.579663533795198, 12.928748808892299 ], [ 77.579686142397705, 12.928307015045201 ], [ 77.579689899982796, 12.9282335837076 ], [ 77.579692385797401, 12.928083361153201 ], [ 77.579703139303305, 12.927393247573599 ], [ 77.579709651909596, 12.9273547867068 ], [ 77.579708507745394, 12.9272994619207 ], [ 77.579697161589294, 12.926643446055101 ], [ 77.579668419280395, 12.9255268443539 ], [ 77.579690476221501, 12.9243679559809 ], [ 77.579696038620199, 12.923956832754399 ], [ 77.5797022606978, 12.9234418066274 ], [ 77.579702202698599, 12.9234361606586 ], [ 77.578435915518597, 12.923448673828799 ], [ 77.577937999282497, 12.9234502045155 ], [ 77.577687607923394, 12.9234515483123 ], [ 77.576457317804099, 12.9234941877534 ], [ 77.576246701615901, 12.923502964998701 ], [ 77.576208745547802, 12.9235045466679 ], [ 77.575972824548103, 12.9235136511702 ], [ 77.575561268439202, 12.9235165835724 ], [ 77.574575116201899, 12.9235376065536 ], [ 77.573588962149103, 12.9235586258441 ], [ 77.573583581065506, 12.923033548207 ], [ 77.573579557081999, 12.9226970525028 ], [ 77.573575969927006, 12.9223470007217 ], [ 77.573567178999198, 12.921545274859101 ], [ 77.573561281096204, 12.921025848804099 ], [ 77.574402092707999, 12.920837997205799 ], [ 77.574292481765099, 12.9202529647467 ], [ 77.574247762041793, 12.919877344496699 ], [ 77.574232582658695, 12.919744235236401 ], [ 77.574096814837503, 12.919302883186701 ], [ 77.573913607362996, 12.918838283088 ], [ 77.573731856604397, 12.9184082723404 ], [ 77.573649317026707, 12.918212990155901 ], [ 77.573536695726105, 12.917895633798601 ], [ 77.573512955584704, 12.9178258503417 ], [ 77.573515663260196, 12.9177179250989 ], [ 77.573534210559103, 12.9169786555094 ], [ 77.573326550607703, 12.9168801931699 ], [ 77.573103602116205, 12.916750260494601 ], [ 77.572893443613694, 12.9166326240213 ], [ 77.572814439892994, 12.9166187213655 ], [ 77.572748743713007, 12.9166114634564 ], [ 77.572556765959703, 12.916582863386701 ], [ 77.572028388063401, 12.9165316026391 ], [ 77.571969667335793, 12.9165309758184 ], [ 77.571643249127106, 12.9165274907128 ], [ 77.5714102461978, 12.916539949150501 ], [ 77.571237655246094, 12.9165495538921 ], [ 77.571102867196501, 12.916540717251801 ], [ 77.57106419982, 12.916530934137899 ], [ 77.571001300612096, 12.9165157430241 ], [ 77.570707294209299, 12.9164169991699 ], [ 77.570648999618498, 12.9164017626307 ], [ 77.570403676516904, 12.916335289295899 ], [ 77.570366585731804, 12.916310809435499 ], [ 77.570292115409302, 12.916233619625601 ], [ 77.570235164462702, 12.9161246364859 ], [ 77.570188781803694, 12.9160294868799 ], [ 77.570129586202299, 12.9159080518127 ], [ 77.570126979387993, 12.9159027037292 ], [ 77.570090524524403, 12.915827920500799 ], [ 77.569975312145104, 12.9156506223419 ], [ 77.569934675686397, 12.9156171427533 ], [ 77.569897608150995, 12.9155949212028 ], [ 77.569774561091805, 12.915552088723301 ], [ 77.569723208225795, 12.9155401715708 ], [ 77.569566824267199, 12.915502184293899 ], [ 77.569351355135097, 12.915934574225901 ], [ 77.569249404925998, 12.9161535355517 ], [ 77.569111414526802, 12.9164507743525 ], [ 77.568858890512701, 12.916967092792699 ], [ 77.568858890512701, 12.916967092792699 ], [ 77.568775217115501, 12.917183713197 ], [ 77.568666800081701, 12.917539919458299 ], [ 77.568654971559695, 12.9178367545546 ], [ 77.568657228718195, 12.917956540303599 ], [ 77.568675542182206, 12.9180894082082 ], [ 77.568698767849298, 12.9181501601508 ], [ 77.566026917418498, 12.9187645066112 ], [ 77.565745147065599, 12.9179793257988 ], [ 77.5654674754132, 12.917404383489799 ], [ 77.565394881964707, 12.9172998531159 ], [ 77.564898413288105, 12.9167785085356 ], [ 77.564855054369701, 12.916751043392599 ], [ 77.564850876766499, 12.916761435761099 ], [ 77.564686405466404, 12.917171865392699 ], [ 77.564614610368807, 12.9173566498777 ], [ 77.564497910020194, 12.917653678188501 ], [ 77.564458425279398, 12.917736442285401 ], [ 77.564278677770503, 12.918113206415899 ], [ 77.564153825806002, 12.918344814121699 ], [ 77.564101840534903, 12.918440187647301 ], [ 77.563888856523405, 12.918778817020099 ], [ 77.563577022841002, 12.919246030309299 ], [ 77.563433198037799, 12.9194236167295 ], [ 77.563358488028996, 12.919492109599499 ], [ 77.563252811700707, 12.919572199713601 ], [ 77.563026804241204, 12.919706549316601 ], [ 77.562797941635594, 12.919843185438101 ], [ 77.5624313995676, 12.9200828118539 ], [ 77.562275865599204, 12.9201848481738 ], [ 77.562202824188702, 12.920247677814499 ], [ 77.562182517768207, 12.9202885327334 ], [ 77.562123014559901, 12.9204370580114 ], [ 77.561942696919203, 12.9208182801743 ], [ 77.561845239851607, 12.921083498177399 ], [ 77.561845239851607, 12.921083498177399 ], [ 77.561845239851607, 12.921083498177399 ], [ 77.561694158225393, 12.9215158690702 ], [ 77.561612293975998, 12.921609517261899 ], [ 77.560309309752299, 12.9218466758639 ], [ 77.559116740482693, 12.922082747667201 ], [ 77.558751026086895, 12.9221869142961 ], [ 77.556281300055602, 12.922978109771799 ], [ 77.556169292081904, 12.9225810402836 ], [ 77.555971975068999, 12.9220100232032 ], [ 77.555645699301607, 12.920998816862101 ], [ 77.555119431515806, 12.921021567139899 ], [ 77.554897051767497, 12.9209623371832 ], [ 77.554736294560001, 12.9209786830321 ], [ 77.554616693768097, 12.9210105079969 ], [ 77.554386243533997, 12.9210169886352 ], [ 77.554154988741601, 12.9209595704728 ], [ 77.554041549428305, 12.9209008928015 ], [ 77.553506415760296, 12.920619737234301 ], [ 77.553233765169793, 12.9204369611685 ], [ 77.553026209130195, 12.9202595655957 ], [ 77.552881946831207, 12.9200925742963 ], [ 77.552682126956697, 12.9197313428604 ], [ 77.552639254282099, 12.9196601507754 ], [ 77.552581177170794, 12.9196342733267 ], [ 77.552517690393103, 12.919640348273299 ], [ 77.5524262852135, 12.919700624854499 ], [ 77.552319318497197, 12.9197483300599 ], [ 77.552173255073001, 12.9197695032327 ], [ 77.552153451729097, 12.919662964236201 ], [ 77.552123031808193, 12.919668218925199 ], [ 77.551955743259896, 12.9188855664601 ], [ 77.551955743259896, 12.91888556646 ], [ 77.551955743259896, 12.9188855664601 ], [ 77.551955743259896, 12.9188855664601 ], [ 77.551955743259896, 12.91888556646 ], [ 77.551948307862503, 12.918862000886101 ], [ 77.551915711824904, 12.918722384546699 ], [ 77.551902697891805, 12.9186127850469 ], [ 77.551904341574399, 12.9185403942242 ], [ 77.551954183327794, 12.9182924345104 ], [ 77.551997869819402, 12.918207322145401 ], [ 77.551956231916293, 12.917878987197 ], [ 77.551618671912294, 12.917168444063099 ], [ 77.551531312627603, 12.917051889726499 ], [ 77.551009392106096, 12.9165732701997 ], [ 77.550919222166101, 12.916468761826501 ], [ 77.550919222166002, 12.916468761826501 ], [ 77.550919222166101, 12.916468761826501 ], [ 77.550872118552206, 12.9164217900293 ], [ 77.550803755232195, 12.916321947288999 ], [ 77.550730672689497, 12.9162108572971 ], [ 77.550680968805906, 12.916134548213799 ], [ 77.550676260992105, 12.9161244302092 ], [ 77.550656879943801, 12.9160331526473 ], [ 77.550604007683802, 12.9157841589355 ], [ 77.549481562824695, 12.916099958265001 ], [ 77.549238192094094, 12.916168964866401 ], [ 77.549179067538205, 12.9161853527125 ], [ 77.548998815898898, 12.9162345442712 ], [ 77.548829454413706, 12.9162791120875 ], [ 77.548514295735202, 12.9163646294432 ], [ 77.548254232414905, 12.916433798128701 ], [ 77.548035507837795, 12.916492399198299 ], [ 77.548038723249505, 12.9166391812683 ], [ 77.548053291167406, 12.9167602537141 ], [ 77.548074554735607, 12.916936975840301 ], [ 77.548087097086494, 12.9170384935197 ], [ 77.548100996761804, 12.917160325964399 ], [ 77.548455164565695, 12.917174938902299 ], [ 77.548534417621795, 12.9177241509187 ], [ 77.548549334179697, 12.9177759546742 ], [ 77.548623871269598, 12.9180304565316 ], [ 77.548294080188896, 12.9180924008306 ], [ 77.548110605435298, 12.9181077434776 ], [ 77.547899731499896, 12.918145940058301 ], [ 77.547864677948496, 12.918151928796 ], [ 77.547588095345205, 12.918181731662701 ], [ 77.547293703756495, 12.918215095999599 ], [ 77.546984484122603, 12.9182621566846 ], [ 77.546864438126093, 12.9182881730807 ], [ 77.546856757664898, 12.9183255160559 ], [ 77.546843530589797, 12.9183267744153 ], [ 77.546788086000404, 12.918195183042799 ], [ 77.546759749775006, 12.918127515929401 ], [ 77.546729683416103, 12.9180557151532 ], [ 77.546724239855607, 12.918029793541001 ], [ 77.545909708000906, 12.918143894679099 ], [ 77.545348675906993, 12.9182143240272 ], [ 77.544763898935898, 12.918287197152599 ], [ 77.544708237428907, 12.917793090162499 ], [ 77.544697975537105, 12.9175187613386 ], [ 77.544343711180701, 12.9175515764334 ], [ 77.544341317347204, 12.9175425650634 ], [ 77.5431720508533, 12.9176431739451 ], [ 77.542788685281707, 12.9178151790424 ], [ 77.541928748140094, 12.9182210795489 ], [ 77.541932714295498, 12.918442391364101 ], [ 77.541976319129603, 12.918769475104099 ], [ 77.541984030336096, 12.9187919868032 ], [ 77.541986881630194, 12.9187985173388 ], [ 77.541986258787404, 12.918798859494199 ], [ 77.541959395104499, 12.918803520948501 ], [ 77.541861624570203, 12.9188123782112 ], [ 77.541773558177894, 12.9188132355912 ], [ 77.541684654339306, 12.918788126295301 ], [ 77.541514693240501, 12.9186599068146 ], [ 77.541376029411694, 12.918552840002 ], [ 77.541346435312406, 12.918529411934699 ], [ 77.541313442945594, 12.918511663636901 ], [ 77.541195337070107, 12.918445052819999 ], [ 77.541090042726793, 12.918392998664601 ], [ 77.540965429604796, 12.9183659779432 ], [ 77.540932865318496, 12.918333544006099 ], [ 77.540821289817401, 12.91822960122 ], [ 77.540655323436596, 12.9180979541359 ], [ 77.540576540725695, 12.918049029770501 ], [ 77.540514376990799, 12.918049634635899 ], [ 77.540448424831396, 12.9180739924895 ], [ 77.540448423901296, 12.918073991595101 ], [ 77.540394791243301, 12.9180643493654 ], [ 77.540351439285104, 12.9180467017172 ], [ 77.540250544439104, 12.917974276231201 ], [ 77.540236063346697, 12.917965382395201 ], [ 77.540106297729395, 12.917884202997399 ], [ 77.540001545125904, 12.9178287550271 ], [ 77.539933344283, 12.917797041634801 ], [ 77.539875461493196, 12.9177701264815 ], [ 77.539853520587101, 12.9177635638656 ], [ 77.539694087051302, 12.9177086476447 ], [ 77.539466738887498, 12.917597924799299 ], [ 77.539308217010699, 12.9175192832794 ], [ 77.539293929989299, 12.917529586291099 ], [ 77.539251011854105, 12.917554849171999 ], [ 77.539127830694596, 12.917612514125199 ], [ 77.539090588539096, 12.917629816400501 ], [ 77.538890597743503, 12.9177198497262 ], [ 77.538832782646693, 12.9177520334514 ], [ 77.538698272023694, 12.9178278778602 ], [ 77.538488052057303, 12.9179880295702 ], [ 77.5383636342805, 12.9180942679472 ], [ 77.538361319951605, 12.918101117651601 ], [ 77.538157226240202, 12.9182329249082 ], [ 77.537849703388801, 12.918562294088799 ], [ 77.536429384292603, 12.9192492406215 ], [ 77.534427356862494, 12.918359680722499 ], [ 77.533130381131102, 12.9180952404402 ], [ 77.531782013045202, 12.9177925079565 ], [ 77.531617675648604, 12.916378933618899 ], [ 77.5313757146032, 12.914297607872699 ], [ 77.531323620594307, 12.9140831970323 ], [ 77.531085716005904, 12.913104013615801 ], [ 77.530690082526107, 12.9122337380016 ], [ 77.530334739929302, 12.9114520853404 ], [ 77.530127726110194, 12.910996707854 ], [ 77.529497774705106, 12.9099165568523 ], [ 77.529401585022399, 12.9097725501911 ], [ 77.5294015859252, 12.909772550154999 ], [ 77.528428390971101, 12.9083155290959 ], [ 77.527682979704906, 12.9070927218738 ], [ 77.527368527693895, 12.906581898701999 ], [ 77.5267386082744, 12.905558593393099 ], [ 77.526382882928402, 12.904980711593799 ], [ 77.525870880091006, 12.9042976905475 ], [ 77.525871108631804, 12.9042912433531 ], [ 77.525828640295401, 12.904277305123101 ], [ 77.525520233237401, 12.9040388876143 ], [ 77.525298084514105, 12.903784272519299 ], [ 77.518407787782195, 12.898346173332801 ], [ 77.517832913962295, 12.8978678975382 ], [ 77.514381795158457, 12.894318476949856 ], [ 77.514381723720703, 12.8943184039343 ], [ 77.514106240670401, 12.8940357930282 ], [ 77.513111966630106, 12.8930141545626 ], [ 77.512669773138299, 12.892496341118299 ], [ 77.5121998563598, 12.891892254620901 ], [ 77.511661957127302, 12.891127997129299 ], [ 77.511342526729194, 12.8906546813195 ] ] ] } }
]
}
