{
"type": "FeatureCollection",
"name": "North",
"crs": { "type": "name", "properties": { "name": "urn:ogc:def:crs:OGC:1.3:CRS84" } },
"features": [
{ "type": "Feature", "properties": { "region_id": "corp_GBA_North", "name": "North", "parent": "ulb_276600", "parent_name": "GBA" }, "geometry": { "type": "Polygon", "coordinates": [ [ [ 77.550040247632197, 13.026051604344399 ], [ 77.549205167381103, 13.028129876117401 ], [ 77.548854645417606, 13.028939994551701 ], [ 77.548801790664896, 13.029062151153701 ], [ 77.5484723246377, 13.0297762403265 ], [ 77.548190088505805, 13.0303879597387 ], [ 77.547863342834802, 13.0310961458132 ], [ 77.547863341932, 13.031096147629 ], [ 77.547837791727005, 13.031151525200899 ], [ 77.547687938607297, 13.0314763167636 ], [ 77.546732737040003, 13.033311233715599 ], [ 77.546614238786702, 13.033538864439899 ], [ 77.545796386415702, 13.0350534296295 ], [ 77.545324450836404, 13.035985247834301 ], [ 77.545073975040097, 13.0365009322201 ], [ 77.545073973743101, 13.0365009320802 ], [ 77.545008796505797, 13.0366351190362 ], [ 77.544841629154007, 13.0369792849074 ], [ 77.544728660024603, 13.03715686334 ], [ 77.544508345009106, 13.037503181397399 ], [ 77.544358012889802, 13.0376142038788 ], [ 77.543855871661194, 13.0382464160261 ], [ 77.543421255912193, 13.038710953477899 ], [ 77.542954611964603, 13.0392900363727 ], [ 77.542954611555103, 13.0392900368812 ], [ 77.542147960425794, 13.0385293982819 ], [ 77.541950707936195, 13.0383124819566 ], [ 77.541630425865705, 13.0366881111191 ], [ 77.541465380497101, 13.035851037727999 ], [ 77.541225244963201, 13.0346305964206 ], [ 77.5407490115754, 13.032502343369501 ], [ 77.538979371845201, 13.03368791978 ], [ 77.537781284395194, 13.0346520653127 ], [ 77.537600547133707, 13.034790655980499 ], [ 77.536419423621098, 13.035696349792399 ], [ 77.535164250622699, 13.0366545208924 ], [ 77.533652096349698, 13.0376778963528 ], [ 77.532934862800701, 13.038119307211399 ], [ 77.531924741782404, 13.0389050608958 ], [ 77.531213850536005, 13.039596506739599 ], [ 77.531172716789698, 13.039625285214701 ], [ 77.530352199010096, 13.040199334630699 ], [ 77.530266569427994, 13.040259242544501 ], [ 77.528266549033603, 13.0416809607649 ], [ 77.525434838135894, 13.043681633133099 ], [ 77.525358119990599, 13.043728218748299 ], [ 77.5248384312235, 13.044043785513701 ], [ 77.523981674142803, 13.044646142983799 ], [ 77.523981674293594, 13.0446461435166 ], [ 77.523908920906905, 13.044697293697901 ], [ 77.523144824590105, 13.0452375808122 ], [ 77.522192211058496, 13.0459011887045 ], [ 77.521957632186599, 13.045536671571 ], [ 77.521758584076593, 13.045239289863501 ], [ 77.521758583146095, 13.045239288969 ], [ 77.521529553292098, 13.0448971157078 ], [ 77.521520178760994, 13.0448813962196 ], [ 77.521428298569901, 13.0447377352871 ], [ 77.520997552834302, 13.0440620658336 ], [ 77.520810834335194, 13.043766866710101 ], [ 77.520562721226597, 13.043380788291801 ], [ 77.520223294732901, 13.0428499130056 ], [ 77.519751786657693, 13.042129463311401 ], [ 77.519376121619004, 13.0415458597395 ], [ 77.519210665083307, 13.0413024017965 ], [ 77.519056909497905, 13.041076899374801 ], [ 77.518730022142094, 13.040532346724 ], [ 77.518500920143097, 13.040146080126799 ], [ 77.518441313253106, 13.039890297906799 ], [ 77.517801697949196, 13.0404273148134 ], [ 77.517792563832202, 13.040435309115001 ], [ 77.517726310040203, 13.040490162389901 ], [ 77.517621227607506, 13.040578144489899 ], [ 77.517502598154195, 13.0406933627219 ], [ 77.517238523764803, 13.0409489055834 ], [ 77.516920699497604, 13.041299836393801 ], [ 77.516730193336201, 13.0414835143961 ], [ 77.5165600303758, 13.041628596578001 ], [ 77.516488467362805, 13.041671078405299 ], [ 77.516488467372, 13.041671079308699 ], [ 77.5162800672272, 13.0417939461475 ], [ 77.516113711359594, 13.041859936552299 ], [ 77.516021625907598, 13.041896831910901 ], [ 77.516021624986195, 13.0418968319199 ], [ 77.515712178415896, 13.042020818968499 ], [ 77.515612362407893, 13.0420601871875 ], [ 77.515544647576306, 13.042084561777401 ], [ 77.514872014141901, 13.042319228134501 ], [ 77.514661912757703, 13.042387901541399 ], [ 77.514659044733705, 13.042389058762 ], [ 77.514525872499107, 13.042433268145899 ], [ 77.514381222856599, 13.0424795820651 ], [ 77.514125733901594, 13.0425613845665 ], [ 77.513748160153696, 13.042679588693099 ], [ 77.513403479458702, 13.0427874947987 ], [ 77.513269707969997, 13.0428294507229 ], [ 77.513048099105106, 13.042899364078099 ], [ 77.512956298980001, 13.0429341361443 ], [ 77.512624090602799, 13.043059332125599 ], [ 77.512526542836895, 13.0430952892201 ], [ 77.511992167774906, 13.043278851748999 ], [ 77.511947995160597, 13.043294025389599 ], [ 77.511616857549896, 13.0434113043686 ], [ 77.511431180789899, 13.043503454823 ], [ 77.510731447587006, 13.0438501808277 ], [ 77.510668407115801, 13.0438812850748 ], [ 77.510422956448394, 13.044007981365899 ], [ 77.510305148544205, 13.044068894277 ], [ 77.510187682952207, 13.0441287602992 ], [ 77.510028969444804, 13.0442104841527 ], [ 77.510023797793394, 13.044211663675201 ], [ 77.509957347334804, 13.0442473182784 ], [ 77.509821199496599, 13.044318411382701 ], [ 77.509707574501405, 13.044379643084 ], [ 77.509376333812796, 13.0445581470491 ], [ 77.509063126446094, 13.0447269322894 ], [ 77.508822506281803, 13.044856814065399 ], [ 77.508698804451598, 13.044923584802399 ], [ 77.508417337678594, 13.0450550603263 ], [ 77.507832767636401, 13.045179021211499 ], [ 77.507781117816606, 13.0451899742522 ], [ 77.507303378109597, 13.0453335323482 ], [ 77.507303371380502, 13.045333515277999 ], [ 77.507124790760898, 13.045387196224 ], [ 77.506898085002803, 13.045466189224101 ], [ 77.506390731920703, 13.045643896341099 ], [ 77.506062746954598, 13.0457317753069 ], [ 77.505917431268301, 13.0457715809984 ], [ 77.505551053976802, 13.0458790303197 ], [ 77.505160545339507, 13.0459923596295 ], [ 77.504991143816596, 13.046042562299601 ], [ 77.503889086625705, 13.0464180135482 ], [ 77.503689417177199, 13.046485383743599 ], [ 77.502869072621806, 13.046762174197699 ], [ 77.502706118444706, 13.0468236067665 ], [ 77.501511437742593, 13.047267706762799 ], [ 77.501421880552897, 13.047296806771801 ], [ 77.501157796147197, 13.0473840053637 ], [ 77.500910971741007, 13.0474655038868 ], [ 77.500652643159796, 13.0475504445729 ], [ 77.500115976208704, 13.047735200359 ], [ 77.499373837187093, 13.047991960990799 ], [ 77.499322175763098, 13.048009400578399 ], [ 77.4991368726198, 13.0480823407395 ], [ 77.498918291512297, 13.048168025258301 ], [ 77.498657827774593, 13.048269925267601 ], [ 77.498468492805003, 13.0483429039584 ], [ 77.498295237769995, 13.0484112097742 ], [ 77.497411195847107, 13.0487043461968 ], [ 77.497313608707103, 13.048736910568801 ], [ 77.496760798725404, 13.048920686709399 ], [ 77.496653600792001, 13.048957770739101 ], [ 77.496661144162005, 13.0492062486487 ], [ 77.497293874779402, 13.0506141053486 ], [ 77.496892651779802, 13.0506964907214 ], [ 77.496872557281193, 13.050700616711501 ], [ 77.496125985571894, 13.050861416755 ], [ 77.494536897909995, 13.0512076529781 ], [ 77.494392118041802, 13.051244059757201 ], [ 77.493934352368498, 13.0513578070842 ], [ 77.4932005190864, 13.0515401503975 ], [ 77.492465308677495, 13.0515709537771 ], [ 77.492475935772404, 13.052187068166401 ], [ 77.492480441962201, 13.0524483271378 ], [ 77.492459275433404, 13.0527818348413 ], [ 77.492423099668798, 13.053351827859 ], [ 77.4923426652106, 13.054619171619899 ], [ 77.492218721853206, 13.054828475458001 ], [ 77.491609152037697, 13.055857852929901 ], [ 77.491532157668999, 13.055987872417401 ], [ 77.491012916791604, 13.0568794305947 ], [ 77.491001805708805, 13.056920194945301 ], [ 77.490998836919402, 13.056968786424701 ], [ 77.491040130809296, 13.057114367169399 ], [ 77.4914227750034, 13.058463373555499 ], [ 77.491969973070894, 13.059926147570501 ], [ 77.491976757263203, 13.059944282155801 ], [ 77.492007104892394, 13.0600283873595 ], [ 77.492308539430098, 13.060863776672599 ], [ 77.492599750048001, 13.061661189374799 ], [ 77.492660348642801, 13.0618271224577 ], [ 77.492720449622695, 13.062133730706901 ], [ 77.493061893264695, 13.062121402059599 ], [ 77.492992175895395, 13.062578338977501 ], [ 77.492984595091599, 13.062605451871899 ], [ 77.492902114693393, 13.0629022068312 ], [ 77.492849269535199, 13.0633759215126 ], [ 77.492762361962903, 13.063784461506099 ], [ 77.492743587850896, 13.0655125745195 ], [ 77.4927315273071, 13.066622858802999 ], [ 77.492804526728705, 13.067754909558399 ], [ 77.492832551889606, 13.068193962859301 ], [ 77.492943727427999, 13.0699151743035 ], [ 77.493031629773796, 13.0710967727062 ], [ 77.493040895629406, 13.0712163961174 ], [ 77.493105543364194, 13.0720918351794 ], [ 77.494140082048204, 13.072040453878699 ], [ 77.495065792994794, 13.0719944738967 ], [ 77.496050953617996, 13.0719455371535 ], [ 77.497205819081003, 13.0719530483823 ], [ 77.497573381141393, 13.0719565726834 ], [ 77.498585741909395, 13.0719662780502 ], [ 77.499237837570803, 13.0719628149341 ], [ 77.499459350525996, 13.071901309134301 ], [ 77.499445539785398, 13.071891964296899 ], [ 77.500255181144794, 13.0724397724467 ], [ 77.501003535146594, 13.0726360274514 ], [ 77.501433230526104, 13.0728446829473 ], [ 77.501611759195896, 13.0730491212872 ], [ 77.501887577975893, 13.0734787353902 ], [ 77.502142635744093, 13.0738686467795 ], [ 77.502341056107198, 13.0740263376232 ], [ 77.502471408183894, 13.074164736277099 ], [ 77.502637035034695, 13.0744358034064 ], [ 77.502672376784005, 13.0745751218807 ], [ 77.502707114926494, 13.074654591983199 ], [ 77.502768730856701, 13.074707199270501 ], [ 77.5029988108504, 13.074785976456001 ], [ 77.503758223568994, 13.075206640031899 ], [ 77.504108034739204, 13.0753941089345 ], [ 77.504316002988404, 13.0757388045113 ], [ 77.504481059674305, 13.075998084943199 ], [ 77.504620005600898, 13.0762094311102 ], [ 77.504795611900306, 13.0764765405753 ], [ 77.505077990494499, 13.076706341555299 ], [ 77.505330104399704, 13.0768235959567 ], [ 77.505456666440793, 13.076932364286399 ], [ 77.505721691617495, 13.0770203772146 ], [ 77.506009694630905, 13.077421978686001 ], [ 77.506331889120105, 13.0776129616478 ], [ 77.506604139218496, 13.077762370997901 ], [ 77.506899302448602, 13.0778921470251 ], [ 77.507368719102303, 13.0779490563561 ], [ 77.507483908900397, 13.077912350115501 ], [ 77.507707520078, 13.0778228290839 ], [ 77.508073613646204, 13.0777836841345 ], [ 77.508610153736498, 13.077723959771101 ], [ 77.5087823155759, 13.077770814512601 ], [ 77.508962684527503, 13.077976112671999 ], [ 77.509081988379194, 13.077693492836699 ], [ 77.509140300551607, 13.077582929713101 ], [ 77.509221853401002, 13.077485083070799 ], [ 77.509271079564201, 13.077455488033101 ], [ 77.509320403876799, 13.077435597245699 ], [ 77.509353154931404, 13.077409396812 ], [ 77.5093593324887, 13.0773672805431 ], [ 77.509357892716096, 13.0772249463142 ], [ 77.509374073291596, 13.077192438021401 ], [ 77.509416729166006, 13.077166141304 ], [ 77.509443009070097, 13.0771529452573 ], [ 77.509479030207103, 13.0771234785595 ], [ 77.509511422175507, 13.077061695230499 ], [ 77.509556037350194, 13.076902738259101 ], [ 77.509565451345395, 13.0768541197874 ], [ 77.509598235028804, 13.076831154393201 ], [ 77.509644323643002, 13.0768177657663 ], [ 77.509799191689694, 13.0767871436431 ], [ 77.509881662237305, 13.0767798720087 ], [ 77.509940725703899, 13.0767437104961 ], [ 77.509996390894102, 13.076697876805801 ], [ 77.510139359258901, 13.0764700252663 ], [ 77.510431731045898, 13.076154767236799 ], [ 77.510599085041406, 13.076052848795999 ], [ 77.510684691660202, 13.076029370511099 ], [ 77.510753856959099, 13.0760125219307 ], [ 77.510809652775706, 13.0759796274174 ], [ 77.510881757992806, 13.075927163870499 ], [ 77.510986647508105, 13.075851734774201 ], [ 77.511271376718696, 13.075603091842099 ], [ 77.511307461976998, 13.0755800959766 ], [ 77.511379469683106, 13.075649863491799 ], [ 77.511461842474901, 13.0758207236949 ], [ 77.511488867186898, 13.0758159433939 ], [ 77.511842457868596, 13.075750389105 ], [ 77.511935604359905, 13.075733671919799 ], [ 77.512367964816903, 13.0756537983267 ], [ 77.512540701590495, 13.0755900030177 ], [ 77.513076570983799, 13.0755497775842 ], [ 77.514288461892804, 13.0751584978205 ], [ 77.514442190824198, 13.0753559830759 ], [ 77.514614132110907, 13.0753088227903 ], [ 77.515420856458107, 13.0750800338202 ], [ 77.516148141218295, 13.0748650123892 ], [ 77.517026879826204, 13.074544545857499 ], [ 77.517971123326006, 13.0742541597662 ], [ 77.518126181655006, 13.0749460665086 ], [ 77.5182620223908, 13.0755037681846 ], [ 77.518254514775194, 13.0756721140573 ], [ 77.518216744773795, 13.0765477260764 ], [ 77.518211979508493, 13.0767024930382 ], [ 77.518282327760105, 13.076936710878 ], [ 77.518531682779894, 13.077724820666401 ], [ 77.518593707228206, 13.0778766772469 ], [ 77.518681117577202, 13.078089270788601 ], [ 77.518709185659105, 13.078187250022999 ], [ 77.518784417998603, 13.078448524196499 ], [ 77.518795175321202, 13.078486816988899 ], [ 77.518836465278198, 13.0786388757742 ], [ 77.518844815537307, 13.078667027937099 ], [ 77.518904615444399, 13.079110277298801 ], [ 77.518979950410198, 13.0796651802117 ], [ 77.519142503259104, 13.079619549220601 ], [ 77.519418646991696, 13.079358233738301 ], [ 77.519472415252295, 13.079350377182401 ], [ 77.519501472164606, 13.079346131802399 ], [ 77.519629126509599, 13.079437491988701 ], [ 77.520882530803902, 13.0791508225262 ], [ 77.521136723052507, 13.079960338166799 ], [ 77.521212938465197, 13.080204661306301 ], [ 77.521280642731497, 13.0804050231287 ], [ 77.521709547362093, 13.0803816339197 ], [ 77.522066962281897, 13.0803521665659 ], [ 77.522243480209795, 13.0805469472573 ], [ 77.522716485150198, 13.080781744840101 ], [ 77.522849057566305, 13.080960014397499 ], [ 77.523221966708405, 13.080924747143399 ], [ 77.523299327601705, 13.081507860718199 ], [ 77.523414117469699, 13.0815801455509 ], [ 77.523566421560702, 13.0827915695254 ], [ 77.523586279266894, 13.0828749466251 ], [ 77.523577695171895, 13.083446477574199 ], [ 77.523577695171895, 13.083446477574199 ], [ 77.523542150256603, 13.0835737355704 ], [ 77.523530043064198, 13.083960162287401 ], [ 77.523514407682995, 13.084459202228301 ], [ 77.523469528559104, 13.0851695987686 ], [ 77.523435979928294, 13.086037662573199 ], [ 77.523436387228102, 13.0865612566762 ], [ 77.523447858467406, 13.088113748081501 ], [ 77.523533754011595, 13.089670787417999 ], [ 77.523616765160796, 13.0905565912998 ], [ 77.523656138464105, 13.090992621444 ], [ 77.523664275275905, 13.0916553630426 ], [ 77.523769211896706, 13.0929419828114 ], [ 77.523778609696507, 13.093067956912799 ], [ 77.526420043830896, 13.0928747844352 ], [ 77.528618375270796, 13.092609461333801 ], [ 77.528886018708207, 13.0925873054608 ], [ 77.5294981530473, 13.0924678935025 ], [ 77.5300430789367, 13.0924154551291 ], [ 77.532829168043406, 13.0922450476926 ], [ 77.5339957950128, 13.0921590629283 ], [ 77.534335689897802, 13.09213022506 ], [ 77.534394101954803, 13.092137017847501 ], [ 77.534824216677805, 13.091286596808599 ], [ 77.535452398082398, 13.090173577641201 ], [ 77.537247929305494, 13.0900950171666 ], [ 77.538023550090699, 13.0900597222721 ], [ 77.5385428608041, 13.0900360895572 ], [ 77.53946246273, 13.0900066823393 ], [ 77.540713741820795, 13.089973288224201 ], [ 77.540722908455606, 13.0899687850718 ], [ 77.540780877592098, 13.090073951608399 ], [ 77.540780244419494, 13.0902582388554 ], [ 77.540774658406093, 13.091883196019801 ], [ 77.541632520899398, 13.093187020278 ], [ 77.542204963549295, 13.0942948929862 ], [ 77.542454570913506, 13.0955692885949 ], [ 77.542456637838995, 13.0955798432213 ], [ 77.542395229668401, 13.095658372321299 ], [ 77.543344204639894, 13.0979788103059 ], [ 77.543381969483093, 13.098178328246 ], [ 77.543423727812396, 13.0983179525262 ], [ 77.543967703765304, 13.0997366627126 ], [ 77.544080915713394, 13.1001025756955 ], [ 77.544223774789103, 13.1003823672271 ], [ 77.544316087917295, 13.100564406429299 ], [ 77.5444289908896, 13.1007880272835 ], [ 77.544244806910598, 13.1008033975915 ], [ 77.544229361599804, 13.1013185219857 ], [ 77.544547319811201, 13.1013153826599 ], [ 77.544901122609701, 13.101380777718299 ], [ 77.545173659971994, 13.101274188379699 ], [ 77.545633789662901, 13.1012905676393 ], [ 77.5460095008049, 13.101247167085701 ], [ 77.546362123619701, 13.1012096633415 ], [ 77.546741276876503, 13.101175131327 ], [ 77.547149725885305, 13.101176741143099 ], [ 77.547656400227496, 13.1010949387924 ], [ 77.548072238958099, 13.101030973472501 ], [ 77.548504635625804, 13.101008628649801 ], [ 77.548893132778602, 13.1010307608184 ], [ 77.549661620979407, 13.1010321933515 ], [ 77.5502882657063, 13.100965009509499 ], [ 77.550790439689194, 13.1009498755992 ], [ 77.551047374154194, 13.1008389177093 ], [ 77.551223550883506, 13.100829268456 ], [ 77.551593108801896, 13.100858359950299 ], [ 77.551927431285705, 13.1008222993548 ], [ 77.552457100865198, 13.100680406380899 ], [ 77.553939289087197, 13.1004898585667 ], [ 77.554608153010705, 13.1004038672924 ], [ 77.555076438005202, 13.1003427592197 ], [ 77.555137978801298, 13.1004449168171 ], [ 77.555214739942699, 13.100459834269399 ], [ 77.555550956984405, 13.100315496891 ], [ 77.555612039373003, 13.1004075158286 ], [ 77.555774694725102, 13.1003493873746 ], [ 77.556159948603906, 13.1002252520358 ], [ 77.556551522886195, 13.100709750467001 ], [ 77.556945340152893, 13.1005795399935 ], [ 77.557330220597507, 13.1004157324896 ], [ 77.557462367411901, 13.100734395538501 ], [ 77.557128764819893, 13.1008724331012 ], [ 77.557295011187307, 13.101165496465301 ], [ 77.557563984728304, 13.1014238603832 ], [ 77.557850138536296, 13.101682051580401 ], [ 77.558170048805593, 13.1020923600103 ], [ 77.558294135595503, 13.102264188572001 ], [ 77.558387691037296, 13.1023937396542 ], [ 77.558913126460695, 13.102903288292101 ], [ 77.558984763700707, 13.103082451045401 ], [ 77.5593089376611, 13.1033127243441 ], [ 77.559352671489805, 13.1033790196455 ], [ 77.559357341243299, 13.1033860987691 ], [ 77.559149156793396, 13.1034009241998 ], [ 77.558922863701198, 13.1033436370447 ], [ 77.559027184532496, 13.104338394355601 ], [ 77.5591591167329, 13.1045902495327 ], [ 77.559339447340193, 13.1048707862602 ], [ 77.559446009729598, 13.105036865828 ], [ 77.559589982121295, 13.105310987593001 ], [ 77.559716285280402, 13.1056033537666 ], [ 77.559958429913095, 13.1058448790086 ], [ 77.559958429922503, 13.105844879911899 ], [ 77.560127204413405, 13.1061774789074 ], [ 77.560299017578899, 13.1065811941126 ], [ 77.560409317967, 13.106774339337299 ], [ 77.560516073987898, 13.107016698046699 ], [ 77.560516074319395, 13.107016697917199 ], [ 77.560542052743799, 13.1070756744354 ], [ 77.560553289152594, 13.1071037955177 ], [ 77.560659706287396, 13.107366996429599 ], [ 77.560703394875006, 13.1074693294103 ], [ 77.5609512889705, 13.107932140926801 ], [ 77.561077977830195, 13.1083171054948 ], [ 77.561086322592004, 13.108344125972801 ], [ 77.561095231689393, 13.1083700115284 ], [ 77.560959777043806, 13.1089170764528 ], [ 77.560535487439296, 13.109035090560599 ], [ 77.560046847194798, 13.1093098614678 ], [ 77.560048539976407, 13.1095541869368 ], [ 77.560122369599995, 13.1098316629247 ], [ 77.560283656985604, 13.110560358809799 ], [ 77.560313425500894, 13.111151256222399 ], [ 77.560222780860798, 13.1115346974966 ], [ 77.560130334928004, 13.1117442726076 ], [ 77.559811524373799, 13.1117938097067 ], [ 77.5597096096229, 13.1119002019925 ], [ 77.559675302467298, 13.1121111568721 ], [ 77.559813907066101, 13.1124029256572 ], [ 77.559832872835401, 13.1124040823507 ], [ 77.560089390626899, 13.1123590573843 ], [ 77.560403091655303, 13.112958726441301 ], [ 77.561062020230693, 13.113775206438 ], [ 77.561440319532693, 13.113759851094599 ], [ 77.561607705996096, 13.113766525536301 ], [ 77.561626895356198, 13.113817032492401 ], [ 77.561670492408794, 13.1139103314329 ], [ 77.561682869767495, 13.1139373117158 ], [ 77.562354158759902, 13.1155636127087 ], [ 77.562582278003802, 13.1163405651241 ], [ 77.562574133744604, 13.1164004670362 ], [ 77.5625741346756, 13.116400467930401 ], [ 77.562567825797203, 13.116446864915501 ], [ 77.562836573325797, 13.117753057997 ], [ 77.563119078656996, 13.119385483227999 ], [ 77.5632638748788, 13.1205156077247 ], [ 77.5633903993903, 13.120938967200299 ], [ 77.563646098991896, 13.121439554551401 ], [ 77.563868483186695, 13.121874917557999 ], [ 77.564308029220498, 13.122927569017699 ], [ 77.564742049778204, 13.1241135322466 ], [ 77.564957101219804, 13.124628610678201 ], [ 77.565175115142097, 13.125151564360101 ], [ 77.565509533642597, 13.1259545539714 ], [ 77.568166679639504, 13.125297889527699 ], [ 77.568255216283106, 13.125280066122 ], [ 77.569572812553005, 13.1250049109237 ], [ 77.5698800755316, 13.126906974674601 ], [ 77.569938651647306, 13.127442807961399 ], [ 77.570279431230603, 13.1289108831575 ], [ 77.5704403968939, 13.1294863475953 ], [ 77.570717547173501, 13.130818411565 ], [ 77.570845492627598, 13.1310064341041 ], [ 77.570845492872806, 13.131006433574999 ], [ 77.570867911837794, 13.1310393798059 ], [ 77.5713165846675, 13.1332957538117 ], [ 77.571333620147797, 13.133935896851799 ], [ 77.571576442836403, 13.134625729313299 ], [ 77.571766471796394, 13.1352671500744 ], [ 77.571911271185996, 13.135973197965599 ], [ 77.571980189630395, 13.135976577531199 ], [ 77.572017587747098, 13.1359716861566 ], [ 77.5722271038873, 13.1358973146293 ], [ 77.572352449765802, 13.1361142880386 ], [ 77.572384417204105, 13.136251742690799 ], [ 77.572567540020302, 13.1362431343401 ], [ 77.572652870424903, 13.136249056169699 ], [ 77.572789049262397, 13.136324485610199 ], [ 77.572797440211303, 13.1363209071258 ], [ 77.572938182863297, 13.1362608815123 ], [ 77.573425532646596, 13.1360888669359 ], [ 77.573519095928404, 13.136387194404801 ], [ 77.573669658974595, 13.1369431548087 ], [ 77.573671293604903, 13.136949190578299 ], [ 77.573820555911894, 13.137726911883799 ], [ 77.573840356137794, 13.137857712209399 ], [ 77.573927517404599, 13.1384260056562 ], [ 77.573965871896803, 13.1386785843272 ], [ 77.573998197390594, 13.1390712563118 ], [ 77.573985612756601, 13.1395219722601 ], [ 77.573955140745198, 13.1396385951457 ], [ 77.573934179613303, 13.139728019623901 ], [ 77.574005485650204, 13.1404884522756 ], [ 77.574039624574297, 13.1409996822702 ], [ 77.574027342025801, 13.141203078916 ], [ 77.574399769543106, 13.1413359931221 ], [ 77.574380137406905, 13.1414423437735 ], [ 77.574250013486093, 13.1415610943218 ], [ 77.575142122071995, 13.141637982276899 ], [ 77.575176770019596, 13.141645540130501 ], [ 77.575211982277693, 13.141651963026799 ], [ 77.575606947771405, 13.141736089619799 ], [ 77.576080485772906, 13.141840884488399 ], [ 77.576724971450801, 13.141984618876799 ], [ 77.577269510766897, 13.142102250915601 ], [ 77.577327261407603, 13.142115223208499 ], [ 77.577793031707998, 13.142303660379101 ], [ 77.5782405426514, 13.1424538837838 ], [ 77.578658905206893, 13.142516313903601 ], [ 77.579195248616301, 13.1425662661131 ], [ 77.579999382426706, 13.1426598294128 ], [ 77.581213885621494, 13.1413353942434 ], [ 77.581397543510803, 13.1411573798104 ], [ 77.582383686057, 13.1401999963285 ], [ 77.5826980716013, 13.1389704269363 ], [ 77.582863701172201, 13.1382810242789 ], [ 77.582922089456403, 13.138134758988301 ], [ 77.582931023190596, 13.138107566228101 ], [ 77.583113653075301, 13.137666436738 ], [ 77.583191719451406, 13.137473672752799 ], [ 77.583389087410893, 13.136954474047 ], [ 77.583455256698699, 13.1367810275575 ], [ 77.583610357381801, 13.1364621380584 ], [ 77.583710642394095, 13.135805012344701 ], [ 77.583716048666204, 13.135771079293701 ], [ 77.583720878864199, 13.1357371520327 ], [ 77.583825771951794, 13.1353001916687 ], [ 77.5840331994346, 13.135191953493001 ], [ 77.584085527773496, 13.134521758396099 ], [ 77.584231870434607, 13.1342469992116 ], [ 77.584337444833594, 13.1340404072008 ], [ 77.584467509398706, 13.1338618012451 ], [ 77.584543627235803, 13.133758270692599 ], [ 77.584558285947693, 13.133727632507499 ], [ 77.584572956474005, 13.1336981234932 ], [ 77.584783244502006, 13.133257845042399 ], [ 77.584899600977295, 13.1330906696911 ], [ 77.585194050191802, 13.132820067701299 ], [ 77.585194051122997, 13.1328200685954 ], [ 77.585600617331906, 13.1326928879965 ], [ 77.585894649534396, 13.132767852023999 ], [ 77.585747596776301, 13.1333046138987 ], [ 77.586213200699106, 13.133313482433101 ], [ 77.586791538678497, 13.133359611729301 ], [ 77.587364675715605, 13.1333302224596 ], [ 77.587777915385004, 13.1333090316026 ], [ 77.588572214613706, 13.133292001652199 ], [ 77.589007121352793, 13.1332853641402 ], [ 77.589100009017201, 13.133297980224199 ], [ 77.591172770042306, 13.1332296694211 ], [ 77.594420192298102, 13.1329371867749 ], [ 77.596534593744295, 13.132775812240901 ], [ 77.598021442189903, 13.132326020544401 ], [ 77.598105261739803, 13.132298070922801 ], [ 77.599663336574096, 13.1317741479607 ], [ 77.601034435893595, 13.1333548213252 ], [ 77.601819964210605, 13.1341464008187 ], [ 77.6045169689218, 13.1341631345399 ], [ 77.604498248466498, 13.1338629373451 ], [ 77.60760823471, 13.1338167329929 ], [ 77.607573269381803, 13.133396998666599 ], [ 77.610406834767602, 13.133308394001601 ], [ 77.612010023312493, 13.1332401656837 ], [ 77.613863189305107, 13.1316426181548 ], [ 77.614563500847893, 13.131293330867701 ], [ 77.614925782674405, 13.131121386491101 ], [ 77.615206946541093, 13.131014634790301 ], [ 77.615709536579402, 13.1309812913646 ], [ 77.615709536569895, 13.1309812904613 ], [ 77.616966374664997, 13.1310136735506 ], [ 77.618528711131802, 13.1309525987275 ], [ 77.618570937265005, 13.1309528291352 ], [ 77.619539839822806, 13.1309581102532 ], [ 77.620509634873002, 13.130434415552299 ], [ 77.621916187751594, 13.129754944565599 ], [ 77.623059204624198, 13.129160591097399 ], [ 77.625028603084999, 13.128156913991401 ], [ 77.625981163510303, 13.1275317453113 ], [ 77.626179811557193, 13.1275218123636 ], [ 77.626383571763597, 13.127450847213399 ], [ 77.626659660073599, 13.1273554289413 ], [ 77.628242320613495, 13.1268254510705 ], [ 77.629172800643104, 13.1265087848764 ], [ 77.630484750919706, 13.1260391536838 ], [ 77.630584136715797, 13.125850681332301 ], [ 77.631429780595695, 13.124546779640401 ], [ 77.631826396982902, 13.123922763061399 ], [ 77.632252483692994, 13.123253274621799 ], [ 77.632688900596094, 13.1225802924076 ], [ 77.632756369411098, 13.122477124734999 ], [ 77.632791500525599, 13.1224234058697 ], [ 77.633252850585905, 13.1217117735327 ], [ 77.633541304068402, 13.121263896563301 ], [ 77.6344253062896, 13.119886196414701 ], [ 77.634564143323701, 13.1196702175732 ], [ 77.6351254178403, 13.1188220506834 ], [ 77.635654121154602, 13.117999060238001 ], [ 77.636299707122404, 13.1169546686223 ], [ 77.636410138185298, 13.1167762454754 ], [ 77.636832615893198, 13.116148572733501 ], [ 77.636998208200495, 13.115902958753001 ], [ 77.637203482194494, 13.115597088036701 ], [ 77.637273810706603, 13.115493605945 ], [ 77.637302705150802, 13.115448139994299 ], [ 77.637369013617899, 13.1153458283229 ], [ 77.638714455198297, 13.113271164530699 ], [ 77.638400108114894, 13.1120999683499 ], [ 77.638274752122697, 13.111634873417801 ], [ 77.638070187261604, 13.1108724683054 ], [ 77.637877314281198, 13.109913008425201 ], [ 77.637830510129703, 13.109680178795401 ], [ 77.637505143562095, 13.1083927799297 ], [ 77.637183312885, 13.1072205271476 ], [ 77.637023814892899, 13.1064158761278 ], [ 77.636990955411406, 13.1062513421132 ], [ 77.638018034518097, 13.1061967853539 ], [ 77.638278760725598, 13.106176047212401 ], [ 77.638545246631494, 13.106155249818601 ], [ 77.639337703703106, 13.1059766152718 ], [ 77.639924272230999, 13.1058294489092 ], [ 77.640031235513305, 13.105812543280599 ], [ 77.640116420017407, 13.105806024034599 ], [ 77.640833521953098, 13.105745599142599 ], [ 77.6408675046181, 13.1057452507708 ], [ 77.640901499330297, 13.1057460315171 ], [ 77.641256320597094, 13.1056362446589 ], [ 77.641404440619198, 13.1055895561196 ], [ 77.641922910897094, 13.105484865878401 ], [ 77.642286101355396, 13.1055116305615 ], [ 77.642928133738707, 13.1054881058541 ], [ 77.643075118886202, 13.105550964769201 ], [ 77.643213989358699, 13.1055551861471 ], [ 77.643803655603307, 13.105752399073999 ], [ 77.6441227794149, 13.105698307770799 ], [ 77.644208479163794, 13.105686135688 ], [ 77.645109274116095, 13.105566222151401 ], [ 77.645759784290604, 13.1054737195656 ], [ 77.647254087736897, 13.1052641387846 ], [ 77.648167500675001, 13.1051395684357 ], [ 77.649066597359493, 13.105023046891001 ], [ 77.649928830429104, 13.1049069015366 ], [ 77.650443296796496, 13.1048056238927 ], [ 77.650322473974697, 13.1044963263219 ], [ 77.649544564092096, 13.1027494901279 ], [ 77.649556127437805, 13.102538203486001 ], [ 77.649560022171897, 13.1024715383219 ], [ 77.6493399588785, 13.102039043942799 ], [ 77.649119574220904, 13.101630266561401 ], [ 77.649112908676798, 13.101384160839601 ], [ 77.6490698327991, 13.1010729335098 ], [ 77.648842143922806, 13.100519688001601 ], [ 77.648776915900299, 13.1003453262508 ], [ 77.648564610454201, 13.0997761127595 ], [ 77.648396183078205, 13.099323889011 ], [ 77.648225992361205, 13.0988682954255 ], [ 77.648154272906197, 13.098679319913099 ], [ 77.647706030597305, 13.098077522640899 ], [ 77.647633747975505, 13.097889681887301 ], [ 77.647533071234093, 13.097632119789001 ], [ 77.6475126920907, 13.0975577991903 ], [ 77.6472976283912, 13.096899453345999 ], [ 77.647095488189194, 13.096248776085201 ], [ 77.646734009659298, 13.0950871100175 ], [ 77.646119142779099, 13.0939303019668 ], [ 77.645101279056803, 13.091605470937001 ], [ 77.644488874359894, 13.090353774035201 ], [ 77.643350983028697, 13.088221003198599 ], [ 77.642829539215597, 13.087071128212299 ], [ 77.642752485048007, 13.086759116550001 ], [ 77.643282410883003, 13.086652054797501 ], [ 77.643584185005395, 13.086593629317001 ], [ 77.644992269465604, 13.0864109378377 ], [ 77.646130808569296, 13.086338282197399 ], [ 77.646524471106602, 13.0861467894509 ], [ 77.646597158089605, 13.0851861873247 ], [ 77.646602555720605, 13.0851522546656 ], [ 77.646495235124902, 13.085026880416001 ], [ 77.646101400513601, 13.084338694051601 ], [ 77.645519913693306, 13.0833915754943 ], [ 77.645122016708299, 13.082969929893199 ], [ 77.644551167483002, 13.0823174316465 ], [ 77.644460992342701, 13.082125254953301 ], [ 77.6438005251741, 13.080954219817301 ], [ 77.643286763799395, 13.080036888833 ], [ 77.642809194671102, 13.0791643553453 ], [ 77.642528445735294, 13.0786545520173 ], [ 77.642298510722398, 13.078156649696099 ], [ 77.642146389175295, 13.077826208302399 ], [ 77.641690161605894, 13.0774424168261 ], [ 77.641513618072096, 13.077294466339 ], [ 77.6414199220673, 13.0772159450828 ], [ 77.640973693717498, 13.0769596546274 ], [ 77.640237295359896, 13.0769310517272 ], [ 77.639558880393096, 13.076668099197599 ], [ 77.6390155607004, 13.076001750673401 ], [ 77.638308528775696, 13.075159781252699 ], [ 77.639490911574399, 13.074935396447801 ], [ 77.639440505301394, 13.0732221952612 ], [ 77.639440391325195, 13.0732183244554 ], [ 77.639481046777703, 13.071571462960501 ], [ 77.6394979474466, 13.070872284677501 ], [ 77.639503845539096, 13.0706283064627 ], [ 77.639527268762606, 13.069689660557 ], [ 77.639362568686593, 13.068879413084201 ], [ 77.639022760857699, 13.0675797305363 ], [ 77.638727399599802, 13.06664494512 ], [ 77.638695556109099, 13.0665441627125 ], [ 77.638567598787105, 13.065288613596699 ], [ 77.638526242600406, 13.0648113628529 ], [ 77.638361312340294, 13.0636533063394 ], [ 77.638345152721001, 13.062782818712501 ], [ 77.638282778733398, 13.0623328843295 ], [ 77.638234885723406, 13.0619991149226 ], [ 77.638195379536, 13.061533137442799 ], [ 77.638182088864696, 13.060824103233999 ], [ 77.638172792202994, 13.060491068956001 ], [ 77.638156406270298, 13.0599243519681 ], [ 77.638157427374097, 13.0596408994087 ], [ 77.638171563611905, 13.058965462679399 ], [ 77.638354192946494, 13.0576694763083 ], [ 77.638358764825895, 13.057503429669699 ], [ 77.638336192163493, 13.0565166941792 ], [ 77.638308641104203, 13.055603410761201 ], [ 77.638296767101906, 13.055190225805701 ], [ 77.638185964712704, 13.0548435469338 ], [ 77.638153250443906, 13.0546372276574 ], [ 77.638339338012301, 13.0545348253717 ], [ 77.638312958163098, 13.054328441488501 ], [ 77.638182001830302, 13.0539277640897 ], [ 77.638120218213103, 13.0538041767721 ], [ 77.638066056639204, 13.0535379214583 ], [ 77.638031504505093, 13.053368061364999 ], [ 77.637949704761894, 13.052963433857601 ], [ 77.637885016973101, 13.0526434466771 ], [ 77.637807918098403, 13.052162042435 ], [ 77.637794195457005, 13.0520086040941 ], [ 77.637779981557799, 13.051808871410699 ], [ 77.637796263280904, 13.0516607732679 ], [ 77.638428059178906, 13.051553824555199 ], [ 77.638362453105003, 13.051070044818401 ], [ 77.638295760010706, 13.050783593466299 ], [ 77.638135567376906, 13.050095556284999 ], [ 77.638333923870206, 13.0500641723194 ], [ 77.638259809694304, 13.0498639214871 ], [ 77.638159496296595, 13.049528427581899 ], [ 77.638135719778802, 13.049427251508201 ], [ 77.638090134507905, 13.049233270971101 ], [ 77.638003706575205, 13.048578056844899 ], [ 77.637876080521707, 13.048056514524101 ], [ 77.637838460316502, 13.0477889978963 ], [ 77.637780776942606, 13.0473788055561 ], [ 77.637700808639707, 13.0471593606916 ], [ 77.637557744183098, 13.0467667661809 ], [ 77.637314440666998, 13.046035232205901 ], [ 77.6372308695328, 13.045540341967101 ], [ 77.637165555976296, 13.0451074584774 ], [ 77.637101407396898, 13.0446822997857 ], [ 77.637089254507202, 13.044133606468099 ], [ 77.637117664135602, 13.0434998057058 ], [ 77.637177853775796, 13.043364811097399 ], [ 77.637277494427096, 13.042931291497 ], [ 77.637290190316804, 13.042810270554099 ], [ 77.637343393171193, 13.042845925847599 ], [ 77.637556052936006, 13.042969105399401 ], [ 77.637650464553403, 13.0430200886795 ], [ 77.637745031870395, 13.04308575062 ], [ 77.637829798088305, 13.043150383178901 ], [ 77.637906731230999, 13.0431823472235 ], [ 77.638007885330396, 13.043217452068101 ], [ 77.638071874720495, 13.043223575203999 ], [ 77.638202588950705, 13.043222242504701 ], [ 77.638309933531801, 13.0432437330727 ], [ 77.638383915706996, 13.0432689515322 ], [ 77.638470866578103, 13.043268064922501 ], [ 77.638586716923101, 13.043277046859799 ], [ 77.638636286519599, 13.0432810583882 ], [ 77.639065125893893, 13.0433162087645 ], [ 77.639262636732397, 13.0433141942412 ], [ 77.639381030729695, 13.043291530820801 ], [ 77.6397583105054, 13.0431894372801 ], [ 77.640086512283602, 13.0430754222263 ], [ 77.640391080605596, 13.042959389464899 ], [ 77.640462568151904, 13.042912360709799 ], [ 77.640551546846595, 13.042831275927901 ], [ 77.640647771547293, 13.042727532167699 ], [ 77.640722498186506, 13.042660143795301 ], [ 77.640794321232306, 13.042644730565801 ], [ 77.640934871950407, 13.042647813155799 ], [ 77.641010341772301, 13.0426504306564 ], [ 77.641075326744897, 13.042641862645 ], [ 77.641118334224103, 13.0426244849328 ], [ 77.641214510291405, 13.0425704285226 ], [ 77.641326485836302, 13.042485721060499 ], [ 77.641390811278001, 13.0424150509574 ], [ 77.641429452443703, 13.042311894769799 ], [ 77.641455965785994, 13.042097066624301 ], [ 77.641468335186005, 13.0419060971064 ], [ 77.641470603148093, 13.0417942782016 ], [ 77.641459950787805, 13.0417130809296 ], [ 77.641409986244796, 13.0416176046676 ], [ 77.641375052882793, 13.0415818252261 ], [ 77.641347509384602, 13.041536936350401 ], [ 77.641315899492298, 13.041434497213601 ], [ 77.641299728717598, 13.0413759412491 ], [ 77.641303339904994, 13.0413363806341 ], [ 77.641318023695206, 13.0413091287601 ], [ 77.641335550654205, 13.0412784601164 ], [ 77.641354433076202, 13.041266974890799 ], [ 77.641393505427899, 13.041258671343 ], [ 77.641394645445303, 13.0412033264498 ], [ 77.641400452740001, 13.0410451721551 ], [ 77.641444889830098, 13.040674324556701 ], [ 77.641454691961798, 13.040512741740599 ], [ 77.641464722258902, 13.0403184083415 ], [ 77.6414615577159, 13.039966114586299 ], [ 77.6414719225574, 13.0399660088024 ], [ 77.641458454039693, 13.0395110584313 ], [ 77.641648247989295, 13.039487665635701 ], [ 77.641737788691003, 13.0394596497332 ], [ 77.641808351182405, 13.0394340860138 ], [ 77.641868717021595, 13.039370231860699 ], [ 77.641977596130502, 13.0392652295098 ], [ 77.642167486791493, 13.0390340534501 ], [ 77.642368436912193, 13.0389766688339 ], [ 77.642959637854503, 13.038954823218001 ], [ 77.643574998919505, 13.0389304710122 ], [ 77.643709261218604, 13.0389381336848 ], [ 77.643765403808302, 13.0389646622009 ], [ 77.643768294911695, 13.038965761919 ], [ 77.643793259039199, 13.0388762963102 ], [ 77.643806502848904, 13.0388219571145 ], [ 77.643813484545504, 13.0387202534518 ], [ 77.643819590484895, 13.038590327526 ], [ 77.643836972941202, 13.0384919053741 ], [ 77.643919986770996, 13.038337479682101 ], [ 77.643932102902994, 13.038285410503301 ], [ 77.643981611214699, 13.038175367725101 ], [ 77.644028288387702, 13.0380698708562 ], [ 77.644071378636994, 13.037951988894701 ], [ 77.644110474121106, 13.0378375354823 ], [ 77.644137621376899, 13.0377367550957 ], [ 77.644154631767506, 13.0376033300595 ], [ 77.644192779064596, 13.0372370640049 ], [ 77.644232390095198, 13.0370085512752 ], [ 77.644245561798499, 13.0369474373342 ], [ 77.644267298666605, 13.036825256506701 ], [ 77.644287056205599, 13.0367335855967 ], [ 77.644339419078193, 13.0365128473571 ], [ 77.644393797290505, 13.0363191904872 ], [ 77.644421028368399, 13.0362263139922 ], [ 77.6444627268761, 13.036194269106099 ], [ 77.644687186333798, 13.0361276090581 ], [ 77.644762473990795, 13.0361132889582 ], [ 77.6448322793145, 13.036070793654901 ], [ 77.644907218936197, 13.036023728891999 ], [ 77.644929231478699, 13.0359275179541 ], [ 77.644939679932804, 13.035881112055799 ], [ 77.644883430032607, 13.0358444215542 ], [ 77.6432313241001, 13.035906464579099 ], [ 77.643176155904101, 13.0353751515237 ], [ 77.643176611801394, 13.035363854378501 ], [ 77.643177111378293, 13.035334806798399 ], [ 77.643157672372197, 13.0353254433636 ], [ 77.643249788514694, 13.0341539760401 ], [ 77.643267934464006, 13.0340671222796 ], [ 77.643098720387897, 13.0340612502862 ], [ 77.642548655141994, 13.0340520517512 ], [ 77.642376177276503, 13.0340301094864 ], [ 77.642303350299301, 13.034001224788801 ], [ 77.6421853718698, 13.033997051687001 ], [ 77.641715605187997, 13.034143508990701 ], [ 77.641278937392997, 13.034284254465801 ], [ 77.641176536510798, 13.0343272873101 ], [ 77.641176536510798, 13.0343272873101 ], [ 77.641099269920105, 13.034317912222701 ], [ 77.641032416595394, 13.034258743852799 ], [ 77.6408801426427, 13.0339644332551 ], [ 77.640768883403297, 13.0336821259644 ], [ 77.640445523759396, 13.0333285801701 ], [ 77.640166790739499, 13.0329474767496 ], [ 77.640114873124901, 13.032884767992 ], [ 77.639917711179194, 13.032647376700099 ], [ 77.639892040337898, 13.0326160193506 ], [ 77.639851902454893, 13.032578033968701 ], [ 77.639806367862704, 13.032465572957999 ], [ 77.639756483505096, 13.032330353510099 ], [ 77.639648653333197, 13.0320380648404 ], [ 77.639656007127797, 13.032025568107001 ], [ 77.639599535890497, 13.031750606173601 ], [ 77.639397555974696, 13.0313845285434 ], [ 77.639122590560603, 13.031141153698901 ], [ 77.638524606301203, 13.0306300488243 ], [ 77.638188045007496, 13.0303342252643 ], [ 77.637992985381899, 13.0301318172172 ], [ 77.637916311011097, 13.0300151557764 ], [ 77.637873380197107, 13.029930898989999 ], [ 77.637822282143802, 13.0297823579003 ], [ 77.637744437411996, 13.0295008372151 ], [ 77.637742073513806, 13.029475126946499 ], [ 77.637605153391505, 13.027985667367499 ], [ 77.637328196030097, 13.027934283096499 ], [ 77.637136851508302, 13.0279192923403 ], [ 77.637030292874698, 13.027916989378101 ], [ 77.636948433800498, 13.0279087886626 ], [ 77.636944967051605, 13.0279076946986 ], [ 77.636728757519293, 13.0278285892217 ], [ 77.636654037158706, 13.027787567347501 ], [ 77.636580167570798, 13.027772509653399 ], [ 77.636354141668605, 13.0277996537231 ], [ 77.636047258416497, 13.027866322284501 ], [ 77.636010566917605, 13.027874293295801 ], [ 77.635666953847903, 13.027999749347501 ], [ 77.635039633577406, 13.0282523093809 ], [ 77.634911660177394, 13.028294264409 ], [ 77.634876608023802, 13.0283013965026 ], [ 77.634276893417905, 13.0284418777171 ], [ 77.633744451148601, 13.0285726395916 ], [ 77.633496335020993, 13.028689217298 ], [ 77.633495954379896, 13.028688771271799 ], [ 77.633003033889807, 13.028110405885799 ], [ 77.632715570857599, 13.0277734209852 ], [ 77.632762007758799, 13.027753751638601 ], [ 77.633887227945905, 13.0272623786874 ], [ 77.634069447069294, 13.027198984108599 ], [ 77.634973907541394, 13.026884319273901 ], [ 77.635815444890497, 13.0266318390414 ], [ 77.636986143659996, 13.0263579380255 ], [ 77.637150438482195, 13.0263201294976 ], [ 77.639011595044494, 13.025992891206 ], [ 77.639649648517903, 13.025884758228299 ], [ 77.639936983744406, 13.0257745514986 ], [ 77.6401153610027, 13.025707237177601 ], [ 77.640555990444497, 13.025499481251501 ], [ 77.642753473743596, 13.024552618640501 ], [ 77.643119485015205, 13.024394907855299 ], [ 77.643322034698897, 13.024304061741001 ], [ 77.644487524621098, 13.0237813176392 ], [ 77.645206624422499, 13.023471834997499 ], [ 77.646411847363197, 13.0229531299527 ], [ 77.647394917801407, 13.0225246897483 ], [ 77.647846855691, 13.0223277263927 ], [ 77.647913605066904, 13.0222986352272 ], [ 77.650543884023804, 13.0211374307304 ], [ 77.651270544311103, 13.020816621971701 ], [ 77.652745270580695, 13.020168026462001 ], [ 77.654675792529702, 13.0194413553139 ], [ 77.655633922535301, 13.0190577618296 ], [ 77.6573441055546, 13.0182972749431 ], [ 77.657344106466198, 13.018297274030401 ], [ 77.658017504468901, 13.0179978230155 ], [ 77.658017504315893, 13.0179978226833 ], [ 77.658565969117404, 13.0177539248345 ], [ 77.660370736245895, 13.016956236053 ], [ 77.660535220760707, 13.016883406138399 ], [ 77.661523638698299, 13.016480286359901 ], [ 77.661707122542694, 13.0164072607612 ], [ 77.661797920893704, 13.016336315940499 ], [ 77.661935856138896, 13.0162039084213 ], [ 77.662016908565704, 13.0160291740109 ], [ 77.662054492604994, 13.0158819875679 ], [ 77.662094858942496, 13.015725738678899 ], [ 77.662159738394706, 13.015061082435 ], [ 77.662205943361499, 13.0144007834744 ], [ 77.662255657455802, 13.0136903357643 ], [ 77.662282666862495, 13.0131999705455 ], [ 77.662282630691607, 13.0131965832124 ], [ 77.662289844269694, 13.0130632594418 ], [ 77.662310610841004, 13.0126892695069 ], [ 77.662327772132002, 13.012409043078801 ], [ 77.662297616062105, 13.012389026448201 ], [ 77.661797642123801, 13.0120497421438 ], [ 77.661684864536795, 13.0120034718085 ], [ 77.660858996084997, 13.011719474868499 ], [ 77.660024468714496, 13.011433305281001 ], [ 77.6595142968132, 13.011217207081501 ], [ 77.6589053091474, 13.010914040271899 ], [ 77.658454176255603, 13.010672491082399 ], [ 77.658168213500403, 13.010475533384501 ], [ 77.658131076941601, 13.0104499550635 ], [ 77.657495698809697, 13.009993478231101 ], [ 77.656202950485394, 13.0090694513764 ], [ 77.656101184786195, 13.0089756373042 ], [ 77.656079065937902, 13.008953278995101 ], [ 77.655587126313605, 13.008447899151699 ], [ 77.655013358580106, 13.007828172916399 ], [ 77.654973163516402, 13.007784543899399 ], [ 77.654621172189394, 13.007389523942701 ], [ 77.654217903938303, 13.0069374365888 ], [ 77.654085612598607, 13.0067886008668 ], [ 77.653855600628802, 13.006601241230999 ], [ 77.653686570342003, 13.006462944229 ], [ 77.653525096936093, 13.0063313452439 ], [ 77.6534646793787, 13.0062811472778 ], [ 77.6533508733242, 13.006191971828001 ], [ 77.653174910668298, 13.0060514867995 ], [ 77.652876434320603, 13.0058151394751 ], [ 77.652543038510004, 13.0058693461941 ], [ 77.651831430328897, 13.0059850461769 ], [ 77.651261806677297, 13.006078948923101 ], [ 77.651568297107502, 13.006690125476499 ], [ 77.651465695183106, 13.0067340854121 ], [ 77.651388809637794, 13.006759714580101 ], [ 77.651323918671906, 13.0067761871898 ], [ 77.651264185382402, 13.006790348586 ], [ 77.651188343269297, 13.0068058038377 ], [ 77.6511056042212, 13.006822458794099 ], [ 77.651088355917295, 13.0068248935452 ], [ 77.6509698847496, 13.0068385258735 ], [ 77.650864271906102, 13.0068700946763 ], [ 77.650844768615201, 13.006877069432999 ], [ 77.650740990950297, 13.006918782642099 ], [ 77.650634334523602, 13.006960525229401 ], [ 77.6506154196815, 13.0069697316705 ], [ 77.650461335638994, 13.007044727659199 ], [ 77.650384114041998, 13.007092944899201 ], [ 77.6502268280165, 13.007192796103899 ], [ 77.650042625787606, 13.0073064731399 ], [ 77.649953961082304, 13.0073615826485 ], [ 77.649736773154999, 13.0074597870247 ], [ 77.649678155054005, 13.0074705489724 ], [ 77.649573441307496, 13.007478393981501 ], [ 77.6495090057618, 13.0074835690816 ], [ 77.649303704368407, 13.0075082507547 ], [ 77.649071378812906, 13.0075365959772 ], [ 77.648969015920699, 13.007548933728501 ], [ 77.648857956862997, 13.0075557140061 ], [ 77.648615147801294, 13.0075728734178 ], [ 77.648568536323594, 13.0075756078128 ], [ 77.648379739445005, 13.007582052325599 ], [ 77.647981994441295, 13.007595146640201 ], [ 77.647981287217206, 13.007528528284499 ], [ 77.647849752889101, 13.007559231324599 ], [ 77.646704443208094, 13.0079909993685 ], [ 77.646624583250102, 13.0078992158207 ], [ 77.646548237743104, 13.007813042622701 ], [ 77.646485002705504, 13.0077143139093 ], [ 77.646378419671393, 13.007546013989399 ], [ 77.646350448373795, 13.00751468038 ], [ 77.646288664475094, 13.007444167996301 ], [ 77.6462417893772, 13.0074220611949 ], [ 77.646178109813405, 13.007389962561801 ], [ 77.646096342543103, 13.007335463436499 ], [ 77.646070074588806, 13.007301853914001 ], [ 77.645845142332803, 13.0069958632072 ], [ 77.645792570650102, 13.0069252566987 ], [ 77.645527784781606, 13.0063904344557 ], [ 77.645474864130307, 13.006395491093899 ], [ 77.645193948370306, 13.0064028724608 ], [ 77.645112780257406, 13.006404829288 ], [ 77.644971686731296, 13.006402880047 ], [ 77.644861107699697, 13.0064006196438 ], [ 77.644764358523005, 13.0063993474567 ], [ 77.644548886058203, 13.0063879929683 ], [ 77.6445131478837, 13.0063838782059 ], [ 77.644233534301407, 13.006351683558799 ], [ 77.644145373411405, 13.0063458066008 ], [ 77.643541477319204, 13.0063034029726 ], [ 77.643463715736502, 13.0063008075642 ], [ 77.643363476132095, 13.006296182656699 ], [ 77.643177798811294, 13.006270972404799 ], [ 77.643157611813095, 13.0062677903184 ], [ 77.642852527805303, 13.0062223405409 ], [ 77.642711794589999, 13.006200059848 ], [ 77.642557332225905, 13.0061858625221 ], [ 77.642302572373097, 13.006162445658701 ], [ 77.642277203666893, 13.0061593162738 ], [ 77.641945179264198, 13.006125432267201 ], [ 77.641637935868701, 13.0060935540022 ], [ 77.641094493028405, 13.006050528926201 ], [ 77.641012512226197, 13.0060369135517 ], [ 77.640674008901499, 13.0059825368799 ], [ 77.640110574612507, 13.005845985087401 ], [ 77.639700337009401, 13.005712390347099 ], [ 77.639200345434404, 13.005531149953301 ], [ 77.638819937418106, 13.0054412911327 ], [ 77.638634176964999, 13.0054081734792 ], [ 77.638541457965601, 13.005406857901299 ], [ 77.638463156496798, 13.005407654184101 ], [ 77.638311219218394, 13.0054148455109 ], [ 77.638068019558901, 13.0054376341809 ], [ 77.638067905583299, 13.005437572101499 ], [ 77.638007081908995, 13.0054043869546 ], [ 77.637593492048396, 13.005171448110801 ], [ 77.637458089852203, 13.0050542526781 ], [ 77.6374522607736, 13.0050475363964 ], [ 77.637448170869206, 13.005041931691499 ], [ 77.637412692279497, 13.005008414656 ], [ 77.637330473686504, 13.004911005121601 ], [ 77.637302745319005, 13.0048764668086 ], [ 77.637254036484507, 13.0048157952977 ], [ 77.637140754516096, 13.004666755626801 ], [ 77.636974482575994, 13.0045142929867 ], [ 77.636832590430501, 13.0043841856457 ], [ 77.636650747630995, 13.0042313253653 ], [ 77.6366460842534, 13.0042270716395 ], [ 77.636350740480594, 13.0039577057744 ], [ 77.636339025852095, 13.0038844231001 ], [ 77.636423075535603, 13.0038282355594 ], [ 77.636439676646006, 13.0038190328327 ], [ 77.636506057211193, 13.0037799636467 ], [ 77.636586183998901, 13.003733979234401 ], [ 77.636737801333197, 13.0036420981072 ], [ 77.637126845279596, 13.0034076995393 ], [ 77.637214411454096, 13.0033549406222 ], [ 77.637436629674298, 13.0032420150382 ], [ 77.6377023652757, 13.003106061845299 ], [ 77.638086871624495, 13.002909986411799 ], [ 77.638445749033707, 13.002726979556099 ], [ 77.638526438844593, 13.0026798596865 ], [ 77.638565675366394, 13.0026331612841 ], [ 77.638593793727907, 13.0025696370987 ], [ 77.638605851074104, 13.0025119224929 ], [ 77.638675695829406, 13.002256000679999 ], [ 77.638747369911499, 13.002118632045599 ], [ 77.638801867304295, 13.001990472099299 ], [ 77.6388683357427, 13.0018508978768 ], [ 77.638908293714493, 13.001763538943401 ], [ 77.638959465301795, 13.0017020388446 ], [ 77.639049992564296, 13.0016051316437 ], [ 77.639192878535596, 13.001450099989601 ], [ 77.639244494373102, 13.001376173539001 ], [ 77.6394691182538, 13.0010554393945 ], [ 77.639619989042302, 13.000801561588499 ], [ 77.639619989458794, 13.000801561807201 ], [ 77.639654112372497, 13.0007441431493 ], [ 77.640065172952902, 12.999976586399599 ], [ 77.640065172022105, 12.9999765855056 ], [ 77.640078726845104, 12.9999516040427 ], [ 77.640431559916706, 12.999286272217599 ], [ 77.640469190247202, 12.999196678373499 ], [ 77.640492979130798, 12.999104966824 ], [ 77.640527754660994, 12.999017660527301 ], [ 77.640579682626395, 12.9989188872058 ], [ 77.640652924508402, 12.998821026309701 ], [ 77.6406963478493, 12.9987347612864 ], [ 77.640749594402493, 12.998651784088199 ], [ 77.640962040404702, 12.998323268502499 ], [ 77.641310940112902, 12.997830752012799 ], [ 77.6421027285962, 12.996695700464301 ], [ 77.642149796709006, 12.996627466293001 ], [ 77.642682921557196, 12.9958609241004 ], [ 77.642706659669003, 12.995818900147199 ], [ 77.642719158227493, 12.9958029633975 ], [ 77.642369384222505, 12.9957771628542 ], [ 77.641324340653, 12.9957776332616 ], [ 77.641231546427207, 12.995387855592901 ], [ 77.6411775360843, 12.995398568299001 ], [ 77.640659469450696, 12.9956838927733 ], [ 77.640448769292703, 12.994870714216599 ], [ 77.640047957376098, 12.9949188308054 ], [ 77.639883769380106, 12.9949103368909 ], [ 77.639541525537993, 12.9949431769346 ], [ 77.639471899044906, 12.9949472725025 ], [ 77.639471899090907, 12.994947273405399 ], [ 77.639372299225599, 12.9949482858772 ], [ 77.639196295501193, 12.9949658845026 ], [ 77.639027836705097, 12.994989052603399 ], [ 77.638878411561095, 12.995015414921401 ], [ 77.638705718825406, 12.995019428511 ], [ 77.637939055577604, 12.995100620384299 ], [ 77.637919523551503, 12.9947778515591 ], [ 77.637901131818396, 12.994235995424001 ], [ 77.638056807069006, 12.9942016654438 ], [ 77.637962350357597, 12.9938175487028 ], [ 77.637889605417001, 12.9936353481867 ], [ 77.637471390461499, 12.9936712154842 ], [ 77.637439801910901, 12.993406161009499 ], [ 77.637413892514701, 12.9932426819389 ], [ 77.637405021529801, 12.9931659825794 ], [ 77.637369609240295, 12.9928659599382 ], [ 77.637340031068703, 12.992682191473399 ], [ 77.636326455961495, 12.9928810691016 ], [ 77.634818304976605, 12.9931911119606 ], [ 77.634542721909199, 12.9932661805599 ], [ 77.634468655618804, 12.993286129383 ], [ 77.634115377856801, 12.993310039843999 ], [ 77.632957742525505, 12.993553278384599 ], [ 77.632579150640794, 12.993633906545901 ], [ 77.631912896103202, 12.9937908519495 ], [ 77.631874969831003, 12.993798011919299 ], [ 77.631842733262403, 12.9938037771715 ], [ 77.6316339818177, 12.993841100475599 ], [ 77.631633981586305, 12.993841099612 ], [ 77.631607159134703, 12.993845895717101 ], [ 77.631282494802605, 12.9938995427504 ], [ 77.631282495335896, 12.9938995446149 ], [ 77.630441476245494, 12.994038402158401 ], [ 77.630441476022895, 12.994038401290201 ], [ 77.630339183862702, 12.994055234526201 ], [ 77.629097795604906, 12.994274461682201 ], [ 77.628891886526702, 12.9941862053576 ], [ 77.6290801689604, 12.9943503008052 ], [ 77.629133682556699, 12.9944017050878 ], [ 77.629151334764103, 12.9944376627819 ], [ 77.629154605735906, 12.994474895353999 ], [ 77.628120485243201, 12.994663782559501 ], [ 77.627843431108801, 12.994714387051699 ], [ 77.627675373535595, 12.994745082832701 ], [ 77.626951929888094, 12.9949398610507 ], [ 77.626231897833605, 12.9951854198993 ], [ 77.6260976875854, 12.995245798213499 ], [ 77.6254255761406, 12.9955481639882 ], [ 77.625050402529695, 12.995790232682101 ], [ 77.624616681629306, 12.996049831830501 ], [ 77.624153282568898, 12.9964441131995 ], [ 77.623163498874703, 12.99732139356 ], [ 77.622395422909506, 12.9979981420898 ], [ 77.621741201074499, 12.998574569465699 ], [ 77.621643455157695, 12.998661752430399 ], [ 77.621181507719399, 12.999073776629199 ], [ 77.620182708872306, 12.999964627356601 ], [ 77.620111757125599, 12.9998975873667 ], [ 77.6199540411491, 12.9997930279496 ], [ 77.619897191766896, 12.999752948028499 ], [ 77.619427297703695, 12.9994200384787 ], [ 77.619412797525598, 12.9994100213677 ], [ 77.619340398411694, 12.999314763927099 ], [ 77.619227711493906, 12.9991115029528 ], [ 77.619119410407905, 12.9989420757797 ], [ 77.618976529549798, 12.998769609606599 ], [ 77.618854077000805, 12.998678244773 ], [ 77.618397003931307, 12.9984694232802 ], [ 77.618386017504506, 12.9984650170106 ], [ 77.618001997448005, 12.9983040165124 ], [ 77.617936150014401, 12.9982843536872 ], [ 77.617816157770307, 12.998098104554099 ], [ 77.617752947794699, 12.9980004952725 ], [ 77.617750597475805, 12.9979960018832 ], [ 77.617509133843399, 12.9974823590751 ], [ 77.617394307816696, 12.9972395938809 ], [ 77.617371214785706, 12.997178845972799 ], [ 77.617211445050003, 12.996768272077199 ], [ 77.617009638814906, 12.996247452935201 ], [ 77.6168315138748, 12.9957885048247 ], [ 77.616780435073196, 12.9957494950668 ], [ 77.616911670353403, 12.995635245028501 ], [ 77.616996180631702, 12.995567766108 ], [ 77.617345259149502, 12.9953621075275 ], [ 77.617427817102794, 12.995273191997599 ], [ 77.617598630967905, 12.995089657082399 ], [ 77.617634826737799, 12.995027182176299 ], [ 77.617930179876694, 12.9945228291012 ], [ 77.617990064212705, 12.9944205691202 ], [ 77.618272506679901, 12.9939005145648 ], [ 77.618706396826497, 12.993052573074101 ], [ 77.618861173792993, 12.992767564986799 ], [ 77.619202548367397, 12.992102368966499 ], [ 77.619358312715306, 12.991692001669801 ], [ 77.619397273328502, 12.9913991273867 ], [ 77.619478850124807, 12.990832539585 ], [ 77.619510155966907, 12.9904685984122 ], [ 77.619554424767003, 12.989858345311699 ], [ 77.619547801464606, 12.9896111016341 ], [ 77.619546356497196, 12.989577237155499 ], [ 77.619512686498794, 12.9887882167389 ], [ 77.619495995097196, 12.9884044326819 ], [ 77.619475035509893, 12.988272519241701 ], [ 77.619430012922507, 12.9879872674697 ], [ 77.619306630488097, 12.9872025382851 ], [ 77.619078987072996, 12.9871822478938 ], [ 77.618780760904301, 12.987404333077199 ], [ 77.618518342628093, 12.987582015457299 ], [ 77.618230206120998, 12.9877780252032 ], [ 77.618227926928697, 12.9877803067195 ], [ 77.617316652320397, 12.988607297505499 ], [ 77.617300532719895, 12.9886219263641 ], [ 77.617262302735, 12.988655060479701 ], [ 77.617204581155605, 12.9886962958885 ], [ 77.616656296262306, 12.9890123697344 ], [ 77.615788248183804, 12.9894739515438 ], [ 77.615739607589802, 12.989502673231801 ], [ 77.614995580522304, 12.989931384295501 ], [ 77.614040763347504, 12.990520313830499 ], [ 77.613967192263004, 12.990587681550201 ], [ 77.613957499502206, 12.990596813307199 ], [ 77.613859054094206, 12.990653138578899 ], [ 77.613406429950103, 12.9908677386916 ], [ 77.613289691057602, 12.990936669901201 ], [ 77.613046496616406, 12.991081405615301 ], [ 77.612592683903401, 12.9912926286919 ], [ 77.612419862921001, 12.9913395381807 ], [ 77.612214907487598, 12.9913969342696 ], [ 77.611772026338997, 12.99149737696 ], [ 77.611506729845701, 12.991583315870001 ], [ 77.611451821733397, 12.991601102571799 ], [ 77.611158607874202, 12.9917531154353 ], [ 77.611099121804102, 12.991790979691 ], [ 77.610783973435005, 12.9919929009921 ], [ 77.610282869280496, 12.992307360448899 ], [ 77.609777201939295, 12.9927052437719 ], [ 77.609485053088505, 12.992935352644 ], [ 77.609168165128494, 12.9931914953684 ], [ 77.608951369002995, 12.993383392557901 ], [ 77.608891247442102, 12.993415616417099 ], [ 77.608815099731402, 12.9934570355089 ], [ 77.608683915330403, 12.993466258351599 ], [ 77.608496884856393, 12.9934760421127 ], [ 77.608296048552901, 12.993487093692 ], [ 77.607726872905801, 12.993514266374699 ], [ 77.607535953579898, 12.993537639880101 ], [ 77.607404120506899, 12.9934847581379 ], [ 77.607355509378706, 12.993406196543701 ], [ 77.6073100442037, 12.9932429072513 ], [ 77.607274293887201, 12.9930174099275 ], [ 77.607257403582594, 12.9925026272021 ], [ 77.607252487436199, 12.9923626456651 ], [ 77.607226696622902, 12.991657103686901 ], [ 77.607227234385803, 12.9916254856346 ], [ 77.607229194350396, 12.9915102720212 ], [ 77.607209194139003, 12.9910836043878 ], [ 77.607204690742194, 12.990983143538401 ], [ 77.607184806102893, 12.990712355322099 ], [ 77.607177842810898, 12.990617525816401 ], [ 77.607167974391004, 12.990432631384399 ], [ 77.607162065283703, 12.9903195538463 ], [ 77.607061558989301, 12.990288942786099 ], [ 77.606963355615804, 12.990258308568301 ], [ 77.606892305647904, 12.990236436038799 ], [ 77.606636070636597, 12.990180284960701 ], [ 77.606629150144101, 12.9901792251293 ], [ 77.606419878896006, 12.9901542224114 ], [ 77.606392784436295, 12.990151106447099 ], [ 77.606076040956594, 12.9901452503754 ], [ 77.606041497400099, 12.9901455969602 ], [ 77.606016752964706, 12.9901469745074 ], [ 77.605699575033498, 12.9901546737253 ], [ 77.605675394535893, 12.990154916300201 ], [ 77.605420888221303, 12.9901540814821 ], [ 77.6053632684836, 12.990150142316301 ], [ 77.605331959623797, 12.9902950045983 ], [ 77.605317006654303, 12.990462288484499 ], [ 77.605294706838293, 12.9905969122138 ], [ 77.605287214330204, 12.9906421433347 ], [ 77.6052083216087, 12.9908620156029 ], [ 77.605129228563499, 12.991062692063799 ], [ 77.604999506143002, 12.991313681345099 ], [ 77.604980791538097, 12.9913498895763 ], [ 77.604918943871894, 12.991437464718301 ], [ 77.604783511385307, 12.991646611200499 ], [ 77.604692572198402, 12.991760451605 ], [ 77.604630619654401, 12.991893199106601 ], [ 77.604570251651495, 12.991957044413301 ], [ 77.604552533529997, 12.991969644224501 ], [ 77.604522595526106, 12.991969944464101 ], [ 77.604338022641201, 12.992049715997799 ], [ 77.604275691833394, 12.992090995261799 ], [ 77.603879706130797, 12.992658478605099 ], [ 77.603871788315004, 12.9927274443257 ], [ 77.603797658899495, 12.992686404073099 ], [ 77.603665027323004, 12.9926120718055 ], [ 77.603352319934999, 12.992496631884 ], [ 77.602857329164394, 12.992404474951099 ], [ 77.602565138512404, 12.992379171150899 ], [ 77.602395415019998, 12.992392164816 ], [ 77.601820587897507, 12.992484879388901 ], [ 77.601264172402296, 12.992631614080899 ], [ 77.600572541610703, 12.9928982768868 ], [ 77.599188992758002, 12.993459832807 ], [ 77.598642207362303, 12.993647120508101 ], [ 77.596592574894899, 12.994442316354499 ], [ 77.5965769234748, 12.994542979667401 ], [ 77.596786492643503, 12.994596219117501 ], [ 77.597129821570505, 12.994666189173399 ], [ 77.597236697652903, 12.994700128138501 ], [ 77.598140833035103, 12.9949892151312 ], [ 77.598885348490597, 12.995211009749699 ], [ 77.599318928863894, 12.995321856916499 ], [ 77.600351140898098, 12.9956344974198 ], [ 77.600551511138406, 12.995688954925599 ], [ 77.600645443524499, 12.9956973871593 ], [ 77.6006760006197, 12.9957001301596 ], [ 77.602160983834295, 12.995367922413401 ], [ 77.602217276877596, 12.995354936101201 ], [ 77.602704221063703, 12.9952269633432 ], [ 77.603137773925496, 12.99511420574 ], [ 77.603271461899197, 12.995068823314099 ], [ 77.603695484331197, 12.9949256697514 ], [ 77.603731626304196, 12.994912885207301 ], [ 77.604190685624403, 12.994761474602001 ], [ 77.604407020178201, 12.9946904185144 ], [ 77.604500978421896, 12.994653861190599 ], [ 77.604651318333097, 12.994595366814499 ], [ 77.604963270450199, 12.9944725334149 ], [ 77.605255401311496, 12.9943815184853 ], [ 77.605388547927902, 12.994339528383 ], [ 77.605424137516593, 12.9943290077408 ], [ 77.605629355447505, 12.9942411230624 ], [ 77.605668530661404, 12.994298323363999 ], [ 77.606467471666804, 12.9955219621009 ], [ 77.606549768737494, 12.995648004864 ], [ 77.606991053830598, 12.9962759719422 ], [ 77.607065822311796, 12.9963954435426 ], [ 77.607688189508494, 12.997389900363199 ], [ 77.607910405194403, 12.9977449670979 ], [ 77.608284567175403, 12.9982855210897 ], [ 77.608644172075202, 12.998810410605699 ], [ 77.608769092628293, 12.9989729007502 ], [ 77.608769093360905, 12.9989729017045 ], [ 77.608277766011398, 12.9991223869061 ], [ 77.607627206019899, 12.9993525206604 ], [ 77.607371764613404, 12.999428489934701 ], [ 77.607085034006502, 12.9994855754756 ], [ 77.606937784291105, 12.999500605774299 ], [ 77.606851327878303, 12.9994924398245 ], [ 77.606809685397195, 12.9994747895378 ], [ 77.606768054713598, 12.999458268406199 ], [ 77.606745822543999, 12.9994246132364 ], [ 77.606733792932502, 12.999347924845001 ], [ 77.606733792011298, 12.9993479248543 ], [ 77.606720529660706, 12.9992633791044 ], [ 77.606601602535605, 12.9984616542541 ], [ 77.606523562317605, 12.9978808578505 ], [ 77.606468253602202, 12.997822690531899 ], [ 77.606383206680405, 12.9977840195592 ], [ 77.606250514548805, 12.997759378272599 ], [ 77.606193426901896, 12.9977617455994 ], [ 77.605998997172506, 12.9977698082277 ], [ 77.605710726423098, 12.997789641111501 ], [ 77.605427699538197, 12.9977897019737 ], [ 77.605365820533905, 12.9977897149983 ], [ 77.605092941474396, 12.9977947120579 ], [ 77.605056412012203, 12.997825569265601 ], [ 77.605038929232606, 12.997860752470601 ], [ 77.604957156522204, 12.9980806539147 ], [ 77.604949919289993, 12.998104441478599 ], [ 77.604925998873895, 12.998184860597 ], [ 77.604868159871302, 12.9983808069325 ], [ 77.604799837924702, 12.9985102307649 ], [ 77.604783917352506, 12.9985295883288 ], [ 77.604750384311799, 12.998571708280799 ], [ 77.604598272711399, 12.998672611480201 ], [ 77.604363923467304, 12.9987833739753 ], [ 77.604357625598198, 12.998786825011299 ], [ 77.604296034011199, 12.998843907114599 ], [ 77.604275953558997, 12.9988508842755 ], [ 77.603775130051702, 12.999084023696399 ], [ 77.602395388014799, 12.9995156954531 ], [ 77.601849243411806, 12.9998757660275 ], [ 77.601701992907394, 13.0005536839586 ], [ 77.601590354882504, 13.0005051144277 ], [ 77.6015159939612, 13.0014363909906 ], [ 77.602105858000598, 13.0013480398115 ], [ 77.602239162018293, 13.001320729711599 ], [ 77.602332481171501, 13.0013243111643 ], [ 77.602435060695996, 13.001387651814801 ], [ 77.602586558295002, 13.0015589131872 ], [ 77.6027994184482, 13.0018718488632 ], [ 77.603036098542901, 13.002260207380999 ], [ 77.6031696794673, 13.002480207157999 ], [ 77.603298853394605, 13.002664113945601 ], [ 77.603495134886501, 13.002933172947801 ], [ 77.603597483308704, 13.003088000803899 ], [ 77.603716869556393, 13.003268604062599 ], [ 77.603765423292302, 13.0033415203127 ], [ 77.603869864154902, 13.003527933384699 ], [ 77.603808022019706, 13.0038921831873 ], [ 77.603805180214593, 13.0039509344401 ], [ 77.603787834815904, 13.004275212828199 ], [ 77.603796895429696, 13.0043157761098 ], [ 77.603989527547498, 13.0046763429413 ], [ 77.6043113737379, 13.005279537711999 ], [ 77.604437304474601, 13.0055306936642 ], [ 77.6044725037886, 13.0056008952049 ], [ 77.604607182685996, 13.005870571060701 ], [ 77.604704798912394, 13.0060649569552 ], [ 77.604940012893806, 13.0059812870958 ], [ 77.605124022675398, 13.0064078834094 ], [ 77.605236838515907, 13.0066694273315 ], [ 77.605043772824303, 13.006763967158699 ], [ 77.604158636532006, 13.007196334643099 ], [ 77.6026271765421, 13.0079367035872 ], [ 77.601459119547101, 13.008517579479999 ], [ 77.601302723249404, 13.0085948099874 ], [ 77.600736111747395, 13.0088715199708 ], [ 77.599902260965393, 13.0093090077167 ], [ 77.598934239683103, 13.0097467083989 ], [ 77.598341719471705, 13.0100321355776 ], [ 77.598156160983393, 13.010121521911801 ], [ 77.597838311030799, 13.010288452383399 ], [ 77.597249106514695, 13.0106082953195 ], [ 77.596860787278899, 13.0108098091348 ], [ 77.596817169266203, 13.0108237973235 ], [ 77.596775278581106, 13.0108377682112 ], [ 77.596241638933094, 13.011019279703801 ], [ 77.595768055667605, 13.011217128496 ], [ 77.595485887354798, 13.010497207089299 ], [ 77.595484700542997, 13.010493831096699 ], [ 77.595479389270807, 13.0104814620603 ], [ 77.595353481739494, 13.010168779424401 ], [ 77.5953511316267, 13.0101642857811 ], [ 77.595341319861404, 13.010051454977701 ], [ 77.594991742331601, 13.0091063489568 ], [ 77.594989380489906, 13.009100726134101 ], [ 77.5947786936363, 13.009218021405699 ], [ 77.594752360700994, 13.0092329655984 ], [ 77.594615774038402, 13.0088345630507 ], [ 77.594435900734496, 13.0080944182021 ], [ 77.594351415972298, 13.0078886029334 ], [ 77.594241085721094, 13.0075995580487 ], [ 77.594086294993303, 13.007201257412399 ], [ 77.593968205326206, 13.0069201154131 ], [ 77.5938970707452, 13.0067721703704 ], [ 77.593327857201203, 13.005588306549299 ], [ 77.5932629004934, 13.0056544547231 ], [ 77.593238212280298, 13.0057168125318 ], [ 77.593170481032203, 13.005903822654201 ], [ 77.5931426791946, 13.0059436257438 ], [ 77.593117990934701, 13.0060059835508 ], [ 77.592964832488406, 13.006339526133001 ], [ 77.592679374240603, 13.006797483712599 ], [ 77.592310731724098, 13.007396304647999 ], [ 77.592281307907697, 13.007446287535601 ], [ 77.591700608627306, 13.0084187642654 ], [ 77.591152092980195, 13.0092192663663 ], [ 77.590667640056196, 13.009923138077101 ], [ 77.590662540157197, 13.009931094070399 ], [ 77.590662540166505, 13.0099310949737 ], [ 77.589802487943203, 13.0112304671239 ], [ 77.589112101041195, 13.0122333981232 ], [ 77.588741613240302, 13.0127114005897 ], [ 77.588287150129901, 13.0133099462529 ], [ 77.588119826082604, 13.013500208642 ], [ 77.587795192241899, 13.013791418928101 ], [ 77.587583003421699, 13.0139313105163 ], [ 77.587175481242795, 13.0141149349452 ], [ 77.586853222974696, 13.0142468898828 ], [ 77.586666605678104, 13.0142984406325 ], [ 77.586522352617607, 13.0143258534433 ], [ 77.586019743980003, 13.014391848609201 ], [ 77.585250835251699, 13.014488730532401 ], [ 77.584641741232204, 13.014503837105201 ], [ 77.583972694243599, 13.01451276393 ], [ 77.583944597623997, 13.0148021443921 ], [ 77.583968723770894, 13.015907487323201 ], [ 77.5839743011894, 13.0168899214811 ], [ 77.5839649451881, 13.0172649418418 ], [ 77.583946950034402, 13.017973191362399 ], [ 77.583933556279504, 13.0191252092791 ], [ 77.583928437994103, 13.019298041712 ], [ 77.5839284370266, 13.0192980420625 ], [ 77.583918104667205, 13.0196900116034 ], [ 77.583961362909804, 13.020251970924701 ], [ 77.583971416799798, 13.020388515784999 ], [ 77.584025061945695, 13.0206748227071 ], [ 77.584073374789, 13.020891166270401 ], [ 77.584165246073496, 13.0211985486375 ], [ 77.584204572726705, 13.021325767187699 ], [ 77.584205759475907, 13.021329143248501 ], [ 77.584449026574603, 13.022186113094399 ], [ 77.584590071788398, 13.022681597408299 ], [ 77.584655236649994, 13.022912453468701 ], [ 77.584623813031797, 13.022936482137901 ], [ 77.583685272754707, 13.023670850936099 ], [ 77.582737296458006, 13.024550990898801 ], [ 77.582609720680395, 13.0246324427572 ], [ 77.5825765340619, 13.0246531009234 ], [ 77.582349327972906, 13.0247897520678 ], [ 77.582144592448401, 13.0248719727457 ], [ 77.581847173584094, 13.024957375461099 ], [ 77.581696929703099, 13.025018725439701 ], [ 77.581432095581306, 13.025136552751199 ], [ 77.581279147883393, 13.0252148689639 ], [ 77.581155260121704, 13.025318869506799 ], [ 77.581140522861006, 13.0253416023273 ], [ 77.581096334465798, 13.025412059153901 ], [ 77.581015777606396, 13.025696316033301 ], [ 77.580950672413906, 13.0257489124188 ], [ 77.580839501614307, 13.0258019676741 ], [ 77.5806570786268, 13.025925749258199 ], [ 77.580638263751496, 13.0259440054776 ], [ 77.580467237383203, 13.026111716170499 ], [ 77.580267522389306, 13.026345211965101 ], [ 77.580085248104098, 13.026539008442001 ], [ 77.5801045336095, 13.0265105838527 ], [ 77.579999357079004, 13.026530829408101 ], [ 77.579241990635495, 13.02668969708 ], [ 77.579103509725897, 13.0267193082819 ], [ 77.579023587301606, 13.0267313969422 ], [ 77.578945392333097, 13.026743468382699 ], [ 77.578729786130296, 13.026777235054199 ], [ 77.578623410860899, 13.026792974812199 ], [ 77.578506694134305, 13.026811076062801 ], [ 77.578121620228401, 13.026847291429 ], [ 77.577780060400997, 13.0268792896485 ], [ 77.577726590611505, 13.0268877268051 ], [ 77.577724672987301, 13.026925012879801 ], [ 77.577719451419597, 13.0271994854263 ], [ 77.577707262458006, 13.027245908126799 ], [ 77.577687841469697, 13.027250593285901 ], [ 77.577684358035896, 13.0272585583633 ], [ 77.576958107914606, 13.027364033101399 ], [ 77.576935109961099, 13.027367649782899 ], [ 77.576935109950796, 13.027367650689101 ], [ 77.576717176899194, 13.027399180359 ], [ 77.575886614732696, 13.027553120544299 ], [ 77.575830288890202, 13.027563844352599 ], [ 77.5758199356994, 13.0275650766014 ], [ 77.574653604458305, 13.027772040900601 ], [ 77.574653603527594, 13.027772040006401 ], [ 77.574559907133406, 13.0277887815013 ], [ 77.574022488959699, 13.0278889837739 ], [ 77.573463235349394, 13.0279939191523 ], [ 77.573455772920596, 13.0279962518996 ], [ 77.572008771221803, 13.0283505444767 ], [ 77.571530532060805, 13.0284377319666 ], [ 77.571443169126695, 13.028454409537 ], [ 77.571251475968495, 13.028461958934701 ], [ 77.571112123200294, 13.0288552129325 ], [ 77.570894460106004, 13.0294694574792 ], [ 77.570681048212194, 13.0300509107783 ], [ 77.570329262640001, 13.031007538454899 ], [ 77.570297465787306, 13.0311072331686 ], [ 77.570181491863707, 13.031476538714999 ], [ 77.570110104341396, 13.031701979587 ], [ 77.570047748292097, 13.031853925768001 ], [ 77.569989318144906, 13.031995669207699 ], [ 77.569852750920703, 13.032266929245001 ], [ 77.569476640309901, 13.032875970965801 ], [ 77.569034171080602, 13.033416782935101 ], [ 77.568627883526403, 13.034010299550101 ], [ 77.568563270878897, 13.0341046867557 ], [ 77.568321682753904, 13.034411996818299 ], [ 77.568075533894202, 13.034723869229399 ], [ 77.567870321187897, 13.034984516557101 ], [ 77.5678657610122, 13.0349890790245 ], [ 77.5675776790209, 13.0353115308324 ], [ 77.567236967652804, 13.035668383629201 ], [ 77.566776619565204, 13.036151775796901 ], [ 77.566642162971704, 13.036293143385899 ], [ 77.566297005156898, 13.0366658498343 ], [ 77.566019627598905, 13.036965608224699 ], [ 77.565986024893505, 13.0370020792621 ], [ 77.565440028078498, 13.0376692673594 ], [ 77.565082669572604, 13.038143731817 ], [ 77.564870174517296, 13.038424777537999 ], [ 77.564655259194694, 13.038694554018599 ], [ 77.564349922544807, 13.0390758988593 ], [ 77.564286816930604, 13.039155575934 ], [ 77.564158878011, 13.0393149471725 ], [ 77.563910078609695, 13.0395940934682 ], [ 77.562802552865193, 13.041100273458399 ], [ 77.562245603551901, 13.0418240318812 ], [ 77.5621118460774, 13.0419755279451 ], [ 77.5615680066322, 13.0410108572475 ], [ 77.561055862058296, 13.0401011804222 ], [ 77.560962690597606, 13.0400015942321 ], [ 77.560962690638902, 13.040001594175701 ], [ 77.560857873288597, 13.039889699734999 ], [ 77.560770517821993, 13.0397957015208 ], [ 77.560575839744502, 13.0395995582116 ], [ 77.560575838823098, 13.039599558220701 ], [ 77.560483031681798, 13.0395060519774 ], [ 77.5600826669383, 13.0392163900428 ], [ 77.559442192792204, 13.0389313602508 ], [ 77.558765777473496, 13.0386794340907 ], [ 77.558734646223201, 13.0386763538742 ], [ 77.557421688523206, 13.0385775266616 ], [ 77.557297291173697, 13.0385776263442 ], [ 77.557310724440796, 13.038483760207599 ], [ 77.557330318081696, 13.038372893435501 ], [ 77.557389339857096, 13.0381758089438 ], [ 77.557406091792899, 13.0379565556901 ], [ 77.5574289910695, 13.037664265020499 ], [ 77.557428992140501, 13.0376642651455 ], [ 77.557450895188296, 13.0373846788971 ], [ 77.557507868454096, 13.0367641202955 ], [ 77.557564058466397, 13.036291510144499 ], [ 77.557576010689701, 13.036109571822699 ], [ 77.557574049600305, 13.0359187363992 ], [ 77.557535041922804, 13.0357655344395 ], [ 77.557535040992093, 13.0357655335453 ], [ 77.557503244382701, 13.0356416226169 ], [ 77.557392251843694, 13.0351525947579 ], [ 77.557371717224498, 13.035003727536299 ], [ 77.557373842339501, 13.034930300839999 ], [ 77.557375163818406, 13.034890761638099 ], [ 77.557387329400697, 13.0347856148516 ], [ 77.557397848642793, 13.0346883895565 ], [ 77.557381044548407, 13.0346783916637 ], [ 77.557716587527494, 13.034153332232099 ], [ 77.557772737991499, 13.0340692080231 ], [ 77.557818121337505, 13.0340021299419 ], [ 77.558332571197099, 13.0332336287064 ], [ 77.5586199225, 13.0328389163789 ], [ 77.558884552529804, 13.032474919969999 ], [ 77.559363245258794, 13.031814056176399 ], [ 77.5597975725846, 13.031151371785 ], [ 77.559975558595099, 13.0309305250885 ], [ 77.559743587851202, 13.0303817111886 ], [ 77.559743587613198, 13.030381711505999 ], [ 77.559087792278604, 13.028827475672401 ], [ 77.559087791348006, 13.0288274747782 ], [ 77.558819817509303, 13.028193186805501 ], [ 77.558459165728493, 13.0273384672363 ], [ 77.5584045721275, 13.027219709730799 ], [ 77.558155306020197, 13.026677425988201 ], [ 77.557890729647497, 13.0261018298838 ], [ 77.557886617657104, 13.0260939652497 ], [ 77.557721465755606, 13.0257138859315 ], [ 77.5575613461573, 13.025150807044501 ], [ 77.557480332146199, 13.024888475353199 ], [ 77.557355223263002, 13.024482025943801 ], [ 77.557317763731106, 13.0243672050832 ], [ 77.5572214659163, 13.0240745324234 ], [ 77.557113845203403, 13.0237447038754 ], [ 77.557017536405894, 13.0234509018327 ], [ 77.556931364592003, 13.023190879277999 ], [ 77.556926043099097, 13.0231773799492 ], [ 77.556905955140195, 13.0231278880897 ], [ 77.556765154284705, 13.0227633776943 ], [ 77.556496905756006, 13.0221008545966 ], [ 77.556488577759097, 13.022074962386 ], [ 77.556434776032106, 13.021938845371 ], [ 77.556387861063996, 13.0218004017614 ], [ 77.556293860976197, 13.0215630423761 ], [ 77.556185222321005, 13.021302111572099 ], [ 77.556085997336695, 13.021116752314001 ], [ 77.556050950039804, 13.021068537178101 ], [ 77.555832444670202, 13.0205952479988 ], [ 77.555576230967105, 13.020038760517 ], [ 77.555544418832298, 13.0199690562677 ], [ 77.555486104359105, 13.019842017928999 ], [ 77.555374855789296, 13.0198318215157 ], [ 77.555173145972802, 13.0198168702274 ], [ 77.554935770189402, 13.019805658305801 ], [ 77.554638625099699, 13.0198063284674 ], [ 77.554373621573404, 13.0197965176402 ], [ 77.554342148356696, 13.0198160262774 ], [ 77.553910611193302, 13.019221121371 ], [ 77.553765312502605, 13.019322084394901 ], [ 77.5505787947491, 13.0250663872496 ], [ 77.5505787947491, 13.0250663872496 ], [ 77.550183850429605, 13.0257904461627 ], [ 77.550040247632197, 13.026051604344399 ] ] ] } }
]
}
