{
"type": "FeatureCollection",
"name": "East",
"crs": { "type": "name", "properties": { "name": "urn:ogc:def:crs:OGC:1.3:CRS84" } },
"features": [
{ "type": "Feature", "properties": { "region_id": "corp_GBA_East", "name": "East", "parent": "ulb_276600", "parent_name": "GBA" }, "geometry": { "type": "Polygon", "coordinates": [ [ [ 77.673572074287407, 12.916120389975299 ], [ 77.673435517432694, 12.916648010307799 ], [ 77.673185577783698, 12.9169599807397 ], [ 77.670415000118297, 12.9183401563233 ], [ 77.668724698970195, 12.9188606592654 ], [ 77.665131682276197, 12.9205947543355 ], [ 77.664769817226798, 12.920618818361101 ], [ 77.664769816443993, 12.9206188185349 ], [ 77.664915658777005, 12.9207924039811 ], [ 77.665181651615896, 12.921069739454699 ], [ 77.665471579838794, 12.921053228133699 ], [ 77.666192407128307, 12.9210153769502 ], [ 77.666618569901004, 12.920981663476899 ], [ 77.667078113611595, 12.921218625154999 ], [ 77.667793221925393, 12.921563639092399 ], [ 77.667810738545697, 12.921643132657 ], [ 77.667854564535901, 12.9218420250882 ], [ 77.668029078029093, 12.922634002754799 ], [ 77.6682024036065, 12.9232363721454 ], [ 77.668773103357495, 12.9233163587934 ], [ 77.6688008956435, 12.9244690239997 ], [ 77.668807824675199, 12.924617762876901 ], [ 77.668835213091995, 12.9252056906364 ], [ 77.668845641949503, 12.9254295456696 ], [ 77.668932750132299, 12.9262055685709 ], [ 77.668898479915896, 12.927151088963701 ], [ 77.6688736423378, 12.9271991205198 ], [ 77.668725890052102, 12.9274848495384 ], [ 77.668633483684502, 12.9279973383365 ], [ 77.668574468186506, 12.928239598356001 ], [ 77.668458571153295, 12.928708287284 ], [ 77.6676910200013, 12.928792925220099 ], [ 77.667817169898697, 12.9295595156395 ], [ 77.667820088016995, 12.9295794832091 ], [ 77.667966777904198, 12.9305833316355 ], [ 77.667994047125504, 12.930765988900299 ], [ 77.668034800103896, 12.9312431267075 ], [ 77.668034809582807, 12.931243238630699 ], [ 77.668033438384697, 12.931243341188599 ], [ 77.667528663186999, 12.931281163300399 ], [ 77.666920509094396, 12.931199301718699 ], [ 77.666401542711, 12.931005861708501 ], [ 77.666151591752893, 12.9307227196879 ], [ 77.665855224565107, 12.930350841932301 ], [ 77.665114504303901, 12.9283551424463 ], [ 77.664932593109498, 12.9281367992212 ], [ 77.6645943822991, 12.9280521731056 ], [ 77.664099739868405, 12.9280346398037 ], [ 77.663763039411705, 12.9280380777773 ], [ 77.663427165022597, 12.928173627922099 ], [ 77.663285577501696, 12.928229276851001 ], [ 77.663024189563203, 12.928332447440701 ], [ 77.661816875981501, 12.928961333874501 ], [ 77.661329940989503, 12.9296709483583 ], [ 77.661084653296996, 12.9298270275074 ], [ 77.660747146614497, 12.9298090146573 ], [ 77.660543951395496, 12.929700421431299 ], [ 77.659124346930398, 12.9294179051714 ], [ 77.658031792178704, 12.9308835059167 ], [ 77.6550207276224, 12.9349681661324 ], [ 77.657162654186607, 12.936053008446301 ], [ 77.659336018329896, 12.9375496824515 ], [ 77.660543543014697, 12.938021807317099 ], [ 77.660564347763994, 12.938029499691099 ], [ 77.6604568917069, 12.938210145666201 ], [ 77.660455776474905, 12.938213544771401 ], [ 77.6604344912475, 12.938269094815 ], [ 77.660408313918694, 12.9382975929864 ], [ 77.660362459021002, 12.938316128785701 ], [ 77.660290595155104, 12.9383247668103 ], [ 77.660058599809403, 12.938323746344301 ], [ 77.659664770127307, 12.938315342809901 ], [ 77.659056164425806, 12.9383012246933 ], [ 77.658930064046501, 12.938297993864699 ], [ 77.658909906699094, 12.938297070208201 ], [ 77.658921508299898, 12.9379796346826 ], [ 77.658921149208695, 12.9379457610634 ], [ 77.658917516175293, 12.9379288594751 ], [ 77.658908163238095, 12.9379154039508 ], [ 77.658887946074003, 12.937908834683199 ], [ 77.658882166321604, 12.9379066351433 ], [ 77.658594843487506, 12.9378994020991 ], [ 77.658168829372002, 12.937895841338101 ], [ 77.6581388991262, 12.937896146501901 ], [ 77.6581262183402, 12.938166164957901 ], [ 77.658113764949505, 12.9384576367191 ], [ 77.658108469904704, 12.9387727496017 ], [ 77.658103750511003, 12.939087856611 ], [ 77.658096631955303, 12.9394481578121 ], [ 77.658077858150193, 12.939795026937601 ], [ 77.658073576588706, 12.9398255601653 ], [ 77.658055996706395, 12.9398505827784 ], [ 77.658011256560101, 12.939865719148299 ], [ 77.657920662144406, 12.9398451872741 ], [ 77.657881546213801, 12.939847844598299 ], [ 77.657801695285897, 12.939863338929101 ], [ 77.657778215910099, 12.939874870757199 ], [ 77.657717166643806, 12.9399263091598 ], [ 77.6575844549577, 12.940059783718301 ], [ 77.657514544456504, 12.9400898567997 ], [ 77.657427822259507, 12.9401088088176 ], [ 77.657280543747703, 12.940117085694499 ], [ 77.657139536850195, 12.9401196523393 ], [ 77.656775022609807, 12.9401075583629 ], [ 77.656447489429496, 12.940108637936699 ], [ 77.656000558376505, 12.9400872195473 ], [ 77.655879756704607, 12.940095225857901 ], [ 77.654399650950296, 12.9402480700704 ], [ 77.654274096999103, 12.940350980749299 ], [ 77.654227749151403, 12.940377425360699 ], [ 77.654051411731402, 12.940468431348499 ], [ 77.654033064568793, 12.940475393637501 ], [ 77.654002641974898, 12.9404836081215 ], [ 77.653945214467399, 12.940496614542701 ], [ 77.653906805308793, 12.9405116858124 ], [ 77.653878780658005, 12.940528909842699 ], [ 77.653841522668401, 12.940543969383899 ], [ 77.653792812622996, 12.9405647917485 ], [ 77.653724687846704, 12.940600491972299 ], [ 77.653576637592906, 12.9406991144384 ], [ 77.653342079250805, 12.940837011864801 ], [ 77.6532781148737, 12.9408850913644 ], [ 77.653072552922197, 12.9409888160202 ], [ 77.652937057637502, 12.941077147188601 ], [ 77.652755586585997, 12.941172721710901 ], [ 77.652743078853405, 12.9411875292269 ], [ 77.652704729213298, 12.9412082459835 ], [ 77.652658285446094, 12.941225657367699 ], [ 77.652623269897802, 12.941235047705799 ], [ 77.652560697598105, 12.941251493967 ], [ 77.652346821800194, 12.941323367633199 ], [ 77.652307733361297, 12.941336503312501 ], [ 77.652246551044797, 12.941375520322399 ], [ 77.652115934617996, 12.941489774212799 ], [ 77.652023562737298, 12.9415189453096 ], [ 77.651898212450803, 12.941586846359099 ], [ 77.651849081630004, 12.9416223529341 ], [ 77.651784651018502, 12.941626396210101 ], [ 77.651728242884403, 12.941626970105601 ], [ 77.651657060371605, 12.9416457622737 ], [ 77.651332021661105, 12.941828619440701 ], [ 77.651105148974494, 12.9419314303588 ], [ 77.650949998570397, 12.9420120558898 ], [ 77.650923628662994, 12.9420224873428 ], [ 77.650731362888706, 12.942131721497001 ], [ 77.650653463955507, 12.9421686497267 ], [ 77.650516266764598, 12.9422050517367 ], [ 77.650386850643798, 12.9422696057918 ], [ 77.6502285206615, 12.942376236046 ], [ 77.650184450423396, 12.942400398420199 ], [ 77.650147719707306, 12.9424109351614 ], [ 77.650080888172496, 12.9424601724595 ], [ 77.649926551290903, 12.942563374222001 ], [ 77.6498412516179, 12.942602413765099 ], [ 77.649820567180598, 12.9426118803059 ], [ 77.649495860702402, 12.9427948117612 ], [ 77.649349031781995, 12.942877530928 ], [ 77.649156743575801, 12.942930301862299 ], [ 77.648605524504006, 12.943287778974399 ], [ 77.648605525132893, 12.943287780063899 ], [ 77.647821150562095, 12.9437964604864 ], [ 77.647328935225104, 12.9442847809608 ], [ 77.647551909852396, 12.9444665837102 ], [ 77.647535945732102, 12.9445356302568 ], [ 77.647541528382007, 12.944628172175401 ], [ 77.647574029976496, 12.9447622229037 ], [ 77.647514854848893, 12.9448825248072 ], [ 77.647455299921205, 12.9449666945102 ], [ 77.647147056348103, 12.945105336288201 ], [ 77.647035248146807, 12.945175600271799 ], [ 77.647035247934497, 12.945175599495901 ], [ 77.646911444825903, 12.9452534023407 ], [ 77.645069415429901, 12.9466814157228 ], [ 77.643022314775195, 12.948426562505 ], [ 77.642294935738207, 12.9491623109681 ], [ 77.642279417946298, 12.9491647268779 ], [ 77.642236877808202, 12.9492250089161 ], [ 77.642164929483002, 12.949335276486099 ], [ 77.642065712877596, 12.949425494010001 ], [ 77.641965273541302, 12.949508948374 ], [ 77.6419150240866, 12.9495478527079 ], [ 77.641652395172599, 12.949754911513701 ], [ 77.641643844246303, 12.949762903022499 ], [ 77.641566298364907, 12.9498337032958 ], [ 77.641337154182594, 12.9499952520599 ], [ 77.641128450653795, 12.9500752869452 ], [ 77.641001301798696, 12.9501917602978 ], [ 77.640821267347107, 12.9503155453249 ], [ 77.640775741479004, 12.950365694177799 ], [ 77.640614932736099, 12.950456535735199 ], [ 77.640533495313207, 12.950595130663499 ], [ 77.640531228534002, 12.9505985414138 ], [ 77.640293900734093, 12.9508030842354 ], [ 77.640159874827503, 12.950977219143599 ], [ 77.640005031227901, 12.9511425309593 ], [ 77.639885014784895, 12.9512803875519 ], [ 77.639781929158701, 12.951440657669201 ], [ 77.6397977802432, 12.9514698577135 ], [ 77.639759641878996, 12.9515108975252 ], [ 77.639739157431094, 12.9515336902888 ], [ 77.640241532001994, 12.952389092208801 ], [ 77.640537053497098, 12.9528445744732 ], [ 77.640772639739296, 12.9532938884198 ], [ 77.641666667773194, 12.9536202102001 ], [ 77.6420730591107, 12.953943571581 ], [ 77.642513591583494, 12.953956040502501 ], [ 77.642525572525301, 12.953945755629499 ], [ 77.643031070398607, 12.9537317134692 ], [ 77.643802580793206, 12.9534675413569 ], [ 77.644141833069398, 12.9533748859706 ], [ 77.644228478128895, 12.9533480333856 ], [ 77.644253662547797, 12.953334226626099 ], [ 77.644261038388905, 12.953323988449799 ], [ 77.644279882565399, 12.9532549126302 ], [ 77.6443602346137, 12.952631877935501 ], [ 77.644498587063595, 12.9517225531702 ], [ 77.644916193012506, 12.9503270724903 ], [ 77.645041087059596, 12.9499971915511 ], [ 77.645248583308003, 12.9496393697284 ], [ 77.645402647298894, 12.949400662036799 ], [ 77.645657199874904, 12.949028811164 ], [ 77.645732612004096, 12.9489196369952 ], [ 77.646163782549394, 12.9483190122581 ], [ 77.646208036413398, 12.948257583114399 ], [ 77.646386861958604, 12.948019752881599 ], [ 77.646532620461002, 12.947866952417 ], [ 77.646762071974706, 12.947680553346499 ], [ 77.647138410725304, 12.947502824990201 ], [ 77.647475631349195, 12.9473277521968 ], [ 77.647684714472504, 12.9472296411058 ], [ 77.647773289572399, 12.9471677613815 ], [ 77.647777282743206, 12.9471643332994 ], [ 77.647777283051397, 12.947164333946301 ], [ 77.648110974462298, 12.946818779446399 ], [ 77.648194938818406, 12.946717619641401 ], [ 77.648195102512602, 12.946717421036301 ], [ 77.648292878026197, 12.946600114381001 ], [ 77.648802589616196, 12.946133069554 ], [ 77.649025259808198, 12.946013363773 ], [ 77.649071579594093, 12.946311014931601 ], [ 77.649146534791797, 12.946649027912599 ], [ 77.649201678199702, 12.9468009160015 ], [ 77.649301507017299, 12.947095764445599 ], [ 77.649374388892099, 12.947401049295999 ], [ 77.649324669275899, 12.9474354322726 ], [ 77.649317281860505, 12.9474445413944 ], [ 77.649282492046396, 12.9474753849163 ], [ 77.649191060435797, 12.947593756658 ], [ 77.649089062162105, 12.9477472425824 ], [ 77.649063911667, 12.947818641079699 ], [ 77.649050980229504, 12.947902337084001 ], [ 77.649039206469993, 12.948095558587699 ], [ 77.649052792636198, 12.9483461139809 ], [ 77.649079310301403, 12.948512973356699 ], [ 77.649184687925796, 12.948896976043899 ], [ 77.649255047773096, 12.949072423510801 ], [ 77.649375283030395, 12.9492281664429 ], [ 77.649543757279503, 12.949481663372699 ], [ 77.650380258234506, 12.950465763637901 ], [ 77.650542118331202, 12.9506380209504 ], [ 77.650882593980896, 12.9509338069323 ], [ 77.651343106992101, 12.9513119347907 ], [ 77.651517741440102, 12.951440020557101 ], [ 77.651758079937593, 12.951575341964499 ], [ 77.651974220821799, 12.951654447109901 ], [ 77.651965825609906, 12.951677117541999 ], [ 77.652141398576802, 12.9517306628968 ], [ 77.652239827063994, 12.9517838644663 ], [ 77.652297962441594, 12.95183747632 ], [ 77.652321477181403, 12.951883535992501 ], [ 77.652365015286605, 12.9520265070056 ], [ 77.652462608210996, 12.9523270220835 ], [ 77.6525209314714, 12.952507107608 ], [ 77.652523976927995, 12.952522886048699 ], [ 77.652896676618994, 12.952545062545701 ], [ 77.653338486255194, 12.952569922146701 ], [ 77.653692754135704, 12.9525911560126 ], [ 77.653834511513097, 12.9526043917416 ], [ 77.654311660978195, 12.952650345199 ], [ 77.655266776058696, 12.952710622211599 ], [ 77.655276573515096, 12.9527116515653 ], [ 77.655433848593702, 12.9527224696904 ], [ 77.655525455464499, 12.952729440340301 ], [ 77.655859600511903, 12.9527531348454 ], [ 77.656167830812606, 12.952775963973099 ], [ 77.657330442811798, 12.9528600894382 ], [ 77.658021625513101, 12.952894817916601 ], [ 77.658405237407493, 12.952914616454001 ], [ 77.658413883629095, 12.952915657437099 ], [ 77.658728997181001, 12.952936154696401 ], [ 77.659026494683204, 12.9529240834213 ], [ 77.6592066144499, 12.9529177273337 ], [ 77.659478221087895, 12.9529070491576 ], [ 77.659777445192901, 12.9528949594027 ], [ 77.660015102356198, 12.952885756640301 ], [ 77.660074390717497, 12.952885151063599 ], [ 77.660983214715202, 12.9528690911244 ], [ 77.660989930693802, 12.953230379296301 ], [ 77.660997594228206, 12.9536266642122 ], [ 77.661001108204601, 12.9537948850543 ], [ 77.661011170015101, 12.954037568817499 ], [ 77.661012033500896, 12.9540646617513 ], [ 77.660991803537399, 12.9543279813709 ], [ 77.661998822667499, 12.954288328691 ], [ 77.662367864984205, 12.954237127817001 ], [ 77.662394610007496, 12.9545869183781 ], [ 77.662395893257397, 12.9545993268835 ], [ 77.662400163956207, 12.9547844783648 ], [ 77.662386626053106, 12.954918996188599 ], [ 77.661776206393, 12.954954596983001 ], [ 77.661817713709297, 12.955393446710101 ], [ 77.661674624275605, 12.955417494223299 ], [ 77.660847385775099, 12.9554191736816 ], [ 77.660856463904594, 12.955460862789 ], [ 77.660891193387201, 12.9555869827508 ], [ 77.660910932604097, 12.9556567939005 ], [ 77.660913331053493, 12.9556658033086 ], [ 77.660970029824696, 12.9556923256266 ], [ 77.661812043658898, 12.955726630216301 ], [ 77.661895388678502, 12.955714485778699 ], [ 77.661909766812201, 12.9556590060737 ], [ 77.662179481281598, 12.955686738010501 ], [ 77.662354505933493, 12.955688336153299 ], [ 77.6623821117131, 12.9556857954046 ], [ 77.663369792711507, 12.955721993111601 ], [ 77.663048092853003, 12.9567065914407 ], [ 77.663029230728796, 12.9568276128402 ], [ 77.663040635809395, 12.9568715364663 ], [ 77.663119907909802, 12.957180136813101 ], [ 77.663189945534, 12.957432369666 ], [ 77.663373699224493, 12.9580922231707 ], [ 77.663380307314199, 12.958118128031201 ], [ 77.663581968611496, 12.9588918509397 ], [ 77.663587977110694, 12.958915503446001 ], [ 77.663587977120301, 12.958915504349299 ], [ 77.663581968621102, 12.958891851842999 ], [ 77.663476869948795, 12.958915511952799 ], [ 77.663077325990798, 12.959022360311399 ], [ 77.662879081676195, 12.9590571362289 ], [ 77.662879100847704, 12.9590575561145 ], [ 77.662152784135301, 12.9591865217586 ], [ 77.661488292916204, 12.9592271937193 ], [ 77.661439964078298, 12.9592299463215 ], [ 77.661144198697698, 12.9592431332469 ], [ 77.660888703278502, 12.959253649724699 ], [ 77.660850064116204, 12.9592472692536 ], [ 77.660386849899297, 12.9591594060653 ], [ 77.659775159428705, 12.9590764468235 ], [ 77.659664470653297, 12.9590617684037 ], [ 77.659666017690299, 12.959099017539399 ], [ 77.659669495557793, 12.9592096475901 ], [ 77.659728930058606, 12.9597104231466 ], [ 77.659747338445598, 12.9598175129039 ], [ 77.659754222131397, 12.959869387631199 ], [ 77.659764607588997, 12.959925743537999 ], [ 77.659807612623595, 12.9601805124511 ], [ 77.659790727499697, 12.9602168206874 ], [ 77.659836574285507, 12.9602513586523 ], [ 77.659853303604095, 12.960254575421301 ], [ 77.659899941804596, 12.960255228073001 ], [ 77.660163811663793, 12.960870225834499 ], [ 77.659773412627203, 12.9610255337992 ], [ 77.659864663607294, 12.9613238499839 ], [ 77.659967559769001, 12.9616886722497 ], [ 77.659998620086398, 12.9616860963232 ], [ 77.660820446715604, 12.961606553564399 ], [ 77.660850356978301, 12.961766599786399 ], [ 77.660884188734599, 12.9619164427481 ], [ 77.660914986346697, 12.962051636605599 ], [ 77.660947199323004, 12.9622116592476 ], [ 77.661351259274596, 12.9621499364697 ], [ 77.661446682771, 12.962136539031 ], [ 77.661538944719396, 12.9625296998935 ], [ 77.661680386437993, 12.962783461301701 ], [ 77.6617075507463, 12.9629017535391 ], [ 77.661790975743997, 12.9642503403983 ], [ 77.661791203892506, 12.964271793597 ], [ 77.661780854371301, 12.9642730287023 ], [ 77.661608341618205, 12.9642375284223 ], [ 77.661341867423701, 12.9641905673869 ], [ 77.661087014127503, 12.9641536503723 ], [ 77.661059804686602, 12.964301858955199 ], [ 77.660935816028498, 12.9644984852709 ], [ 77.660795662828704, 12.964853370362601 ], [ 77.660534213660597, 12.9649000840902 ], [ 77.660545811024804, 12.9649620736842 ], [ 77.660719837304896, 12.9651940467822 ], [ 77.661000031407397, 12.965177630575999 ], [ 77.661068584058199, 12.9654524638302 ], [ 77.661140491475194, 12.965447211449099 ], [ 77.661274664429698, 12.965450356113299 ], [ 77.661393247674795, 12.9655033466746 ], [ 77.661507896789701, 12.9655112078665 ], [ 77.661558781565901, 12.965532142896601 ], [ 77.661630366256304, 12.965604811142001 ], [ 77.661646208845895, 12.965632880044 ], [ 77.661652469640799, 12.965680244018699 ], [ 77.661683639241005, 12.9657420332824 ], [ 77.661706306296296, 12.965816331143801 ], [ 77.661771021024506, 12.9660008642135 ], [ 77.661786230412602, 12.966185903719101 ], [ 77.6617868661057, 12.9661915434077 ], [ 77.661956858180801, 12.966300907735 ], [ 77.6619648261604, 12.9663060342591 ], [ 77.661645422379095, 12.9668039084592 ], [ 77.661547298288895, 12.9667800690465 ], [ 77.659929864666907, 12.9670258461771 ], [ 77.659704199150397, 12.9670812275725 ], [ 77.659584991642205, 12.967023725736301 ], [ 77.658988944504003, 12.967114511311101 ], [ 77.658461266921506, 12.9671921753172 ], [ 77.658492040824299, 12.9674335184444 ], [ 77.658336663997105, 12.9676564374347 ], [ 77.657951734615494, 12.968165141439 ], [ 77.657273809037804, 12.968244338574699 ], [ 77.657375255235294, 12.9689061673221 ], [ 77.657446624238901, 12.9691211234279 ], [ 77.657526376487994, 12.969529094179199 ], [ 77.657629119699394, 12.9701502566085 ], [ 77.657657662996698, 12.9703441945181 ], [ 77.657688724911395, 12.9705584330265 ], [ 77.657702445090607, 12.970711869679199 ], [ 77.657752647367303, 12.970776852704899 ], [ 77.658103739202105, 12.970984432973101 ], [ 77.658361286409701, 12.971057459884101 ], [ 77.658734709680999, 12.971253518470499 ], [ 77.658637232913406, 12.971453261271501 ], [ 77.659041969220794, 12.971507844123 ], [ 77.659288147448194, 12.9715403335522 ], [ 77.659596065193398, 12.9715857422692 ], [ 77.660156612191599, 12.971566458594801 ], [ 77.660802752541898, 12.9715835629416 ], [ 77.661023889183198, 12.9715892051307 ], [ 77.661518187800894, 12.9716202828309 ], [ 77.661573740265993, 12.971701019481401 ], [ 77.661566333885702, 12.971978887880599 ], [ 77.661983994069402, 12.971787159742499 ], [ 77.662630237404599, 12.9715976079156 ], [ 77.663057361427406, 12.971537902153701 ], [ 77.663902931549501, 12.971630873940899 ], [ 77.664234151998301, 12.9717020107175 ], [ 77.664505935613406, 12.9717602051509 ], [ 77.664794016393898, 12.971780967518001 ], [ 77.664917902792794, 12.9717909904736 ], [ 77.665335291469503, 12.971844304263399 ], [ 77.665406237863905, 12.9717487214252 ], [ 77.665531077406001, 12.9715780567259 ], [ 77.665716988157996, 12.9715196895337 ], [ 77.666053768558001, 12.9714642926634 ], [ 77.666141699361305, 12.9714498404691 ], [ 77.666157781596596, 12.9714462879033 ], [ 77.666158179152305, 12.971446770753699 ], [ 77.6663152664363, 12.971637772506799 ], [ 77.6664560093689, 12.9718249116811 ], [ 77.666487612333896, 12.9718731447326 ], [ 77.666512295405497, 12.971920319493099 ], [ 77.666522454686898, 12.971955221587599 ], [ 77.666528032797103, 12.9719924291204 ], [ 77.666546375855305, 12.972146946115901 ], [ 77.666550383489195, 12.972198849791701 ], [ 77.666558194139199, 12.972283462260901 ], [ 77.666568116959496, 12.972404188560599 ], [ 77.6665726400837, 12.9724504407779 ], [ 77.666709072956706, 12.972503245045001 ], [ 77.666885491071397, 12.9725804823322 ], [ 77.666964765435793, 12.9726180633168 ], [ 77.666846379258402, 12.972799954770901 ], [ 77.666660917791006, 12.9730085064003 ], [ 77.666731959070404, 12.9731918430283 ], [ 77.666796324489994, 12.9731810198658 ], [ 77.666815417536696, 12.9731898579366 ], [ 77.6668420565654, 12.973258468009501 ], [ 77.666845741490604, 12.973334088880801 ], [ 77.666791761977706, 12.973347064021899 ], [ 77.6668049923165, 12.9734000023308 ], [ 77.666913625714699, 12.9743011459428 ], [ 77.666902391708405, 12.974381436749001 ], [ 77.666610964789797, 12.9744250779575 ], [ 77.666515861925404, 12.9753328280696 ], [ 77.666560992452602, 12.975353820673501 ], [ 77.666598027573102, 12.975371508592 ], [ 77.666646708417801, 12.975401498637099 ], [ 77.666886810692503, 12.975457756175 ], [ 77.666984962545001, 12.975483851016699 ], [ 77.667314090495097, 12.975574201168801 ], [ 77.667633680266704, 12.9755799562506 ], [ 77.667928203233302, 12.9755566080999 ], [ 77.668022000248499, 12.9755522579262 ], [ 77.668134782099898, 12.975546583667301 ], [ 77.668525437936196, 12.9754680451888 ], [ 77.668742041146501, 12.975426298910101 ], [ 77.668846570777504, 12.975402641345401 ], [ 77.669026066296595, 12.975336432638199 ], [ 77.669213500452599, 12.975258850010899 ], [ 77.669259936262307, 12.9752403055996 ], [ 77.669442897530701, 12.9751751902969 ], [ 77.669818593904495, 12.9750437297673 ], [ 77.6701008910387, 12.9749538802096 ], [ 77.670192897346496, 12.974889698451999 ], [ 77.670213464412697, 12.974874807240599 ], [ 77.670294701892999, 12.974826545276599 ], [ 77.670522000379705, 12.9747621032165 ], [ 77.670749753790204, 12.9746863640017 ], [ 77.671122835427497, 12.974579771757901 ], [ 77.671617510138404, 12.974430148256999 ], [ 77.671651917008901, 12.974417373216101 ], [ 77.671848068657795, 12.9743476039943 ], [ 77.672345463670695, 12.9741832713362 ], [ 77.672524526092801, 12.974130615731299 ], [ 77.672685706822406, 12.974074756124301 ], [ 77.672701776977803, 12.974070074034399 ], [ 77.672954137218895, 12.9739805294554 ], [ 77.6732736077537, 12.9738677101814 ], [ 77.673456027022795, 12.973805985674201 ], [ 77.673620661172706, 12.973750090056701 ], [ 77.673956945716398, 12.973648389451199 ], [ 77.674207159187006, 12.9735735458449 ], [ 77.674490651830396, 12.9734881967091 ], [ 77.674862026283094, 12.9733838757101 ], [ 77.675142390497598, 12.973329047245301 ], [ 77.675396886298699, 12.9732778723195 ], [ 77.675769676871894, 12.9731983785559 ], [ 77.675773694373405, 12.9731972079913 ], [ 77.676248697309603, 12.9730929481037 ], [ 77.676717186241206, 12.972971816083801 ], [ 77.677192799934204, 12.9728709360051 ], [ 77.677949904294707, 12.972738155394399 ], [ 77.678116241843995, 12.9727089824357 ], [ 77.678239771131203, 12.973169563006399 ], [ 77.678360265573303, 12.973615494766101 ], [ 77.678370462808203, 12.973653783356401 ], [ 77.678442366087907, 12.973863078425 ], [ 77.6785385969484, 12.9741398762923 ], [ 77.678695431622501, 12.974592208676301 ], [ 77.678702229106904, 12.974613564993399 ], [ 77.678916462870504, 12.975286662504301 ], [ 77.679061290184094, 12.9756928199348 ], [ 77.679152701046405, 12.9758734571266 ], [ 77.679298913195794, 12.9761623866398 ], [ 77.679377523743895, 12.976513894129001 ], [ 77.679344968333893, 12.9766994222301 ], [ 77.679314236678294, 12.9768939653234 ], [ 77.679333694097195, 12.9775814616518 ], [ 77.679337916978, 12.9779755169696 ], [ 77.679371234451494, 12.978237153304001 ], [ 77.679505418159707, 12.979046552219801 ], [ 77.679622624208406, 12.9793818361091 ], [ 77.6796533096649, 12.979469615400999 ], [ 77.679751238264004, 12.9800117618759 ], [ 77.679750981177307, 12.9802026031353 ], [ 77.679751295885794, 12.9802319596764 ], [ 77.6798226329459, 12.980495462231801 ], [ 77.679848564685699, 12.980590217572299 ], [ 77.679898133057094, 12.9807713432564 ], [ 77.679962871828394, 12.9810100708536 ], [ 77.679972997192095, 12.9810415846701 ], [ 77.680061665543306, 12.981310554456 ], [ 77.680139045267396, 12.9815468931456 ], [ 77.680143208147896, 12.981559271658901 ], [ 77.680185084625705, 12.98175984133 ], [ 77.680214764203896, 12.981843097677199 ], [ 77.680268077071702, 12.981991336851999 ], [ 77.680294877393607, 12.9820658574011 ], [ 77.680297264843404, 12.982073737331699 ], [ 77.680380522981906, 12.9823213074437 ], [ 77.680381722764594, 12.982325811956599 ], [ 77.680416376751197, 12.9824970962488 ], [ 77.680438722751504, 12.9827554575549 ], [ 77.680247438500601, 12.983064578869 ], [ 77.680240075816698, 12.983075947027499 ], [ 77.680201956266401, 12.983132884400799 ], [ 77.680013977608596, 12.9834136578854 ], [ 77.679841758009701, 12.983567879006101 ], [ 77.679799363787595, 12.9835875129881 ], [ 77.679713436074493, 12.9836279219057 ], [ 77.679704104176906, 12.983616725916701 ], [ 77.679067873556406, 12.983989154405499 ], [ 77.678954313014302, 12.9840298480174 ], [ 77.678814616946795, 12.9840493557887 ], [ 77.678590992867996, 12.9840810209013 ], [ 77.678472097317695, 12.9842685683521 ], [ 77.678356754172, 12.9843578367249 ], [ 77.678241901909004, 12.984439195436799 ], [ 77.678026704990501, 12.9845588527239 ], [ 77.677872130607895, 12.984640620708101 ], [ 77.677809538807495, 12.9846559456874 ], [ 77.677719157070598, 12.984656877133199 ], [ 77.677660193790999, 12.984742176571199 ], [ 77.677608709250606, 12.9847731961805 ], [ 77.677496911346694, 12.984817258769001 ], [ 77.6773673640824, 12.984870538005501 ], [ 77.676925459530594, 12.9851641726413 ], [ 77.676456690297698, 12.9854761510489 ], [ 77.675798427916902, 12.985816406777101 ], [ 77.675790211203903, 12.985820654177299 ], [ 77.674924392102199, 12.9863682106279 ], [ 77.673367211089499, 12.9863887556123 ], [ 77.6729328901597, 12.9863695106345 ], [ 77.672138942898101, 12.985993740130199 ], [ 77.671712231390302, 12.985878430245799 ], [ 77.671353385312202, 12.9860255322063 ], [ 77.671282950980597, 12.985899782731099 ], [ 77.670814961844599, 12.9860163877257 ], [ 77.670451671118897, 12.986070937409799 ], [ 77.669795645044104, 12.986155596473001 ], [ 77.669479770393195, 12.986121577620199 ], [ 77.668884044977801, 12.985976380937499 ], [ 77.668712197592598, 12.985896841514499 ], [ 77.668353954173497, 12.9857232316715 ], [ 77.668264180132098, 12.9856733382257 ], [ 77.668195215240502, 12.9856311356654 ], [ 77.667973208172, 12.985491132247599 ], [ 77.667950614731694, 12.9855320166008 ], [ 77.667816666430895, 12.9858744201089 ], [ 77.667526007480703, 12.985937253815701 ], [ 77.667492483427395, 12.987219276681 ], [ 77.667366090011598, 12.9879997447725 ], [ 77.667410107796798, 12.9886711859847 ], [ 77.667628812383299, 12.9895260271811 ], [ 77.667885190574495, 12.9897571449764 ], [ 77.667889232508102, 12.989758232691999 ], [ 77.668055684290593, 12.9898175014575 ], [ 77.668163616902604, 12.989842365069901 ], [ 77.6682547161153, 12.9899622570028 ], [ 77.668212609089693, 12.9900089880528 ], [ 77.668360216288704, 12.9901905815024 ], [ 77.668358500328196, 12.9901915549127 ], [ 77.668362035793706, 12.9901958512259 ], [ 77.668362034862895, 12.9901958503321 ], [ 77.667871572060903, 12.990476605483799 ], [ 77.666906997227898, 12.991053386368399 ], [ 77.666259722490196, 12.9915817377802 ], [ 77.665686561713997, 12.992212756067399 ], [ 77.665531872427195, 12.9923830603844 ], [ 77.664997081311299, 12.9931473942667 ], [ 77.664164289015503, 12.994474885631501 ], [ 77.664160331338195, 12.9944817016464 ], [ 77.664135421805099, 12.994521480438101 ], [ 77.663540351445604, 12.995519053760701 ], [ 77.663535830072504, 12.995527004789601 ], [ 77.663205771593496, 12.9961616330902 ], [ 77.662833703816403, 12.996690544012401 ], [ 77.662790684155198, 12.9967598686271 ], [ 77.663844942605294, 12.9973543228705 ], [ 77.664070305814903, 12.9974841306665 ], [ 77.663866542351997, 12.9978136996976 ], [ 77.663592042652496, 12.9982591764372 ], [ 77.663297277298099, 13.002255175344301 ], [ 77.663303767227603, 13.0028632278236 ], [ 77.6633037681584, 13.0028632287175 ], [ 77.663304292126796, 13.002912318850001 ], [ 77.663270793453705, 13.0033866282293 ], [ 77.663246269260796, 13.0037338679768 ], [ 77.663188833418104, 13.0045565403294 ], [ 77.663127647337902, 13.004973855946 ], [ 77.663036673239503, 13.005513434675599 ], [ 77.662956012121398, 13.005994187365101 ], [ 77.662725171847399, 13.007294047572 ], [ 77.6626648937292, 13.0076345659835 ], [ 77.6626025638529, 13.007998819397301 ], [ 77.6625689410983, 13.0081933929202 ], [ 77.662562246513005, 13.008375268459099 ], [ 77.662532027965796, 13.009212341708499 ], [ 77.662521440681999, 13.0095150853363 ], [ 77.662504492739799, 13.009977116372999 ], [ 77.662474854841605, 13.0102213353506 ], [ 77.662450982635704, 13.0104124211047 ], [ 77.662339861744897, 13.0117076650192 ], [ 77.662297616993001, 13.012389027342101 ], [ 77.662327773062799, 13.0124090439726 ], [ 77.662310610850696, 13.012689270410201 ], [ 77.662289845200505, 13.0130632603357 ], [ 77.662282630701299, 13.0131965841157 ], [ 77.662282666862495, 13.0131999705455 ], [ 77.662255657455802, 13.0136903357643 ], [ 77.662159738394706, 13.015061082435 ], [ 77.662094858942496, 13.015725738678899 ], [ 77.662054492604994, 13.0158819875679 ], [ 77.662016908565704, 13.0160291740109 ], [ 77.661935856138896, 13.0162039084213 ], [ 77.661797920893704, 13.016336315940499 ], [ 77.661707122542694, 13.0164072607612 ], [ 77.661523638698299, 13.016480286359901 ], [ 77.660535220760707, 13.016883406138399 ], [ 77.660370736245895, 13.016956236053 ], [ 77.658565969117404, 13.0177539248345 ], [ 77.658416489254193, 13.0178203971463 ], [ 77.656473524973904, 13.018684407671101 ], [ 77.655633922535301, 13.0190577618296 ], [ 77.655600981730203, 13.019070950075299 ], [ 77.654675792529702, 13.0194413553139 ], [ 77.653110586487202, 13.020030518021599 ], [ 77.652745270580695, 13.020168026462001 ], [ 77.651270544311103, 13.020816621971701 ], [ 77.648141159917301, 13.0221981766746 ], [ 77.647913605066904, 13.0222986352272 ], [ 77.646656433195005, 13.0228465352328 ], [ 77.646411847363197, 13.0229531299527 ], [ 77.645421015984397, 13.0233795648219 ], [ 77.645182525936505, 13.023482206297 ], [ 77.644487524621098, 13.0237813176392 ], [ 77.643231651033503, 13.024344599692199 ], [ 77.643119485015205, 13.024394907855299 ], [ 77.642020149023296, 13.024868600545201 ], [ 77.640837470799298, 13.0253781971142 ], [ 77.640555990444497, 13.025499481251501 ], [ 77.6401153610027, 13.025707237177601 ], [ 77.639936983744406, 13.0257745514986 ], [ 77.639649648517903, 13.025884758228299 ], [ 77.639413688857303, 13.025924747406901 ], [ 77.639011595044494, 13.025992891206 ], [ 77.638470306647207, 13.0260880644355 ], [ 77.637150438482195, 13.0263201294976 ], [ 77.636986143659996, 13.0263579380255 ], [ 77.635815444890497, 13.0266318390414 ], [ 77.634973907541394, 13.026884319273901 ], [ 77.633887227945905, 13.0272623786874 ], [ 77.632762007758799, 13.027753751638601 ], [ 77.632715570857599, 13.0277734209852 ], [ 77.633003033889807, 13.028110405885799 ], [ 77.633496335020993, 13.028689217298 ], [ 77.633744451148601, 13.0285726395916 ], [ 77.634276893417905, 13.0284418777171 ], [ 77.634876608023802, 13.0283013965026 ], [ 77.634911660177394, 13.028294264409 ], [ 77.635039633577406, 13.0282523093809 ], [ 77.635666953847903, 13.027999749347501 ], [ 77.636010566917605, 13.027874293295801 ], [ 77.636354141668605, 13.0277996537231 ], [ 77.636580167570798, 13.027772509653399 ], [ 77.636654037158706, 13.027787567347501 ], [ 77.636728757519293, 13.0278285892217 ], [ 77.636944967051605, 13.0279076946986 ], [ 77.636948433800498, 13.0279087886626 ], [ 77.637030292874698, 13.027916989378101 ], [ 77.637136851508302, 13.0279192923403 ], [ 77.637328196030097, 13.027934283096499 ], [ 77.637605153391505, 13.027985667367499 ], [ 77.637744437411996, 13.0295008372151 ], [ 77.637822282143802, 13.0297823579003 ], [ 77.637873380197107, 13.029930898989999 ], [ 77.637916311011097, 13.0300151557764 ], [ 77.637992985381899, 13.0301318172172 ], [ 77.638022617649796, 13.030162565356701 ], [ 77.638188045007496, 13.0303342252643 ], [ 77.638524606301203, 13.0306300488243 ], [ 77.639122590560603, 13.031141153698901 ], [ 77.639134075616198, 13.031151319183 ], [ 77.639397555974696, 13.0313845285434 ], [ 77.639599535890497, 13.031750606173601 ], [ 77.639656007127797, 13.032025568107001 ], [ 77.639648653333197, 13.0320380648404 ], [ 77.639806367862704, 13.032465572957999 ], [ 77.639851902454893, 13.032578033968701 ], [ 77.639892040337898, 13.0326160193506 ], [ 77.639917711179194, 13.032647376700099 ], [ 77.640114885255002, 13.0328847823228 ], [ 77.640166790739499, 13.0329474767496 ], [ 77.640445523759396, 13.0333285801701 ], [ 77.640768883403297, 13.0336821259644 ], [ 77.6408801426427, 13.0339644332551 ], [ 77.641032416595394, 13.034258743852799 ], [ 77.641099269920105, 13.034317912222701 ], [ 77.641176536510798, 13.0343272873101 ], [ 77.641176536510798, 13.0343272873101 ], [ 77.641278937392997, 13.034284254465801 ], [ 77.641715605187997, 13.034143508990701 ], [ 77.6421853718698, 13.033997051687001 ], [ 77.642303350299301, 13.034001224788801 ], [ 77.642376177276503, 13.0340301094864 ], [ 77.642548655141994, 13.0340520517512 ], [ 77.643098720387897, 13.0340612502862 ], [ 77.643267934464006, 13.0340671222796 ], [ 77.643249788514694, 13.0341539760401 ], [ 77.643157672359607, 13.035325443524 ], [ 77.643177111378293, 13.035334806798399 ], [ 77.643176611801394, 13.035363854378501 ], [ 77.643176155904101, 13.0353751515237 ], [ 77.6432313241001, 13.035906464579099 ], [ 77.644883430032607, 13.0358444215542 ], [ 77.644939679932804, 13.035881112055799 ], [ 77.644929231478699, 13.0359275179541 ], [ 77.644907218936197, 13.036023728891999 ], [ 77.6448322793145, 13.036070793654901 ], [ 77.644762473990795, 13.0361132889582 ], [ 77.644687186333798, 13.0361276090581 ], [ 77.6444627268761, 13.036194269106099 ], [ 77.644421028368399, 13.0362263139922 ], [ 77.644393797290505, 13.0363191904872 ], [ 77.644339419078193, 13.0365128473571 ], [ 77.644287056205599, 13.0367335855967 ], [ 77.644267298666605, 13.036825256506701 ], [ 77.644245561798499, 13.0369474373342 ], [ 77.644232390095198, 13.0370085512752 ], [ 77.644192779064596, 13.0372370640049 ], [ 77.644154631767506, 13.0376033300595 ], [ 77.644137621376899, 13.0377367550957 ], [ 77.644110474121106, 13.0378375354823 ], [ 77.644071378636994, 13.037951988894701 ], [ 77.644028288387702, 13.0380698708562 ], [ 77.643981611214699, 13.038175367725101 ], [ 77.643932102902994, 13.038285410503301 ], [ 77.643919986770996, 13.038337479682101 ], [ 77.643836972941202, 13.0384919053741 ], [ 77.643819590484895, 13.038590327526 ], [ 77.643813484545504, 13.0387202534518 ], [ 77.643806502848904, 13.0388219571145 ], [ 77.643793259039199, 13.0388762963102 ], [ 77.643768294911695, 13.038965761919 ], [ 77.643765403808302, 13.0389646622009 ], [ 77.643709261218604, 13.0389381336848 ], [ 77.643574998919505, 13.0389304710122 ], [ 77.642959637854503, 13.038954823218001 ], [ 77.642368436912193, 13.0389766688339 ], [ 77.642167486791493, 13.0390340534501 ], [ 77.641977596130502, 13.0392652295098 ], [ 77.641868717021595, 13.039370231860699 ], [ 77.641808351182405, 13.0394340860138 ], [ 77.641737788691003, 13.0394596497332 ], [ 77.641648247989295, 13.039487665635701 ], [ 77.641458454039693, 13.0395110584313 ], [ 77.6414719225574, 13.0399660088024 ], [ 77.6414615577159, 13.039966114586299 ], [ 77.641464722258902, 13.0403184083415 ], [ 77.641454691961798, 13.040512741740599 ], [ 77.641444889830098, 13.040674324556701 ], [ 77.641400452740001, 13.0410451721551 ], [ 77.641394645445303, 13.0412033264498 ], [ 77.641393505427899, 13.041258671343 ], [ 77.641354433076202, 13.041266974890799 ], [ 77.641335550654205, 13.0412784601164 ], [ 77.641318023695206, 13.0413091287601 ], [ 77.641303339904994, 13.0413363806341 ], [ 77.641299728717598, 13.0413759412491 ], [ 77.641315899492298, 13.041434497213601 ], [ 77.641347509384602, 13.041536936350401 ], [ 77.641375052882793, 13.0415818252261 ], [ 77.641409986244796, 13.0416176046676 ], [ 77.641459950787805, 13.0417130809296 ], [ 77.641470603148093, 13.0417942782016 ], [ 77.641468335186005, 13.0419060971064 ], [ 77.641455965785994, 13.042097066624301 ], [ 77.641429452443703, 13.042311894769799 ], [ 77.641390811278001, 13.0424150509574 ], [ 77.641326485836302, 13.042485721060499 ], [ 77.641214510291405, 13.0425704285226 ], [ 77.641118334224103, 13.0426244849328 ], [ 77.641075326744897, 13.042641862645 ], [ 77.641010341772301, 13.0426504306564 ], [ 77.640934871950407, 13.042647813155799 ], [ 77.640794321232306, 13.042644730565801 ], [ 77.640722498186506, 13.042660143795301 ], [ 77.640647771547293, 13.042727532167699 ], [ 77.640551546846595, 13.042831275927901 ], [ 77.640462568151904, 13.042912360709799 ], [ 77.640391080605596, 13.042959389464899 ], [ 77.640086512283602, 13.0430754222263 ], [ 77.6397583105054, 13.0431894372801 ], [ 77.639381030729695, 13.043291530820801 ], [ 77.639262636732397, 13.0433141942412 ], [ 77.639065125893893, 13.0433162087645 ], [ 77.638636286519599, 13.0432810583882 ], [ 77.638586716923101, 13.043277046859799 ], [ 77.638470866578103, 13.043268064922501 ], [ 77.638383915706996, 13.0432689515322 ], [ 77.638309933531801, 13.0432437330727 ], [ 77.638202588950705, 13.043222242504701 ], [ 77.638071874720495, 13.043223575203999 ], [ 77.638007885330396, 13.043217452068101 ], [ 77.637906731230999, 13.0431823472235 ], [ 77.637829798088305, 13.043150383178901 ], [ 77.637745031870395, 13.04308575062 ], [ 77.637650464553403, 13.0430200886795 ], [ 77.637556052936006, 13.042969105399401 ], [ 77.637343393171193, 13.042845925847599 ], [ 77.637290190316804, 13.042810270554099 ], [ 77.637277494427096, 13.042931291497 ], [ 77.637177853775796, 13.043364811097399 ], [ 77.637117664135602, 13.0434998057058 ], [ 77.637089254507202, 13.044133606468099 ], [ 77.637101407396898, 13.0446822997857 ], [ 77.6372308695328, 13.045540341967101 ], [ 77.637314440666998, 13.046035232205901 ], [ 77.637557744183098, 13.0467667661809 ], [ 77.637593093373994, 13.0468637717546 ], [ 77.637780776942606, 13.0473788055561 ], [ 77.637876080521707, 13.048056514524101 ], [ 77.638003706575205, 13.048578056844899 ], [ 77.638090134507905, 13.049233270971101 ], [ 77.638159496296595, 13.049528427581899 ], [ 77.638259809694304, 13.0498639214871 ], [ 77.638333923870206, 13.0500641723194 ], [ 77.638135567376906, 13.050095556284999 ], [ 77.638362453105003, 13.051070044818401 ], [ 77.638428059178906, 13.051553824555199 ], [ 77.637796263280904, 13.0516607732679 ], [ 77.637779981557799, 13.051808871410699 ], [ 77.637794195457005, 13.0520086040941 ], [ 77.637807918098403, 13.052162042435 ], [ 77.637885016973101, 13.0526434466771 ], [ 77.638031504505093, 13.053368061364999 ], [ 77.638066602035707, 13.0535406017068 ], [ 77.638120218213103, 13.0538041767721 ], [ 77.638182001830302, 13.0539277640897 ], [ 77.638312958163098, 13.054328441488501 ], [ 77.638339338012301, 13.0545348253717 ], [ 77.638153250443906, 13.0546372276574 ], [ 77.638185964712704, 13.0548435469338 ], [ 77.638296767101906, 13.055190225805701 ], [ 77.638308641104203, 13.055603410761201 ], [ 77.638336192163493, 13.0565166941792 ], [ 77.638342940689498, 13.0568117041677 ], [ 77.638358764825895, 13.057503429669699 ], [ 77.638354192946494, 13.0576694763083 ], [ 77.638171563611905, 13.058965462679399 ], [ 77.638157427374097, 13.0596408994087 ], [ 77.638156406270298, 13.0599243519681 ], [ 77.638172792202994, 13.060491068956001 ], [ 77.638182088864696, 13.060824103233999 ], [ 77.638195379536, 13.061533137442799 ], [ 77.638218037040303, 13.061800380607499 ], [ 77.638234885723406, 13.0619991149226 ], [ 77.638282778733398, 13.0623328843295 ], [ 77.638345152721001, 13.062782818712501 ], [ 77.638361312340294, 13.0636533063394 ], [ 77.638526242600406, 13.0648113628529 ], [ 77.638567598787105, 13.065288613596699 ], [ 77.638695556109099, 13.0665441627125 ], [ 77.638727411031297, 13.0666449802359 ], [ 77.639022760857699, 13.0675797305363 ], [ 77.639362568686593, 13.068879413084201 ], [ 77.639527268762606, 13.069689660557 ], [ 77.639503845539096, 13.0706283064627 ], [ 77.639481046777703, 13.071571462960501 ], [ 77.639440391325195, 13.0732183244554 ], [ 77.639490911574399, 13.074935396447801 ], [ 77.638308528775696, 13.075159781252699 ], [ 77.6390155607004, 13.076001750673401 ], [ 77.639558880393096, 13.076668099197599 ], [ 77.640237295359896, 13.0769310517272 ], [ 77.640973693717498, 13.0769596546274 ], [ 77.6414199220673, 13.0772159450828 ], [ 77.641515309478706, 13.0772958836264 ], [ 77.641690161605894, 13.0774424168261 ], [ 77.642146389175295, 13.077826208302399 ], [ 77.642298510722398, 13.078156649696099 ], [ 77.642528445735294, 13.0786545520173 ], [ 77.642809194671102, 13.0791643553453 ], [ 77.643286763799395, 13.080036888833 ], [ 77.6438005251741, 13.080954219817301 ], [ 77.644460992342701, 13.082125254953301 ], [ 77.644551167483002, 13.0823174316465 ], [ 77.645122016708299, 13.082969929893199 ], [ 77.645519913693306, 13.0833915754943 ], [ 77.646101400513601, 13.084338694051601 ], [ 77.646495235124902, 13.085026880416001 ], [ 77.646602555720605, 13.0851522546656 ], [ 77.646831821167794, 13.0848845305407 ], [ 77.646979645047495, 13.0847034643276 ], [ 77.647117810612897, 13.0845349188318 ], [ 77.647368562212904, 13.0842297089737 ], [ 77.647481000779806, 13.084025291606199 ], [ 77.6476596491122, 13.0838721399227 ], [ 77.648006029962403, 13.083406725233299 ], [ 77.648348691717004, 13.0829707087528 ], [ 77.648416810259903, 13.082823208176899 ], [ 77.648645411418599, 13.0825475852692 ], [ 77.648920432349001, 13.082250030135601 ], [ 77.649285524589899, 13.081757320653599 ], [ 77.649548422366394, 13.0814034275599 ], [ 77.649646828543197, 13.0813414381602 ], [ 77.649671622755307, 13.081236164200099 ], [ 77.649858343519398, 13.0812997428514 ], [ 77.650132265773294, 13.0813308070997 ], [ 77.650417190789398, 13.081367404236 ], [ 77.650827246554002, 13.081417395782699 ], [ 77.651156493020807, 13.081451278287499 ], [ 77.651552630268995, 13.0814923777092 ], [ 77.651890096553203, 13.0815408548804 ], [ 77.652227538730102, 13.081587073355699 ], [ 77.652608629767002, 13.0816215502959 ], [ 77.653224017731006, 13.0817518613981 ], [ 77.653310260122097, 13.0817374237847 ], [ 77.653535112973103, 13.081811899808301 ], [ 77.654763062527493, 13.081969784208299 ], [ 77.654856920321393, 13.081913485988199 ], [ 77.654917397158698, 13.0815368280978 ], [ 77.655000599535498, 13.081023298825301 ], [ 77.655028709513104, 13.0808513657145 ], [ 77.655078651441102, 13.0806204877083 ], [ 77.655168676468904, 13.080206261057601 ], [ 77.6552691600683, 13.079746757372799 ], [ 77.655362470948702, 13.0793166876374 ], [ 77.6554206643127, 13.0790495892095 ], [ 77.655513089038493, 13.0786443718046 ], [ 77.655521340805805, 13.0786081513544 ], [ 77.655583516969003, 13.078336495018601 ], [ 77.655681860958197, 13.0778386193908 ], [ 77.655811902656197, 13.077181195402 ], [ 77.655983555077896, 13.0766983748544 ], [ 77.656275398865802, 13.075875546925801 ], [ 77.6563437990431, 13.0754321828003 ], [ 77.656431013644294, 13.074863279962599 ], [ 77.656531662863202, 13.074849822728099 ], [ 77.6572452305344, 13.073769706165701 ], [ 77.657800151971401, 13.0730424136227 ], [ 77.658426531282601, 13.0715126286219 ], [ 77.658665872642402, 13.0709511937924 ], [ 77.658855454401305, 13.070476092992701 ], [ 77.658873386835893, 13.0704296097826 ], [ 77.659141857326205, 13.069738013093501 ], [ 77.6597272971824, 13.068043781066001 ], [ 77.660154692363903, 13.067725452983 ], [ 77.660731300462302, 13.067679990906599 ], [ 77.661526545050705, 13.0674527270079 ], [ 77.661802164954594, 13.067355412710601 ], [ 77.662623592012807, 13.0670653870585 ], [ 77.663595412575901, 13.066977451060099 ], [ 77.665794695479505, 13.0662049562959 ], [ 77.667022232240299, 13.065903203718699 ], [ 77.667146345216295, 13.0639461007273 ], [ 77.668714341376599, 13.065046714042101 ], [ 77.670051640879194, 13.0659554730934 ], [ 77.670993424901894, 13.065818595100099 ], [ 77.672410435273207, 13.0656126415894 ], [ 77.673095060097296, 13.065437304366 ], [ 77.673447192173995, 13.0653523565739 ], [ 77.673438509978496, 13.0652948560986 ], [ 77.673433526148699, 13.065259901790601 ], [ 77.6740847641355, 13.0651933129962 ], [ 77.674523303920694, 13.065056654506099 ], [ 77.675092852831497, 13.0648384641846 ], [ 77.675277937052797, 13.0648580028596 ], [ 77.675904706650996, 13.064926040294999 ], [ 77.675984346540005, 13.0649410244772 ], [ 77.676061682969305, 13.064956032493001 ], [ 77.676330028851794, 13.0650593993889 ], [ 77.676537243313206, 13.0650482189274 ], [ 77.676723183429601, 13.0650937196902 ], [ 77.676925559618496, 13.065061133879899 ], [ 77.677173813872301, 13.0649569317125 ], [ 77.677092850734496, 13.0647658034598 ], [ 77.676959479355006, 13.064467942372501 ], [ 77.676830442884594, 13.064037917584599 ], [ 77.676668327239895, 13.0635845217222 ], [ 77.676855510741703, 13.0635317676307 ], [ 77.676840460019207, 13.063257523268 ], [ 77.676836747887407, 13.0629131498284 ], [ 77.676942033083293, 13.0629030253184 ], [ 77.677327239047699, 13.0628414440508 ], [ 77.677610038960196, 13.0627899572159 ], [ 77.677645657083701, 13.0627816835822 ], [ 77.677695574315706, 13.0627642280131 ], [ 77.677800981093895, 13.062765394095299 ], [ 77.678202748821604, 13.0627442918151 ], [ 77.678235548487393, 13.0627416934088 ], [ 77.678803922150493, 13.062735801531799 ], [ 77.678968026586702, 13.062786044168201 ], [ 77.6789775813928, 13.062817563196001 ], [ 77.6789895370853, 13.062858091070799 ], [ 77.679178828972894, 13.0625738240494 ], [ 77.679504950906903, 13.061947114526401 ], [ 77.679485414980803, 13.0612573653744 ], [ 77.679329792416496, 13.060978933041699 ], [ 77.6792954909549, 13.0605219556126 ], [ 77.679295113387496, 13.0604869537857 ], [ 77.679294735821202, 13.0604519519586 ], [ 77.679292799288604, 13.0602724264571 ], [ 77.679306805546702, 13.059862375301901 ], [ 77.679333108373697, 13.0595244665869 ], [ 77.679443892273, 13.0585826799418 ], [ 77.679397425886904, 13.0584928242407 ], [ 77.679332755053906, 13.058370409925599 ], [ 77.679178359863798, 13.058098739673399 ], [ 77.679111114435301, 13.058004582392099 ], [ 77.679001898011094, 13.058023781883801 ], [ 77.678957681628304, 13.057822110157201 ], [ 77.679069661200202, 13.0575250944706 ], [ 77.679172344693598, 13.057540968454701 ], [ 77.679213143140899, 13.057372292136501 ], [ 77.679359526015801, 13.0565272492603 ], [ 77.679373094169094, 13.056450321826 ], [ 77.6794262035977, 13.0557677238853 ], [ 77.679403834533701, 13.055722787022299 ], [ 77.679382053497505, 13.055678973279001 ], [ 77.679308478194699, 13.0555318082979 ], [ 77.679246927527899, 13.0554850190489 ], [ 77.678898512554596, 13.0552187465362 ], [ 77.678803938704604, 13.0548866071231 ], [ 77.678757423146706, 13.0544715367531 ], [ 77.678751226574704, 13.054430949096099 ], [ 77.678745030006098, 13.054390361438401 ], [ 77.678700441586102, 13.0541006142866 ], [ 77.678659386028002, 13.0538325160187 ], [ 77.678452724977902, 13.052704078738399 ], [ 77.678370562238101, 13.0524011699613 ], [ 77.678375160642105, 13.0523469207284 ], [ 77.678375160728095, 13.0523469207318 ], [ 77.678554441275594, 13.0523631311833 ], [ 77.678662686230595, 13.0523608806664 ], [ 77.678755407028405, 13.0523610493638 ], [ 77.678861864529395, 13.0523531711889 ], [ 77.678892382895697, 13.0523528550208 ], [ 77.678920611931503, 13.0523536917851 ], [ 77.679397252978404, 13.0523882759252 ], [ 77.679939431475205, 13.052412016973999 ], [ 77.680191045646495, 13.052246801813 ], [ 77.680580460399, 13.0519898206596 ], [ 77.680874256550794, 13.0518377183172 ], [ 77.680967568436799, 13.051785936159799 ], [ 77.681030368817702, 13.0517519104047 ], [ 77.681063185454505, 13.051734130076101 ], [ 77.681658613340204, 13.051249168401601 ], [ 77.681690604105498, 13.051225123120901 ], [ 77.681722582682596, 13.0511999487477 ], [ 77.682660299033998, 13.050467525035399 ], [ 77.683338300339798, 13.049950086025399 ], [ 77.683605696582902, 13.049220097326501 ], [ 77.684191857993397, 13.0475043843888 ], [ 77.684453469767604, 13.046719124178701 ], [ 77.684756938867395, 13.0458103452646 ], [ 77.684944598586, 13.0452697627225 ], [ 77.684950963593707, 13.045165808997099 ], [ 77.684927119290407, 13.0447708316186 ], [ 77.684856224253195, 13.0440183816571 ], [ 77.684871681718107, 13.043423125503599 ], [ 77.684875901444698, 13.0429070309262 ], [ 77.684841628963795, 13.042773010071199 ], [ 77.684784118653297, 13.042406612206101 ], [ 77.684679150774002, 13.0417516278108 ], [ 77.684661086604294, 13.041625343220501 ], [ 77.684601056545802, 13.0413989939098 ], [ 77.684635109649506, 13.0410858482749 ], [ 77.6846158087113, 13.040951671992801 ], [ 77.684643154984499, 13.0409242871646 ], [ 77.684585994872606, 13.0408571272638 ], [ 77.684541874344006, 13.0407175623575 ], [ 77.684474149011194, 13.0405251692034 ], [ 77.684459330614501, 13.040432727322001 ], [ 77.684479938287296, 13.040207799875899 ], [ 77.684493834804101, 13.040161357937 ], [ 77.684385121889406, 13.039692732277899 ], [ 77.684292691878298, 13.039398965895399 ], [ 77.684261303362703, 13.0389886475152 ], [ 77.684243752337593, 13.038759208672801 ], [ 77.684153493411998, 13.0382395766312 ], [ 77.684046446899202, 13.037704310377601 ], [ 77.684029319325703, 13.037618666787401 ], [ 77.683913332873601, 13.037329661124399 ], [ 77.683913332863895, 13.0373296602212 ], [ 77.683930300461498, 13.0371409053603 ], [ 77.683933311527198, 13.036992946951401 ], [ 77.683995530424994, 13.036674992391101 ], [ 77.683883533485599, 13.0362752821498 ], [ 77.683857648786699, 13.036064387243499 ], [ 77.683821893925796, 13.0357926170173 ], [ 77.683809953761497, 13.035539796552699 ], [ 77.683793963868894, 13.035392035094301 ], [ 77.683740011705794, 13.0351949816736 ], [ 77.683737576665905, 13.0349691638186 ], [ 77.683619002006296, 13.0347603588243 ], [ 77.683614335699204, 13.0343809907429 ], [ 77.683654177171405, 13.0341773189735 ], [ 77.683631207442204, 13.0338094327528 ], [ 77.683600912082198, 13.0336166508683 ], [ 77.683594759782807, 13.0334733042381 ], [ 77.683573656499902, 13.0332250954944 ], [ 77.683539128691194, 13.0331204362703 ], [ 77.683690922708294, 13.033205812672101 ], [ 77.685105942158202, 13.0333797217596 ], [ 77.686321154308004, 13.0335014935257 ], [ 77.686569319115904, 13.033498918742399 ], [ 77.686689166919294, 13.033490298176901 ], [ 77.686881189168005, 13.0334764860407 ], [ 77.687031533735805, 13.033427498937399 ], [ 77.687924344906904, 13.0332364290933 ], [ 77.688082332750596, 13.0332020418541 ], [ 77.688208161826196, 13.033175892879401 ], [ 77.688591348321296, 13.0330386674376 ], [ 77.688856373669594, 13.0329444493571 ], [ 77.689258545526997, 13.0328589696145 ], [ 77.690347657445301, 13.0326624656739 ], [ 77.690855001114301, 13.032557823539699 ], [ 77.691485024844496, 13.031443521547001 ], [ 77.691931893413397, 13.030752317727201 ], [ 77.693118109786994, 13.0288869545931 ], [ 77.693846316757003, 13.0277479160053 ], [ 77.694403596618599, 13.0267247043005 ], [ 77.694536892430307, 13.026750418818001 ], [ 77.695025449874507, 13.0267735667508 ], [ 77.695654861392399, 13.0268291242435 ], [ 77.696090300014205, 13.0268923450604 ], [ 77.696406801456902, 13.0269179946101 ], [ 77.696584222586907, 13.0269323722052 ], [ 77.696615350758194, 13.0269354357862 ], [ 77.696998664648504, 13.0269709674706 ], [ 77.697747614835507, 13.0270580220299 ], [ 77.698473068732795, 13.0271554819161 ], [ 77.699570995099506, 13.027297613952401 ], [ 77.699791268884994, 13.027325806754799 ], [ 77.700492026428407, 13.0274291640764 ], [ 77.700626817285297, 13.0274334048407 ], [ 77.701698491873898, 13.027438038548199 ], [ 77.7016842937402, 13.0274031814014 ], [ 77.701687981135393, 13.0273715253161 ], [ 77.701520728974501, 13.026445066318599 ], [ 77.7013305593225, 13.025316718841101 ], [ 77.701269174881006, 13.024966177220399 ], [ 77.701696609906406, 13.0251412632854 ], [ 77.701885165600601, 13.025218341011501 ], [ 77.702345419763304, 13.0253930835669 ], [ 77.702683134996093, 13.0255250647499 ], [ 77.703275239840707, 13.025751502284599 ], [ 77.703842231929301, 13.025892381218201 ], [ 77.7040985446978, 13.0259518119221 ], [ 77.704403809618796, 13.0260118605317 ], [ 77.704460932714397, 13.026022556194301 ], [ 77.705179816542, 13.026151683445899 ], [ 77.705446370715904, 13.0261997137787 ], [ 77.705936149817305, 13.0262826757829 ], [ 77.705963259722097, 13.0262869093999 ], [ 77.707011841301707, 13.0260749574214 ], [ 77.707686826459707, 13.025926753912501 ], [ 77.707996960735798, 13.025876405829299 ], [ 77.708021366761699, 13.025872443337301 ], [ 77.708231737783095, 13.025784425368199 ], [ 77.709244191549203, 13.0252690893501 ], [ 77.709901425652504, 13.025659691946 ], [ 77.710708815609706, 13.026143573600899 ], [ 77.711968281299903, 13.0282182685163 ], [ 77.712067368483304, 13.0283809639098 ], [ 77.712221332269806, 13.0285637325696 ], [ 77.714657575636195, 13.0314557145426 ], [ 77.715076212014296, 13.0319312311731 ], [ 77.715083210465806, 13.031992134020699 ], [ 77.715882716111693, 13.0318561516975 ], [ 77.716010655604705, 13.0318325630238 ], [ 77.716048217744401, 13.031825056972901 ], [ 77.716083278146598, 13.031819043295201 ], [ 77.716090605728795, 13.031646200594199 ], [ 77.716142952226903, 13.031643394978399 ], [ 77.717391595204603, 13.0315568962423 ], [ 77.717340802349, 13.0317042236059 ], [ 77.717371312403202, 13.0329166507187 ], [ 77.717404768825304, 13.0329219455455 ], [ 77.717460153899296, 13.0329315269802 ], [ 77.718110281997596, 13.0330376218505 ], [ 77.7181974455317, 13.033057032202599 ], [ 77.719582887804293, 13.033371077400799 ], [ 77.720721663269799, 13.0337712662486 ], [ 77.721179114970496, 13.033845501791401 ], [ 77.721520081038307, 13.034115180520701 ], [ 77.721518480590703, 13.0340214750904 ], [ 77.721510953028996, 13.033807009294801 ], [ 77.721625119847005, 13.0337154745477 ], [ 77.7222397140456, 13.0335735115088 ], [ 77.723181997724495, 13.0333298620516 ], [ 77.723427196962703, 13.033267436453 ], [ 77.723958054525099, 13.033366866164 ], [ 77.724065780350401, 13.033318307204199 ], [ 77.724229142471998, 13.0323025834304 ], [ 77.724723771094503, 13.0322488244048 ], [ 77.724722868947794, 13.0321664036711 ], [ 77.724845420811207, 13.0321572098406 ], [ 77.724875115687794, 13.0320292999051 ], [ 77.724899699218, 13.0314870343047 ], [ 77.724830443400805, 13.031051899115599 ], [ 77.724918759042396, 13.030440082865701 ], [ 77.724752244528801, 13.029957416072 ], [ 77.724636509077996, 13.029221278201 ], [ 77.724750682609198, 13.0289727863723 ], [ 77.724824365012196, 13.028812796652 ], [ 77.724860891860004, 13.0287170859902 ], [ 77.725003492616906, 13.028343431114299 ], [ 77.725105673361597, 13.0278409996703 ], [ 77.725116521294197, 13.0277799097616 ], [ 77.725250417700494, 13.027018562205701 ], [ 77.725184732374601, 13.026488538097199 ], [ 77.725181366865002, 13.0263914639202 ], [ 77.725167823619103, 13.0257852360781 ], [ 77.725676516514994, 13.025755042516099 ], [ 77.725609309208906, 13.0257173574613 ], [ 77.727355300006494, 13.023308509183 ], [ 77.729321403590603, 13.0203711879174 ], [ 77.729437895326797, 13.020197148976701 ], [ 77.729898124995501, 13.019686430046301 ], [ 77.730056400358094, 13.018733995406601 ], [ 77.7297692350635, 13.017592033592599 ], [ 77.729462205713602, 13.0165812647079 ], [ 77.729384108672704, 13.016322999278101 ], [ 77.729376773190396, 13.0162987404587 ], [ 77.729159363342106, 13.0156370723875 ], [ 77.729141547617004, 13.0155875760785 ], [ 77.729097571707698, 13.015462700184701 ], [ 77.729059748675198, 13.015373893222501 ], [ 77.728800219315701, 13.0147567058275 ], [ 77.728660386221904, 13.014448782485699 ], [ 77.728415332801504, 13.013260077234101 ], [ 77.728280158704706, 13.0117992121236 ], [ 77.7280112265165, 13.0104797718123 ], [ 77.728694931629207, 13.010608080683401 ], [ 77.7295705343588, 13.010710301082 ], [ 77.729570534544493, 13.0107103020057 ], [ 77.729582194042806, 13.010711662578499 ], [ 77.730249428301406, 13.0107554520763 ], [ 77.730481774284698, 13.010783493719501 ], [ 77.730493033149401, 13.0107839388653 ], [ 77.730493033052397, 13.010783938004799 ], [ 77.730932806253804, 13.010801327261101 ], [ 77.731409194310402, 13.010821152207701 ], [ 77.7321277667114, 13.010768416044099 ], [ 77.732440775312995, 13.0108012519784 ], [ 77.732842339008897, 13.010771049701599 ], [ 77.733065177892499, 13.0106670756089 ], [ 77.733893518977197, 13.010123115987399 ], [ 77.734729229615496, 13.010514032879 ], [ 77.735670619928698, 13.0109331903132 ], [ 77.736231858010399, 13.0107624101426 ], [ 77.736232287872596, 13.010276861278999 ], [ 77.736243408649599, 13.0097686161544 ], [ 77.736248327855606, 13.009429812385299 ], [ 77.736244908823195, 13.009118196726901 ], [ 77.736160678036399, 13.008368185240601 ], [ 77.736131093026302, 13.0081381460098 ], [ 77.736101481544694, 13.007485796280699 ], [ 77.736522682618599, 13.0078291384332 ], [ 77.737203159262805, 13.007768887659401 ], [ 77.737772777772506, 13.007680446753501 ], [ 77.738143016193703, 13.0075771717745 ], [ 77.738476137119207, 13.0076202529632 ], [ 77.738506267366603, 13.007624149845499 ], [ 77.738567315350707, 13.0076449185605 ], [ 77.738895791800601, 13.007756666949 ], [ 77.739229143768597, 13.0078073471367 ], [ 77.739849711961, 13.007954360258299 ], [ 77.740325220684298, 13.008052091648301 ], [ 77.740774061124, 13.008133166342001 ], [ 77.740831055827798, 13.0078705968811 ], [ 77.740940600716101, 13.0073601841372 ], [ 77.740990081323702, 13.0071473775277 ], [ 77.743146673776096, 13.0070737686681 ], [ 77.743273558097101, 13.007072426879599 ], [ 77.743366015538001, 13.0070714491128 ], [ 77.7438912606884, 13.007137031345801 ], [ 77.744251594853907, 13.007180644616399 ], [ 77.744574761242802, 13.0071952922939 ], [ 77.745153716283596, 13.0071710995076 ], [ 77.745561940864604, 13.0071193542255 ], [ 77.746188271861598, 13.007005453739501 ], [ 77.746828799267803, 13.00682139335 ], [ 77.747167892652001, 13.006713919511199 ], [ 77.7471695312463, 13.006729788137999 ], [ 77.747198183517497, 13.0070071813045 ], [ 77.746970588775099, 13.007096537110399 ], [ 77.746970631062396, 13.0072049363985 ], [ 77.746970486844006, 13.0072964002023 ], [ 77.746970925992201, 13.0078067776293 ], [ 77.746989127315103, 13.0081001674771 ], [ 77.747057540619195, 13.0085612709318 ], [ 77.747069560893195, 13.008659380871 ], [ 77.747062990874895, 13.009369694428599 ], [ 77.747060913542697, 13.009546995129099 ], [ 77.747060343075205, 13.009652013393 ], [ 77.747049985400295, 13.010122984346401 ], [ 77.746925060610295, 13.0104382150445 ], [ 77.747033670001201, 13.010784847052401 ], [ 77.747363681121698, 13.0116293528549 ], [ 77.747825916241396, 13.0115668680408 ], [ 77.7479682118894, 13.012618869048801 ], [ 77.7482707683033, 13.012486938022899 ], [ 77.749020887120295, 13.012162821470399 ], [ 77.749324307292099, 13.012004909544 ], [ 77.749744719613204, 13.0116481535883 ], [ 77.749721311247001, 13.0115095149644 ], [ 77.749970859782096, 13.011426698347201 ], [ 77.750334326137406, 13.011283957014401 ], [ 77.750688155814103, 13.0113637620733 ], [ 77.751248842095606, 13.011144403020801 ], [ 77.751699856676595, 13.010900235969499 ], [ 77.7521688774832, 13.010851783625 ], [ 77.752249333175698, 13.0108131056669 ], [ 77.752453962330094, 13.0107296344859 ], [ 77.752686362202596, 13.010658289152699 ], [ 77.7528386168146, 13.0105245614834 ], [ 77.752927832940202, 13.0103655322634 ], [ 77.753021926481296, 13.010283234038001 ], [ 77.753178597025496, 13.010184463277501 ], [ 77.753325118986396, 13.010053054594801 ], [ 77.7534698139536, 13.009912631988501 ], [ 77.753650962731896, 13.009840700933101 ], [ 77.753760512478706, 13.0097503343107 ], [ 77.753897321749406, 13.009625803478301 ], [ 77.754116420781997, 13.0094450700648 ], [ 77.754241191991795, 13.009273242324999 ], [ 77.754285049157701, 13.009177927364201 ], [ 77.754362211676394, 13.009022413373099 ], [ 77.754415681969405, 13.0089453835198 ], [ 77.754432488573798, 13.008921172054 ], [ 77.754523237020393, 13.008901012648799 ], [ 77.754590018092102, 13.0089003034277 ], [ 77.754633683911607, 13.008891935582801 ], [ 77.754672669311802, 13.008876842496401 ], [ 77.754767098404599, 13.0088250275224 ], [ 77.7547825175551, 13.0088135721864 ], [ 77.754814268276206, 13.008821139062899 ], [ 77.754842201123594, 13.008847942155301 ], [ 77.754858657418097, 13.008878254610201 ], [ 77.754911341341696, 13.0090086772475 ], [ 77.755048522537905, 13.009282734409799 ], [ 77.755069358035797, 13.0093446167143 ], [ 77.755074558470398, 13.009502643428201 ], [ 77.755076229889895, 13.009653932686 ], [ 77.755142589961395, 13.009875671634299 ], [ 77.755195324238301, 13.0100106102298 ], [ 77.755204332103503, 13.0100963304423 ], [ 77.7552171453505, 13.010161685406301 ], [ 77.7552292581599, 13.010215756242999 ], [ 77.755249919179406, 13.0102618321673 ], [ 77.755278026906495, 13.0103044415053 ], [ 77.755301967505403, 13.010334674388 ], [ 77.755357359633706, 13.010345377458 ], [ 77.755396507358, 13.010344961538699 ], [ 77.7554675949618, 13.010317106509399 ], [ 77.755502951617601, 13.010286243631001 ], [ 77.755541762473698, 13.010255344048799 ], [ 77.755585428456101, 13.010246976003099 ], [ 77.755660057546606, 13.010226987395299 ], [ 77.756014168901203, 13.010071917693701 ], [ 77.756202126935804, 13.0099389381944 ], [ 77.756437605789799, 13.009781741278299 ], [ 77.756709830834396, 13.0095631792394 ], [ 77.756975198467401, 13.0092972653758 ], [ 77.757115561144303, 13.0091297875228 ], [ 77.757209265649095, 13.0090124884468 ], [ 77.757353957492398, 13.008872064219 ], [ 77.757690156532803, 13.0087115374203 ], [ 77.758111257130096, 13.008574948867601 ], [ 77.7582991753046, 13.0084385812187 ], [ 77.758315252882795, 13.0084252081764 ], [ 77.758460060541495, 13.008304759267901 ], [ 77.758597203473698, 13.0082107101383 ], [ 77.758743034133701, 13.0080172030243 ], [ 77.758812995369397, 13.0079396764839 ], [ 77.758891754333405, 13.007876735357 ], [ 77.758982088397005, 13.0078712579291 ], [ 77.759073048103005, 13.007870290429601 ], [ 77.759191516224504, 13.007857738753 ], [ 77.759293814924106, 13.007840842415201 ], [ 77.759345327615307, 13.0078131947615 ], [ 77.759396264599602, 13.007785553224 ], [ 77.759439066909493, 13.0077512232969 ], [ 77.759474322731506, 13.007711327879999 ], [ 77.759513583415199, 13.0076691315492 ], [ 77.759548263520799, 13.0076292422512 ], [ 77.759575259734603, 13.0075713682462 ], [ 77.759594771926103, 13.0075135738594 ], [ 77.7596138208432, 13.0074659467787 ], [ 77.759617388501795, 13.0074241301611 ], [ 77.759620468986796, 13.0073382817571 ], [ 77.759636132697295, 13.006984690212199 ], [ 77.759619127543203, 13.006852760205501 ], [ 77.759529112916894, 13.006574816938 ], [ 77.759495876136896, 13.0064328971871 ], [ 77.759415507727894, 13.006298253680701 ], [ 77.759377263539506, 13.006224136356201 ], [ 77.759365075308494, 13.006163291717 ], [ 77.759348682407506, 13.0060866836515 ], [ 77.759359259522597, 13.0060018846457 ], [ 77.759374253626405, 13.0059520424136 ], [ 77.759409346905898, 13.0058974697832 ], [ 77.759455465697002, 13.0058506839492 ], [ 77.759498142824299, 13.005805063871801 ], [ 77.759684981819305, 13.005675482130499 ], [ 77.7599189521206, 13.0055386239823 ], [ 77.760122873927102, 13.0053919229806 ], [ 77.760266847101306, 13.005272381221699 ], [ 77.760457842282193, 13.0050892357325 ], [ 77.760659277008898, 13.0049751644917 ], [ 77.760764153544599, 13.0049068910555 ], [ 77.760845080817006, 13.0048938359537 ], [ 77.761011637330697, 13.004981606176701 ], [ 77.761166124773794, 13.0050107436535 ], [ 77.761335288166805, 13.005076099776099 ], [ 77.761473143368306, 13.005150184483499 ], [ 77.761633370844706, 13.005182057236199 ], [ 77.761779078118195, 13.0051916992527 ], [ 77.7618615821779, 13.005165637284099 ], [ 77.761992396530303, 13.0051194733771 ], [ 77.762105619240302, 13.005031522993001 ], [ 77.762195756343601, 13.004921433164901 ], [ 77.7622521662541, 13.004859271276899 ], [ 77.762291449268503, 13.004797292632899 ], [ 77.762359246071298, 13.0047322119126 ], [ 77.762404299034898, 13.0046757678987 ], [ 77.762459934314805, 13.0045436592754 ], [ 77.762510201406897, 13.004442389360801 ], [ 77.762580356826902, 13.0043325122199 ], [ 77.762665676991205, 13.0041474275375 ], [ 77.762717800207099, 13.0039366012046 ], [ 77.762757869387002, 13.0038294228483 ], [ 77.762827369599407, 13.0036976679223 ], [ 77.762971160890203, 13.003525568223001 ], [ 77.763140274347606, 13.0032989399913 ], [ 77.763226237916996, 13.003163774914199 ], [ 77.7633111198965, 13.0030576368894 ], [ 77.763397145743397, 13.002950067552201 ], [ 77.763471953615493, 13.002850605729501 ], [ 77.763551046885595, 13.0028400581112 ], [ 77.763675405990398, 13.002882326042499 ], [ 77.763705743283396, 13.0029264915841 ], [ 77.763832528727605, 13.003111067720701 ], [ 77.764123679956398, 13.0040824223217 ], [ 77.764711014862598, 13.0038808218036 ], [ 77.765399020460293, 13.003722644679801 ], [ 77.765668924776094, 13.0036605915018 ], [ 77.765873466751998, 13.003570337668201 ], [ 77.766188564291696, 13.0034811634 ], [ 77.767417477674798, 13.0032456173125 ], [ 77.767497007459696, 13.003219636084401 ], [ 77.767871249485196, 13.003097375667 ], [ 77.768698682887404, 13.002689959673599 ], [ 77.768867723703295, 13.003032545305199 ], [ 77.769069832275406, 13.003605123453401 ], [ 77.769260512966298, 13.0039779645598 ], [ 77.769397309221503, 13.004579467829201 ], [ 77.769379676150194, 13.004598851508099 ], [ 77.769361467394404, 13.004618241331199 ], [ 77.769286942895505, 13.004699206083499 ], [ 77.769474073331693, 13.005218873496601 ], [ 77.769659605896507, 13.005905671057199 ], [ 77.7696545674156, 13.0061778486747 ], [ 77.7697592623243, 13.006584352023999 ], [ 77.769716019474998, 13.0076676631877 ], [ 77.769708876124099, 13.007802107639399 ], [ 77.769677600941307, 13.008407662958099 ], [ 77.769694440341098, 13.00873154756 ], [ 77.769701088584796, 13.008863586448401 ], [ 77.769868514460299, 13.0088527653766 ], [ 77.769928079718198, 13.0091355444243 ], [ 77.769911724379597, 13.0092181466103 ], [ 77.769892791535099, 13.0093278757817 ], [ 77.769781508470501, 13.0093651968345 ], [ 77.769933136967694, 13.0097463573406 ], [ 77.770105654065603, 13.0101419734192 ], [ 77.770187388867996, 13.010606307619 ], [ 77.770293067686495, 13.0111528134253 ], [ 77.770374552661494, 13.011594567207201 ], [ 77.770477217715694, 13.011714288739 ], [ 77.770511059806395, 13.0117545763395 ], [ 77.770540513791303, 13.011969928035899 ], [ 77.770694911351598, 13.0123408956393 ], [ 77.770716213667498, 13.0123926086082 ], [ 77.770877692922696, 13.0126754271677 ], [ 77.771048115490004, 13.013193011686001 ], [ 77.771092151131199, 13.013425144484501 ], [ 77.771136293712502, 13.0138740715152 ], [ 77.771162842001104, 13.0139833146082 ], [ 77.771170664997399, 13.014013717847201 ], [ 77.771215901023695, 13.014198413744101 ], [ 77.771279988063199, 13.014473239527 ], [ 77.771505159053504, 13.0150986357287 ], [ 77.771603703261803, 13.015054674841 ], [ 77.772161593108706, 13.0148962759169 ], [ 77.772260099407305, 13.014848927796001 ], [ 77.772785011744006, 13.014728141973499 ], [ 77.773113936524098, 13.0146419084904 ], [ 77.773159721514801, 13.0144587860919 ], [ 77.773149526506899, 13.014266941179899 ], [ 77.773107379083399, 13.0140494677741 ], [ 77.773098013100096, 13.0139321372846 ], [ 77.773097234434402, 13.0138621388699 ], [ 77.773104251849304, 13.013768345111099 ], [ 77.773175184618296, 13.013674996886101 ], [ 77.773427559342593, 13.0134848600906 ], [ 77.773641604656305, 13.0134204677423 ], [ 77.773880120304497, 13.013433724137901 ], [ 77.774079427731706, 13.0134936945463 ], [ 77.774374186073203, 13.013490540762101 ], [ 77.774413557548996, 13.013458503561999 ], [ 77.774436382225005, 13.013388252658 ], [ 77.774443487103994, 13.013302362002101 ], [ 77.774442708099798, 13.0132323636642 ], [ 77.774433693411893, 13.013146645490099 ], [ 77.774344717179503, 13.0130154881499 ], [ 77.774054524656407, 13.012652751502401 ], [ 77.773895514678799, 13.0125404094009 ], [ 77.773871647280203, 13.0125169527733 ], [ 77.773855100662104, 13.0124787390039 ], [ 77.773854924806301, 13.0124629329187 ], [ 77.773862457006501, 13.0124154284452 ], [ 77.773869825911603, 13.0123532468929 ], [ 77.773892914498603, 13.012306705148401 ], [ 77.773907727664195, 13.0121891160821 ], [ 77.773915096562803, 13.012126934531199 ], [ 77.773921110982997, 13.011994760763301 ], [ 77.773919729285694, 13.0118705700958 ], [ 77.773910938918505, 13.011753233520601 ], [ 77.773837683204107, 13.011637715653601 ], [ 77.773773226275694, 13.0115367824655 ], [ 77.773741123429303, 13.011497605924101 ], [ 77.7737244010968, 13.011443586037799 ], [ 77.773715562676003, 13.0113736738538 ], [ 77.773714181149202, 13.0112494831587 ], [ 77.773728818613904, 13.011116088001399 ], [ 77.773775307654802, 13.010999289275199 ], [ 77.773854150610902, 13.0109442472195 ], [ 77.773916773618396, 13.010880345517201 ], [ 77.773948497525097, 13.010833711425001 ], [ 77.773979294047294, 13.010755471317999 ], [ 77.774002118765694, 13.0106852204646 ], [ 77.774001679166105, 13.0106457052512 ], [ 77.773952667811699, 13.010587514191499 ], [ 77.773728580937501, 13.0104736094993 ], [ 77.773529188205003, 13.010405735259299 ], [ 77.773401344728896, 13.010351774542301 ], [ 77.773344899781705, 13.010298179387 ], [ 77.773304825386901, 13.010266991977799 ], [ 77.7732802802565, 13.0101825688683 ], [ 77.773271266290394, 13.0100968505332 ], [ 77.773270224136994, 13.0100031429642 ], [ 77.773277417464399, 13.009925155307201 ], [ 77.773340228790403, 13.0098781888638 ], [ 77.7733872201715, 13.0098065504781 ], [ 77.773402397813399, 13.009721702598601 ], [ 77.773425298009599, 13.009658225817899 ], [ 77.773417211318005, 13.0096041135241 ], [ 77.773311843500295, 13.009500230125401 ], [ 77.773223560019304, 13.009431167369 ], [ 77.773190767060001, 13.0093298952973 ], [ 77.773173605664198, 13.0092363600686 ], [ 77.773164077095203, 13.009104352421501 ], [ 77.7732226053148, 13.0086204541744 ], [ 77.773252272056496, 13.0084406035205 ], [ 77.773330423964296, 13.008323466372101 ], [ 77.773376825076795, 13.008198764714299 ], [ 77.773407182224403, 13.0080810094495 ], [ 77.773430231182502, 13.0079791403026 ], [ 77.773453055975196, 13.007908889504399 ], [ 77.773460337204, 13.007838804902899 ], [ 77.773459646696494, 13.007776709525199 ], [ 77.773466576398704, 13.007675012731699 ], [ 77.773480826820602, 13.007558558829899 ], [ 77.773439972752996, 13.0074054324486 ], [ 77.773404330436705, 13.0070478757712 ], [ 77.773376911105302, 13.0067049099857 ], [ 77.773358883872802, 13.0065334732425 ], [ 77.773365211151301, 13.0063775841019 ], [ 77.773411699956796, 13.0062607855472 ], [ 77.773482306422693, 13.0061900239381 ], [ 77.773569458797695, 13.0061574762171 ], [ 77.773776129078897, 13.006155266537201 ], [ 77.773887987380206, 13.006169878472299 ], [ 77.773967946423497, 13.0062153182574 ], [ 77.774080183315505, 13.0063157407448 ], [ 77.774128479842602, 13.006361519046701 ], [ 77.774224834370898, 13.006431624493599 ], [ 77.774296294477395, 13.006437635121101 ], [ 77.774415460971696, 13.0064363606754 ], [ 77.7744791985874, 13.006421000176401 ], [ 77.774558027547101, 13.0063648292063 ], [ 77.774692107469207, 13.006254997681101 ], [ 77.774858013085193, 13.006159504510499 ], [ 77.775016298606204, 13.0061036126645 ], [ 77.775095654859598, 13.006094859803101 ], [ 77.775350106449594, 13.006092137743799 ], [ 77.775469760419895, 13.006082953652999 ], [ 77.775680307109795, 13.006015210913199 ], [ 77.775743956537497, 13.0059919471061 ], [ 77.775814549584098, 13.005920056003999 ], [ 77.775853844454105, 13.0058812448182 ], [ 77.775869096647398, 13.0058031710173 ], [ 77.775891568855798, 13.0057013080405 ], [ 77.775889232051398, 13.0054913131618 ], [ 77.775856702758404, 13.005413750614499 ], [ 77.775799479843698, 13.005290157557599 ], [ 77.775775261387494, 13.0052350888541 ], [ 77.775734333475995, 13.0051271293736 ], [ 77.775673806971497, 13.0047066079481 ], [ 77.775699841771399, 13.004200474967201 ], [ 77.775695552278194, 13.0039701764148 ], [ 77.775619056222297, 13.0035114349739 ], [ 77.775497806366303, 13.0033252948125 ], [ 77.7752408459977, 13.0031022153374 ], [ 77.7750487673988, 13.0030184550053 ], [ 77.774832747208507, 13.002904463747299 ], [ 77.7747691592687, 13.0028814317902 ], [ 77.774681656642997, 13.0028823674885 ], [ 77.774475252871895, 13.0029082864759 ], [ 77.774300498623106, 13.0029327377784 ], [ 77.774022310982403, 13.0029752318811 ], [ 77.773752872968004, 13.0030797349359 ], [ 77.773563102290794, 13.003151770233799 ], [ 77.773499290064507, 13.0031603563105 ], [ 77.773148061539203, 13.0030545835595 ], [ 77.773008771426404, 13.0030063899338 ], [ 77.772769426601698, 13.002969427693101 ], [ 77.772649747202607, 13.002924411719199 ], [ 77.7725050112563, 13.002800623448801 ], [ 77.772464260905707, 13.0027084691838 ], [ 77.772462956223194, 13.0025910523236 ], [ 77.772470237893899, 13.002520967699899 ], [ 77.772524435002097, 13.0023724709938 ], [ 77.772575430318298, 13.002298531884801 ], [ 77.772646699674596, 13.0022356675687 ], [ 77.772750605366895, 13.00210470599 ], [ 77.772809696204803, 13.001982127247 ], [ 77.772862244191899, 13.0019443040648 ], [ 77.772929847505594, 13.0019142239923 ], [ 77.773035032699994, 13.001898421149001 ], [ 77.7731864348806, 13.001896803206501 ], [ 77.773627200018595, 13.001874026254701 ], [ 77.773661202396696, 13.0018770502466 ], [ 77.773683239516302, 13.001839553038799 ], [ 77.773709268692798, 13.0017986257369 ], [ 77.773726910525795, 13.0016764899114 ], [ 77.773737733745193, 13.001614271456001 ], [ 77.773741407225799, 13.001426794739199 ], [ 77.773770851135296, 13.001330503019901 ], [ 77.773822333705098, 13.001248654575001 ], [ 77.773893966381493, 13.0012185312389 ], [ 77.774040511651705, 13.0011943819701 ], [ 77.774689504989297, 13.001154698709801 ], [ 77.7747648300371, 13.001145989347 ], [ 77.774839828664696, 13.001107925804201 ], [ 77.774895428384696, 13.0010339371802 ], [ 77.774991358988402, 13.0008590238166 ], [ 77.775000537239094, 13.0006489055895 ], [ 77.7749510008708, 13.0005432960759 ], [ 77.774869788378695, 13.000384955631301 ], [ 77.774845617450296, 13.000230521830501 ], [ 77.774836238211904, 13.0000601219072 ], [ 77.774832384446199, 12.999713516993401 ], [ 77.774888561588398, 12.999329008633699 ], [ 77.774984906257103, 12.998828898524801 ], [ 77.775004624061907, 12.9984385841672 ], [ 77.775030678817402, 12.997922838573199 ], [ 77.775080128858505, 12.997555429619499 ], [ 77.774959496298095, 12.9975272712503 ], [ 77.775109628426804, 12.997049169027299 ], [ 77.774848157705307, 12.996005250733999 ], [ 77.774825818192198, 12.9955493166584 ], [ 77.774808897831207, 12.995390481063801 ], [ 77.7748001065099, 12.995307955342801 ], [ 77.774508269610394, 12.993862386291299 ], [ 77.774489971255804, 12.993769992246399 ], [ 77.774183052163394, 12.9920027778216 ], [ 77.775208964026803, 12.992104730081801 ], [ 77.775379616860704, 12.992022737284399 ], [ 77.776027876223395, 12.991712069498201 ], [ 77.776113967504401, 12.9915327450785 ], [ 77.776116848308703, 12.99122220081 ], [ 77.775996595419997, 12.990658916248 ], [ 77.776149981627498, 12.989904140325701 ], [ 77.776346962805206, 12.9894458622455 ], [ 77.776496169074804, 12.988315127546599 ], [ 77.7759421014335, 12.988293950053601 ], [ 77.776148082351, 12.9879202615829 ], [ 77.776056255854797, 12.987065354675799 ], [ 77.775903693330505, 12.986391759022 ], [ 77.776068323677407, 12.985871724451201 ], [ 77.776422154818405, 12.9855404927289 ], [ 77.776662426644805, 12.985351616845399 ], [ 77.776941347085099, 12.9853768642411 ], [ 77.777147392403293, 12.9851646419069 ], [ 77.777005582716001, 12.985044210623901 ], [ 77.776575842359605, 12.984864753750101 ], [ 77.776613075458798, 12.984588845709 ], [ 77.7765419363961, 12.984196665220001 ], [ 77.776389769003103, 12.983713890122599 ], [ 77.7762906982299, 12.9832429680537 ], [ 77.776247630945406, 12.982941947728101 ], [ 77.776095316136207, 12.982497564519299 ], [ 77.775906343573894, 12.9823290830148 ], [ 77.775649809744195, 12.982142127563201 ], [ 77.775421484634293, 12.9814885352215 ], [ 77.7753618932405, 12.9814101317479 ], [ 77.77520265087, 12.9812573305465 ], [ 77.775027886597599, 12.981089634911999 ], [ 77.7747593381184, 12.9807018192485 ], [ 77.774720492863395, 12.9805215712873 ], [ 77.774932195130503, 12.9804041385656 ], [ 77.775257944717495, 12.9802403222641 ], [ 77.775402125158706, 12.980211683259199 ], [ 77.775472624829803, 12.980131890524699 ], [ 77.775911382428305, 12.979931863361999 ], [ 77.776038241456703, 12.979795011539 ], [ 77.776310515709298, 12.9794815896553 ], [ 77.776434146294605, 12.979365096732501 ], [ 77.776529210174203, 12.979320044771899 ], [ 77.776621792257203, 12.979103389973799 ], [ 77.776979267877195, 12.978738246202401 ], [ 77.7771602939074, 12.9785025801832 ], [ 77.777412686330507, 12.9783689032739 ], [ 77.777792812810603, 12.978591798351699 ], [ 77.778358232389607, 12.9786004341188 ], [ 77.778391980507607, 12.9785808780303 ], [ 77.778425165550203, 12.978562457096 ], [ 77.778519415998502, 12.9781335060713 ], [ 77.778559467544397, 12.978007743562401 ], [ 77.778826977450294, 12.9771625466802 ], [ 77.778624875852003, 12.976796607757301 ], [ 77.778523016595599, 12.9766432614403 ], [ 77.778523016595599, 12.9766432614403 ], [ 77.778244316710499, 12.9762236850141 ], [ 77.777777758545298, 12.976185656394801 ], [ 77.777777758545298, 12.976185656394801 ], [ 77.777668690642898, 12.9761767662709 ], [ 77.777258763062093, 12.976535695663999 ], [ 77.777142462870202, 12.976482739351299 ], [ 77.776976409205204, 12.976407731636201 ], [ 77.776897535327507, 12.9763035640987 ], [ 77.776678483380906, 12.976017972983801 ], [ 77.776675135922801, 12.975716528236999 ], [ 77.776514597896806, 12.9754100379894 ], [ 77.776483987885399, 12.9753515989434 ], [ 77.776160249598504, 12.974970018914201 ], [ 77.776646827968904, 12.9743094824625 ], [ 77.776873698147, 12.974001501599201 ], [ 77.777684421898797, 12.9737060406762 ], [ 77.778149028758506, 12.9733984677792 ], [ 77.778602155776298, 12.9729385831704 ], [ 77.779242557961794, 12.9722361901458 ], [ 77.778628185286394, 12.9710842587789 ], [ 77.778673279730398, 12.9704796875891 ], [ 77.779211207897504, 12.970243595640801 ], [ 77.780216587040002, 12.9701639731289 ], [ 77.780834846125998, 12.9703188301374 ], [ 77.781149000289304, 12.970770513192599 ], [ 77.781973752094203, 12.9709615494634 ], [ 77.782860625017506, 12.970992710057001 ], [ 77.783262463035697, 12.970891304337499 ], [ 77.783647400295493, 12.9706161921982 ], [ 77.7839120051527, 12.9693566332115 ], [ 77.784361344231598, 12.968558042125199 ], [ 77.784180479864503, 12.966789495202599 ], [ 77.784077790225396, 12.9665625089873 ], [ 77.781847548320599, 12.9661347119573 ], [ 77.781691017168896, 12.9662425245028 ], [ 77.781584337814095, 12.9663814198073 ], [ 77.781453348980705, 12.966612035085401 ], [ 77.781397473449502, 12.9668158771278 ], [ 77.781224037922996, 12.9669566152155 ], [ 77.780535112085005, 12.967124317104799 ], [ 77.779882568431006, 12.967147098865899 ], [ 77.779364219623005, 12.966968587764701 ], [ 77.779068614571997, 12.9668904477667 ], [ 77.778595751826998, 12.966764518557699 ], [ 77.778473956706605, 12.966993905556 ], [ 77.778656422417399, 12.967717993258599 ], [ 77.777450852451594, 12.9682243022108 ], [ 77.777310919526698, 12.9681682101271 ], [ 77.777220725836102, 12.9681330405941 ], [ 77.777197487293705, 12.968010212381699 ], [ 77.777176663944203, 12.967897520642101 ], [ 77.7764785669887, 12.967758184278599 ], [ 77.776088585801602, 12.967423603907401 ], [ 77.775097034842105, 12.9668809035888 ], [ 77.774826492708797, 12.9666748980049 ], [ 77.774590374077107, 12.966510303212401 ], [ 77.774365718121004, 12.966496891076501 ], [ 77.774031098819805, 12.966378511813099 ], [ 77.773863301122105, 12.9662493203023 ], [ 77.773500052862602, 12.966092854591199 ], [ 77.773287259341501, 12.966058990384999 ], [ 77.773176533143996, 12.9660409752166 ], [ 77.773120588200896, 12.9660314092433 ], [ 77.773087141358502, 12.966026120030399 ], [ 77.7721061843977, 12.965867202325599 ], [ 77.771983608160198, 12.965922707311901 ], [ 77.771494985561503, 12.965361081817001 ], [ 77.771233595446006, 12.965045446945499 ], [ 77.771000885473796, 12.9647204730718 ], [ 77.770689234967094, 12.9642326132444 ], [ 77.770469847275507, 12.9633948641785 ], [ 77.770473814627493, 12.963337235460701 ], [ 77.770516946103001, 12.963333388806699 ], [ 77.770475683283806, 12.9630379917054 ], [ 77.770203593727899, 12.9630555672857 ], [ 77.770180207564195, 12.962850932986701 ], [ 77.770157065307004, 12.9626484405553 ], [ 77.770081817020696, 12.9624550282757 ], [ 77.769978766821296, 12.962194163047799 ], [ 77.769812318079602, 12.961770246142599 ], [ 77.769686403779602, 12.961732066061 ], [ 77.769186825885498, 12.961583818234701 ], [ 77.768820693860704, 12.9615301272375 ], [ 77.768676262381803, 12.9614311696076 ], [ 77.768228504115896, 12.9611276750525 ], [ 77.768136332824895, 12.9607571654519 ], [ 77.7680405670271, 12.960530095899699 ], [ 77.767961930160396, 12.9603423643292 ], [ 77.767629974260501, 12.9602036215948 ], [ 77.767299182296199, 12.960065995138599 ], [ 77.767164406097393, 12.9597467495314 ], [ 77.767097422244504, 12.9594674324984 ], [ 77.766946533199402, 12.959461132478699 ], [ 77.766993195787407, 12.959360142099699 ], [ 77.766830771932106, 12.959299765416301 ], [ 77.766603045764001, 12.959216370550299 ], [ 77.766306718957907, 12.9593324350065 ], [ 77.766112983974807, 12.9594078886786 ], [ 77.765878031617902, 12.959504104928 ], [ 77.765465409930997, 12.9596710869546 ], [ 77.765440196633804, 12.959681517197801 ], [ 77.765414970863702, 12.959690818420301 ], [ 77.764880724252805, 12.9598952246794 ], [ 77.764793040560704, 12.9594614326609 ], [ 77.764566561169801, 12.9594909378614 ], [ 77.764423321957096, 12.958769801815899 ], [ 77.764331355524007, 12.9575829102918 ], [ 77.764333596644903, 12.957264465539501 ], [ 77.764339459198695, 12.956544004088601 ], [ 77.764377365794104, 12.956119040309 ], [ 77.764417461097096, 12.955996666129501 ], [ 77.764478576061904, 12.9559011684198 ], [ 77.7645046457164, 12.955759747575501 ], [ 77.764579200442597, 12.955630232588399 ], [ 77.764563818765296, 12.955436181727 ], [ 77.764555040272299, 12.9553188431012 ], [ 77.764573218543504, 12.9550883030248 ], [ 77.764468942987406, 12.9550284359496 ], [ 77.764543323132102, 12.9548831147266 ], [ 77.764545099324295, 12.953792334704501 ], [ 77.764547641644398, 12.9537031974558 ], [ 77.764570001552201, 12.9529192355298 ], [ 77.7645489414964, 12.952158410347201 ], [ 77.7645600638932, 12.9519143953416 ], [ 77.764643871423303, 12.951371512517101 ], [ 77.764923845538902, 12.9510783482636 ], [ 77.764918968797502, 12.950479949339201 ], [ 77.765030218288402, 12.950128731157999 ], [ 77.765286255098303, 12.9487619973614 ], [ 77.765364328003301, 12.9477517066288 ], [ 77.765416019436699, 12.947375149791201 ], [ 77.765416019436699, 12.947375149791201 ], [ 77.765466624093193, 12.947006509539399 ], [ 77.765524223972903, 12.946592628476701 ], [ 77.765509942977502, 12.9454026537926 ], [ 77.765341114612397, 12.9437694331438 ], [ 77.765301774810297, 12.943333997789599 ], [ 77.765270846764096, 12.9429059282502 ], [ 77.765252863896905, 12.9426570253174 ], [ 77.765274743788893, 12.942240135877899 ], [ 77.765269260423295, 12.9422079969534 ], [ 77.765268589910804, 12.942204068293901 ], [ 77.765292480164504, 12.941865069048299 ], [ 77.765403762344107, 12.9401599971699 ], [ 77.765424473500204, 12.939429556285999 ], [ 77.765519209029407, 12.938049515410601 ], [ 77.765511847105898, 12.9370164188587 ], [ 77.765631963993101, 12.936895454509299 ], [ 77.766002844491098, 12.935921578156901 ], [ 77.766344567486001, 12.935018018539401 ], [ 77.765687577380803, 12.9333775541158 ], [ 77.765674713224698, 12.9329937786042 ], [ 77.765592522486799, 12.931803393933601 ], [ 77.765511928586903, 12.931541155881099 ], [ 77.7653142913978, 12.9308951174917 ], [ 77.765113065631496, 12.9302366960868 ], [ 77.764650887467496, 12.928774824264201 ], [ 77.763295890543802, 12.9285577041999 ], [ 77.762349515108994, 12.9283893204477 ], [ 77.762318950951496, 12.9283839983057 ], [ 77.762288399219699, 12.928379805184401 ], [ 77.761916155661893, 12.928236956143101 ], [ 77.761329673830801, 12.927925871542801 ], [ 77.7605260562257, 12.9277062864476 ], [ 77.759978412516006, 12.927524640444799 ], [ 77.759334788092403, 12.9273033585816 ], [ 77.758404342595398, 12.9270128413393 ], [ 77.757941863979298, 12.926829160870501 ], [ 77.756989172360804, 12.9264519276899 ], [ 77.756652349264499, 12.9263369247155 ], [ 77.756566607622602, 12.9263210440389 ], [ 77.756536999696394, 12.9263155601863 ], [ 77.755922750179806, 12.9261481581031 ], [ 77.755343991325702, 12.9260153836527 ], [ 77.755193863603694, 12.9259718024924 ], [ 77.754692662518707, 12.9258257866699 ], [ 77.754603322527103, 12.9258143090728 ], [ 77.754285171438895, 12.9257747594575 ], [ 77.753477367315796, 12.9255924566462 ], [ 77.752866034885301, 12.9254284033162 ], [ 77.752215518941696, 12.9252602450295 ], [ 77.752095869278094, 12.924689020364699 ], [ 77.751741571202203, 12.923346791684899 ], [ 77.751570605713297, 12.9227670740724 ], [ 77.751434418180907, 12.922314585270399 ], [ 77.751378923828298, 12.9220825621518 ], [ 77.751354078330905, 12.9220737907443 ], [ 77.751328657334099, 12.9220650254008 ], [ 77.750570594950304, 12.9217986281464 ], [ 77.749732669687603, 12.921492419735699 ], [ 77.749596171726793, 12.9214317535271 ], [ 77.748643118341704, 12.921071424676899 ], [ 77.747502214534194, 12.920638544026099 ], [ 77.747322493169804, 12.9205726855465 ], [ 77.746642927579103, 12.9203257740157 ], [ 77.746099247150198, 12.920136147814 ], [ 77.745805009772795, 12.920019550995899 ], [ 77.745685161063804, 12.919902248721399 ], [ 77.745555199769001, 12.919228371447501 ], [ 77.745538106408702, 12.9190862756793 ], [ 77.745463684418397, 12.9188070239576 ], [ 77.745432548225395, 12.9185386086807 ], [ 77.745388782849801, 12.918062558693 ], [ 77.745365184777697, 12.917588554927599 ], [ 77.745279075236098, 12.916924378471499 ], [ 77.745184925688207, 12.916156402627299 ], [ 77.745011696657897, 12.9153147326036 ], [ 77.744822071937193, 12.914289179513201 ], [ 77.744733562038206, 12.9137210071122 ], [ 77.743903276442595, 12.9137952242182 ], [ 77.743183125717295, 12.913835535874799 ], [ 77.742987036609307, 12.9139042168119 ], [ 77.742495249489707, 12.914038107697399 ], [ 77.742358468445602, 12.914056481716999 ], [ 77.742074373377804, 12.914235616112 ], [ 77.741776529538399, 12.914262456062 ], [ 77.741509621001597, 12.9143815632514 ], [ 77.741158432201701, 12.9144778422418 ], [ 77.740795425391696, 12.914546015462999 ], [ 77.740616642118894, 12.9145128874066 ], [ 77.739835515796102, 12.9144510751849 ], [ 77.739106143538805, 12.914332258858099 ], [ 77.738945244112898, 12.914329719748199 ], [ 77.738848250553403, 12.9143281887093 ], [ 77.7386166208492, 12.9143046468654 ], [ 77.737742908447899, 12.9146198153515 ], [ 77.737505737809698, 12.914721669418 ], [ 77.737350045211798, 12.9146420006846 ], [ 77.737284115185304, 12.9135033507867 ], [ 77.736532658004805, 12.913417504159 ], [ 77.736049319261994, 12.9133762719906 ], [ 77.735482510072501, 12.913333654846699 ], [ 77.735145554286902, 12.9133100836968 ], [ 77.734933553259395, 12.9132919786586 ], [ 77.734773223351993, 12.913262040562399 ], [ 77.734446747279804, 12.9131965790452 ], [ 77.734397039823904, 12.913335988743601 ], [ 77.734360730194396, 12.913543009020501 ], [ 77.734356303998197, 12.913718078406699 ], [ 77.734338406206504, 12.9138187629045 ], [ 77.734361353306994, 12.9141821188877 ], [ 77.734277868328704, 12.914126533972301 ], [ 77.7326674854163, 12.914181782451999 ], [ 77.732070129745694, 12.913923803831301 ], [ 77.731407960955195, 12.9140041273332 ], [ 77.731067038917502, 12.9140923816711 ], [ 77.730496189311097, 12.914207881853301 ], [ 77.729984466554299, 12.9142561408839 ], [ 77.729032552757701, 12.914367717108901 ], [ 77.728708708947295, 12.914385780618399 ], [ 77.727948628466805, 12.9144603437149 ], [ 77.727757955832899, 12.914445397673299 ], [ 77.727568813591404, 12.914412368516601 ], [ 77.727621670253399, 12.9140854815005 ], [ 77.727661609654206, 12.913841160033201 ], [ 77.727643081049607, 12.9121340232932 ], [ 77.727612277051804, 12.9108865935662 ], [ 77.727335646000398, 12.9098449840064 ], [ 77.726926118159795, 12.908702004813 ], [ 77.726881695596404, 12.908586162169399 ], [ 77.726738657044805, 12.9080275780062 ], [ 77.726277233689999, 12.906609616234199 ], [ 77.726063498740004, 12.9066434635322 ], [ 77.725629845170801, 12.906724772405701 ], [ 77.724856058406004, 12.906860441502101 ], [ 77.724527569560294, 12.906927101643699 ], [ 77.723303679350906, 12.907272972199101 ], [ 77.722809170250898, 12.9072623173693 ], [ 77.721635460514904, 12.907778165885899 ], [ 77.7213831158749, 12.9078609671145 ], [ 77.721269903509906, 12.9079298978758 ], [ 77.720764267689304, 12.908220849775899 ], [ 77.720745641220006, 12.9088929134921 ], [ 77.720398672276005, 12.908901043543599 ], [ 77.720098233367807, 12.908847712226899 ], [ 77.719672462172099, 12.908753905149799 ], [ 77.719709760728094, 12.908211503871399 ], [ 77.719698571459304, 12.9081348351764 ], [ 77.719212825989601, 12.908136503714299 ], [ 77.718761975702904, 12.908171684055 ], [ 77.717855947495906, 12.9083742033365 ], [ 77.717913124215301, 12.908871583618399 ], [ 77.717774001064896, 12.9089396534918 ], [ 77.717639605609193, 12.908965893892701 ], [ 77.717289019465198, 12.9087459599243 ], [ 77.716971403210195, 12.9083280731797 ], [ 77.716121510590696, 12.907387255836399 ], [ 77.715604096669907, 12.907494261931699 ], [ 77.714593071153104, 12.9079406387881 ], [ 77.714227985608701, 12.9080833232494 ], [ 77.713953393063093, 12.9080782714323 ], [ 77.713388455874806, 12.907941860219101 ], [ 77.711300079455995, 12.9078630420123 ], [ 77.709487373399, 12.9079428240548 ], [ 77.708352850284498, 12.908146551887899 ], [ 77.708352850290098, 12.9081465527719 ], [ 77.707997287190906, 12.906448528471101 ], [ 77.707092017752501, 12.903300652758 ], [ 77.706870527807695, 12.902025816023199 ], [ 77.706693275681801, 12.9020807242612 ], [ 77.705786408563398, 12.902525987274201 ], [ 77.704841798936201, 12.9029942224591 ], [ 77.704063934977299, 12.9033941064549 ], [ 77.703984181636699, 12.9034338215081 ], [ 77.7039841807062, 12.903433820614399 ], [ 77.703549846466899, 12.903650108150799 ], [ 77.702847280256805, 12.904041305841901 ], [ 77.702887346299406, 12.9040880607518 ], [ 77.702335947452298, 12.9043932607541 ], [ 77.70173862323, 12.9047235197805 ], [ 77.701053732957405, 12.905099851224399 ], [ 77.700404265980197, 12.9054521017668 ], [ 77.699441247339493, 12.9059769720209 ], [ 77.699064084526498, 12.906175092438 ], [ 77.699032565906506, 12.906187839328201 ], [ 77.698783869748596, 12.9062897786714 ], [ 77.698483930466793, 12.9063899885988 ], [ 77.698344486124796, 12.906428692638 ], [ 77.6982675884732, 12.9064498125482 ], [ 77.698133311344606, 12.906487333915001 ], [ 77.697989250816306, 12.9065249562387 ], [ 77.697806177973604, 12.906574273412501 ], [ 77.697530656839803, 12.9066437415206 ], [ 77.697211628244503, 12.9067351135258 ], [ 77.696738827592895, 12.9068709824026 ], [ 77.696649329293805, 12.906897878002299 ], [ 77.696224124254002, 12.9070174458396 ], [ 77.695568381315695, 12.9072150488959 ], [ 77.6955488871574, 12.9072220252965 ], [ 77.695180582015098, 12.907334229312101 ], [ 77.694765721890903, 12.907452559106099 ], [ 77.694429377379294, 12.907539589811799 ], [ 77.693967877007793, 12.907656141014501 ], [ 77.6939333513305, 12.907664438551 ], [ 77.6939333513305, 12.907664438551 ], [ 77.693683132826393, 12.907724571349901 ], [ 77.693416192520701, 12.907789430216701 ], [ 77.693266974768804, 12.907829361794001 ], [ 77.693204990503105, 12.9078458097694 ], [ 77.693039119546498, 12.9078893005411 ], [ 77.692617853832303, 12.908000917995301 ], [ 77.692057631580596, 12.908143326319101 ], [ 77.6906872337522, 12.9085210515304 ], [ 77.6906229470341, 12.9085375226668 ], [ 77.689774630139098, 12.9087585510695 ], [ 77.689690824574896, 12.908779739833401 ], [ 77.688817726849393, 12.909051835439801 ], [ 77.688029611842197, 12.9093591891112 ], [ 77.687493709314793, 12.9095702967671 ], [ 77.687493709314694, 12.9095702967671 ], [ 77.687399717795898, 12.9096073228759 ], [ 77.687093630166402, 12.909725652038 ], [ 77.686371427603106, 12.9100074805801 ], [ 77.685821810813295, 12.910227684230399 ], [ 77.685142071621698, 12.910497781056799 ], [ 77.684516750609106, 12.910743603438 ], [ 77.683745960369194, 12.9110575433719 ], [ 77.682974065007201, 12.9113760096254 ], [ 77.682824495829607, 12.911437394792801 ], [ 77.682565175844999, 12.911569918997101 ], [ 77.682565175844999, 12.911569918997101 ], [ 77.682408970927895, 12.911649399062 ], [ 77.6814689042032, 12.912127720779701 ], [ 77.681124288991199, 12.912304030058801 ], [ 77.680390479960195, 12.9126864648986 ], [ 77.680015577498395, 12.912883409899001 ], [ 77.679153954339796, 12.9133168394264 ], [ 77.678729579391202, 12.913516548885701 ], [ 77.678484977234802, 12.913626334287301 ], [ 77.678103211338794, 12.913773661403599 ], [ 77.677615407257207, 12.9139627274962 ], [ 77.677615407257207, 12.9139627274962 ], [ 77.677615407257207, 12.9139627274962 ], [ 77.675530968138801, 12.9145690899631 ], [ 77.673984302691693, 12.915589946878899 ], [ 77.673572074287407, 12.916120389975299 ] ] ] } }
]
}
